station,valid,lon,lat,tmpf,dwpf,relh,drct,sknt,p01i,alti,mslp,vsby,gust,skyc1,skyc2,skyc3,skyc4,skyl1,skyl2,skyl3,skyl4,wxcodes,ice_accretion_1hr,ice_accretion_3hr,ice_accretion_6hr,peak_wind_gust,peak_wind_drct,peak_wind_time,feel,metar
RKPS,2020-09-16 00:00,128.0704,35.0885,69.80,68.00,94.01,10.00,4.00,0.00,29.88,1012.00,6.21,M,SCT,BKN,OVC,M,1000.00,2000.00,6000.00,M,M,M,M,M,M,M,M,M,RKPS 160000Z 01004KT 9999 SCT010 BKN020 OVC060 21/20 Q1012 RMK CIG020 SLP120 60005 8/6// 9/8//
RKJB,2020-09-16 00:00,126.3800,34.9800,71.60,69.80,94.06,130.00,3.00,0.00,29.83,M,3.73,M,FEW,BKN,OVC,M,1000.00,2500.00,12000.00,M,-RA,M,M,M,M,M,M,M,RKJB 160000Z 13003KT 080V170 6000 -RA FEW010 BKN025 OVC120 22/21 Q1010 BECMG NSW
RKJJ,2020-09-16 00:00,126.8089,35.1264,69.80,69.80,100.00,40.00,3.00,0.00,29.83,1010.00,2.98,M,BKN,OVC,M,M,1500.00,2500.00,M,M,-RA BR,M,M,M,M,M,M,M,RKJJ 160000Z 04003KT 4800 -RA BR BKN015 OVC025 21/21 Q1010 RMK CIG015 SLP100 60005 8/7// 9/8// WR24
RKPC,2020-09-16 00:00,126.4930,33.5113,69.80,69.80,100.00,110.00,5.00,0.00,29.83,M,2.49,M,FEW,BKN,OVC,M,1500.00,3000.00,10000.00,M,RA BR,M,M,M,M,M,M,M,RKPC 160000Z 11005KT 4000 RA BR FEW015 BKN030 OVC100 21/21 Q1010 NOSIG
RKNY,2020-09-16 00:00,128.6692,38.0613,71.60,66.20,83.09,80.00,2.00,0.00,29.80,M,6.21,M,M,M,M,M,M,M,M,M,M,M,M,M,M,M,M,M,RKNY 160000Z 08002KT CAVOK 22/19 Q1009 NOSIG
RKSM,2020-09-16 00:00,127.1139,37.4458,73.40,66.20,78.19,170.00,3.00,0.00,29.85,M,5.59,M,FEW,SCT,BKN,M,1500.00,4000.00,10000.00,M,BR,M,M,M,M,M,M,M,RKSM 160000Z 17003KT 9000 BR FEW015 SCT040 BKN100 23/19 A2985
QFB,2020-09-16 00:00,128.7167,35.6500,69.80,64.40,82.98,110.00,1.00,0.00,29.94,M,6.21,M,OVC,M,M,M,6500.00,M,M,M,M,M,M,M,M,M,M,M,KQFB 160000Z AUTO 11001KT 9999 OVC065 21/18 A2994 RMK A02 TSNO
RKSS,2020-09-16 00:00,126.7906,37.5583,73.40,68.00,83.21,160.00,5.00,0.00,29.83,M,4.97,M,SCT,OVC,M,M,3000.00,9000.00,M,M,-RA,M,M,M,M,M,M,M,RKSS 160000Z 16005KT 140V200 8000 -RA SCT030 OVC090 23/20 Q1010 NOSIG
RKTH,2020-09-16 00:00,129.4205,35.9879,73.40,73.40,100.00,210.00,2.00,0.00,29.85,1011.80,4.97,M,FEW,BKN,OVC,M,1500.00,2000.00,10000.00,M,M,M,M,M,M,M,M,M,RKTH 160000Z 21002KT 8000 FEW015 BKN020 OVC100 23/23 Q1011 RMK CIG020 SLP118 60000 8/51/ 9/53/
RKTN,2020-09-16 00:00,128.6589,35.8941,71.60,66.20,83.09,150.00,3.00,0.00,29.88,M,4.97,M,FEW,BKN,BKN,M,1500.00,8000.00,12000.00,M,-RA,M,M,M,M,M,M,M,RKTN 160000Z 15003KT 8000 -RA FEW015 BKN080 BKN120 22/19 Q1012
RKTU,2020-09-16 00:00,127.4991,36.7166,71.60,68.00,88.43,170.00,1.00,0.00,29.85,M,5.59,M,FEW,SCT,BKN,M,1500.00,3000.00,15000.00,M,M,M,M,M,M,M,M,M,RKTU 160000Z 17001KT 9000 FEW015 SCT030 BKN150 22/20 Q1011
QEN,2020-09-16 00:00,128.7500,37.6667,62.60,62.60,100.00,220.00,6.00,0.00,29.94,M,6.21,11.00,FEW,BKN,M,M,800.00,10000.00,M,M,M,M,M,M,M,M,M,M,KQEN 160000Z AUTO 22006G11KT 9999 FEW008 BKN100 17/17 A2994 RMK A02 TSNO
QES,2020-09-16 00:00,126.4500,36.9667,80.60,66.20,61.58,M,M,0.00,M,M,5.59,M,FEW,BKN,BKN,M,2200.00,7000.00,14000.00,M,M,M,M,M,M,M,M,M,KQES 160000Z AUTO 9000 FEW022 BKN070 BKN140 27/19 / RMK A02 TSNO
QEJ,2020-09-16 00:00,127.9500,38.2000,66.20,66.20,100.00,60.00,1.00,0.00,29.87,M,2.98,M,OVC,M,M,M,2800.00,M,M,M,BR,M,M,M,M,M,M,M,KQEJ 160000Z AUTO 06001KT 4800 BR OVC028 19/19 A2987 RMK A02 TSNO
QEI,2020-09-16 00:00,128.0667,37.9500,66.20,64.40,93.92,110.00,2.00,0.00,29.88,M,4.97,M,OVC,M,M,M,2100.00,M,M,M,,M,M,M,M,M,M,M,KQEI 160000Z AUTO 11002KT 8000 // OVC021 19/18 A2988 RMK A02 TSNO
QEQ,2020-09-16 00:00,127.5500,37.8500,69.80,73.40,M,180.00,1.00,0.00,29.87,M,2.49,M,BKN,BKN,M,M,2000.00,8500.00,M,M,BR,M,M,M,M,M,M,M,KQEQ 160000Z AUTO 18001KT 4000 BR BKN020 BKN085 21/23 A2987 RMK A02 TSNO
QEW,2020-09-16 00:00,128.1500,36.4000,69.80,66.20,88.34,70.00,2.00,0.00,29.88,M,5.59,M,BKN,OVC,M,M,800.00,2400.00,M,M,,M,M,M,M,M,M,M,KQEW 160000Z AUTO 07002KT 9000 // BKN008 OVC024 21/19 A2988 RMK A02 TSNO
QEP,2020-09-16 00:00,127.2667,37.4000,71.60,66.20,83.09,70.00,1.00,0.00,29.87,M,3.73,M,FEW,SCT,BKN,BKN,900.00,2200.00,3200.00,10000.00,HZ,M,M,M,M,M,M,M,KQEP 160000Z AUTO 07001KT 6000 HZ FEW009 SCT022 BKN032 BKN100 22/19 A2987 RMK A02 TSNO
RKPK,2020-09-16 00:00,128.9382,35.1795,73.40,66.20,78.19,360.00,6.00,0.00,29.85,M,6.21,M,FEW,FEW,BKN,M,2000.00,3000.00,7000.00,M,M,M,M,M,M,M,M,M,RKPK 160000Z 36006KT 9999 FEW020 FEW030 BKN070 23/19 Q1011
QFT,2020-09-16 00:00,127.3500,37.6000,68.00,66.20,93.97,340.00,2.00,0.00,29.85,M,M,M,BKN,M,M,M,2700.00,M,M,M,,M,M,M,M,M,M,M,KQFT 160000Z AUTO 34002KT / // BKN027 20/19 A2985 RMK A02 TSNO
QFU,2020-09-16 00:00,126.9667,37.8000,71.60,66.20,83.09,130.00,5.00,0.00,29.89,M,4.97,M,FEW,BKN,M,M,2100.00,8500.00,M,M,HZ,M,M,M,M,M,M,M,KQFU 160000Z AUTO 13005KT 8000 HZ FEW021 BKN085 22/19 A2989 RMK A02 TSNO
QEX,2020-09-16 00:00,128.3000,36.1000,69.80,66.20,88.34,170.00,3.00,0.00,29.81,M,4.97,M,BKN,BKN,OVC,M,1500.00,3000.00,7500.00,M,HZ,M,M,M,M,M,M,M,KQEX 160000Z AUTO 17003KT 8000 HZ BKN015 BKN030 OVC075 21/19 A2981 RMK A02 TSNO
QFW,2020-09-16 00:00,127.8833,37.6667,69.80,68.00,94.01,280.00,1.00,0.00,29.89,M,6.21,M,BKN,M,M,M,2300.00,M,M,M,M,M,M,M,M,M,M,M,KQFW 160000Z AUTO 28001KT 9999 BKN023 21/20 A2989 RMK A02 TSNO
QFV,2020-09-16 00:00,127.5000,38.0500,66.20,62.60,88.18,0.00,0.00,0.00,29.91,M,6.21,M,BKN,BKN,M,M,3100.00,8000.00,M,M,M,M,M,M,M,M,M,M,KQFV 160000Z AUTO 00000KT 9999 BKN031 BKN080 19/17 A2991 RMK A02 TSNO
RKSI,2020-09-16 00:00,126.4500,37.4667,69.80,64.40,82.98,170.00,9.00,0.00,29.80,M,2.17,M,FEW,BKN,OVC,M,1200.00,2500.00,7000.00,M,-RA BR,M,M,M,M,M,M,M,RKSI 160000Z 17009KT 3500 -RA BR FEW012 BKN025 OVC070 21/18 Q1009 NOSIG
RKSW,2020-09-16 00:02,127.0071,37.2394,73.40,68.00,83.21,150.00,5.00,0.00,29.85,M,4.97,M,SCT,BKN,M,M,4000.00,10000.00,M,M,-RA BR,M,M,M,M,M,M,M,RKSW 160002Z 15005KT 8000 -RA BR SCT040 BKN100 23/20 A2985 RMK CIG100
RKTS,2020-09-16 00:03,128.1572,36.4083,71.60,68.00,88.43,350.00,1.00,0.00,29.93,M,4.97,M,FEW,BKN,M,M,3000.00,10000.00,M,M,-RA BR,M,M,M,M,M,M,M,RKTS 160003Z 35001KT 8000 -RA BR FEW030 BKN100 22/20 A2993 RMK CIG100
RKTF,2020-09-16 00:09,127.3720,36.3720,68.00,68.00,100.00,80.00,1.00,0.00,29.86,M,4.97,M,FEW,BKN,BKN,M,500.00,4000.00,10000.00,M,BR,M,M,M,M,M,M,M,RKTF 160009Z 08001KT 8000 BR FEW005 BKN040 BKN100 20/20 A2986 RMK CIG040
QFB,2020-09-16 00:10,128.7167,35.6500,69.80,64.40,82.98,100.00,2.00,0.00,29.95,M,6.21,M,FEW,OVC,M,M,800.00,6500.00,M,M,M,M,M,M,M,M,M,M,KQFB 160010Z AUTO 10002KT 9999 FEW008 OVC065 21/18 A2995 RMK A02 TSNO
QEN,2020-09-16 00:10,128.7500,37.6667,64.40,62.60,93.88,230.00,5.00,0.00,29.94,M,6.21,M,FEW,BKN,BKN,M,800.00,10000.00,15000.00,M,M,M,M,M,M,M,M,M,KQEN 160010Z AUTO 23005KT 9999 FEW008 BKN100 BKN150 18/17 A2994 RMK A02 TSNO
QES,2020-09-16 00:10,126.4500,36.9667,80.60,66.20,61.58,M,M,0.00,M,M,2.98,M,FEW,BKN,M,M,2400.00,3200.00,M,M,-RA,M,M,M,M,M,M,M,KQES 160010Z AUTO 4800 -RA FEW024 BKN032 27/19 / RMK A02 TSNO
QEJ,2020-09-16 00:10,127.9500,38.2000,66.20,66.20,100.00,0.00,0.00,0.00,29.87,M,3.73,M,OVC,M,M,M,2800.00,M,M,M,M,M,M,M,M,M,M,M,KQEJ 160010Z AUTO 00000KT 6000 OVC028 19/19 A2987 RMK A02 TSNO
QEI,2020-09-16 00:10,128.0667,37.9500,66.20,64.40,93.92,330.00,1.00,0.00,29.88,M,4.97,M,OVC,M,M,M,2100.00,M,M,M,,M,M,M,M,M,M,M,KQEI 160010Z AUTO 33001KT 8000 // OVC021 19/18 A2988 RMK A02 TSNO
QEQ,2020-09-16 00:10,127.5500,37.8500,71.60,69.80,94.06,180.00,1.00,0.00,29.87,M,3.73,M,BKN,M,M,M,2100.00,M,M,M,M,M,M,M,M,M,M,M,KQEQ 160010Z AUTO 18001KT 6000 BKN021 22/21 A2987 RMK A02 TSNO
QEW,2020-09-16 00:10,128.1500,36.4000,69.80,66.20,88.34,340.00,1.00,0.00,29.87,M,4.97,M,BKN,BKN,OVC,M,800.00,2200.00,2400.00,M,,M,M,M,M,M,M,M,KQEW 160010Z AUTO 34001KT 8000 // BKN008 BKN022 OVC024 21/19 A2987 RMK A02 TSNO
QEP,2020-09-16 00:10,127.2667,37.4000,71.60,66.20,83.09,120.00,3.00,0.00,29.87,M,3.73,M,FEW,SCT,BKN,M,900.00,2200.00,3200.00,M,HZ,M,M,M,M,M,M,M,KQEP 160010Z AUTO 12003KT 6000 HZ FEW009 SCT022 BKN032 22/19 A2987 RMK A02 TSNO
QFT,2020-09-16 00:10,127.3500,37.6000,69.80,66.20,88.34,340.00,2.00,0.00,29.84,M,M,M,BKN,M,M,M,2700.00,M,M,M,,M,M,M,M,M,M,M,KQFT 160010Z AUTO 34002KT / // BKN027 21/19 A2984 RMK A02 TSNO
QFU,2020-09-16 00:10,126.9667,37.8000,71.60,66.20,83.09,130.00,4.00,0.00,29.88,M,5.59,M,FEW,BKN,M,M,2700.00,8500.00,M,M,HZ,M,M,M,M,M,M,M,KQFU 160010Z AUTO 13004KT 9000 HZ FEW027 BKN085 22/19 A2988 RMK A02 TSNO
QEX,2020-09-16 00:10,128.3000,36.1000,69.80,66.20,88.34,190.00,3.00,0.00,29.81,M,3.73,M,SCT,BKN,BKN,M,1400.00,3000.00,8000.00,M,,M,M,M,M,M,M,M,KQEX 160010Z AUTO 19003KT 6000 // SCT014 BKN030 BKN080 21/19 A2981 RMK A02 TSNO
QFW,2020-09-16 00:10,127.8833,37.6667,69.80,68.00,94.01,230.00,1.00,0.00,29.88,M,6.21,M,BKN,M,M,M,2500.00,M,M,M,M,M,M,M,M,M,M,M,KQFW 160010Z AUTO 23001KT 9999 BKN025 21/20 A2988 RMK A02 TSNO
QFV,2020-09-16 00:10,127.5000,38.0500,66.20,62.60,88.18,0.00,0.00,0.00,29.90,M,4.97,M,BKN,M,M,M,2900.00,M,M,M,,M,M,M,M,M,M,M,KQFV 160010Z AUTO 00000KT 8000 // BKN029 19/17 A2990 RMK A02 TSNO
RKSV,2020-09-16 00:16,126.3817,37.7786,66.20,66.20,100.00,80.00,2.00,0.00,29.86,M,2.98,M,OVC,M,M,M,500.00,M,M,M,-RA BR,M,M,M,M,M,M,M,RKSV 160016Z 08002KT 4800 -RA BR OVC005 19/19 A2986 RMK CIG005
RKTI,2020-09-16 00:18,127.8853,37.0300,73.40,68.00,83.21,110.00,1.00,0.00,29.84,M,5.59,M,FEW,BKN,M,M,3000.00,10000.00,M,M,-RA BR,M,M,M,M,M,M,M,RKTI 160018Z 11001KT 9000 -RA BR FEW030 BKN100 23/20 A2984 RMK CIG100
RKPU,2020-09-16 00:19,129.3203,35.5603,M,M,M,M,M,0.00,M,M,M,M,M,M,M,M,M,M,M,M,M,M,M,M,M,M,M,M,RKPU 160019Z 16SPECI
RKSO,2020-09-16 00:20,127.0296,37.0906,73.40,69.80,88.51,140.00,4.00,0.00,29.83,1010.40,7.00,M,FEW,BKN,BKN,M,2600.00,4200.00,12000.00,M,M,M,M,M,M,M,M,M,RKSO 160020Z 14004KT 7SM FEW026 BKN042 BKN120 23/21 A2983 RMK AO2A SLP104
QFB,2020-09-16 00:20,128.7167,35.6500,69.80,64.40,82.98,90.00,2.00,0.00,29.95,M,6.21,M,FEW,OVC,M,M,800.00,6500.00,M,M,M,M,M,M,M,M,M,M,KQFB 160020Z AUTO 09002KT 9999 FEW008 OVC065 21/18 A2995 RMK A02 TSNO
QEN,2020-09-16 00:20,128.7500,37.6667,64.40,62.60,93.88,250.00,4.00,0.00,29.94,M,6.21,12.00,SCT,BKN,BKN,M,900.00,10000.00,15000.00,M,M,M,M,M,M,M,M,M,KQEN 160020Z AUTO 25004G12KT 9999 SCT009 BKN100 BKN150 18/17 A2994 RMK A02 TSNO
QES,2020-09-16 00:20,126.4500,36.9667,80.60,66.20,61.58,M,M,0.00,M,M,3.73,M,BKN,M,M,M,2300.00,M,M,M,-SHRA,M,M,M,M,M,M,M,KQES 160020Z AUTO 6000 -SHRA BKN023 27/19 / RMK A02 TSNO
QEJ,2020-09-16 00:20,127.9500,38.2000,66.20,64.40,93.92,0.00,0.00,0.00,29.87,M,3.73,M,FEW,OVC,M,M,400.00,3300.00,M,M,M,M,M,M,M,M,M,M,KQEJ 160020Z AUTO 00000KT 6000 FEW004 OVC033 19/18 A2987 RMK A02 TSNO
QEI,2020-09-16 00:20,128.0667,37.9500,66.20,64.40,93.92,350.00,1.00,0.00,29.88,M,4.97,M,OVC,M,M,M,2000.00,M,M,M,,M,M,M,M,M,M,M,KQEI 160020Z AUTO 35001KT 8000 // OVC020 19/18 A2988 RMK A02 TSNO
QEQ,2020-09-16 00:20,127.5500,37.8500,71.60,69.80,94.06,170.00,1.00,0.00,29.87,M,4.97,M,BKN,M,M,M,2200.00,M,M,M,M,M,M,M,M,M,M,M,KQEQ 160020Z AUTO 17001KT 8000 BKN022 22/21 A2987 RMK A02 TSNO
QEW,2020-09-16 00:20,128.1500,36.4000,69.80,66.20,88.34,360.00,2.00,0.00,29.87,M,5.59,M,BKN,BKN,M,M,800.00,2200.00,M,M,,M,M,M,M,M,M,M,KQEW 160020Z AUTO 36002KT 9000 // BKN008 BKN022 21/19 A2987 RMK A02 TSNO
QEP,2020-09-16 00:20,127.2667,37.4000,71.60,66.20,83.09,120.00,2.00,0.00,29.87,M,3.73,M,BKN,M,M,M,1000.00,M,M,M,HZ,M,M,M,M,M,M,M,KQEP 160020Z AUTO 12002KT 6000 HZ BKN010 22/19 A2987 RMK A02 TSNO
RKPM,2020-09-16 00:20,126.1628,33.2939,68.00,66.20,93.97,120.00,13.00,0.00,29.87,M,1.99,M,BKN,OVC,M,M,300.00,1000.00,M,M,-RA BR,M,M,M,M,M,M,M,RKPM 160020Z 12013KT 3200 -RA BR BKN003 OVC010 20/19 A2987 RMK CIG003
QFT,2020-09-16 00:20,127.3500,37.6000,68.00,66.20,93.97,350.00,2.00,0.00,29.84,M,M,M,BKN,M,M,M,2700.00,M,M,M,,M,M,M,M,M,M,M,KQFT 160020Z AUTO 35002KT / // BKN027 20/19 A2984 RMK A02 TSNO
QFU,2020-09-16 00:20,126.9667,37.8000,71.60,66.20,83.09,130.00,3.00,0.00,29.88,M,5.59,M,SCT,BKN,BKN,M,9000.00,14000.00,18000.00,M,HZ,M,M,M,M,M,M,M,KQFU 160020Z AUTO 13003KT 9000 HZ SCT090 BKN140 BKN180 22/19 A2988 RMK A02 TSNO
QEX,2020-09-16 00:20,128.3000,36.1000,69.80,66.20,88.34,160.00,3.00,0.00,29.80,M,3.73,M,FEW,SCT,SCT,BKN,1200.00,2900.00,3200.00,10000.00,HZ,M,M,M,M,M,M,M,KQEX 160020Z AUTO 16003KT 6000 HZ FEW012 SCT029 SCT032 BKN0100 21/19 A2980 RMK A02 TSNO
QFW,2020-09-16 00:20,127.8833,37.6667,69.80,68.00,94.01,20.00,1.00,0.00,29.87,M,6.21,M,BKN,BKN,M,M,2500.00,10000.00,M,M,M,M,M,M,M,M,M,M,KQFW 160020Z AUTO 02001KT 9999 BKN025 BKN100 21/20 A2987 RMK A02 TSNO
QFV,2020-09-16 00:20,127.5000,38.0500,66.20,62.60,88.18,110.00,1.00,0.00,29.90,M,3.73,M,OVC,M,M,M,2900.00,M,M,M,,M,M,M,M,M,M,M,KQFV 160020Z AUTO 11001KT 6000 // OVC029 19/17 A2990 RMK A02 TSNO
RKPM,2020-09-16 00:21,126.1628,33.2939,68.00,66.20,93.97,120.00,13.00,0.00,29.87,M,1.99,M,BKN,OVC,M,M,300.00,1000.00,M,M,-RA BR,M,M,M,M,M,M,M,RKPM 160021Z 12013KT 3200 -RA BR BKN003 OVC010 20/19 A2987 RMK CIG003
RKSY,2020-09-16 00:22,126.9753,37.5241,73.40,68.00,83.21,0.00,0.00,0.00,29.82,1010.10,6.21,M,FEW,BKN,BKN,M,3900.00,8500.00,12000.00,M,M,M,M,M,M,M,M,M,RKSY 160022Z AUTO 00000KT 9999 FEW039 BKN085 BKN120 23/20 A2982 RMK AO2 RAE22 SLP101
RKJK,2020-09-16 00:27,126.6220,35.8994,69.80,68.00,94.01,70.00,6.00,0.00,29.81,1009.90,4.00,M,FEW,FEW,SCT,SCT,700.00,1100.00,2100.00,2700.00,-RA BR,M,M,M,M,M,M,M,RKJK 160027Z 07006KT 4SM -RA BR FEW007 FEW011 SCT021 SCT027 OVC044 21/20 A2981 RMK AO2A RAB03E24DZB24E26RAB26 SLP099 $
QFB,2020-09-16 00:30,128.7167,35.6500,69.80,64.40,82.98,120.00,1.00,0.00,29.95,M,6.21,M,FEW,OVC,M,M,800.00,7500.00,M,M,M,M,M,M,M,M,M,M,KQFB 160030Z AUTO 12001KT 9999 FEW008 OVC075 21/18 A2995 RMK A02 TSNO
QEN,2020-09-16 00:30,128.7500,37.6667,66.20,62.60,88.18,230.00,4.00,0.00,29.94,M,6.21,M,SCT,BKN,M,M,900.00,15000.00,M,M,M,M,M,M,M,M,M,M,KQEN 160030Z AUTO 23004KT 9999 SCT009 BKN150 19/17 A2994 RMK A02 TSNO
QES,2020-09-16 00:30,126.4500,36.9667,80.60,66.20,61.58,M,M,0.00,M,M,6.21,M,BKN,M,M,M,1700.00,M,M,M,M,M,M,M,M,M,M,M,KQES 160030Z AUTO 9999 BKN017 27/19 / RMK A02 TSNO
QEJ,2020-09-16 00:30,127.9500,38.2000,66.20,64.40,93.92,350.00,1.00,0.00,29.87,M,3.73,M,FEW,OVC,M,M,500.00,3200.00,M,M,M,M,M,M,M,M,M,M,KQEJ 160030Z AUTO 35001KT 6000 FEW005 OVC032 19/18 A2987 RMK A02 TSNO
QEI,2020-09-16 00:30,128.0667,37.9500,66.20,64.40,93.92,350.00,2.00,0.00,29.87,M,4.97,M,OVC,M,M,M,2000.00,M,M,M,,M,M,M,M,M,M,M,KQEI 160030Z AUTO 35002KT 8000 // OVC020 19/18 A2987 RMK A02 TSNO
QEQ,2020-09-16 00:30,127.5500,37.8500,71.60,69.80,94.06,170.00,1.00,0.00,29.87,M,4.97,M,SCT,BKN,M,M,2200.00,11000.00,M,M,M,M,M,M,M,M,M,M,KQEQ 160030Z AUTO 17001KT 8000 SCT022 BKN110 22/21 A2987 RMK A02 TSNO
QEW,2020-09-16 00:30,128.1500,36.4000,71.60,66.20,83.09,40.00,3.00,0.00,29.86,M,6.21,M,SCT,BKN,M,M,800.00,2200.00,M,M,M,M,M,M,M,M,M,M,KQEW 160030Z AUTO 04003KT 9999 SCT008 BKN022 22/19 A2986 RMK A02 TSNO
QEP,2020-09-16 00:30,127.2667,37.4000,73.40,66.20,78.19,130.00,2.00,0.00,29.87,M,3.73,M,BKN,M,M,M,1300.00,M,M,M,HZ,M,M,M,M,M,M,M,KQEP 160030Z AUTO 13002KT 6000 HZ BKN013 23/19 A2987 RMK A02 TSNO
QEX,2020-09-16 00:30,128.3000,36.1000,69.80,66.20,88.34,170.00,4.00,0.00,29.80,M,3.73,M,FEW,FEW,SCT,BKN,1100.00,3300.00,7000.00,9500.00,HZ,M,M,M,M,M,M,M,KQEX 160030Z AUTO 17004KT 6000 HZ FEW011 FEW033 SCT070 BKN095 21/19 A2980 RMK A02 TSNO
QFW,2020-09-16 00:30,127.8833,37.6667,69.80,66.20,88.34,350.00,2.00,0.00,29.88,M,6.21,M,SCT,BKN,M,M,2500.00,10000.00,M,M,M,M,M,M,M,M,M,M,KQFW 160030Z AUTO 35002KT 9999 SCT025 BKN100 21/19 A2988 RMK A02 TSNO
QFV,2020-09-16 00:30,127.5000,38.0500,66.20,64.40,93.92,190.00,1.00,0.00,29.90,M,6.21,M,FEW,BKN,M,M,500.00,2900.00,M,M,M,M,M,M,M,M,M,M,KQFV 160030Z AUTO 19001KT 9999 FEW005 BKN029 19/18 A2990 RMK A02 TSNO
RKSI,2020-09-16 00:30,126.4500,37.4667,71.60,64.40,78.04,160.00,9.00,0.00,29.80,M,4.35,M,FEW,BKN,OVC,M,1100.00,2500.00,7000.00,M,-RA,M,M,M,M,M,M,M,RKSI 160030Z 16009KT 7000 -RA FEW011 BKN025 OVC070 22/18 Q1009 NOSIG
RKPC,2020-09-16 00:31,126.4930,33.5113,69.80,69.80,100.00,100.00,8.00,0.00,29.80,M,3.73,M,FEW,BKN,OVC,M,1500.00,3000.00,10000.00,M,-RA,M,M,M,M,M,M,M,RKPC 160031Z 10008KT 6000 -RA FEW015 BKN030 OVC100 21/21 Q1009 NOSIG
RKTB,2020-09-16 00:33,126.0500,37.0167,69.80,68.00,94.01,30.00,2.00,0.00,29.89,M,6.21,M,SCT,BKN,M,M,1000.00,6000.00,M,M,M,M,M,M,M,M,M,M,RKTB 160033Z 03002KT 9999 SCT010 BKN060 21/20 A2989 RMK CIG060
RKPC,2020-09-16 00:33,126.4930,33.5113,M,M,M,M,M,0.00,M,M,M,M,M,M,M,M,M,M,M,M,M,M,M,M,M,M,M,M,RKPC 160033Z 16SPECI
RKSM,2020-09-16 00:35,127.1139,37.4458,73.40,68.00,83.21,170.00,4.00,0.00,29.84,M,5.59,M,FEW,SCT,BKN,M,1500.00,4000.00,10000.00,M,-RA BR,M,M,M,M,M,M,M,RKSM 160035Z 17004KT 9000 -RA BR FEW015 SCT040 BKN100 23/20 A2984 RMK CIG100
RKTS,2020-09-16 00:35,128.1572,36.4083,71.60,68.00,88.43,350.00,1.00,0.00,29.93,M,4.97,M,FEW,BKN,M,M,3000.00,10000.00,M,M,-RA BR,M,M,M,M,M,M,M,RKTS 160035Z 35001KT 8000 -RA BR FEW030 BKN100 22/20 A2993 RMK CIG100
RKTS,2020-09-16 00:36,128.1572,36.4083,73.40,68.00,83.21,80.00,3.00,0.00,29.88,M,4.97,M,FEW,BKN,M,M,3000.00,10000.00,M,M,BR,M,M,M,M,M,M,M,RKTS 160036Z 08003KT 8000 BR FEW030 BKN100 23/20 A2988 RMK CIG100
RKSF,2020-09-16 00:37,126.9667,37.5333,73.40,69.80,88.51,80.00,1.00,0.00,29.84,M,6.21,M,SCT,BKN,M,M,3000.00,10000.00,M,M,M,M,M,M,M,M,M,M,RKSF 160037Z 08001KT 9999 SCT030 BKN100 23/21 A2984 RMK CIG100
RKSO,2020-09-16 00:40,127.0296,37.0906,73.40,68.00,83.21,150.00,5.00,0.00,29.83,1010.40,7.00,M,SCT,BKN,M,M,3000.00,4400.00,M,M,M,M,M,M,M,M,M,M,RKSO 160040Z 15005KT 7SM SCT030 BKN044 23/20 A2983 RMK AO2A SLP104 $
QFB,2020-09-16 00:40,128.7167,35.6500,69.80,64.40,82.98,40.00,1.00,0.00,29.94,M,6.21,M,SCT,OVC,M,M,1500.00,7000.00,M,M,M,M,M,M,M,M,M,M,KQFB 160040Z AUTO 04001KT 9999 SCT015 OVC070 21/18 A2994 RMK A02 TSNO
RKSY,2020-09-16 00:40,126.9753,37.5241,73.40,66.20,78.19,0.00,0.00,0.00,29.82,1010.10,6.21,M,BKN,BKN,M,M,3700.00,12000.00,M,M,-RA,M,M,M,M,M,M,M,RKSY 160040Z AUTO 00000KT 9999 -RA BKN037 BKN120 23/19 A2982 RMK AO2 RAE22RAB40 SLP101
QEN,2020-09-16 00:40,128.7500,37.6667,66.20,62.60,88.18,240.00,4.00,0.00,29.94,M,6.21,M,FEW,SCT,BKN,M,900.00,1500.00,16000.00,M,M,M,M,M,M,M,M,M,KQEN 160040Z AUTO 24004KT 9999 FEW009 SCT015 BKN160 19/17 A2994 RMK A02 TSNO
QES,2020-09-16 00:40,126.4500,36.9667,80.60,66.20,61.58,M,M,0.00,M,M,6.21,M,BKN,BKN,M,M,1600.00,7500.00,M,M,M,M,M,M,M,M,M,M,KQES 160040Z AUTO 9999 BKN016 BKN075 27/19 / RMK A02 TSNO
QEJ,2020-09-16 00:40,127.9500,38.2000,66.20,66.20,100.00,0.00,0.00,0.00,29.86,M,4.97,M,FEW,OVC,M,M,400.00,2800.00,M,M,M,M,M,M,M,M,M,M,KQEJ 160040Z AUTO 00000KT 8000 FEW004 OVC028 19/19 A2986 RMK A02 TSNO
QEI,2020-09-16 00:40,128.0667,37.9500,66.20,64.40,93.92,330.00,2.00,0.00,29.87,M,5.59,M,OVC,M,M,M,2000.00,M,M,M,,M,M,M,M,M,M,M,KQEI 160040Z AUTO 33002KT 9000 // OVC020 19/18 A2987 RMK A02 TSNO
QEQ,2020-09-16 00:40,127.5500,37.8500,73.40,68.00,83.21,200.00,2.00,0.00,29.87,M,5.59,M,FEW,SCT,M,M,2200.00,11000.00,M,M,M,M,M,M,M,M,M,M,KQEQ 160040Z AUTO 20002KT 9000 FEW022 SCT110 23/20 A2987 RMK A02 TSNO
QEW,2020-09-16 00:40,128.1500,36.4000,71.60,68.00,88.43,50.00,1.00,0.00,29.86,M,6.21,M,SCT,BKN,BKN,M,800.00,2400.00,12000.00,M,M,M,M,M,M,M,M,M,KQEW 160040Z AUTO 05001KT 9999 SCT008 BKN024 BKN120 22/20 A2986 RMK A02 TSNO
QEP,2020-09-16 00:40,127.2667,37.4000,73.40,66.20,78.19,150.00,2.00,0.00,29.87,M,3.73,M,SCT,SCT,BKN,M,1200.00,1300.00,3000.00,M,HZ,M,M,M,M,M,M,M,KQEP 160040Z AUTO 15002KT 6000 HZ SCT012 SCT013 BKN030 23/19 A2987 RMK A02 TSNO
QFT,2020-09-16 00:40,127.3500,37.6000,69.80,66.20,88.34,360.00,2.00,0.00,29.84,M,M,M,BKN,M,M,M,2500.00,M,M,M,,M,M,M,M,M,M,M,KQFT 160040Z AUTO 36002KT / // BKN025 21/19 A2984 RMK A02 TSNO
QFU,2020-09-16 00:40,126.9667,37.8000,71.60,66.20,83.09,120.00,3.00,0.00,29.88,M,5.59,M,FEW,SCT,BKN,BKN,3300.00,9000.00,12000.00,14000.00,HZ,M,M,M,M,M,M,M,KQFU 160040Z AUTO 12003KT 9000 HZ FEW033 SCT090 BKN120 BKN140 22/19 A2988 RMK A02 TSNO
QEX,2020-09-16 00:40,128.3000,36.1000,69.80,66.20,88.34,170.00,7.00,0.00,29.80,M,3.73,10.00,FEW,SCT,BKN,BKN,1100.00,2600.00,3200.00,9500.00,,M,M,M,M,M,M,M,KQEX 160040Z AUTO 17007G10KT 6000 // FEW011 SCT026 BKN032 BKN095 21/19 A2980 RMK A02 TSNO
QFW,2020-09-16 00:40,127.8833,37.6667,71.60,66.20,83.09,20.00,1.00,0.00,29.87,M,6.21,M,BKN,BKN,M,M,2300.00,10000.00,M,M,M,M,M,M,M,M,M,M,KQFW 160040Z AUTO 02001KT 9999 BKN023 BKN100 22/19 A2987 RMK A02 TSNO
QFV,2020-09-16 00:40,127.5000,38.0500,66.20,64.40,93.92,330.00,1.00,0.00,29.90,M,6.21,M,FEW,BKN,M,M,500.00,3100.00,M,M,M,M,M,M,M,M,M,M,KQFV 160040Z AUTO 33001KT 9999 FEW005 BKN031 19/18 A2990 RMK A02 TSNO
RKTF,2020-09-16 00:42,127.3720,36.3720,68.00,66.20,93.97,100.00,1.00,0.00,29.86,M,3.73,M,SCT,OVC,M,M,1000.00,3000.00,M,M,-RA BR,M,M,M,M,M,M,M,RKTF 160042Z 10001KT 6000 -RA BR SCT010 OVC030 20/19 A2986 RMK CIG030
RKSV,2020-09-16 00:45,126.3817,37.7786,M,M,M,50.00,2.00,0.00,29.84,M,M,M,M,M,M,M,M,M,M,M,M,M,M,M,M,M,M,M,RKSV 160045Z 05002KT 000 FG VV000 19/19 A2984 RMK CIG000
RKSD,2020-09-16 00:48,127.2667,37.3500,71.60,66.20,83.09,330.00,1.00,0.00,29.85,M,3.73,M,BKN,BKN,M,M,1500.00,10000.00,M,M,-RA BR,M,M,M,M,M,M,M,RKSD 160048Z 33001KT 6000 -RA BR BKN015 BKN100 22/19 A2985 RMK CIG015
RKTY,2020-09-16 00:48,128.3548,36.6319,71.60,68.00,88.43,100.00,5.00,0.00,29.87,M,4.97,M,FEW,SCT,BKN,M,1000.00,3000.00,10000.00,M,BR,M,M,M,M,M,M,M,RKTY 160048Z 10005KT 8000 BR FEW010 SCT030 BKN100 22/20 A2987 RMK CIG100 WR26
QFB,2020-09-16 00:50,128.7167,35.6500,69.80,64.40,82.98,20.00,1.00,0.00,29.94,M,6.21,M,SCT,OVC,M,M,1500.00,7000.00,M,M,M,M,M,M,M,M,M,M,KQFB 160050Z AUTO 02001KT 9999 SCT015 OVC070 21/18 A2994 RMK A02 TSNO
QEN,2020-09-16 00:50,128.7500,37.6667,66.20,62.60,88.18,260.00,4.00,0.00,29.94,M,6.21,M,FEW,SCT,BKN,M,1100.00,1600.00,16000.00,M,M,M,M,M,M,M,M,M,KQEN 160050Z AUTO 26004KT 9999 FEW011 SCT016 BKN160 19/17 A2994 RMK A02 TSNO
QES,2020-09-16 00:50,126.4500,36.9667,80.60,66.20,61.58,M,M,0.00,M,M,6.21,M,BKN,BKN,M,M,1600.00,7500.00,M,M,M,M,M,M,M,M,M,M,KQES 160050Z AUTO 9999 BKN016 BKN075 27/19 / RMK A02 TSNO
QEJ,2020-09-16 00:50,127.9500,38.2000,66.20,64.40,93.92,360.00,1.00,0.00,29.86,M,3.73,M,FEW,OVC,M,M,400.00,2600.00,M,M,M,M,M,M,M,M,M,M,KQEJ 160050Z AUTO 36001KT 6000 FEW004 OVC026 19/18 A2986 RMK A02 TSNO
QEI,2020-09-16 00:50,128.0667,37.9500,68.00,64.40,88.26,300.00,3.00,0.00,29.86,M,6.21,M,BKN,BKN,M,M,2000.00,6000.00,M,M,M,M,M,M,M,M,M,M,KQEI 160050Z AUTO 30003KT 9999 BKN020 BKN060 20/18 A2986 RMK A02 TSNO
QEQ,2020-09-16 00:50,127.5500,37.8500,71.60,68.00,88.43,170.00,5.00,0.00,29.86,M,6.21,M,SCT,M,M,M,8500.00,M,M,M,M,M,M,M,M,M,M,M,KQEQ 160050Z AUTO 17005KT 9999 SCT085 22/20 A2986 RMK A02 TSNO
QEW,2020-09-16 00:50,128.1500,36.4000,71.60,66.20,83.09,310.00,1.00,0.00,29.86,M,6.21,M,FEW,BKN,BKN,M,800.00,2700.00,11000.00,M,M,M,M,M,M,M,M,M,KQEW 160050Z AUTO 31001KT 9999 FEW008 BKN027 BKN110 22/19 A2986 RMK A02 TSNO
QEP,2020-09-16 00:50,127.2667,37.4000,73.40,66.20,78.19,150.00,2.00,0.00,29.87,M,3.73,M,BKN,BKN,M,M,1200.00,3000.00,M,M,HZ,M,M,M,M,M,M,M,KQEP 160050Z AUTO 15002KT 6000 HZ BKN012 BKN030 23/19 A2987 RMK A02 TSNO
QFT,2020-09-16 00:50,127.3500,37.6000,69.80,66.20,88.34,350.00,2.00,0.00,29.83,M,M,M,BKN,M,M,M,2500.00,M,M,M,,M,M,M,M,M,M,M,KQFT 160050Z AUTO 35002KT / // BKN025 21/19 A2983 RMK A02 TSNO
QFU,2020-09-16 00:50,126.9667,37.8000,71.60,66.20,83.09,120.00,3.00,0.00,29.88,M,6.21,M,FEW,SCT,BKN,BKN,3300.00,9000.00,11000.00,14000.00,M,M,M,M,M,M,M,M,KQFU 160050Z AUTO 12003KT 9999 FEW033 SCT090 BKN110 BKN140 22/19 A2988 RMK A02 TSNO
QEX,2020-09-16 00:50,128.3000,36.1000,69.80,66.20,88.34,160.00,5.00,0.00,29.80,M,3.73,10.00,FEW,SCT,BKN,BKN,1100.00,2600.00,8000.00,9500.00,,M,M,M,M,M,M,M,KQEX 160050Z AUTO 16005G10KT 6000 // FEW011 SCT026 BKN080 BKN095 21/19 A2980 RMK A02 TSNO
QFW,2020-09-16 00:50,127.8833,37.6667,71.60,66.20,83.09,10.00,1.00,0.00,29.87,M,6.21,M,BKN,M,M,M,2100.00,M,M,M,M,M,M,M,M,M,M,M,KQFW 160050Z AUTO 01001KT 9999 BKN021 22/19 A2987 RMK A02 TSNO
QFV,2020-09-16 00:50,127.5000,38.0500,66.20,64.40,93.92,250.00,2.00,0.00,29.90,M,5.59,M,SCT,BKN,M,M,500.00,3200.00,M,M,,M,M,M,M,M,M,M,KQFV 160050Z AUTO 25002KT 9000 // SCT005 BKN032 19/18 A2990 RMK A02 TSNO
RKPU,2020-09-16 00:52,129.3203,35.5603,M,M,M,M,M,0.00,M,M,M,M,M,M,M,M,M,M,M,M,M,M,M,M,M,M,M,M,RKPU 160052Z 16SPECI
RKSY,2020-09-16 00:55,126.9753,37.5241,73.40,66.20,78.19,0.00,0.00,0.00,29.81,1009.80,6.21,M,FEW,OVC,M,M,3700.00,13000.00,M,M,M,M,M,M,M,M,M,M,RKSY 160055Z AUTO 00000KT 9999 FEW037 OVC130 23/19 A2981 RMK AO2 RAE22RAB40E55 SLP098
RKJK,2020-09-16 00:56,126.6220,35.8994,70.50,68.00,91.79,70.00,3.00,0.02,29.82,1010.20,5.00,M,BKN,OVC,M,M,4500.00,5000.00,M,M,M,M,M,M,M,M,M,M,RKJK 160056Z 07003KT 5SM BKN045 OVC050 21/20 A2982 RMK AO2A RAB03E24DZB24E26RAB26E37DZB37E47 SLP102 P0002 T02140200 $
RKSG,2020-09-16 00:56,127.0311,36.9622,75.20,66.20,73.61,M,6.00,0.00,29.83,M,3.00,M,FEW,SCT,BKN,M,1500.00,3500.00,4000.00,M,BR,M,M,M,M,M,M,M,RKSG 160056Z VRB06KT 3SM BR FEW015 SCT035 BKN040 24/19 A2983 RMK AO2A SLPNO $ 0841
RKSO,2020-09-16 00:58,127.0296,37.0906,74.80,69.40,83.30,140.00,6.00,0.00,29.82,1010.10,4.00,M,FEW,SCT,SCT,M,2700.00,3700.00,15000.00,M,M,M,M,M,M,M,M,M,RKSO 160058Z 14006KT 4SM FEW027 SCT037 SCT150 24/21 A2982 RMK AO2A SLP101 T02380208 $ 0059
RKSY,2020-09-16 00:58,126.9753,37.5241,73.40,66.20,78.19,0.00,0.00,T,29.81,1009.80,6.21,M,FEW,OVC,M,M,3700.00,13000.00,M,M,M,M,M,M,M,M,M,M,RKSY 160058Z AUTO 00000KT 9999 FEW037 OVC130 23/19 A2981 RMK AO2 RAE22RAB40E55 SLP098 P0000
RKPU,2020-09-16 00:59,129.3203,35.5603,M,M,M,M,M,0.00,M,M,M,M,M,M,M,M,M,M,M,M,M,M,M,M,M,M,M,M,RKPU 160059Z 16SPECI
RKPS,2020-09-16 01:00,128.0704,35.0885,71.60,68.00,88.43,20.00,5.00,0.00,29.85,1011.80,6.21,M,SCT,BKN,OVC,M,1000.00,2000.00,4000.00,M,M,M,M,M,M,M,M,M,RKPS 160100Z 02005KT 9999 SCT010 BKN020 OVC040 22/20 Q1011 RMK CIG020 SLP118 8/6// 9/8//
RKJB,2020-09-16 01:00,126.3800,34.9800,73.40,71.60,94.10,130.00,5.00,0.00,29.80,M,6.21,M,BKN,BKN,M,M,3000.00,8000.00,M,M,M,M,M,M,M,M,M,M,RKJB 160100Z 13005KT 9999 BKN030 BKN080 23/22 Q1009 NOSIG
RKJJ,2020-09-16 01:00,126.8089,35.1264,71.60,69.80,94.06,330.00,1.00,0.00,29.83,1010.50,5.59,M,BKN,OVC,M,M,1500.00,2500.00,M,M,-RA,M,M,M,M,M,M,M,RKJJ 160100Z 33001KT 9000 -RA BKN015 OVC025 22/21 Q1010 RMK CIG015 SLP105 8/7// 9/8// WR24
RKPC,2020-09-16 01:00,126.4930,33.5113,71.60,71.60,100.00,70.00,6.00,0.00,29.80,M,3.73,M,FEW,BKN,OVC,M,1000.00,3000.00,10000.00,M,-RA,M,M,M,M,M,M,M,RKPC 160100Z 07006KT 6000 -RA FEW010 BKN030 OVC100 22/22 Q1009 BECMG NSW
RKNY,2020-09-16 01:00,128.6692,38.0613,71.60,66.20,83.09,110.00,6.00,0.00,29.80,M,6.21,M,FEW,SCT,BKN,M,5000.00,11000.00,18000.00,M,M,M,M,M,M,M,M,M,RKNY 160100Z 11006KT 9999 FEW050 SCT110 BKN180 22/19 Q1009 NOSIG
RKPU,2020-09-16 01:00,129.3203,35.5603,M,M,M,M,M,0.00,M,M,M,M,M,M,M,M,M,M,M,M,M,M,M,M,M,M,M,M,RKPU 160100Z 16SPECI
RKSM,2020-09-16 01:00,127.1139,37.4458,73.40,68.00,83.21,160.00,4.00,0.00,29.84,M,5.59,M,FEW,SCT,BKN,M,1500.00,4000.00,10000.00,M,-RA BR,M,M,M,M,M,M,M,RKSM 160100Z 16004KT 9000 -RA BR FEW015 SCT040 BKN100 23/20 A2984
QFB,2020-09-16 01:00,128.7167,35.6500,69.80,64.40,82.98,10.00,2.00,0.00,29.93,M,6.21,M,FEW,OVC,M,M,1500.00,7000.00,M,M,M,M,M,M,M,M,M,M,KQFB 160100Z AUTO 01002KT 9999 FEW015 OVC070 21/18 A2993 RMK A02 TSNO
RKSS,2020-09-16 01:00,126.7906,37.5583,73.40,68.00,83.21,160.00,5.00,0.00,29.83,M,4.35,M,SCT,OVC,M,M,3000.00,8000.00,M,M,-RA,M,M,M,M,M,M,M,RKSS 160100Z 16005KT 140V200 7000 -RA SCT030 OVC080 23/20 Q1010 NOSIG
RKTH,2020-09-16 01:00,129.4205,35.9879,75.20,73.40,94.14,280.00,2.00,0.00,29.88,1012.10,4.97,M,FEW,OVC,M,M,3000.00,8000.00,M,M,-RA,M,M,M,M,M,M,M,RKTH 160100Z 28002KT 8000 -RA FEW030 OVC080 24/23 Q1012 RMK CIG080 SLP121 8/52/ 9/26/
RKTN,2020-09-16 01:00,128.6589,35.8941,69.80,66.20,88.34,140.00,5.00,0.00,29.88,M,3.73,M,FEW,SCT,BKN,M,1500.00,3000.00,6000.00,M,-RA,M,M,M,M,M,M,M,RKTN 160100Z 14005KT 6000 -RA FEW015 SCT030 BKN060 21/19 Q1012
RKTU,2020-09-16 01:00,127.4991,36.7166,75.20,68.00,78.34,230.00,3.00,0.00,29.83,M,6.21,M,FEW,SCT,BKN,M,1500.00,5000.00,15000.00,M,M,M,M,M,M,M,M,M,RKTU 160100Z 23003KT 9999 FEW015 SCT050 BKN150 24/20 Q1010
QEN,2020-09-16 01:00,128.7500,37.6667,66.20,62.60,88.18,240.00,4.00,0.00,29.93,M,6.21,M,SCT,BKN,M,M,1600.00,16000.00,M,M,M,M,M,M,M,M,M,M,KQEN 160100Z AUTO 24004KT 9999 SCT016 BKN160 19/17 A2993 RMK A02 TSNO
QES,2020-09-16 01:00,126.4500,36.9667,80.60,66.20,61.58,M,M,0.00,M,M,6.21,M,SCT,BKN,M,M,1600.00,7500.00,M,M,M,M,M,M,M,M,M,M,KQES 160100Z AUTO 9999 SCT016 BKN075 27/19 / RMK A02 TSNO
QEJ,2020-09-16 01:00,127.9500,38.2000,68.00,66.20,93.97,360.00,1.00,0.00,29.86,M,3.73,M,OVC,M,M,M,2600.00,M,M,M,-RA,M,M,M,M,M,M,M,KQEJ 160100Z AUTO 36001KT 6000 -RA OVC026 20/19 A2986 RMK A02 TSNO
QEI,2020-09-16 01:00,128.0667,37.9500,68.00,64.40,88.26,290.00,2.00,0.00,29.86,M,6.21,M,BKN,M,M,M,2000.00,M,M,M,M,M,M,M,M,M,M,M,KQEI 160100Z AUTO 29002KT 9999 BKN020 20/18 A2986 RMK A02 TSNO
QEQ,2020-09-16 01:00,127.5500,37.8500,73.40,69.80,88.51,180.00,2.00,0.00,29.86,M,6.21,M,BKN,M,M,M,8500.00,M,M,M,M,M,M,M,M,M,M,M,KQEQ 160100Z AUTO 18002KT 9999 BKN085 23/21 A2986 RMK A02 TSNO
QEW,2020-09-16 01:00,128.1500,36.4000,71.60,66.20,83.09,350.00,2.00,0.00,29.86,M,6.21,M,FEW,FEW,BKN,BKN,900.00,1300.00,2600.00,11000.00,M,M,M,M,M,M,M,M,KQEW 160100Z AUTO 35002KT 9999 FEW009 FEW013 BKN026 BKN110 22/19 A2986 RMK A02 TSNO
QEP,2020-09-16 01:00,127.2667,37.4000,73.40,66.20,78.19,130.00,3.00,0.00,29.85,M,3.73,M,SCT,BKN,M,M,1200.00,2900.00,M,M,HZ,M,M,M,M,M,M,M,KQEP 160100Z AUTO 13003KT 6000 HZ SCT012 BKN029 23/19 A2985 RMK A02 TSNO
RKPK,2020-09-16 01:00,128.9382,35.1795,75.20,64.40,69.14,10.00,7.00,0.00,29.83,M,6.21,M,FEW,FEW,BKN,M,2000.00,3000.00,6000.00,M,M,M,M,M,M,M,M,M,RKPK 160100Z 01007KT 9999 FEW020 FEW030 BKN060 24/18 Q1010
QFT,2020-09-16 01:00,127.3500,37.6000,69.80,66.20,88.34,340.00,2.00,0.00,29.84,M,M,M,BKN,M,M,M,2500.00,M,M,M,,M,M,M,M,M,M,M,KQFT 160100Z AUTO 34002KT / // BKN025 21/19 A2984 RMK A02 TSNO
QFU,2020-09-16 01:00,126.9667,37.8000,71.60,66.20,83.09,120.00,3.00,0.00,29.88,M,6.21,M,FEW,BKN,M,M,2300.00,9000.00,M,M,M,M,M,M,M,M,M,M,KQFU 160100Z AUTO 12003KT 9999 FEW023 BKN090 22/19 A2988 RMK A02 TSNO
QEX,2020-09-16 01:00,128.3000,36.1000,69.80,64.40,82.98,170.00,6.00,0.00,29.80,M,4.97,M,FEW,SCT,BKN,M,1000.00,2600.00,6000.00,M,HZ,M,M,M,M,M,M,M,KQEX 160100Z AUTO 17006KT 8000 HZ FEW010 SCT026 BKN060 21/18 A2980 RMK A02 TSNO
QFW,2020-09-16 01:00,127.8833,37.6667,71.60,66.20,83.09,350.00,2.00,0.00,29.86,M,6.21,M,OVC,M,M,M,2300.00,M,M,M,M,M,M,M,M,M,M,M,KQFW 160100Z AUTO 35002KT 9999 OVC023 22/19 A2986 RMK A02 TSNO
QFV,2020-09-16 01:00,127.5000,38.0500,66.20,64.40,93.92,0.00,0.00,0.00,29.90,M,6.21,M,FEW,BKN,M,M,500.00,3200.00,M,M,M,M,M,M,M,M,M,M,KQFV 160100Z AUTO 00000KT 9999 FEW005 BKN032 19/18 A2990 RMK A02 TSNO
RKSI,2020-09-16 01:00,126.4500,37.4667,71.60,64.40,78.04,160.00,8.00,0.00,29.80,M,4.97,M,FEW,BKN,OVC,M,1400.00,6000.00,8000.00,M,M,M,M,M,M,M,M,M,RKSI 160100Z 16008KT 8000 FEW014 BKN060 OVC080 22/18 Q1009 NOSIG
RKSG,2020-09-16 01:07,127.0311,36.9622,M,M,M,M,6.00,0.00,29.83,1010.10,3.00,M,FEW,SCT,BKN,M,1500.00,3500.00,4000.00,M,BR,M,M,M,M,M,M,M,RKSG 160107Z VRB06KT 3SM BR FEW015 SCT035 BKN040 A2983 RMK SLP101 $
RKSO,2020-09-16 01:08,127.0296,37.0906,73.40,69.80,88.51,140.00,7.00,0.00,29.82,1010.10,7.00,M,FEW,SCT,SCT,M,2700.00,3600.00,13000.00,M,M,M,M,M,M,M,M,M,RKSO 160108Z AUTO 14007KT 7SM R27/5500FT FEW027 SCT036 SCT130 23/21 A2982 RMK AO2 SLP101
QFB,2020-09-16 01:10,128.7167,35.6500,69.80,64.40,82.98,100.00,1.00,0.00,29.94,M,6.21,M,FEW,OVC,M,M,1500.00,6500.00,M,M,M,M,M,M,M,M,M,M,KQFB 160110Z AUTO 10001KT 9999 FEW015 OVC065 21/18 A2994 RMK A02 TSNO
QEN,2020-09-16 01:10,128.7500,37.6667,66.20,62.60,88.18,240.00,4.00,0.00,29.93,M,6.21,M,FEW,BKN,M,M,1700.00,16000.00,M,M,M,M,M,M,M,M,M,M,KQEN 160110Z AUTO 24004KT 9999 FEW017 BKN160 19/17 A2993 RMK A02 TSNO
QES,2020-09-16 01:10,126.4500,36.9667,80.60,66.20,61.58,M,M,0.00,M,M,6.21,M,SCT,BKN,M,M,1800.00,6000.00,M,M,M,M,M,M,M,M,M,M,KQES 160110Z AUTO 9999 SCT018 BKN060 27/19 / RMK A02 TSNO
QEJ,2020-09-16 01:10,127.9500,38.2000,68.00,66.20,93.97,10.00,1.00,0.00,29.85,M,4.97,M,OVC,M,M,M,2600.00,M,M,M,-RA,M,M,M,M,M,M,M,KQEJ 160110Z AUTO 01001KT 8000 -RA OVC026 20/19 A2985 RMK A02 TSNO
QEI,2020-09-16 01:10,128.0667,37.9500,68.00,64.40,88.26,290.00,2.00,0.00,29.86,M,6.21,M,BKN,M,M,M,2300.00,M,M,M,M,M,M,M,M,M,M,M,KQEI 160110Z AUTO 29002KT 9999 BKN023 20/18 A2986 RMK A02 TSNO
QEQ,2020-09-16 01:10,127.5500,37.8500,73.40,68.00,83.21,160.00,3.00,0.00,29.85,M,5.59,M,FEW,BKN,M,M,5500.00,8500.00,M,M,HZ,M,M,M,M,M,M,M,KQEQ 160110Z AUTO 16003KT 9000 HZ FEW055 BKN085 23/20 A2985 RMK A02 TSNO
QEW,2020-09-16 01:10,128.1500,36.4000,71.60,66.20,83.09,300.00,1.00,0.00,29.86,M,6.21,M,FEW,BKN,M,M,1300.00,2400.00,M,M,M,M,M,M,M,M,M,M,KQEW 160110Z AUTO 30001KT 9999 FEW013 BKN024 22/19 A2986 RMK A02 TSNO
QEP,2020-09-16 01:10,127.2667,37.4000,73.40,68.00,83.21,90.00,3.00,0.00,29.85,M,3.73,M,SCT,BKN,M,M,1200.00,2000.00,M,M,HZ,M,M,M,M,M,M,M,KQEP 160110Z AUTO 09003KT 6000 HZ SCT012 BKN020 23/20 A2985 RMK A02 TSNO
QFT,2020-09-16 01:10,127.3500,37.6000,69.80,66.20,88.34,350.00,1.00,0.00,29.83,M,M,M,BKN,M,M,M,2400.00,M,M,M,,M,M,M,M,M,M,M,KQFT 160110Z AUTO 35001KT / // BKN024 21/19 A2983 RMK A02 TSNO
QFU,2020-09-16 01:10,126.9667,37.8000,73.40,64.40,73.44,120.00,3.00,0.00,29.88,M,6.21,M,FEW,BKN,M,M,2300.00,9000.00,M,M,M,M,M,M,M,M,M,M,KQFU 160110Z AUTO 12003KT 9999 FEW023 BKN090 23/18 A2988 RMK A02 TSNO
QEX,2020-09-16 01:10,128.3000,36.1000,69.80,64.40,82.98,170.00,4.00,0.00,29.79,M,6.21,M,FEW,BKN,M,M,1000.00,4800.00,M,M,M,M,M,M,M,M,M,M,KQEX 160110Z AUTO 17004KT 9999 FEW010 BKN048 21/18 A2979 RMK A02 TSNO
QFW,2020-09-16 01:10,127.8833,37.6667,71.60,66.20,83.09,20.00,2.00,0.00,29.86,M,6.21,M,FEW,OVC,M,M,1900.00,2400.00,M,M,M,M,M,M,M,M,M,M,KQFW 160110Z AUTO 02002KT 9999 FEW019 OVC024 22/19 A2986 RMK A02 TSNO
QFV,2020-09-16 01:10,127.5000,38.0500,68.00,62.60,82.86,350.00,1.00,0.00,29.89,M,6.21,M,FEW,BKN,M,M,600.00,3300.00,M,M,M,M,M,M,M,M,M,M,KQFV 160110Z AUTO 35001KT 9999 FEW006 BKN033 20/17 A2989 RMK A02 TSNO
RKPM,2020-09-16 01:17,126.1628,33.2939,68.00,68.00,100.00,120.00,14.00,0.00,29.86,M,1.99,M,OVC,M,M,M,1000.00,M,M,M,-RA BR,M,M,M,M,M,M,M,RKPM 160117Z 12014KT 3200 -RA BR OVC010 20/20 A2986 RMK CIG010
QFB,2020-09-16 01:20,128.7167,35.6500,69.80,64.40,82.98,120.00,1.00,0.00,29.93,M,6.21,M,FEW,OVC,M,M,3300.00,6500.00,M,M,M,M,M,M,M,M,M,M,KQFB 160120Z AUTO 12001KT 9999 FEW033 OVC065 21/18 A2993 RMK A02 TSNO
QEN,2020-09-16 01:20,128.7500,37.6667,68.00,62.60,82.86,240.00,4.00,0.00,29.93,M,6.21,M,FEW,SCT,M,M,1700.00,17000.00,M,M,M,M,M,M,M,M,M,M,KQEN 160120Z AUTO 24004KT 9999 FEW017 SCT170 20/17 A2993 RMK A02 TSNO
QES,2020-09-16 01:20,126.4500,36.9667,80.60,66.20,61.58,M,M,0.00,M,M,6.21,M,SCT,BKN,BKN,M,1500.00,1700.00,6000.00,M,M,M,M,M,M,M,M,M,KQES 160120Z AUTO 9999 SCT015 BKN017 BKN060 27/19 / RMK A02 TSNO
QEJ,2020-09-16 01:20,127.9500,38.2000,68.00,66.20,93.97,60.00,1.00,0.00,29.85,M,5.59,M,OVC,M,M,M,2600.00,M,M,M,-RA,M,M,M,M,M,M,M,KQEJ 160120Z AUTO 06001KT 9000 -RA OVC026 20/19 A2985 RMK A02 TSNO
QEI,2020-09-16 01:20,128.0667,37.9500,69.80,66.20,88.34,290.00,2.00,0.00,29.86,M,6.21,M,OVC,M,M,M,2400.00,M,M,M,M,M,M,M,M,M,M,M,KQEI 160120Z AUTO 29002KT 9999 OVC024 21/19 A2986 RMK A02 TSNO
QEQ,2020-09-16 01:20,127.5500,37.8500,73.40,68.00,83.21,170.00,5.00,0.00,29.85,M,6.21,M,SCT,BKN,BKN,M,6000.00,7500.00,9000.00,M,M,M,M,M,M,M,M,M,KQEQ 160120Z AUTO 17005KT 9999 SCT060 BKN075 BKN090 23/20 A2985 RMK A02 TSNO
QEW,2020-09-16 01:20,128.1500,36.4000,71.60,66.20,83.09,120.00,1.00,0.00,29.85,M,6.21,M,FEW,BKN,BKN,M,1300.00,2300.00,10000.00,M,M,M,M,M,M,M,M,M,KQEW 160120Z AUTO 12001KT 9999 FEW013 BKN023 BKN0100 22/19 A2985 RMK A02 TSNO
QEP,2020-09-16 01:20,127.2667,37.4000,73.40,66.20,78.19,130.00,3.00,0.00,29.85,M,3.73,M,BKN,M,M,M,1200.00,M,M,M,HZ,M,M,M,M,M,M,M,KQEP 160120Z AUTO 13003KT 6000 HZ BKN012 23/19 A2985 RMK A02 TSNO
QFT,2020-09-16 01:20,127.3500,37.6000,69.80,68.00,94.01,30.00,1.00,0.00,29.82,M,M,M,OVC,M,M,M,2300.00,M,M,M,,M,M,M,M,M,M,M,KQFT 160120Z AUTO 03001KT / // OVC023 21/20 A2982 RMK A02 TSNO
QFU,2020-09-16 01:20,126.9667,37.8000,73.40,64.40,73.44,120.00,4.00,0.00,29.87,M,6.21,M,FEW,BKN,M,M,2300.00,8500.00,M,M,M,M,M,M,M,M,M,M,KQFU 160120Z AUTO 12004KT 9999 FEW023 BKN085 23/18 A2987 RMK A02 TSNO
QEX,2020-09-16 01:20,128.3000,36.1000,69.80,64.40,82.98,170.00,4.00,0.00,29.80,M,6.21,M,FEW,FEW,BKN,M,1000.00,3200.00,7500.00,M,M,M,M,M,M,M,M,M,KQEX 160120Z AUTO 17004KT 9999 FEW010 FEW032 BKN075 21/18 A2980 RMK A02 TSNO
QFW,2020-09-16 01:20,127.8833,37.6667,73.40,66.20,78.19,30.00,1.00,0.00,29.86,M,6.21,M,BKN,BKN,M,M,2400.00,5000.00,M,M,M,M,M,M,M,M,M,M,KQFW 160120Z AUTO 03001KT 9999 BKN024 BKN050 23/19 A2986 RMK A02 TSNO
QFV,2020-09-16 01:20,127.5000,38.0500,68.00,64.40,88.26,90.00,2.00,0.00,29.90,M,5.59,M,FEW,BKN,M,M,600.00,3300.00,M,M,,M,M,M,M,M,M,M,KQFV 160120Z AUTO 09002KT 9000 // FEW006 BKN033 20/18 A2990 RMK A02 TSNO
RKJJ,2020-09-16 01:21,126.8089,35.1264,73.40,69.80,88.51,70.00,3.00,0.00,29.83,M,5.59,M,FEW,BKN,M,M,2000.00,3000.00,M,M,BR,M,M,M,M,M,M,M,RKJJ 160121Z 07003KT 9000 BR FEW020 BKN030 23/21 A2983 RMK CIG030
RKTF,2020-09-16 01:24,127.3720,36.3720,68.00,66.20,93.97,360.00,2.00,0.00,29.86,M,4.97,M,FEW,OVC,M,M,1000.00,3000.00,M,M,BR,M,M,M,M,M,M,M,RKTF 160124Z 36002KT 8000 BR FEW010 OVC030 20/19 A2986 RMK CIG030
RKTE,2020-09-16 01:28,127.5001,36.5682,73.40,68.00,83.21,160.00,4.00,0.00,29.81,M,6.21,M,FEW,BKN,BKN,M,1800.00,5700.00,11000.00,M,-RA,M,M,M,M,M,M,M,RKTE 160128Z 16004KT 9999 -RA FEW018 BKN057 BKN110 23/20 A2981 RMK CIG057
RKJJ,2020-09-16 01:28,126.8089,35.1264,M,M,M,M,M,0.00,M,M,M,M,M,M,M,M,M,M,M,M,M,M,M,M,M,M,M,M,RKJJ 160128Z 16SPECI
QFB,2020-09-16 01:30,128.7167,35.6500,69.80,64.40,82.98,80.00,1.00,0.00,29.93,M,6.21,M,FEW,OVC,M,M,3300.00,6500.00,M,M,M,M,M,M,M,M,M,M,KQFB 160130Z AUTO 08001KT 9999 FEW033 OVC065 21/18 A2993 RMK A02 TSNO
QEN,2020-09-16 01:30,128.7500,37.6667,68.00,62.60,82.86,220.00,4.00,0.00,29.93,M,6.21,M,FEW,SCT,BKN,M,1700.00,15000.00,17000.00,M,M,M,M,M,M,M,M,M,KQEN 160130Z AUTO 22004KT 9999 FEW017 SCT150 BKN170 20/17 A2993 RMK A02 TSNO
QES,2020-09-16 01:30,126.4500,36.9667,80.60,66.20,61.58,M,M,0.00,M,M,6.21,M,BKN,BKN,BKN,M,1500.00,6000.00,8000.00,M,M,M,M,M,M,M,M,M,KQES 160130Z AUTO 9999 BKN015 BKN060 BKN080 27/19 / RMK A02 TSNO
QEJ,2020-09-16 01:30,127.9500,38.2000,68.00,66.20,93.97,90.00,1.00,0.00,29.85,M,4.97,M,OVC,M,M,M,2600.00,M,M,M,-SHRA,M,M,M,M,M,M,M,KQEJ 160130Z AUTO 09001KT 8000 -SHRA OVC026 20/19 A2985 RMK A02 TSNO
QEI,2020-09-16 01:30,128.0667,37.9500,68.00,66.20,93.97,330.00,3.00,0.00,29.86,M,6.21,M,BKN,M,M,M,2400.00,M,M,M,M,M,M,M,M,M,M,M,KQEI 160130Z AUTO 33003KT 9999 BKN024 20/19 A2986 RMK A02 TSNO
QEQ,2020-09-16 01:30,127.5500,37.8500,75.20,68.00,78.34,170.00,4.00,0.00,29.85,M,6.21,M,FEW,BKN,M,M,6000.00,7500.00,M,M,M,M,M,M,M,M,M,M,KQEQ 160130Z AUTO 17004KT 9999 FEW060 BKN075 24/20 A2985 RMK A02 TSNO
QEW,2020-09-16 01:30,128.1500,36.4000,71.60,66.20,83.09,70.00,1.00,0.00,29.85,M,6.21,M,BKN,M,M,M,1700.00,M,M,M,M,M,M,M,M,M,M,M,KQEW 160130Z AUTO 07001KT 9999 BKN017 22/19 A2985 RMK A02 TSNO
QEP,2020-09-16 01:30,127.2667,37.4000,73.40,66.20,78.19,160.00,2.00,0.00,29.85,M,4.97,M,BKN,M,M,M,1300.00,M,M,M,HZ,M,M,M,M,M,M,M,KQEP 160130Z AUTO 16002KT 8000 HZ BKN013 23/19 A2985 RMK A02 TSNO
QFT,2020-09-16 01:30,127.3500,37.6000,69.80,68.00,94.01,330.00,2.00,0.00,29.83,M,M,M,OVC,M,M,M,1800.00,M,M,M,,M,M,M,M,M,M,M,KQFT 160130Z AUTO 33002KT / // OVC018 21/20 A2983 RMK A02 TSNO
QFU,2020-09-16 01:30,126.9667,37.8000,73.40,64.40,73.44,120.00,4.00,0.00,29.87,M,6.21,M,FEW,BKN,M,M,2300.00,8500.00,M,M,M,M,M,M,M,M,M,M,KQFU 160130Z AUTO 12004KT 9999 FEW023 BKN085 23/18 A2987 RMK A02 TSNO
QEX,2020-09-16 01:30,128.3000,36.1000,69.80,62.60,77.90,160.00,4.00,0.00,29.79,M,6.21,M,BKN,BKN,M,M,2600.00,2900.00,M,M,M,M,M,M,M,M,M,M,KQEX 160130Z AUTO 16004KT 9999 BKN026 BKN029 21/17 A2979 RMK A02 TSNO
QFW,2020-09-16 01:30,127.8833,37.6667,73.40,66.20,78.19,0.00,0.00,0.00,29.86,M,6.21,M,BKN,M,M,M,2400.00,M,M,M,M,M,M,M,M,M,M,M,KQFW 160130Z AUTO 00000KT 9999 BKN024 23/19 A2986 RMK A02 TSNO
QFV,2020-09-16 01:30,127.5000,38.0500,66.20,64.40,93.92,110.00,1.00,0.00,29.89,M,6.21,M,FEW,BKN,M,M,600.00,3300.00,M,M,M,M,M,M,M,M,M,M,KQFV 160130Z AUTO 11001KT 9999 FEW006 BKN033 19/18 A2989 RMK A02 TSNO
RKSI,2020-09-16 01:30,126.4500,37.4667,73.40,62.60,68.94,180.00,8.00,0.00,29.80,M,6.21,M,FEW,BKN,OVC,M,1400.00,6000.00,8000.00,M,M,M,M,M,M,M,M,M,RKSI 160130Z 18008KT 9999 FEW014 BKN060 OVC080 23/17 Q1009 NOSIG
RKSW,2020-09-16 01:34,127.0071,37.2394,75.20,68.00,78.34,140.00,5.00,0.00,29.83,M,5.59,M,FEW,BKN,BKN,M,1500.00,2500.00,10000.00,M,-DZ BR,M,M,M,M,M,M,M,RKSW 160134Z 14005KT 9000 -DZ BR FEW015 BKN025 BKN100 24/20 A2983 RMK CIG025
RKTE,2020-09-16 01:36,127.5001,36.5682,73.40,68.00,83.21,170.00,5.00,0.00,29.81,M,6.21,M,FEW,BKN,BKN,M,1800.00,5700.00,11000.00,M,M,M,M,M,M,M,M,M,RKTE 160136Z 17005KT 9999 FEW018 BKN057 BKN110 23/20 A2981 RMK CIG057
QFB,2020-09-16 01:40,128.7167,35.6500,69.80,62.60,77.90,120.00,1.00,0.00,29.92,M,6.21,M,FEW,OVC,M,M,3300.00,6500.00,M,M,M,M,M,M,M,M,M,M,KQFB 160140Z AUTO 12001KT 9999 FEW033 OVC065 21/17 A2992 RMK A02 TSNO
RKTN,2020-09-16 01:40,128.6589,35.8941,69.80,66.20,88.34,120.00,5.00,0.00,29.85,M,5.59,M,FEW,BKN,M,M,1500.00,7000.00,M,M,M,M,M,M,M,M,M,M,RKTN 160140Z 12005KT 9000 FEW015 BKN070 21/19 Q1011 RMK CIG070 WR23
QEN,2020-09-16 01:40,128.7500,37.6667,68.00,60.80,77.75,230.00,4.00,0.00,29.93,M,6.21,M,FEW,SCT,BKN,M,1700.00,6000.00,15000.00,M,M,M,M,M,M,M,M,M,KQEN 160140Z AUTO 23004KT 9999 FEW017 SCT060 BKN150 20/16 A2993 RMK A02 TSNO
QES,2020-09-16 01:40,126.4500,36.9667,80.60,66.20,61.58,M,M,0.00,M,M,6.21,M,BKN,BKN,M,M,1500.00,7500.00,M,M,M,M,M,M,M,M,M,M,KQES 160140Z AUTO 9999 BKN015 BKN075 27/19 / RMK A02 TSNO
QEJ,2020-09-16 01:40,127.9500,38.2000,68.00,66.20,93.97,90.00,1.00,0.00,29.85,M,4.97,M,OVC,M,M,M,2500.00,M,M,M,-SHRA,M,M,M,M,M,M,M,KQEJ 160140Z AUTO 09001KT 8000 -SHRA OVC025 20/19 A2985 RMK A02 TSNO
QEI,2020-09-16 01:40,128.0667,37.9500,68.00,64.40,88.26,320.00,2.00,0.00,29.86,M,5.59,M,BKN,M,M,M,2200.00,M,M,M,,M,M,M,M,M,M,M,KQEI 160140Z AUTO 32002KT 9000 // BKN022 20/18 A2986 RMK A02 TSNO
QEQ,2020-09-16 01:40,127.5500,37.8500,75.20,68.00,78.34,210.00,4.00,0.00,29.85,M,6.21,M,FEW,SCT,BKN,M,2400.00,7000.00,9500.00,M,M,M,M,M,M,M,M,M,KQEQ 160140Z AUTO 21004KT 9999 FEW024 SCT070 BKN095 24/20 A2985 RMK A02 TSNO
QEW,2020-09-16 01:40,128.1500,36.4000,73.40,66.20,78.19,100.00,1.00,0.00,29.85,M,6.21,M,BKN,BKN,M,M,1500.00,3700.00,M,M,M,M,M,M,M,M,M,M,KQEW 160140Z AUTO 10001KT 9999 BKN015 BKN037 23/19 A2985 RMK A02 TSNO
QEP,2020-09-16 01:40,127.2667,37.4000,75.20,68.00,78.34,130.00,1.00,0.00,29.85,M,4.97,M,BKN,M,M,M,1300.00,M,M,M,HZ,M,M,M,M,M,M,M,KQEP 160140Z AUTO 13001KT 8000 HZ BKN013 24/20 A2985 RMK A02 TSNO
QFT,2020-09-16 01:40,127.3500,37.6000,69.80,68.00,94.01,340.00,3.00,0.00,29.82,M,M,M,OVC,M,M,M,1800.00,M,M,M,,M,M,M,M,M,M,M,KQFT 160140Z AUTO 34003KT / // OVC018 21/20 A2982 RMK A02 TSNO
QFU,2020-09-16 01:40,126.9667,37.8000,73.40,64.40,73.44,120.00,5.00,0.00,29.86,M,6.21,M,FEW,BKN,M,M,2300.00,8500.00,M,M,M,M,M,M,M,M,M,M,KQFU 160140Z AUTO 12005KT 9999 FEW023 BKN085 23/18 A2986 RMK A02 TSNO
QEX,2020-09-16 01:40,128.3000,36.1000,69.80,62.60,77.90,170.00,3.00,0.00,29.79,M,6.21,M,OVC,M,M,M,2600.00,M,M,M,M,M,M,M,M,M,M,M,KQEX 160140Z AUTO 17003KT 9999 OVC026 21/17 A2979 RMK A02 TSNO
QFW,2020-09-16 01:40,127.8833,37.6667,71.60,66.20,83.09,310.00,2.00,0.00,29.85,M,6.21,M,BKN,M,M,M,2400.00,M,M,M,M,M,M,M,M,M,M,M,KQFW 160140Z AUTO 31002KT 9999 BKN024 22/19 A2985 RMK A02 TSNO
QFV,2020-09-16 01:40,127.5000,38.0500,68.00,64.40,88.26,140.00,1.00,0.00,29.89,M,6.21,M,FEW,BKN,M,M,600.00,3300.00,M,M,M,M,M,M,M,M,M,M,KQFV 160140Z AUTO 14001KT 9999 FEW006 BKN033 20/18 A2989 RMK A02 TSNO
RKTN,2020-09-16 01:41,128.6589,35.8941,69.80,66.20,88.34,120.00,5.00,0.00,29.87,M,5.59,M,FEW,BKN,M,M,1500.00,7000.00,M,M,BR,M,M,M,M,M,M,M,RKTN 160141Z 12005KT 9000 BR FEW015 BKN070 21/19 A2987 RMK CIG070 WR23
RKSV,2020-09-16 01:44,126.3817,37.7786,66.20,66.20,100.00,40.00,1.00,0.00,29.83,M,2.98,M,OVC,M,M,M,500.00,M,M,M,BR,M,M,M,M,M,M,M,RKSV 160144Z 04001KT 4800 BR OVC005 19/19 A2983 RMK CIG005
RKTN,2020-09-16 01:47,128.6589,35.8941,M,M,M,M,M,0.00,M,M,M,M,M,M,M,M,M,M,M,M,M,M,M,M,M,M,M,M,RKTN 160147Z 16SPECI
QFB,2020-09-16 01:50,128.7167,35.6500,71.60,62.60,73.27,100.00,1.00,0.00,29.91,M,6.21,M,OVC,M,M,M,6500.00,M,M,M,M,M,M,M,M,M,M,M,KQFB 160150Z AUTO 10001KT 9999 OVC065 22/17 A2991 RMK A02 TSNO
QEN,2020-09-16 01:50,128.7500,37.6667,68.00,62.60,82.86,250.00,3.00,0.00,29.92,M,6.21,M,FEW,SCT,SCT,BKN,1700.00,3200.00,6000.00,15000.00,M,M,M,M,M,M,M,M,KQEN 160150Z AUTO 25003KT 9999 FEW017 SCT032 SCT060 BKN150 20/17 A2992 RMK A02 TSNO
QES,2020-09-16 01:50,126.4500,36.9667,80.60,66.20,61.58,M,M,0.00,M,M,6.21,M,BKN,BKN,M,M,1600.00,7500.00,M,M,M,M,M,M,M,M,M,M,KQES 160150Z AUTO 9999 BKN016 BKN075 27/19 / RMK A02 TSNO
QEJ,2020-09-16 01:50,127.9500,38.2000,69.80,66.20,88.34,90.00,1.00,0.00,29.85,M,4.97,M,OVC,M,M,M,2400.00,M,M,M,-SHRA,M,M,M,M,M,M,M,KQEJ 160150Z AUTO 09001KT 8000 -SHRA OVC024 21/19 A2985 RMK A02 TSNO
QEI,2020-09-16 01:50,128.0667,37.9500,68.00,66.20,93.97,350.00,1.00,0.00,29.85,M,4.97,M,BKN,M,M,M,2200.00,M,M,M,,M,M,M,M,M,M,M,KQEI 160150Z AUTO 35001KT 8000 // BKN022 20/19 A2985 RMK A02 TSNO
QEQ,2020-09-16 01:50,127.5500,37.8500,73.40,66.20,78.19,190.00,4.00,0.00,29.85,M,6.21,M,SCT,BKN,M,M,2100.00,7000.00,M,M,M,M,M,M,M,M,M,M,KQEQ 160150Z AUTO 19004KT 9999 SCT021 BKN070 23/19 A2985 RMK A02 TSNO
QEW,2020-09-16 01:50,128.1500,36.4000,71.60,66.20,83.09,190.00,2.00,0.00,29.85,M,6.21,M,BKN,BKN,M,M,1500.00,3400.00,M,M,M,M,M,M,M,M,M,M,KQEW 160150Z AUTO 19002KT 9999 BKN015 BKN034 22/19 A2985 RMK A02 TSNO
QEP,2020-09-16 01:50,127.2667,37.4000,73.40,68.00,83.21,60.00,2.00,0.00,29.85,M,3.73,M,BKN,BKN,M,M,1400.00,2900.00,M,M,HZ,M,M,M,M,M,M,M,KQEP 160150Z AUTO 06002KT 6000 HZ BKN014 BKN029 23/20 A2985 RMK A02 TSNO
QFT,2020-09-16 01:50,127.3500,37.6000,69.80,66.20,88.34,330.00,3.00,0.00,29.82,M,M,M,OVC,M,M,M,1900.00,M,M,M,,M,M,M,M,M,M,M,KQFT 160150Z AUTO 33003KT / // OVC019 21/19 A2982 RMK A02 TSNO
QFU,2020-09-16 01:50,126.9667,37.8000,73.40,64.40,73.44,140.00,3.00,0.00,29.86,M,6.21,M,SCT,BKN,M,M,2300.00,8000.00,M,M,M,M,M,M,M,M,M,M,KQFU 160150Z AUTO 14003KT 9999 SCT023 BKN080 23/18 A2986 RMK A02 TSNO
QEX,2020-09-16 01:50,128.3000,36.1000,69.80,64.40,82.98,200.00,2.00,0.00,29.79,M,6.21,M,FEW,OVC,M,M,2300.00,5500.00,M,M,M,M,M,M,M,M,M,M,KQEX 160150Z AUTO 20002KT 9999 FEW023 OVC055 21/18 A2979 RMK A02 TSNO
QFW,2020-09-16 01:50,127.8833,37.6667,71.60,68.00,88.43,250.00,2.00,0.00,29.85,M,6.21,M,BKN,M,M,M,2600.00,M,M,M,M,M,M,M,M,M,M,M,KQFW 160150Z AUTO 25002KT 9999 BKN026 22/20 A2985 RMK A02 TSNO
QFV,2020-09-16 01:50,127.5000,38.0500,68.00,64.40,88.26,100.00,2.00,0.00,29.89,M,5.59,M,SCT,BKN,BKN,BKN,600.00,3400.00,4000.00,7000.00,,M,M,M,M,M,M,M,KQFV 160150Z AUTO 10002KT 9000 // SCT006 BKN034 BKN040 BKN070 20/18 A2989 RMK A02 TSNO
RKJK,2020-09-16 01:56,126.6220,35.8994,72.30,68.90,89.07,80.00,6.00,T,29.80,1009.50,10.00,M,FEW,OVC,M,M,900.00,3100.00,M,M,M,M,M,M,M,M,M,M,RKJK 160156Z 08006KT 10SM FEW009 OVC031 22/21 A2980 RMK AO2A RAB0056E0058DZB0058E12 SLP095 P0000 T02240205 $
RKSG,2020-09-16 01:56,127.0311,36.9622,75.20,66.20,73.61,M,6.00,0.00,29.83,1010.10,4.00,M,FEW,SCT,BKN,M,1500.00,3500.00,4000.00,M,HZ,M,M,M,M,M,M,M,RKSG 160156Z VRB06KT 4SM HZ FEW015 SCT035 BKN040 24/19 A2983 RMK AO2A SLP101 RVRNO $ 0846
RKSO,2020-09-16 01:58,127.0296,37.0906,75.60,68.90,79.72,140.00,3.00,0.00,29.80,1009.40,5.00,M,BKN,BKN,M,M,3100.00,13000.00,M,M,BR,M,M,M,M,M,M,M,RKSO 160158Z 14003KT 5SM BR BKN031 BKN130 24/21 A2980 RMK AO2A SLP094 T02420205 $
RKSY,2020-09-16 01:58,126.9753,37.5241,75.60,66.20,72.63,0.00,0.00,0.00,29.80,1009.40,6.21,M,FEW,SCT,BKN,M,5000.00,9000.00,10000.00,M,M,M,M,M,M,M,M,M,RKSY 160158Z AUTO 00000KT 9999 FEW050 SCT090 BKN100 24/19 A2980 RMK AO2 LTG DSNT NW SLP094 T02420190
RKPS,2020-09-16 02:00,128.0704,35.0885,71.60,68.00,88.43,340.00,4.00,0.00,29.85,1011.70,6.21,M,SCT,BKN,OVC,M,1000.00,2000.00,3500.00,M,M,M,M,M,M,M,M,M,RKPS 160200Z 34004KT 9999 SCT010 BKN020 OVC035 22/20 Q1011 RMK CIG020 SLP117 8/6// 9/8//
RKJB,2020-09-16 02:00,126.3800,34.9800,75.20,71.60,88.59,150.00,7.00,0.00,29.80,M,6.21,M,OVC,M,M,M,2000.00,M,M,M,M,M,M,M,M,M,M,M,RKJB 160200Z 15007KT 9999 OVC020 24/22 Q1009 NOSIG
RKJJ,2020-09-16 02:00,126.8089,35.1264,77.00,73.40,88.67,80.00,2.00,0.00,29.80,1009.40,6.21,M,FEW,BKN,M,M,2000.00,4000.00,M,M,M,M,M,M,M,M,M,M,RKJJ 160200Z 08002KT 9999 FEW020 BKN040 25/23 Q1009 RMK CIG040 SLP094 8/600 9/700 WR24
RKPC,2020-09-16 02:00,126.4930,33.5113,73.40,73.40,100.00,60.00,6.00,0.00,29.80,M,4.97,M,SCT,BKN,OVC,M,500.00,3000.00,10000.00,M,-RA,M,M,M,M,M,M,M,RKPC 160200Z 06006KT 020V090 8000 -RA SCT005 BKN030 OVC100 23/23 Q1009 NOSIG
RKNY,2020-09-16 02:00,128.6692,38.0613,71.60,68.00,88.43,100.00,5.00,0.00,29.80,M,6.21,M,FEW,SCT,BKN,M,5000.00,12000.00,18000.00,M,M,M,M,M,M,M,M,M,RKNY 160200Z 10005KT 9999 FEW050 SCT120 BKN180 22/20 Q1009 NOSIG
RKSM,2020-09-16 02:00,127.1139,37.4458,75.20,68.00,78.34,140.00,4.00,0.00,29.82,M,4.97,M,SCT,BKN,OVC,M,1500.00,3000.00,10000.00,M,-RA BR,M,M,M,M,M,M,M,RKSM 160200Z 14004KT 8000 -RA BR SCT015 BKN030 OVC100 24/20 A2982
QFB,2020-09-16 02:00,128.7167,35.6500,71.60,62.60,73.27,10.00,2.00,0.00,29.91,M,6.21,M,OVC,M,M,M,6000.00,M,M,M,M,M,M,M,M,M,M,M,KQFB 160200Z AUTO 01002KT 9999 OVC060 22/17 A2991 RMK A02 TSNO
RKSS,2020-09-16 02:00,126.7906,37.5583,73.40,68.00,83.21,180.00,4.00,0.00,29.80,M,4.97,M,BKN,OVC,M,M,2500.00,7000.00,M,M,M,M,M,M,M,M,M,M,RKSS 160200Z 18004KT 140V210 8000 BKN025 OVC070 23/20 Q1009 NOSIG
RKTH,2020-09-16 02:00,129.4205,35.9879,71.60,71.60,100.00,280.00,4.00,0.00,29.85,1011.10,3.73,M,FEW,BKN,OVC,M,1000.00,3000.00,8000.00,M,-RA,M,M,M,M,M,M,M,RKTH 160200Z 28004KT 6000 -RA FEW010 BKN030 OVC080 22/22 Q1011 RMK CIG030 SLP111 8/52/ 9/53/
RKTN,2020-09-16 02:00,128.6589,35.8941,69.80,64.40,82.98,130.00,4.00,0.00,29.85,M,6.21,M,FEW,BKN,M,M,500.00,7000.00,M,M,M,M,M,M,M,M,M,M,RKTN 160200Z 13004KT 9999 FEW005 BKN070 21/18 Q1011
RKTU,2020-09-16 02:00,127.4991,36.7166,75.20,66.20,73.61,200.00,3.00,0.00,29.83,M,6.21,M,FEW,BKN,BKN,M,2500.00,6000.00,15000.00,M,M,M,M,M,M,M,M,M,RKTU 160200Z 20003KT 9999 FEW025 BKN060 BKN150 24/19 Q1010
QEN,2020-09-16 02:00,128.7500,37.6667,68.00,60.80,77.75,240.00,3.00,0.00,29.92,M,6.21,M,FEW,FEW,SCT,BKN,2000.00,3200.00,6000.00,15000.00,M,M,M,M,M,M,M,M,KQEN 160200Z AUTO 24003KT 9999 FEW020 FEW032 SCT060 BKN150 20/16 A2992 RMK A02 TSNO
QES,2020-09-16 02:00,126.4500,36.9667,80.60,66.20,61.58,M,M,0.00,M,M,6.21,M,SCT,BKN,M,M,1700.00,7500.00,M,M,M,M,M,M,M,M,M,M,KQES 160200Z AUTO 9999 SCT017 BKN075 27/19 / RMK A02 TSNO
QEJ,2020-09-16 02:00,127.9500,38.2000,69.80,66.20,88.34,360.00,1.00,0.00,29.84,M,5.59,M,OVC,M,M,M,2400.00,M,M,M,-SHRA,M,M,M,M,M,M,M,KQEJ 160200Z AUTO 36001KT 9000 -SHRA OVC024 21/19 A2984 RMK A02 TSNO
QEI,2020-09-16 02:00,128.0667,37.9500,68.00,66.20,93.97,310.00,2.00,0.00,29.85,M,3.73,M,OVC,M,M,M,2200.00,M,M,M,,M,M,M,M,M,M,M,KQEI 160200Z AUTO 31002KT 6000 // OVC022 20/19 A2985 RMK A02 TSNO
QEQ,2020-09-16 02:00,127.5500,37.8500,73.40,66.20,78.19,190.00,4.00,0.00,29.85,M,6.21,M,FEW,BKN,M,M,2100.00,6500.00,M,M,M,M,M,M,M,M,M,M,KQEQ 160200Z AUTO 19004KT 9999 FEW021 BKN065 23/19 A2985 RMK A02 TSNO
QEW,2020-09-16 02:00,128.1500,36.4000,73.40,66.20,78.19,120.00,1.00,0.00,29.85,M,6.21,M,BKN,BKN,M,M,1500.00,1700.00,M,M,M,M,M,M,M,M,M,M,KQEW 160200Z AUTO 12001KT 9999 BKN015 BKN017 23/19 A2985 RMK A02 TSNO
QEP,2020-09-16 02:00,127.2667,37.4000,73.40,66.20,78.19,120.00,3.00,0.00,29.85,M,4.97,M,BKN,BKN,M,M,1400.00,3000.00,M,M,HZ,M,M,M,M,M,M,M,KQEP 160200Z AUTO 12003KT 8000 HZ BKN014 BKN030 23/19 A2985 RMK A02 TSNO
RKPK,2020-09-16 02:00,128.9382,35.1795,73.40,64.40,73.44,20.00,7.00,0.00,29.83,M,6.21,M,FEW,BKN,BKN,M,2000.00,3000.00,5000.00,M,M,M,M,M,M,M,M,M,RKPK 160200Z 02007KT 9999 FEW020 BKN030 BKN050 23/18 Q1010
QFT,2020-09-16 02:00,127.3500,37.6000,69.80,68.00,94.01,330.00,3.00,0.00,29.82,M,M,M,BKN,M,M,M,2000.00,M,M,M,,M,M,M,M,M,M,M,KQFT 160200Z AUTO 33003KT / // BKN020 21/20 A2982 RMK A02 TSNO
QFU,2020-09-16 02:00,126.9667,37.8000,73.40,64.40,73.44,120.00,5.00,0.00,29.86,M,6.21,M,SCT,BKN,M,M,2300.00,7500.00,M,M,M,M,M,M,M,M,M,M,KQFU 160200Z AUTO 12005KT 9999 SCT023 BKN075 23/18 A2986 RMK A02 TSNO
QEX,2020-09-16 02:00,128.3000,36.1000,69.80,64.40,82.98,220.00,2.00,0.00,29.79,M,6.21,M,OVC,M,M,M,5000.00,M,M,M,M,M,M,M,M,M,M,M,KQEX 160200Z AUTO 22002KT 9999 OVC050 21/18 A2979 RMK A02 TSNO
QFW,2020-09-16 02:00,127.8833,37.6667,71.60,68.00,88.43,240.00,3.00,0.00,29.85,M,6.21,M,BKN,M,M,M,2600.00,M,M,M,M,M,M,M,M,M,M,M,KQFW 160200Z AUTO 24003KT 9999 BKN026 22/20 A2985 RMK A02 TSNO
QFV,2020-09-16 02:00,127.5000,38.0500,68.00,64.40,88.26,100.00,2.00,0.00,29.88,M,5.59,M,FEW,BKN,M,M,600.00,3500.00,M,M,,M,M,M,M,M,M,M,KQFV 160200Z AUTO 10002KT 9000 // FEW006 BKN035 20/18 A2988 RMK A02 TSNO
RKSI,2020-09-16 02:00,126.4500,37.4667,73.40,64.40,73.44,190.00,9.00,0.00,29.80,M,6.21,M,FEW,BKN,OVC,M,1400.00,5000.00,8000.00,M,M,M,M,M,M,M,M,M,RKSI 160200Z 19009KT 9999 FEW014 BKN050 OVC080 23/18 Q1009 NOSIG
RKTS,2020-09-16 02:03,128.1572,36.4083,71.60,68.00,88.43,350.00,1.00,0.00,29.93,M,4.97,M,FEW,BKN,M,M,3000.00,10000.00,M,M,-RA BR,M,M,M,M,M,M,M,RKTS 160203Z 35001KT 8000 -RA BR FEW030 BKN100 22/20 A2993 RMK CIG100
RKTS,2020-09-16 02:04,128.1572,36.4083,73.40,66.20,78.19,140.00,4.00,0.00,29.90,M,4.97,M,SCT,BKN,M,M,3000.00,7000.00,M,M,-RA BR,M,M,M,M,M,M,M,RKTS 160204Z 14004KT 8000 -RA BR SCT030 BKN070 23/19 A2990 RMK CIG070
RKPS,2020-09-16 02:08,128.0704,35.0885,71.60,66.20,83.09,340.00,4.00,0.00,29.88,M,4.97,M,SCT,BKN,OVC,M,1000.00,2000.00,3500.00,M,-RA BR,M,M,M,M,M,M,M,RKPS 160208Z 34004KT 8000 -RA BR SCT010 BKN020 OVC035 22/19 A2988 RMK CIG020
RKTH,2020-09-16 02:08,129.4205,35.9879,73.40,73.40,100.00,60.00,3.00,0.00,29.85,M,3.73,M,FEW,BKN,OVC,M,1000.00,3000.00,8000.00,M,BR,M,M,M,M,M,M,M,RKTH 160208Z 06003KT 6000 BR FEW010 BKN030 OVC080 23/23 A2985 RMK CIG030
RKPK,2020-09-16 02:08,128.9382,35.1795,73.40,64.40,73.44,20.00,8.00,0.00,29.83,M,6.21,M,FEW,BKN,BKN,M,2000.00,3000.00,5000.00,M,-RA,M,M,M,M,M,M,M,RKPK 160208Z 02008KT 9999 -RA FEW020 BKN030 BKN050 23/18 Q1010 RMK CIG030
RKPK,2020-09-16 02:09,128.9382,35.1795,73.40,64.40,73.44,20.00,8.00,0.00,29.84,M,6.21,M,FEW,BKN,BKN,M,2000.00,3000.00,5000.00,M,-RA,M,M,M,M,M,M,M,RKPK 160209Z 02008KT 9999 -RA FEW020 BKN030 BKN050 23/18 A2984 RMK CIG030
QFB,2020-09-16 02:10,128.7167,35.6500,71.60,62.60,73.27,360.00,2.00,0.00,29.91,M,6.21,M,OVC,M,M,M,6000.00,M,M,M,M,M,M,M,M,M,M,M,KQFB 160210Z AUTO 36002KT 9999 OVC060 22/17 A2991 RMK A02 TSNO
QEN,2020-09-16 02:10,128.7500,37.6667,68.00,60.80,77.75,240.00,4.00,0.00,29.92,M,6.21,M,SCT,BKN,BKN,M,1900.00,3200.00,15000.00,M,M,M,M,M,M,M,M,M,KQEN 160210Z AUTO 24004KT 9999 SCT019 BKN032 BKN150 20/16 A2992 RMK A02 TSNO
QES,2020-09-16 02:10,126.4500,36.9667,80.60,66.20,61.58,M,M,0.00,M,M,6.21,M,FEW,BKN,M,M,1700.00,7500.00,M,M,M,M,M,M,M,M,M,M,KQES 160210Z AUTO 9999 FEW017 BKN075 27/19 / RMK A02 TSNO
QEJ,2020-09-16 02:10,127.9500,38.2000,69.80,66.20,88.34,50.00,1.00,0.00,29.84,M,6.21,M,BKN,M,M,M,2400.00,M,M,M,M,M,M,M,M,M,M,M,KQEJ 160210Z AUTO 05001KT 9999 BKN024 21/19 A2984 RMK A02 TSNO
QEI,2020-09-16 02:10,128.0667,37.9500,68.00,66.20,93.97,300.00,2.00,0.00,29.84,M,3.73,M,OVC,M,M,M,2100.00,M,M,M,,M,M,M,M,M,M,M,KQEI 160210Z AUTO 30002KT 6000 // OVC021 20/19 A2984 RMK A02 TSNO
QEQ,2020-09-16 02:10,127.5500,37.8500,73.40,66.20,78.19,210.00,4.00,0.00,29.84,M,6.21,M,FEW,BKN,BKN,M,2100.00,5500.00,7000.00,M,M,M,M,M,M,M,M,M,KQEQ 160210Z AUTO 21004KT 9999 FEW021 BKN055 BKN070 23/19 A2984 RMK A02 TSNO
QEW,2020-09-16 02:10,128.1500,36.4000,73.40,66.20,78.19,60.00,1.00,0.00,29.85,M,4.97,M,BKN,M,M,M,1700.00,M,M,M,HZ,M,M,M,M,M,M,M,KQEW 160210Z AUTO 06001KT 8000 HZ BKN017 23/19 A2985 RMK A02 TSNO
QEP,2020-09-16 02:10,127.2667,37.4000,75.20,66.20,73.61,150.00,2.00,0.00,29.84,M,5.59,M,SCT,BKN,M,M,1400.00,2000.00,M,M,HZ,M,M,M,M,M,M,M,KQEP 160210Z AUTO 15002KT 9000 HZ SCT014 BKN020 24/19 A2984 RMK A02 TSNO
QFT,2020-09-16 02:10,127.3500,37.6000,71.60,68.00,88.43,330.00,3.00,0.00,29.81,M,M,M,BKN,M,M,M,2000.00,M,M,M,,M,M,M,M,M,M,M,KQFT 160210Z AUTO 33003KT / // BKN020 22/20 A2981 RMK A02 TSNO
QFU,2020-09-16 02:10,126.9667,37.8000,73.40,64.40,73.44,140.00,3.00,0.00,29.86,M,6.21,M,BKN,BKN,M,M,2300.00,7500.00,M,M,M,M,M,M,M,M,M,M,KQFU 160210Z AUTO 14003KT 9999 BKN023 BKN075 23/18 A2986 RMK A02 TSNO
QEX,2020-09-16 02:10,128.3000,36.1000,69.80,64.40,82.98,250.00,3.00,0.00,29.79,M,6.21,M,OVC,M,M,M,5000.00,M,M,M,M,M,M,M,M,M,M,M,KQEX 160210Z AUTO 25003KT 9999 OVC050 21/18 A2979 RMK A02 TSNO
QFW,2020-09-16 02:10,127.8833,37.6667,71.60,68.00,88.43,300.00,2.00,0.00,29.84,M,6.21,M,BKN,BKN,M,M,3100.00,12000.00,M,M,M,M,M,M,M,M,M,M,KQFW 160210Z AUTO 30002KT 9999 BKN031 BKN120 22/20 A2984 RMK A02 TSNO
QFV,2020-09-16 02:10,127.5000,38.0500,68.00,64.40,88.26,70.00,1.00,0.00,29.88,M,6.21,M,FEW,BKN,M,M,600.00,3500.00,M,M,M,M,M,M,M,M,M,M,KQFV 160210Z AUTO 07001KT 9999 FEW006 BKN035 20/18 A2988 RMK A02 TSNO
RKPS,2020-09-16 02:14,128.0704,35.0885,M,M,M,M,M,0.00,M,M,M,M,M,M,M,M,M,M,M,M,M,M,M,M,M,M,M,M,RKPS 160214Z 16SPECI
RKTF,2020-09-16 02:14,127.3720,36.3720,69.80,66.20,88.34,100.00,1.00,0.00,29.84,M,5.59,M,SCT,BKN,M,M,1000.00,4000.00,M,M,-RA BR,M,M,M,M,M,M,M,RKTF 160214Z 10001KT 9000 -RA BR SCT010 BKN040 21/19 A2984 RMK CIG040
RKTH,2020-09-16 02:14,129.4205,35.9879,M,M,M,M,M,0.00,M,M,M,M,M,M,M,M,M,M,M,M,M,M,M,M,M,M,M,M,RKTH 160214Z 16SPECI
RKPK,2020-09-16 02:14,128.9382,35.1795,M,M,M,M,M,0.00,M,M,M,M,M,M,M,M,M,M,M,M,M,M,M,M,M,M,M,M,RKPK 160214Z 16SPECI
QFB,2020-09-16 02:20,128.7167,35.6500,71.60,62.60,73.27,320.00,3.00,0.00,29.92,M,6.21,M,OVC,M,M,M,6000.00,M,M,M,M,M,M,M,M,M,M,M,KQFB 160220Z AUTO 32003KT 9999 OVC060 22/17 A2992 RMK A02 TSNO
QEN,2020-09-16 02:20,128.7500,37.6667,68.00,60.80,77.75,240.00,3.00,0.00,29.92,M,6.21,M,FEW,SCT,BKN,M,1900.00,3400.00,14000.00,M,M,M,M,M,M,M,M,M,KQEN 160220Z AUTO 24003KT 9999 FEW019 SCT034 BKN140 20/16 A2992 RMK A02 TSNO
QES,2020-09-16 02:20,126.4500,36.9667,80.60,66.20,61.58,M,M,0.00,M,M,6.21,M,FEW,SCT,BKN,M,1700.00,8000.00,11000.00,M,M,M,M,M,M,M,M,M,KQES 160220Z AUTO 9999 FEW017 SCT080 BKN110 27/19 / RMK A02 TSNO
QEJ,2020-09-16 02:20,127.9500,38.2000,69.80,66.20,88.34,50.00,1.00,0.00,29.83,M,6.21,M,FEW,BKN,M,M,800.00,2400.00,M,M,M,M,M,M,M,M,M,M,KQEJ 160220Z AUTO 05001KT 9999 FEW008 BKN024 21/19 A2983 RMK A02 TSNO
QEI,2020-09-16 02:20,128.0667,37.9500,68.00,66.20,93.97,180.00,1.00,0.00,29.84,M,3.73,M,OVC,M,M,M,2100.00,M,M,M,,M,M,M,M,M,M,M,KQEI 160220Z AUTO 18001KT 6000 // OVC021 20/19 A2984 RMK A02 TSNO
QEQ,2020-09-16 02:20,127.5500,37.8500,73.40,66.20,78.19,190.00,3.00,0.00,29.84,M,6.21,M,SCT,BKN,M,M,2400.00,5500.00,M,M,M,M,M,M,M,M,M,M,KQEQ 160220Z AUTO 19003KT 9999 SCT024 BKN055 23/19 A2984 RMK A02 TSNO
QEW,2020-09-16 02:20,128.1500,36.4000,71.60,68.00,88.43,120.00,1.00,0.00,29.85,M,3.73,M,OVC,M,M,M,1700.00,M,M,M,,M,M,M,M,M,M,M,KQEW 160220Z AUTO 12001KT 6000 // OVC017 22/20 A2985 RMK A02 TSNO
QEP,2020-09-16 02:20,127.2667,37.4000,75.20,68.00,78.34,140.00,1.00,0.00,29.84,M,5.59,M,FEW,SCT,BKN,M,1400.00,1900.00,4200.00,M,HZ,M,M,M,M,M,M,M,KQEP 160220Z AUTO 14001KT 9000 HZ FEW014 SCT019 BKN042 24/20 A2984 RMK A02 TSNO
QFT,2020-09-16 02:20,127.3500,37.6000,71.60,68.00,88.43,350.00,2.00,0.00,29.81,M,M,M,FEW,BKN,M,M,1900.00,2100.00,M,M,,M,M,M,M,M,M,M,KQFT 160220Z AUTO 35002KT / // FEW019 BKN021 22/20 A2981 RMK A02 TSNO
QFU,2020-09-16 02:20,126.9667,37.8000,73.40,64.40,73.44,130.00,4.00,0.00,29.86,M,6.21,M,BKN,BKN,M,M,2300.00,7000.00,M,M,M,M,M,M,M,M,M,M,KQFU 160220Z AUTO 13004KT 9999 BKN023 BKN070 23/18 A2986 RMK A02 TSNO
QEX,2020-09-16 02:20,128.3000,36.1000,69.80,64.40,82.98,170.00,2.00,0.00,29.79,M,6.21,M,OVC,M,M,M,5000.00,M,M,M,M,M,M,M,M,M,M,M,KQEX 160220Z AUTO 17002KT 9999 OVC050 21/18 A2979 RMK A02 TSNO
QFW,2020-09-16 02:20,127.8833,37.6667,73.40,68.00,83.21,270.00,1.00,0.00,29.84,M,6.21,M,FEW,FEW,SCT,BKN,3000.00,3500.00,3800.00,12000.00,M,M,M,M,M,M,M,M,KQFW 160220Z AUTO 27001KT 9999 FEW030 FEW035 SCT038 BKN120 23/20 A2984 RMK A02 TSNO
QFV,2020-09-16 02:20,127.5000,38.0500,68.00,64.40,88.26,130.00,2.00,0.00,29.88,M,6.21,M,BKN,M,M,M,3500.00,M,M,M,M,M,M,M,M,M,M,M,KQFV 160220Z AUTO 13002KT 9999 BKN035 20/18 A2988 RMK A02 TSNO
RKTU,2020-09-16 02:22,127.4991,36.7166,75.20,66.20,73.61,220.00,4.00,0.00,29.80,M,6.21,M,SCT,BKN,BKN,M,2500.00,6000.00,15000.00,M,-RA,M,M,M,M,M,M,M,RKTU 160222Z 22004KT 9999 -RA SCT025 BKN060 BKN150 24/19 Q1009 RMK CIG060
RKTU,2020-09-16 02:23,127.4991,36.7166,75.20,66.20,73.61,220.00,4.00,0.00,29.82,M,6.21,M,SCT,BKN,BKN,M,2500.00,6000.00,15000.00,M,-RA,M,M,M,M,M,M,M,RKTU 160223Z 22004KT 9999 -RA SCT025 BKN060 BKN150 24/19 A2982 RMK CIG060
RKTE,2020-09-16 02:28,127.5001,36.5682,69.80,68.00,94.01,200.00,4.00,0.00,29.80,M,5.59,M,FEW,BKN,M,M,1800.00,5000.00,M,M,BR,M,M,M,M,M,M,M,RKTE 160228Z 20004KT 9000 BR FEW018 BKN050 21/20 A2980 RMK CIG050
QFB,2020-09-16 02:30,128.7167,35.6500,71.60,62.60,73.27,310.00,2.00,0.00,29.91,M,6.21,M,OVC,M,M,M,6000.00,M,M,M,M,M,M,M,M,M,M,M,KQFB 160230Z AUTO 31002KT 9999 OVC060 22/17 A2991 RMK A02 TSNO
RKTU,2020-09-16 02:30,127.4991,36.7166,M,M,M,M,M,0.00,M,M,M,M,M,M,M,M,M,M,M,M,M,M,M,M,M,M,M,M,RKTU 160230Z 16SPECI
QEN,2020-09-16 02:30,128.7500,37.6667,68.00,60.80,77.75,220.00,2.00,0.00,29.91,M,6.21,M,FEW,BKN,M,M,1900.00,14000.00,M,M,M,M,M,M,M,M,M,M,KQEN 160230Z AUTO 22002KT 9999 FEW019 BKN140 20/16 A2991 RMK A02 TSNO
QES,2020-09-16 02:30,126.4500,36.9667,80.60,66.20,61.58,M,M,0.00,M,M,6.21,M,FEW,SCT,BKN,M,1600.00,8000.00,10000.00,M,M,M,M,M,M,M,M,M,KQES 160230Z AUTO 9999 FEW016 SCT080 BKN100 27/19 / RMK A02 TSNO
QEJ,2020-09-16 02:30,127.9500,38.2000,69.80,66.20,88.34,10.00,1.00,0.00,29.83,M,6.21,M,FEW,FEW,BKN,M,800.00,2500.00,3800.00,M,M,M,M,M,M,M,M,M,KQEJ 160230Z AUTO 01001KT 9999 FEW008 FEW025 BKN038 21/19 A2983 RMK A02 TSNO
QEI,2020-09-16 02:30,128.0667,37.9500,68.00,64.40,88.26,320.00,3.00,0.00,29.84,M,3.73,M,OVC,M,M,M,2100.00,M,M,M,,M,M,M,M,M,M,M,KQEI 160230Z AUTO 32003KT 6000 // OVC021 20/18 A2984 RMK A02 TSNO
QEQ,2020-09-16 02:30,127.5500,37.8500,71.60,68.00,88.43,210.00,4.00,0.00,29.84,M,6.21,M,SCT,BKN,BKN,M,2400.00,5500.00,7500.00,M,M,M,M,M,M,M,M,M,KQEQ 160230Z AUTO 21004KT 9999 SCT024 BKN055 BKN075 22/20 A2984 RMK A02 TSNO
QEW,2020-09-16 02:30,128.1500,36.4000,69.80,66.20,88.34,110.00,4.00,0.00,29.84,M,3.73,M,OVC,M,M,M,1600.00,M,M,M,,M,M,M,M,M,M,M,KQEW 160230Z AUTO 11004KT 6000 // OVC016 21/19 A2984 RMK A02 TSNO
QEP,2020-09-16 02:30,127.2667,37.4000,75.20,66.20,73.61,140.00,2.00,0.00,29.84,M,5.59,M,BKN,M,M,M,2000.00,M,M,M,HZ,M,M,M,M,M,M,M,KQEP 160230Z AUTO 14002KT 9000 HZ BKN020 24/19 A2984 RMK A02 TSNO
QFT,2020-09-16 02:30,127.3500,37.6000,73.40,68.00,83.21,40.00,1.00,0.00,29.81,M,M,M,BKN,BKN,M,M,2100.00,23000.00,M,M,,M,M,M,M,M,M,M,KQFT 160230Z AUTO 04001KT / // BKN021 BKN230 23/20 A2981 RMK A02 TSNO
QFU,2020-09-16 02:30,126.9667,37.8000,75.20,64.40,69.14,120.00,3.00,0.00,29.86,M,6.21,M,SCT,BKN,M,M,2300.00,6500.00,M,M,M,M,M,M,M,M,M,M,KQFU 160230Z AUTO 12003KT 9999 SCT023 BKN065 24/18 A2986 RMK A02 TSNO
QEX,2020-09-16 02:30,128.3000,36.1000,69.80,64.40,82.98,260.00,1.00,0.00,29.78,M,4.97,M,OVC,M,M,M,5000.00,M,M,M,HZ,M,M,M,M,M,M,M,KQEX 160230Z AUTO 26001KT 8000 HZ OVC050 21/18 A2978 RMK A02 TSNO
QFW,2020-09-16 02:30,127.8833,37.6667,73.40,68.00,83.21,220.00,1.00,0.00,29.83,M,6.21,M,BKN,BKN,M,M,3300.00,12000.00,M,M,M,M,M,M,M,M,M,M,KQFW 160230Z AUTO 22001KT 9999 BKN033 BKN120 23/20 A2983 RMK A02 TSNO
QFV,2020-09-16 02:30,127.5000,38.0500,69.80,64.40,82.98,130.00,1.00,0.00,29.88,M,6.21,M,BKN,M,M,M,3500.00,M,M,M,M,M,M,M,M,M,M,M,KQFV 160230Z AUTO 13001KT 9999 BKN035 21/18 A2988 RMK A02 TSNO
RKSI,2020-09-16 02:30,126.4500,37.4667,73.40,64.40,73.44,160.00,9.00,0.00,29.80,M,6.21,M,FEW,BKN,BKN,M,1400.00,5000.00,11000.00,M,M,M,M,M,M,M,M,M,RKSI 160230Z 16009KT 140V200 9999 FEW014 BKN050 BKN110 23/18 Q1009 NOSIG
RKTY,2020-09-16 02:31,128.3548,36.6319,73.40,66.20,78.19,140.00,2.00,0.00,29.85,M,6.21,M,BKN,BKN,M,M,3000.00,10000.00,M,M,-RA,M,M,M,M,M,M,M,RKTY 160231Z 14002KT 9999 -RA BKN030 BKN100 23/19 A2985 RMK CIG030 WR26
RKPS,2020-09-16 02:33,128.0704,35.0885,69.80,68.00,94.01,50.00,3.00,0.00,29.87,M,2.98,M,BKN,OVC,M,M,1000.00,2000.00,M,M,-RA BR,M,M,M,M,M,M,M,RKPS 160233Z 05003KT 4800 -RA BR BKN010 OVC020 21/20 A2987 RMK CIG010
RKTF,2020-09-16 02:33,127.3720,36.3720,69.80,66.20,88.34,110.00,2.00,0.00,29.83,M,5.59,M,SCT,BKN,M,M,1000.00,4000.00,M,M,BR,M,M,M,M,M,M,M,RKTF 160233Z 11002KT 9000 BR SCT010 BKN040 21/19 A2983 RMK CIG040
RKTW,2020-09-16 02:35,126.5500,36.2000,71.60,68.00,88.43,110.00,1.00,0.00,29.75,M,6.21,M,BKN,M,M,M,10000.00,M,M,M,M,M,M,M,M,M,M,M,RKTW 160235Z 11001KT 9999 BKN100 22/20 A2975 RMK CIG100
RKPS,2020-09-16 02:38,128.0704,35.0885,69.80,68.00,94.01,50.00,3.00,0.00,29.86,M,3.73,M,BKN,OVC,M,M,1000.00,2000.00,M,M,BR,M,M,M,M,M,M,M,RKPS 160238Z 05003KT 6000 BR BKN010 OVC020 21/20 A2986 RMK CIG010
RKNO,2020-09-16 02:39,128.4667,38.4667,69.80,68.00,94.01,0.00,0.00,0.00,29.80,M,5.59,M,BKN,M,M,M,4000.00,M,M,M,-RA BR,M,M,M,M,M,M,M,RKNO 160239Z 00000KT 9000 -RA BR BKN040 21/20 A2980 RMK CIG040
RKPS,2020-09-16 02:40,128.0704,35.0885,M,M,M,M,M,0.00,M,M,M,M,M,M,M,M,M,M,M,M,M,M,M,M,M,M,M,M,RKPS 160240Z 16SPECI
QFB,2020-09-16 02:40,128.7167,35.6500,73.40,64.40,73.44,280.00,3.00,0.00,29.91,M,6.21,M,FEW,OVC,M,M,3200.00,6000.00,M,M,M,M,M,M,M,M,M,M,KQFB 160240Z AUTO 28003KT 9999 FEW032 OVC060 23/18 A2991 RMK A02 TSNO
QEN,2020-09-16 02:40,128.7500,37.6667,69.80,60.80,73.09,240.00,2.00,0.00,29.91,M,6.21,M,FEW,BKN,M,M,2200.00,14000.00,M,M,M,M,M,M,M,M,M,M,KQEN 160240Z AUTO 24002KT 9999 FEW022 BKN140 21/16 A2991 RMK A02 TSNO
QES,2020-09-16 02:40,126.4500,36.9667,80.60,66.20,61.58,M,M,0.00,M,M,6.21,M,FEW,BKN,M,M,1600.00,10000.00,M,M,M,M,M,M,M,M,M,M,KQES 160240Z AUTO 9999 FEW016 BKN100 27/19 / RMK A02 TSNO
QEJ,2020-09-16 02:40,127.9500,38.2000,69.80,66.20,88.34,10.00,1.00,0.00,29.83,M,6.21,M,FEW,BKN,M,M,800.00,3800.00,M,M,M,M,M,M,M,M,M,M,KQEJ 160240Z AUTO 01001KT 9999 FEW008 BKN038 21/19 A2983 RMK A02 TSNO
QEI,2020-09-16 02:40,128.0667,37.9500,68.00,64.40,88.26,320.00,1.00,0.00,29.83,M,4.97,M,OVC,M,M,M,1800.00,M,M,M,,M,M,M,M,M,M,M,KQEI 160240Z AUTO 32001KT 8000 // OVC018 20/18 A2983 RMK A02 TSNO
QEQ,2020-09-16 02:40,127.5500,37.8500,73.40,68.00,83.21,240.00,3.00,0.00,29.84,M,6.21,M,BKN,M,M,M,2500.00,M,M,M,M,M,M,M,M,M,M,M,KQEQ 160240Z AUTO 24003KT 9999 BKN025 23/20 A2984 RMK A02 TSNO
QEW,2020-09-16 02:40,128.1500,36.4000,69.80,68.00,94.01,170.00,1.00,0.00,29.84,M,2.98,M,OVC,M,M,M,1600.00,M,M,M,,M,M,M,M,M,M,M,KQEW 160240Z AUTO 17001KT 4800 // OVC016 21/20 A2984 RMK A02 TSNO
QEP,2020-09-16 02:40,127.2667,37.4000,75.20,66.20,73.61,140.00,2.00,0.00,29.83,M,5.59,M,BKN,M,M,M,2300.00,M,M,M,HZ,M,M,M,M,M,M,M,KQEP 160240Z AUTO 14002KT 9000 HZ BKN023 24/19 A2983 RMK A02 TSNO
QFT,2020-09-16 02:40,127.3500,37.6000,73.40,68.00,83.21,30.00,2.00,0.00,29.81,M,M,M,BKN,M,M,M,2100.00,M,M,M,,M,M,M,M,M,M,M,KQFT 160240Z AUTO 03002KT / // BKN021 23/20 A2981 RMK A02 TSNO
QFU,2020-09-16 02:40,126.9667,37.8000,73.40,66.20,78.19,130.00,3.00,0.00,29.85,M,6.21,M,SCT,SCT,BKN,M,2600.00,4300.00,6500.00,M,M,M,M,M,M,M,M,M,KQFU 160240Z AUTO 13003KT 9999 SCT026 SCT043 BKN065 23/19 A2985 RMK A02 TSNO
QEX,2020-09-16 02:40,128.3000,36.1000,69.80,64.40,82.98,180.00,1.00,0.00,29.78,M,5.59,M,BKN,M,M,M,5500.00,M,M,M,HZ,M,M,M,M,M,M,M,KQEX 160240Z AUTO 18001KT 9000 HZ BKN055 21/18 A2978 RMK A02 TSNO
QFW,2020-09-16 02:40,127.8833,37.6667,71.60,68.00,88.43,250.00,3.00,0.00,29.83,M,4.97,M,BKN,BKN,M,M,3300.00,12000.00,M,M,,M,M,M,M,M,M,M,KQFW 160240Z AUTO 25003KT 8000 // BKN033 BKN120 22/20 A2983 RMK A02 TSNO
QFV,2020-09-16 02:40,127.5000,38.0500,69.80,64.40,82.98,140.00,1.00,0.00,29.87,M,6.21,M,BKN,BKN,M,M,3400.00,11000.00,M,M,M,M,M,M,M,M,M,M,KQFV 160240Z AUTO 14001KT 9999 BKN034 BKN110 21/18 A2987 RMK A02 TSNO
RKTE,2020-09-16 02:43,127.5001,36.5682,69.80,68.00,94.01,190.00,3.00,0.00,29.79,M,5.59,M,FEW,BKN,M,M,1800.00,4500.00,M,M,-RA BR,M,M,M,M,M,M,M,RKTE 160243Z 19003KT 9000 -RA BR FEW018 BKN045 21/20 A2979 RMK CIG045
RKSY,2020-09-16 02:43,126.9753,37.5241,75.20,66.20,73.61,0.00,0.00,0.00,29.78,1008.70,6.21,M,SCT,BKN,BKN,OVC,2300.00,2800.00,5500.00,9000.00,M,M,M,M,M,M,M,M,RKSY 160243Z AUTO 00000KT 9999 SCT023 BKN028 BKN055 OVC090 24/19 A2978 RMK AO2 CIG 028V090 BKN028 V SCT SLP087
RKPS,2020-09-16 02:44,128.0704,35.0885,M,M,M,M,M,0.00,M,M,M,M,M,M,M,M,M,M,M,M,M,M,M,M,M,M,M,M,RKPS 160244Z 16SPECI
RKSY,2020-09-16 02:48,126.9753,37.5241,75.20,66.20,73.61,0.00,0.00,0.00,29.78,1008.70,6.21,M,SCT,SCT,BKN,BKN,2300.00,2800.00,3400.00,5500.00,M,M,M,M,M,M,M,M,RKSY 160248Z AUTO 00000KT 9999 SCT023 SCT028 BKN034 BKN055 OVC090 24/19 A2978 RMK AO2 SLP087
QFB,2020-09-16 02:50,128.7167,35.6500,73.40,64.40,73.44,300.00,3.00,0.00,29.90,M,6.21,M,FEW,OVC,M,M,3100.00,5500.00,M,M,M,M,M,M,M,M,M,M,KQFB 160250Z AUTO 30003KT 9999 FEW031 OVC055 23/18 A2990 RMK A02 TSNO
QEN,2020-09-16 02:50,128.7500,37.6667,69.80,60.80,73.09,200.00,3.00,0.00,29.91,M,6.21,M,FEW,FEW,BKN,M,2200.00,3200.00,14000.00,M,M,M,M,M,M,M,M,M,KQEN 160250Z AUTO 20003KT 9999 FEW022 FEW032 BKN140 21/16 A2991 RMK A02 TSNO
QES,2020-09-16 02:50,126.4500,36.9667,80.60,66.20,61.58,M,M,0.00,M,M,6.21,M,FEW,SCT,BKN,M,1600.00,3100.00,10000.00,M,-RA,M,M,M,M,M,M,M,KQES 160250Z AUTO 9999 -RA FEW016 SCT031 BKN100 27/19 / RMK A02 TSNO
QEJ,2020-09-16 02:50,127.9500,38.2000,69.80,66.20,88.34,60.00,1.00,0.00,29.83,M,6.21,M,FEW,SCT,BKN,M,900.00,2000.00,3500.00,M,M,M,M,M,M,M,M,M,KQEJ 160250Z AUTO 06001KT 9999 FEW009 SCT020 BKN035 21/19 A2983 RMK A02 TSNO
QEI,2020-09-16 02:50,128.0667,37.9500,68.00,66.20,93.97,310.00,2.00,0.00,29.83,M,4.97,M,OVC,M,M,M,1800.00,M,M,M,,M,M,M,M,M,M,M,KQEI 160250Z AUTO 31002KT 8000 // OVC018 20/19 A2983 RMK A02 TSNO
QEQ,2020-09-16 02:50,127.5500,37.8500,73.40,69.80,88.51,310.00,1.00,0.00,29.84,M,5.59,M,BKN,M,M,M,2500.00,M,M,M,-RA,M,M,M,M,M,M,M,KQEQ 160250Z AUTO 31001KT 9000 -RA BKN025 23/21 A2984 RMK A02 TSNO
QEW,2020-09-16 02:50,128.1500,36.4000,69.80,66.20,88.34,100.00,3.00,0.00,29.84,M,2.98,M,OVC,M,M,M,1400.00,M,M,M,,M,M,M,M,M,M,M,KQEW 160250Z AUTO 10003KT 4800 // OVC014 21/19 A2984 RMK A02 TSNO
QEP,2020-09-16 02:50,127.2667,37.4000,75.20,68.00,78.34,130.00,2.00,0.00,29.83,M,4.97,M,BKN,M,M,M,2700.00,M,M,M,HZ,M,M,M,M,M,M,M,KQEP 160250Z AUTO 13002KT 8000 HZ BKN027 24/20 A2983 RMK A02 TSNO
QFT,2020-09-16 02:50,127.3500,37.6000,73.40,68.00,83.21,350.00,1.00,0.00,29.80,M,M,M,BKN,M,M,M,2200.00,M,M,M,,M,M,M,M,M,M,M,KQFT 160250Z AUTO 35001KT / // BKN022 23/20 A2980 RMK A02 TSNO
QFU,2020-09-16 02:50,126.9667,37.8000,73.40,66.20,78.19,120.00,4.00,0.00,29.85,M,6.21,M,FEW,SCT,BKN,M,2700.00,4300.00,6500.00,M,M,M,M,M,M,M,M,M,KQFU 160250Z AUTO 12004KT 9999 FEW027 SCT043 BKN065 23/19 A2985 RMK A02 TSNO
QEX,2020-09-16 02:50,128.3000,36.1000,71.60,66.20,83.09,360.00,2.00,0.00,29.77,M,6.21,M,FEW,BKN,M,M,1500.00,6000.00,M,M,M,M,M,M,M,M,M,M,KQEX 160250Z AUTO 36002KT 9999 FEW015 BKN060 22/19 A2977 RMK A02 TSNO
QFW,2020-09-16 02:50,127.8833,37.6667,73.40,68.00,83.21,250.00,3.00,0.00,29.83,M,6.21,M,BKN,BKN,M,M,3200.00,13000.00,M,M,M,M,M,M,M,M,M,M,KQFW 160250Z AUTO 25003KT 9999 BKN032 BKN130 23/20 A2983 RMK A02 TSNO
QFV,2020-09-16 02:50,127.5000,38.0500,69.80,64.40,82.98,200.00,1.00,0.00,29.87,M,6.21,M,BKN,BKN,M,M,3400.00,11000.00,M,M,M,M,M,M,M,M,M,M,KQFV 160250Z AUTO 20001KT 9999 BKN034 BKN110 21/18 A2987 RMK A02 TSNO
RKJK,2020-09-16 02:56,126.6220,35.8994,73.80,67.50,80.69,70.00,5.00,0.00,29.79,1009.20,10.00,M,OVC,M,M,M,2800.00,M,M,M,M,M,M,M,M,M,M,M,RKJK 160256Z AUTO 07005KT 10SM OVC028 23/20 A2979 RMK AO2 SLP092 60002 T02320197 57009 $
RKSG,2020-09-16 02:56,127.0311,36.9622,75.20,64.40,69.14,190.00,10.00,0.01,29.82,1009.60,4.00,M,OVC,M,M,M,4500.00,M,M,M,-DZ BR,M,M,M,M,M,M,M,RKSG 160256Z 19010KT 4SM -DZ BR OVC045 24/18 A2982 RMK AO2A DZB56 SLP096 P0001 60001 RVRNO $ 0846
RKSO,2020-09-16 02:58,127.0296,37.0906,75.70,66.70,73.66,200.00,9.00,0.00,29.79,1009.00,6.00,M,SCT,OVC,M,M,2400.00,5000.00,M,M,HZ,M,M,M,M,M,M,M,RKSO 160258Z 20009KT 6SM HZ SCT024 OVC050 24/19 A2979 RMK AO2A SLP090 T02430193 57012 $
RKSY,2020-09-16 02:58,126.9753,37.5241,76.10,66.70,72.68,0.00,0.00,0.00,29.78,1008.70,6.21,M,SCT,SCT,BKN,OVC,2300.00,3000.00,4200.00,5500.00,M,M,M,M,M,M,M,M,RKSY 160258Z AUTO 00000KT 9999 SCT023 SCT030 BKN042 OVC055 25/19 A2978 RMK AO2 SLP087 60000 T02450193 57017
RKPS,2020-09-16 03:00,128.0704,35.0885,71.60,68.00,88.43,50.00,2.00,0.00,29.85,1010.90,4.97,M,BKN,OVC,M,M,1000.00,2000.00,M,M,M,M,M,M,M,M,M,M,RKPS 160300Z 05002KT 8000 BKN010 OVC020 22/20 Q1011 RMK CIG010 SLP109 8/6// 9/8//
RKJB,2020-09-16 03:00,126.3800,34.9800,77.00,71.60,83.44,170.00,7.00,0.00,29.80,M,6.21,M,OVC,M,M,M,2000.00,M,M,M,M,M,M,M,M,M,M,M,RKJB 160300Z 17007KT 9999 OVC020 25/22 Q1009 NOSIG
RKJJ,2020-09-16 03:00,126.8089,35.1264,77.00,71.60,83.44,160.00,7.00,0.00,29.80,1009.10,6.21,M,SCT,BKN,M,M,2000.00,3000.00,M,M,M,M,M,M,M,M,M,M,RKJJ 160300Z 16007KT 9999 SCT020 BKN030 25/22 Q1009 RMK CIG030 SLP091 8/500 9/700 WR24P
RKPC,2020-09-16 03:00,126.4930,33.5113,75.20,73.40,94.14,50.00,5.00,0.00,29.77,M,6.21,M,FEW,BKN,OVC,M,1000.00,3500.00,10000.00,M,M,M,M,M,M,M,M,M,RKPC 160300Z 05005KT 010V080 9999 FEW010 BKN035 OVC100 24/23 Q1008 NOSIG
RKNY,2020-09-16 03:00,128.6692,38.0613,71.60,66.20,83.09,100.00,5.00,0.00,29.77,M,6.21,M,FEW,BKN,BKN,M,5000.00,12000.00,18000.00,M,M,M,M,M,M,M,M,M,RKNY 160300Z 10005KT 9999 FEW050 BKN120 BKN180 22/19 Q1008 NOSIG
RKSM,2020-09-16 03:00,127.1139,37.4458,77.00,68.00,73.78,150.00,5.00,0.00,29.80,M,4.97,M,SCT,BKN,OVC,M,1500.00,3000.00,10000.00,M,-RA BR,M,M,M,M,M,M,M,RKSM 160300Z 15005KT 8000 -RA BR SCT015 BKN030 OVC100 25/20 A2980
QFB,2020-09-16 03:00,128.7167,35.6500,73.40,64.40,73.44,260.00,1.00,0.00,29.90,M,6.21,M,SCT,OVC,M,M,3000.00,5500.00,M,M,M,M,M,M,M,M,M,M,KQFB 160300Z AUTO 26001KT 9999 SCT030 OVC055 23/18 A2990 RMK A02 TSNO
RKSS,2020-09-16 03:00,126.7906,37.5583,75.20,68.00,78.34,180.00,6.00,0.00,29.80,M,6.21,M,BKN,OVC,M,M,2500.00,7000.00,M,M,M,M,M,M,M,M,M,M,RKSS 160300Z 18006KT 140V210 9999 BKN025 OVC070 24/20 Q1009 NOSIG
RKTH,2020-09-16 03:00,129.4205,35.9879,73.40,73.40,100.00,30.00,1.00,0.00,29.83,1010.50,3.73,M,FEW,BKN,OVC,M,1000.00,3000.00,8000.00,M,M,M,M,M,M,M,M,M,RKTH 160300Z 03001KT 6000 FEW010 BKN030 OVC080 23/23 Q1010 RMK CIG030 SLP105 8/52/ 9/53/
RKTN,2020-09-16 03:00,128.6589,35.8941,71.60,64.40,78.04,130.00,3.00,0.00,29.83,M,6.21,M,FEW,BKN,M,M,1500.00,6000.00,M,M,M,M,M,M,M,M,M,M,RKTN 160300Z 13003KT 9999 FEW015 BKN060 22/18 Q1010
RKTU,2020-09-16 03:00,127.4991,36.7166,69.80,68.00,94.01,210.00,5.00,0.00,29.80,M,5.59,M,SCT,BKN,BKN,M,2500.00,4000.00,15000.00,M,-RA,M,M,M,M,M,M,M,RKTU 160300Z 21005KT 9000 -RA SCT025 BKN040 BKN150 21/20 Q1009
QEN,2020-09-16 03:00,128.7500,37.6667,69.80,59.00,68.55,240.00,2.00,0.00,29.91,M,6.21,M,FEW,SCT,BKN,M,2200.00,3500.00,14000.00,M,M,M,M,M,M,M,M,M,KQEN 160300Z AUTO 24002KT 9999 FEW022 SCT035 BKN140 21/15 A2991 RMK A02 TSNO
QES,2020-09-16 03:00,126.4500,36.9667,80.60,66.20,61.58,M,M,0.00,M,M,6.21,M,SCT,BKN,M,M,2700.00,10000.00,M,M,-SHRA,M,M,M,M,M,M,M,KQES 160300Z AUTO 9999 -SHRA SCT027 BKN100 27/19 / RMK A02 TSNO
QEJ,2020-09-16 03:00,127.9500,38.2000,69.80,66.20,88.34,20.00,1.00,0.00,29.82,M,6.21,M,BKN,BKN,M,M,1100.00,4300.00,M,M,M,M,M,M,M,M,M,M,KQEJ 160300Z AUTO 02001KT 9999 BKN011 BKN043 21/19 A2982 RMK A02 TSNO
QEI,2020-09-16 03:00,128.0667,37.9500,68.00,66.20,93.97,300.00,2.00,0.00,29.82,M,4.97,M,OVC,M,M,M,1900.00,M,M,M,,M,M,M,M,M,M,M,KQEI 160300Z AUTO 30002KT 8000 // OVC019 20/19 A2982 RMK A02 TSNO
QEQ,2020-09-16 03:00,127.5500,37.8500,71.60,69.80,94.06,290.00,3.00,0.00,29.84,M,4.97,M,BKN,M,M,M,2500.00,M,M,M,-SHRA,M,M,M,M,M,M,M,KQEQ 160300Z AUTO 29003KT 8000 -SHRA BKN025 22/21 A2984 RMK A02 TSNO
QEW,2020-09-16 03:00,128.1500,36.4000,69.80,66.20,88.34,160.00,2.00,0.00,29.83,M,3.73,M,OVC,M,M,M,1300.00,M,M,M,,M,M,M,M,M,M,M,KQEW 160300Z AUTO 16002KT 6000 // OVC013 21/19 A2983 RMK A02 TSNO
QEP,2020-09-16 03:00,127.2667,37.4000,75.20,66.20,73.61,110.00,3.00,0.00,29.83,M,4.97,M,FEW,FEW,BKN,M,2200.00,2900.00,5000.00,M,HZ,M,M,M,M,M,M,M,KQEP 160300Z AUTO 11003KT 8000 HZ FEW022 FEW029 BKN050 24/19 A2983 RMK A02 TSNO
RKPK,2020-09-16 03:00,128.9382,35.1795,71.60,66.20,83.09,10.00,5.00,0.00,29.83,M,3.73,M,FEW,SCT,BKN,M,1500.00,2000.00,3000.00,M,-RA,M,M,M,M,M,M,M,RKPK 160300Z 01005KT 6000 -RA FEW015 SCT020 BKN030 22/19 Q1010
QFT,2020-09-16 03:00,127.3500,37.6000,73.40,68.00,83.21,330.00,2.00,0.00,29.79,M,M,M,FEW,SCT,SCT,M,2400.00,3400.00,5500.00,M,,M,M,M,M,M,M,M,KQFT 160300Z AUTO 33002KT / // FEW024 SCT034 SCT055 23/20 A2979 RMK A02 TSNO
QFU,2020-09-16 03:00,126.9667,37.8000,75.20,66.20,73.61,120.00,5.00,0.00,29.84,M,6.21,M,FEW,SCT,BKN,M,2700.00,4300.00,6500.00,M,M,M,M,M,M,M,M,M,KQFU 160300Z AUTO 12005KT 9999 FEW027 SCT043 BKN065 24/19 A2984 RMK A02 TSNO
QEX,2020-09-16 03:00,128.3000,36.1000,71.60,66.20,83.09,40.00,2.00,0.00,29.76,M,6.21,M,SCT,BKN,M,M,1400.00,6000.00,M,M,M,M,M,M,M,M,M,M,KQEX 160300Z AUTO 04002KT 9999 SCT014 BKN060 22/19 A2976 RMK A02 TSNO
QFW,2020-09-16 03:00,127.8833,37.6667,73.40,68.00,83.21,250.00,3.00,0.00,29.83,M,6.21,M,SCT,BKN,M,M,3300.00,11000.00,M,M,M,M,M,M,M,M,M,M,KQFW 160300Z AUTO 25003KT 9999 SCT033 BKN110 23/20 A2983 RMK A02 TSNO
QFV,2020-09-16 03:00,127.5000,38.0500,69.80,64.40,82.98,140.00,1.00,0.00,29.86,M,6.21,M,BKN,BKN,M,M,3300.00,11000.00,M,M,M,M,M,M,M,M,M,M,KQFV 160300Z AUTO 14001KT 9999 BKN033 BKN110 21/18 A2986 RMK A02 TSNO
RKSI,2020-09-16 03:00,126.4500,37.4667,75.20,62.60,64.91,180.00,8.00,0.00,29.80,M,5.59,M,FEW,BKN,BKN,M,1700.00,2500.00,10000.00,M,-RA,M,M,M,M,M,M,M,RKSI 160300Z 18008KT 9000 -RA FEW017 BKN025 BKN100 24/17 Q1009 NOSIG
RKSG,2020-09-16 03:02,127.0311,36.9622,75.20,64.40,69.14,190.00,10.00,0.00,M,1009.60,4.00,M,OVC,M,M,M,4500.00,M,M,M,-DZ BR,M,M,M,M,M,M,M,RKSG 160302Z 19010KT 4SM -DZ BR OVC045 24/18 RMK DZB56 SLP096 RVRNO $
RKTE,2020-09-16 03:04,127.5001,36.5682,71.60,68.00,88.43,160.00,2.00,0.00,29.79,M,5.59,M,FEW,BKN,M,M,2000.00,5000.00,M,M,BR,M,M,M,M,M,M,M,RKTE 160304Z 16002KT 9000 BR FEW020 BKN050 22/20 A2979 RMK CIG050
QFB,2020-09-16 03:10,128.7167,35.6500,73.40,64.40,73.44,300.00,2.00,0.00,29.89,M,6.21,M,SCT,OVC,M,M,2900.00,5500.00,M,M,M,M,M,M,M,M,M,M,KQFB 160310Z AUTO 30002KT 9999 SCT029 OVC055 23/18 A2989 RMK A02 TSNO
QEN,2020-09-16 03:10,128.7500,37.6667,68.00,60.80,77.75,200.00,3.00,0.00,29.90,M,6.21,M,SCT,BKN,M,M,3600.00,13000.00,M,M,M,M,M,M,M,M,M,M,KQEN 160310Z AUTO 20003KT 9999 SCT036 BKN130 20/16 A2990 RMK A02 TSNO
QES,2020-09-16 03:10,126.4500,36.9667,80.60,66.20,61.58,M,M,0.00,M,M,6.21,M,BKN,BKN,M,M,2000.00,10000.00,M,M,M,M,M,M,M,M,M,M,KQES 160310Z AUTO 9999 BKN020 BKN100 27/19 / RMK A02 TSNO
QEJ,2020-09-16 03:10,127.9500,38.2000,71.60,66.20,83.09,90.00,1.00,0.00,29.82,M,6.21,M,BKN,M,M,M,1100.00,M,M,M,M,M,M,M,M,M,M,M,KQEJ 160310Z AUTO 09001KT 9999 BKN011 22/19 A2982 RMK A02 TSNO
QEI,2020-09-16 03:10,128.0667,37.9500,69.80,66.20,88.34,300.00,2.00,0.00,29.82,M,4.97,M,OVC,M,M,M,3700.00,M,M,M,,M,M,M,M,M,M,M,KQEI 160310Z AUTO 30002KT 8000 // OVC037 21/19 A2982 RMK A02 TSNO
QEQ,2020-09-16 03:10,127.5500,37.8500,71.60,69.80,94.06,300.00,3.00,0.00,29.84,M,6.21,M,BKN,BKN,M,M,2500.00,6500.00,M,M,M,M,M,M,M,M,M,M,KQEQ 160310Z AUTO 30003KT 9999 BKN025 BKN065 22/21 A2984 RMK A02 TSNO
QEW,2020-09-16 03:10,128.1500,36.4000,69.80,68.00,94.01,50.00,2.00,0.00,29.83,M,6.21,M,BKN,BKN,M,M,1300.00,6500.00,M,M,M,M,M,M,M,M,M,M,KQEW 160310Z AUTO 05002KT 9999 BKN013 BKN065 21/20 A2983 RMK A02 TSNO
QEP,2020-09-16 03:10,127.2667,37.4000,75.20,66.20,73.61,130.00,2.00,0.00,29.83,M,4.97,M,FEW,BKN,M,M,2900.00,5000.00,M,M,HZ,M,M,M,M,M,M,M,KQEP 160310Z AUTO 13002KT 8000 HZ FEW029 BKN050 24/19 A2983 RMK A02 TSNO
QFT,2020-09-16 03:10,127.3500,37.6000,75.20,68.00,78.34,290.00,1.00,0.00,29.79,M,M,M,FEW,SCT,SCT,M,1900.00,3400.00,9500.00,M,,M,M,M,M,M,M,M,KQFT 160310Z AUTO 29001KT / // FEW019 SCT034 SCT095 24/20 A2979 RMK A02 TSNO
QFU,2020-09-16 03:10,126.9667,37.8000,75.20,64.40,69.14,120.00,4.00,0.00,29.84,M,6.21,M,FEW,BKN,M,M,2700.00,6500.00,M,M,M,M,M,M,M,M,M,M,KQFU 160310Z AUTO 12004KT 9999 FEW027 BKN065 24/18 A2984 RMK A02 TSNO
QEX,2020-09-16 03:10,128.3000,36.1000,71.60,66.20,83.09,40.00,3.00,0.00,29.76,M,6.21,M,FEW,SCT,BKN,M,1400.00,1700.00,6000.00,M,M,M,M,M,M,M,M,M,KQEX 160310Z AUTO 04003KT 9999 FEW014 SCT017 BKN060 22/19 A2976 RMK A02 TSNO
QFW,2020-09-16 03:10,127.8833,37.6667,73.40,68.00,83.21,260.00,3.00,0.00,29.83,M,6.21,M,FEW,BKN,M,M,3200.00,12000.00,M,M,M,M,M,M,M,M,M,M,KQFW 160310Z AUTO 26003KT 9999 FEW032 BKN120 23/20 A2983 RMK A02 TSNO
QFV,2020-09-16 03:10,127.5000,38.0500,71.60,64.40,78.04,120.00,3.00,0.00,29.86,M,6.21,M,BKN,BKN,M,M,3300.00,8500.00,M,M,M,M,M,M,M,M,M,M,KQFV 160310Z AUTO 12003KT 9999 BKN033 BKN085 22/18 A2986 RMK A02 TSNO
RKTU,2020-09-16 03:11,127.4991,36.7166,71.60,68.00,88.43,250.00,1.00,0.00,29.80,M,5.59,M,SCT,BKN,BKN,M,2500.00,4000.00,15000.00,M,M,M,M,M,M,M,M,M,RKTU 160311Z 25001KT 9000 SCT025 BKN040 BKN150 22/20 Q1009 RMK CIG040
RKTY,2020-09-16 03:13,128.3548,36.6319,73.40,68.00,83.21,160.00,2.00,0.00,29.84,M,5.59,M,FEW,BKN,BKN,M,2000.00,3000.00,10000.00,M,BR,M,M,M,M,M,M,M,RKTY 160313Z 16002KT 9000 BR FEW020 BKN030 BKN100 23/20 A2984 RMK CIG030 WR26
RKTU,2020-09-16 03:19,127.4991,36.7166,M,M,M,M,M,0.00,M,M,M,M,M,M,M,M,M,M,M,M,M,M,M,M,M,M,M,M,RKTU 160319Z 16SPECI
QFB,2020-09-16 03:20,128.7167,35.6500,75.20,64.40,69.14,360.00,1.00,0.00,29.89,M,6.21,M,SCT,OVC,M,M,2800.00,5500.00,M,M,M,M,M,M,M,M,M,M,KQFB 160320Z AUTO 36001KT 9999 SCT028 OVC055 24/18 A2989 RMK A02 TSNO
QEN,2020-09-16 03:20,128.7500,37.6667,69.80,60.80,73.09,240.00,3.00,0.00,29.90,M,6.21,M,FEW,SCT,SCT,M,2400.00,3600.00,12000.00,M,M,M,M,M,M,M,M,M,KQEN 160320Z AUTO 24003KT 9999 FEW024 SCT036 SCT120 21/16 A2990 RMK A02 TSNO
QES,2020-09-16 03:20,126.4500,36.9667,80.60,66.20,61.58,M,M,0.00,M,M,6.21,M,BKN,BKN,M,M,2000.00,10000.00,M,M,M,M,M,M,M,M,M,M,KQES 160320Z AUTO 9999 BKN020 BKN0100 27/19 / RMK A02 TSNO
QEJ,2020-09-16 03:20,127.9500,38.2000,71.60,66.20,83.09,20.00,1.00,0.00,29.81,M,6.21,M,SCT,BKN,M,M,1000.00,1100.00,M,M,M,M,M,M,M,M,M,M,KQEJ 160320Z AUTO 02001KT 9999 SCT010 BKN011 22/19 A2981 RMK A02 TSNO
QEI,2020-09-16 03:20,128.0667,37.9500,69.80,66.20,88.34,330.00,3.00,0.00,29.82,M,3.73,M,OVC,M,M,M,3200.00,M,M,M,,M,M,M,M,M,M,M,KQEI 160320Z AUTO 33003KT 6000 // OVC032 21/19 A2982 RMK A02 TSNO
QEQ,2020-09-16 03:20,127.5500,37.8500,73.40,69.80,88.51,320.00,2.00,0.00,29.84,M,4.97,M,BKN,BKN,M,M,2500.00,6500.00,M,M,M,M,M,M,M,M,M,M,KQEQ 160320Z AUTO 32002KT 8000 BKN025 BKN065 23/21 A2984 RMK A02 TSNO
QEW,2020-09-16 03:20,128.1500,36.4000,69.80,66.20,88.34,90.00,1.00,0.00,29.83,M,6.21,M,FEW,BKN,BKN,M,800.00,1300.00,6000.00,M,M,M,M,M,M,M,M,M,KQEW 160320Z AUTO 09001KT 9999 FEW008 BKN013 BKN060 21/19 A2983 RMK A02 TSNO
QEP,2020-09-16 03:20,127.2667,37.4000,75.20,66.20,73.61,120.00,5.00,0.00,29.82,M,4.97,M,BKN,M,M,M,5500.00,M,M,M,HZ,M,M,M,M,M,M,M,KQEP 160320Z AUTO 12005KT 8000 HZ BKN055 24/19 A2982 RMK A02 TSNO
QFT,2020-09-16 03:20,127.3500,37.6000,73.40,68.00,83.21,280.00,2.00,0.00,29.79,M,M,M,FEW,FEW,SCT,M,1900.00,9500.00,12000.00,M,,M,M,M,M,M,M,M,KQFT 160320Z AUTO 28002KT / // FEW019 FEW095 SCT120 23/20 A2979 RMK A02 TSNO
QFU,2020-09-16 03:20,126.9667,37.8000,75.20,64.40,69.14,140.00,3.00,0.00,29.84,M,6.21,M,FEW,BKN,M,M,2900.00,6500.00,M,M,M,M,M,M,M,M,M,M,KQFU 160320Z AUTO 14003KT 9999 FEW029 BKN065 24/18 A2984 RMK A02 TSNO
QEX,2020-09-16 03:20,128.3000,36.1000,71.60,66.20,83.09,40.00,3.00,0.00,29.75,M,6.21,M,FEW,BKN,BKN,M,1400.00,1600.00,5500.00,M,M,M,M,M,M,M,M,M,KQEX 160320Z AUTO 04003KT 9999 FEW014 BKN016 BKN055 22/19 A2975 RMK A02 TSNO
QFW,2020-09-16 03:20,127.8833,37.6667,73.40,66.20,78.19,300.00,2.00,0.00,29.82,M,6.21,M,SCT,BKN,M,M,4500.00,11000.00,M,M,M,M,M,M,M,M,M,M,KQFW 160320Z AUTO 30002KT 9999 SCT045 BKN110 23/19 A2982 RMK A02 TSNO
QFV,2020-09-16 03:20,127.5000,38.0500,71.60,64.40,78.04,140.00,3.00,0.00,29.86,M,6.21,M,BKN,BKN,M,M,3300.00,8500.00,M,M,M,M,M,M,M,M,M,M,KQFV 160320Z AUTO 14003KT 9999 BKN033 BKN085 22/18 A2986 RMK A02 TSNO
RKJJ,2020-09-16 03:23,126.8089,35.1264,73.40,69.80,88.51,70.00,3.00,0.00,29.83,M,5.59,M,FEW,BKN,M,M,2000.00,3000.00,M,M,BR,M,M,M,M,M,M,M,RKJJ 160323Z 07003KT 9000 BR FEW020 BKN030 23/21 A2983 RMK CIG030
RKPK,2020-09-16 03:25,128.9382,35.1795,71.60,68.00,88.43,10.00,6.00,0.00,29.83,M,3.73,M,SCT,BKN,M,M,1500.00,3000.00,M,M,BR,M,M,M,M,M,M,M,RKPK 160325Z 01006KT 6000 BR SCT015 BKN030 22/20 A2983 RMK CIG030
QFB,2020-09-16 03:30,128.7167,35.6500,73.40,64.40,73.44,10.00,2.00,0.00,29.88,M,6.21,M,FEW,OVC,M,M,2800.00,5000.00,M,M,M,M,M,M,M,M,M,M,KQFB 160330Z AUTO 01002KT 9999 FEW028 OVC050 23/18 A2988 RMK A02 TSNO
QEN,2020-09-16 03:30,128.7500,37.6667,71.60,60.80,68.75,220.00,2.00,0.00,29.89,M,6.21,M,FEW,SCT,M,M,3500.00,11000.00,M,M,M,M,M,M,M,M,M,M,KQEN 160330Z AUTO 22002KT 9999 FEW035 SCT110 22/16 A2989 RMK A02 TSNO
QES,2020-09-16 03:30,126.4500,36.9667,80.60,66.20,61.58,M,M,0.00,M,M,6.21,M,BKN,BKN,M,M,2000.00,10000.00,M,M,M,M,M,M,M,M,M,M,KQES 160330Z AUTO 9999 BKN020 BKN100 27/19 / RMK A02 TSNO
QEJ,2020-09-16 03:30,127.9500,38.2000,71.60,66.20,83.09,80.00,1.00,0.00,29.81,M,6.21,M,FEW,SCT,BKN,BKN,1000.00,2400.00,2700.00,12000.00,M,M,M,M,M,M,M,M,KQEJ 160330Z AUTO 08001KT 9999 FEW010 SCT024 BKN027 BKN120 22/19 A2981 RMK A02 TSNO
QEI,2020-09-16 03:30,128.0667,37.9500,69.80,64.40,82.98,320.00,3.00,0.00,29.81,M,6.21,M,SCT,BKN,M,M,3000.00,12000.00,M,M,M,M,M,M,M,M,M,M,KQEI 160330Z AUTO 32003KT 9999 SCT030 BKN120 21/18 A2981 RMK A02 TSNO
QEQ,2020-09-16 03:30,127.5500,37.8500,73.40,71.60,94.10,360.00,1.00,0.00,29.83,M,6.21,M,SCT,BKN,M,M,2500.00,6500.00,M,M,M,M,M,M,M,M,M,M,KQEQ 160330Z AUTO 36001KT 9999 SCT025 BKN065 23/22 A2983 RMK A02 TSNO
QEW,2020-09-16 03:30,128.1500,36.4000,69.80,66.20,88.34,100.00,2.00,0.00,29.82,M,6.21,M,FEW,SCT,BKN,M,800.00,3500.00,5000.00,M,M,M,M,M,M,M,M,M,KQEW 160330Z AUTO 10002KT 9999 FEW008 SCT035 BKN050 21/19 A2982 RMK A02 TSNO
QEP,2020-09-16 03:30,127.2667,37.4000,77.00,66.20,69.33,130.00,4.00,0.00,29.81,M,5.59,M,OVC,M,M,M,5500.00,M,M,M,HZ,M,M,M,M,M,M,M,KQEP 160330Z AUTO 13004KT 9000 HZ OVC055 25/19 A2981 RMK A02 TSNO
QFT,2020-09-16 03:30,127.3500,37.6000,77.00,66.20,69.33,280.00,2.00,0.00,29.79,M,M,M,FEW,SCT,M,M,1900.00,12000.00,M,M,,M,M,M,M,M,M,M,KQFT 160330Z AUTO 28002KT / // FEW019 SCT120 25/19 A2979 RMK A02 TSNO
QFU,2020-09-16 03:30,126.9667,37.8000,75.20,64.40,69.14,150.00,3.00,0.00,29.84,M,6.21,M,FEW,BKN,M,M,3000.00,6500.00,M,M,M,M,M,M,M,M,M,M,KQFU 160330Z AUTO 15003KT 9999 FEW030 BKN065 24/18 A2984 RMK A02 TSNO
QEX,2020-09-16 03:30,128.3000,36.1000,71.60,66.20,83.09,40.00,2.00,0.00,29.75,M,6.21,M,BKN,OVC,M,M,1600.00,5500.00,M,M,M,M,M,M,M,M,M,M,KQEX 160330Z AUTO 04002KT 9999 BKN016 OVC055 22/19 A2975 RMK A02 TSNO
QFW,2020-09-16 03:30,127.8833,37.6667,73.40,66.20,78.19,270.00,1.00,0.00,29.82,M,6.21,M,SCT,BKN,M,M,4300.00,12000.00,M,M,M,M,M,M,M,M,M,M,KQFW 160330Z AUTO 27001KT 9999 SCT043 BKN120 23/19 A2982 RMK A02 TSNO
QFV,2020-09-16 03:30,127.5000,38.0500,71.60,64.40,78.04,140.00,4.00,0.00,29.86,M,6.21,M,SCT,BKN,M,M,3200.00,8500.00,M,M,M,M,M,M,M,M,M,M,KQFV 160330Z AUTO 14004KT 9999 SCT032 BKN085 22/18 A2986 RMK A02 TSNO
RKSI,2020-09-16 03:30,126.4500,37.4667,75.20,62.60,64.91,190.00,8.00,0.00,29.77,M,6.21,M,BKN,BKN,M,M,2500.00,9000.00,M,M,M,M,M,M,M,M,M,M,RKSI 160330Z 19008KT 150V220 9999 BKN025 BKN090 24/17 Q1008 NOSIG
RKPK,2020-09-16 03:32,128.9382,35.1795,M,M,M,M,M,0.00,M,M,M,M,M,M,M,M,M,M,M,M,M,M,M,M,M,M,M,M,RKPK 160332Z 16SPECI
RKSM,2020-09-16 03:33,127.1139,37.4458,77.00,66.20,69.33,170.00,4.00,0.00,29.79,M,4.97,M,SCT,BKN,M,M,1500.00,3000.00,M,M,HZ,M,M,M,M,M,M,M,RKSM 160333Z 17004KT 8000 HZ SCT015 BKN030 25/19 A2979 RMK CIG030
QFB,2020-09-16 03:40,128.7167,35.6500,75.20,64.40,69.14,350.00,2.00,0.00,29.88,M,6.21,M,FEW,OVC,M,M,2800.00,5000.00,M,M,M,M,M,M,M,M,M,M,KQFB 160340Z AUTO 35002KT 9999 FEW028 OVC050 24/18 A2988 RMK A02 TSNO
QEN,2020-09-16 03:40,128.7500,37.6667,69.80,60.80,73.09,220.00,1.00,0.00,29.89,M,6.21,M,FEW,FEW,BKN,M,4000.00,11000.00,13000.00,M,M,M,M,M,M,M,M,M,KQEN 160340Z AUTO 22001KT 9999 FEW040 FEW110 BKN130 21/16 A2989 RMK A02 TSNO
QES,2020-09-16 03:40,126.4500,36.9667,80.60,66.20,61.58,M,M,0.00,M,M,6.21,M,FEW,BKN,BKN,M,1700.00,3300.00,10000.00,M,M,M,M,M,M,M,M,M,KQES 160340Z AUTO 9999 FEW017 BKN033 BKN0100 27/19 / RMK A02 TSNO
QEJ,2020-09-16 03:40,127.9500,38.2000,71.60,66.20,83.09,0.00,0.00,0.00,29.81,M,6.21,M,FEW,SCT,BKN,BKN,1000.00,1500.00,2400.00,12000.00,M,M,M,M,M,M,M,M,KQEJ 160340Z AUTO 00000KT 9999 FEW010 SCT015 BKN024 BKN120 22/19 A2981 RMK A02 TSNO
QEI,2020-09-16 03:40,128.0667,37.9500,69.80,64.40,82.98,310.00,4.00,0.00,29.81,M,6.21,M,FEW,BKN,M,M,2700.00,12000.00,M,M,M,M,M,M,M,M,M,M,KQEI 160340Z AUTO 31004KT 9999 FEW027 BKN120 21/18 A2981 RMK A02 TSNO
QEQ,2020-09-16 03:40,127.5500,37.8500,73.40,68.00,83.21,300.00,2.00,0.00,29.83,M,3.73,M,FEW,BKN,M,M,3400.00,6500.00,M,M,HZ,M,M,M,M,M,M,M,KQEQ 160340Z AUTO 30002KT 6000 HZ FEW034 BKN065 23/20 A2983 RMK A02 TSNO
QEW,2020-09-16 03:40,128.1500,36.4000,69.80,66.20,88.34,120.00,1.00,0.00,29.82,M,6.21,M,FEW,OVC,M,M,1000.00,5000.00,M,M,M,M,M,M,M,M,M,M,KQEW 160340Z AUTO 12001KT 9999 FEW010 OVC050 21/19 A2982 RMK A02 TSNO
QEP,2020-09-16 03:40,127.2667,37.4000,77.00,66.20,69.33,140.00,4.00,0.00,29.81,M,5.59,M,BKN,M,M,M,5000.00,M,M,M,HZ,M,M,M,M,M,M,M,KQEP 160340Z AUTO 14004KT 9000 HZ BKN050 25/19 A2981 RMK A02 TSNO
QFT,2020-09-16 03:40,127.3500,37.6000,75.20,68.00,78.34,250.00,2.00,0.00,29.78,M,M,M,FEW,SCT,M,M,6000.00,12000.00,M,M,,M,M,M,M,M,M,M,KQFT 160340Z AUTO 25002KT / // FEW060 SCT120 24/20 A2978 RMK A02 TSNO
QFU,2020-09-16 03:40,126.9667,37.8000,77.00,64.40,65.12,110.00,1.00,0.00,29.84,M,6.21,M,BKN,BKN,M,M,2600.00,6500.00,M,M,M,M,M,M,M,M,M,M,KQFU 160340Z AUTO 11001KT 9999 BKN026 BKN065 25/18 A2984 RMK A02 TSNO
QEX,2020-09-16 03:40,128.3000,36.1000,73.40,66.20,78.19,50.00,2.00,0.00,29.75,M,6.21,M,BKN,M,M,M,1600.00,M,M,M,M,M,M,M,M,M,M,M,KQEX 160340Z AUTO 05002KT 9999 BKN016 23/19 A2975 RMK A02 TSNO
QFW,2020-09-16 03:40,127.8833,37.6667,73.40,66.20,78.19,290.00,3.00,0.00,29.82,M,6.21,M,SCT,BKN,M,M,4300.00,12000.00,M,M,M,M,M,M,M,M,M,M,KQFW 160340Z AUTO 29003KT 9999 SCT043 BKN120 23/19 A2982 RMK A02 TSNO
QFV,2020-09-16 03:40,127.5000,38.0500,71.60,64.40,78.04,110.00,3.00,0.00,29.85,M,6.21,M,FEW,SCT,BKN,M,3200.00,4400.00,8500.00,M,M,M,M,M,M,M,M,M,KQFV 160340Z AUTO 11003KT 9999 FEW032 SCT044 BKN085 22/18 A2985 RMK A02 TSNO
RKTI,2020-09-16 03:47,127.8853,37.0300,75.20,68.00,78.34,200.00,5.00,0.00,29.80,M,5.59,M,SCT,BKN,M,M,3000.00,6000.00,M,M,-RA BR,M,M,M,M,M,M,M,RKTI 160347Z 20005KT 9000 -RA BR SCT030 BKN060 24/20 A2980 RMK CIG060
QFB,2020-09-16 03:50,128.7167,35.6500,73.40,64.40,73.44,300.00,3.00,0.00,29.88,M,6.21,M,FEW,OVC,M,M,2500.00,4700.00,M,M,M,M,M,M,M,M,M,M,KQFB 160350Z AUTO 30003KT 9999 FEW025 OVC047 23/18 A2988 RMK A02 TSNO
RKTU,2020-09-16 03:50,127.4991,36.7166,69.80,68.00,94.01,330.00,4.00,0.00,29.80,M,5.59,M,FEW,BKN,M,M,2000.00,5000.00,M,M,-DZ,M,M,M,M,M,M,M,RKTU 160350Z 33004KT 9000 -DZ FEW020 BKN050 21/20 Q1009 RMK CIG050
QEN,2020-09-16 03:50,128.7500,37.6667,69.80,60.80,73.09,170.00,2.00,0.00,29.89,M,6.21,M,FEW,SCT,BKN,M,2900.00,11000.00,13000.00,M,M,M,M,M,M,M,M,M,KQEN 160350Z AUTO 17002KT 9999 FEW029 SCT110 BKN130 21/16 A2989 RMK A02 TSNO
QES,2020-09-16 03:50,126.4500,36.9667,80.60,66.20,61.58,M,M,0.00,M,M,6.21,M,SCT,BKN,M,M,3400.00,10000.00,M,M,M,M,M,M,M,M,M,M,KQES 160350Z AUTO 9999 SCT034 BKN0100 27/19 / RMK A02 TSNO
QEJ,2020-09-16 03:50,127.9500,38.2000,73.40,66.20,78.19,330.00,1.00,0.00,29.81,M,6.21,M,FEW,FEW,SCT,BKN,1500.00,2400.00,3200.00,12000.00,M,M,M,M,M,M,M,M,KQEJ 160350Z AUTO 33001KT 9999 FEW015 FEW024 SCT032 BKN120 23/19 A2981 RMK A02 TSNO
QEI,2020-09-16 03:50,128.0667,37.9500,69.80,66.20,88.34,310.00,3.00,0.00,29.82,M,6.21,M,SCT,BKN,M,M,4800.00,12000.00,M,M,M,M,M,M,M,M,M,M,KQEI 160350Z AUTO 31003KT 9999 SCT048 BKN120 21/19 A2982 RMK A02 TSNO
QEQ,2020-09-16 03:50,127.5500,37.8500,73.40,71.60,94.10,20.00,1.00,0.00,29.83,M,6.21,M,FEW,BKN,M,M,3600.00,6000.00,M,M,M,M,M,M,M,M,M,M,KQEQ 160350Z AUTO 02001KT 9999 FEW036 BKN060 23/22 A2983 RMK A02 TSNO
QEW,2020-09-16 03:50,128.1500,36.4000,69.80,66.20,88.34,60.00,1.00,0.00,29.82,M,6.21,M,FEW,OVC,M,M,1100.00,5000.00,M,M,M,M,M,M,M,M,M,M,KQEW 160350Z AUTO 06001KT 9999 FEW011 OVC050 21/19 A2982 RMK A02 TSNO
QEP,2020-09-16 03:50,127.2667,37.4000,75.20,66.20,73.61,130.00,5.00,0.00,29.81,M,6.21,M,SCT,BKN,M,M,5000.00,15000.00,M,M,M,M,M,M,M,M,M,M,KQEP 160350Z AUTO 13005KT 9999 SCT050 BKN150 24/19 A2981 RMK A02 TSNO
QFT,2020-09-16 03:50,127.3500,37.6000,75.20,68.00,78.34,240.00,2.00,0.00,29.78,M,M,M,FEW,FEW,SCT,M,3700.00,5500.00,12000.00,M,,M,M,M,M,M,M,M,KQFT 160350Z AUTO 24002KT / // FEW037 FEW055 SCT120 24/20 A2978 RMK A02 TSNO
QFU,2020-09-16 03:50,126.9667,37.8000,77.00,66.20,69.33,150.00,4.00,0.00,29.84,M,6.21,M,BKN,BKN,BKN,M,2600.00,6000.00,7000.00,M,M,M,M,M,M,M,M,M,KQFU 160350Z AUTO 15004KT 9999 BKN026 BKN060 BKN070 25/19 A2984 RMK A02 TSNO
QEX,2020-09-16 03:50,128.3000,36.1000,73.40,66.20,78.19,20.00,3.00,0.00,29.75,M,6.21,M,BKN,M,M,M,1600.00,M,M,M,M,M,M,M,M,M,M,M,KQEX 160350Z AUTO 02003KT 9999 BKN016 23/19 A2975 RMK A02 TSNO
QFW,2020-09-16 03:50,127.8833,37.6667,73.40,66.20,78.19,280.00,3.00,0.00,29.82,M,6.21,M,FEW,BKN,M,M,4200.00,11000.00,M,M,M,M,M,M,M,M,M,M,KQFW 160350Z AUTO 28003KT 9999 FEW042 BKN110 23/19 A2982 RMK A02 TSNO
QFV,2020-09-16 03:50,127.5000,38.0500,71.60,64.40,78.04,110.00,4.00,0.00,29.85,M,6.21,M,FEW,BKN,M,M,3900.00,8000.00,M,M,M,M,M,M,M,M,M,M,KQFV 160350Z AUTO 11004KT 9999 FEW039 BKN080 22/18 A2985 RMK A02 TSNO
RKSG,2020-09-16 03:51,127.0311,36.9622,M,M,M,170.00,7.00,0.00,29.82,1009.60,3.00,M,BKN,OVC,M,M,4500.00,6500.00,M,M,-RA BR,M,M,M,M,M,M,M,RKSG 160351Z 17007KT 3SM -RA BR BKN045 OVC065 A2982 21/19 RMK AO2A TWR VIS 2 1/2SM DZB1256E51RAB51 SLP096 RVRNO $
RKTU,2020-09-16 03:51,127.4991,36.7166,69.80,68.00,94.01,330.00,4.00,0.00,29.82,M,5.59,M,FEW,BKN,M,M,2000.00,5000.00,M,M,-DZ BR,M,M,M,M,M,M,M,RKTU 160351Z 33004KT 9000 -DZ BR FEW020 BKN050 21/20 A2982 RMK CIG050
RKJK,2020-09-16 03:56,126.6220,35.8994,75.00,68.40,79.95,80.00,4.00,0.00,29.78,1008.80,10.00,M,BKN,OVC,M,M,2200.00,2900.00,M,M,M,M,M,M,M,M,M,M,RKJK 160356Z AUTO 08004KT 10SM BKN022 OVC029 24/20 A2978 RMK AO2 SLP088 T02390202 $
RKSO,2020-09-16 03:58,127.0296,37.0906,72.70,67.10,82.59,180.00,10.00,0.00,29.79,1009.10,7.00,M,SCT,OVC,M,M,2400.00,4300.00,M,M,M,M,M,M,M,M,M,M,RKSO 160358Z 18010KT 7SM SCT024 OVC043 23/20 A2979 RMK AO2A SLP091 T02260195 $
RKSY,2020-09-16 03:58,126.9753,37.5241,77.90,65.80,66.37,130.00,3.00,0.00,29.77,1008.40,6.21,M,SCT,BKN,BKN,OVC,4400.00,5500.00,7000.00,10000.00,M,M,M,M,M,M,M,M,RKSY 160358Z AUTO 13003KT 9999 SCT044 BKN055 BKN070 OVC100 26/19 A2977 RMK AO2 SLP084 T02550188
RKSG,2020-09-16 03:59,127.0311,36.9622,69.80,66.20,88.34,190.00,8.00,0.01,29.82,1009.60,3.00,M,FEW,BKN,OVC,M,500.00,4700.00,6500.00,M,-RA BR,M,M,M,M,M,M,M,RKSG 160359Z 19008KT 3SM -RA BR FEW005 BKN047 OVC065 21/19 A2982 RMK AO2A TWR VIS 2 1/2SM DZB1256E51RAB51 SLP096 P0001 RVRNO $ 0850
RKPS,2020-09-16 04:00,128.0704,35.0885,73.40,68.00,83.21,30.00,2.00,0.00,29.83,1010.40,5.59,M,BKN,OVC,M,M,1000.00,2000.00,M,M,M,M,M,M,M,M,M,M,RKPS 160400Z 03002KT 9000 BKN010 OVC020 23/20 Q1010 RMK CIG010 SLP104 8/6//0 9/8//
RKJB,2020-09-16 04:00,126.3800,34.9800,77.00,71.60,83.44,190.00,7.00,0.00,29.80,M,6.21,M,OVC,M,M,M,2000.00,M,M,M,M,M,M,M,M,M,M,M,RKJB 160400Z 19007KT 9999 OVC020 25/22 Q1009 NOSIG
RKJJ,2020-09-16 04:00,126.8089,35.1264,77.00,69.80,78.48,180.00,7.00,0.00,29.80,1008.90,6.21,M,BKN,M,M,M,3000.00,M,M,M,M,M,M,M,M,M,M,M,RKJJ 160400Z 18007KT 9999 BKN030 25/21 Q1009 RMK CIG030 SLP089 8/500 9/700 WR24P
RKPC,2020-09-16 04:00,126.4930,33.5113,77.00,75.20,94.19,10.00,3.00,0.00,29.77,M,6.21,M,SCT,M,M,M,3500.00,M,M,M,M,M,M,M,M,M,M,M,RKPC 160400Z 01003KT 280V070 9999 SCT035 25/24 Q1008 NOSIG
RKNY,2020-09-16 04:00,128.6692,38.0613,71.60,68.00,88.43,90.00,1.00,0.00,29.77,M,5.59,M,BKN,BKN,M,M,4000.00,10000.00,M,M,-RA,M,M,M,M,M,M,M,RKNY 160400Z 09001KT 9000 -RA BKN040 BKN100 22/20 Q1008 NOSIG
RKSM,2020-09-16 04:00,127.1139,37.4458,77.00,66.20,69.33,180.00,6.00,0.00,29.79,M,6.21,M,FEW,BKN,BKN,M,1500.00,5000.00,10000.00,M,M,M,M,M,M,M,M,M,RKSM 160400Z 18006KT 9999 FEW015 BKN050 BKN100 25/19 A2979
QFB,2020-09-16 04:00,128.7167,35.6500,73.40,64.40,73.44,300.00,3.00,0.00,29.88,M,6.21,M,SCT,OVC,M,M,2500.00,4600.00,M,M,M,M,M,M,M,M,M,M,KQFB 160400Z AUTO 30003KT 9999 SCT025 OVC046 23/18 A2988 RMK A02 TSNO
RKSS,2020-09-16 04:00,126.7906,37.5583,77.00,66.20,69.33,190.00,4.00,0.00,29.77,M,6.21,M,BKN,OVC,M,M,2500.00,7000.00,M,M,M,M,M,M,M,M,M,M,RKSS 160400Z 19004KT 110V240 9999 BKN025 OVC070 25/19 Q1008 NOSIG
RKTH,2020-09-16 04:00,129.4205,35.9879,73.40,73.40,100.00,50.00,4.00,0.00,29.83,1010.20,3.73,M,FEW,BKN,OVC,M,1000.00,3000.00,8000.00,M,M,M,M,M,M,M,M,M,RKTH 160400Z 05004KT 6000 FEW010 BKN030 OVC080 23/23 Q1010 RMK CIG030 SLP102 8/52/ 9/53/
RKTN,2020-09-16 04:00,128.6589,35.8941,73.40,64.40,73.44,140.00,3.00,0.00,29.80,M,6.21,M,FEW,BKN,M,M,1500.00,6000.00,M,M,M,M,M,M,M,M,M,M,RKTN 160400Z 14003KT 9999 FEW015 BKN060 23/18 Q1009
RKTU,2020-09-16 04:00,127.4991,36.7166,69.80,68.00,94.01,330.00,4.00,0.00,29.80,M,6.21,M,FEW,BKN,M,M,2000.00,4000.00,M,M,-DZ,M,M,M,M,M,M,M,RKTU 160400Z 33004KT 9999 -DZ FEW020 BKN040 21/20 Q1009
QEN,2020-09-16 04:00,128.7500,37.6667,69.80,59.00,68.55,140.00,1.00,0.00,29.89,M,6.21,M,SCT,BKN,M,M,2800.00,13000.00,M,M,M,M,M,M,M,M,M,M,KQEN 160400Z AUTO 14001KT 9999 SCT028 BKN130 21/15 A2989 RMK A02 TSNO
QES,2020-09-16 04:00,126.4500,36.9667,80.60,66.20,61.58,M,M,0.00,M,M,6.21,M,BKN,BKN,M,M,3500.00,10000.00,M,M,M,M,M,M,M,M,M,M,KQES 160400Z AUTO 9999 BKN035 BKN0100 27/19 / RMK A02 TSNO
QEJ,2020-09-16 04:00,127.9500,38.2000,73.40,68.00,83.21,20.00,1.00,0.00,29.81,M,6.21,M,FEW,FEW,BKN,BKN,1300.00,1500.00,3200.00,12000.00,M,M,M,M,M,M,M,M,KQEJ 160400Z AUTO 02001KT 9999 FEW013 FEW015 BKN032 BKN120 23/20 A2981 RMK A02 TSNO
QEI,2020-09-16 04:00,128.0667,37.9500,69.80,66.20,88.34,0.00,0.00,0.00,29.81,M,6.21,M,BKN,BKN,M,M,4300.00,12000.00,M,M,M,M,M,M,M,M,M,M,KQEI 160400Z AUTO 00000KT 9999 BKN043 BKN120 21/19 A2981 RMK A02 TSNO
QEQ,2020-09-16 04:00,127.5500,37.8500,73.40,68.00,83.21,340.00,2.00,0.00,29.83,M,5.59,M,FEW,BKN,M,M,3600.00,6000.00,M,M,HZ,M,M,M,M,M,M,M,KQEQ 160400Z AUTO 34002KT 9000 HZ FEW036 BKN060 23/20 A2983 RMK A02 TSNO
QEW,2020-09-16 04:00,128.1500,36.4000,69.80,66.20,88.34,90.00,1.00,0.00,29.82,M,6.21,M,OVC,M,M,M,5500.00,M,M,M,M,M,M,M,M,M,M,M,KQEW 160400Z AUTO 09001KT 9999 OVC055 21/19 A2982 RMK A02 TSNO
QEP,2020-09-16 04:00,127.2667,37.4000,75.20,66.20,73.61,120.00,3.00,0.00,29.81,M,6.21,M,SCT,BKN,BKN,M,4700.00,5000.00,15000.00,M,M,M,M,M,M,M,M,M,KQEP 160400Z AUTO 12003KT 9999 SCT047 BKN050 BKN150 24/19 A2981 RMK A02 TSNO
RKPK,2020-09-16 04:00,128.9382,35.1795,71.60,68.00,88.43,360.00,4.00,0.00,29.80,M,3.73,M,SCT,BKN,M,M,1500.00,3000.00,M,M,M,M,M,M,M,M,M,M,RKPK 160400Z 36004KT 6000 SCT015 BKN030 22/20 Q1009
QFT,2020-09-16 04:00,127.3500,37.6000,75.20,66.20,73.61,250.00,2.00,0.00,29.78,M,M,M,FEW,SCT,SCT,M,3000.00,5500.00,12000.00,M,,M,M,M,M,M,M,M,KQFT 160400Z AUTO 25002KT / // FEW030 SCT055 SCT120 24/19 A2978 RMK A02 TSNO
QFU,2020-09-16 04:00,126.9667,37.8000,77.00,66.20,69.33,110.00,4.00,0.00,29.83,M,6.21,M,BKN,BKN,M,M,2600.00,7500.00,M,M,M,M,M,M,M,M,M,M,KQFU 160400Z AUTO 11004KT 9999 BKN026 BKN075 25/19 A2983 RMK A02 TSNO
QEX,2020-09-16 04:00,128.3000,36.1000,73.40,66.20,78.19,10.00,2.00,0.00,29.75,M,6.21,M,BKN,M,M,M,1600.00,M,M,M,M,M,M,M,M,M,M,M,KQEX 160400Z AUTO 01002KT 9999 BKN016 23/19 A2975 RMK A02 TSNO
QFW,2020-09-16 04:00,127.8833,37.6667,75.20,68.00,78.34,300.00,2.00,0.00,29.81,M,6.21,M,SCT,BKN,M,M,5000.00,11000.00,M,M,M,M,M,M,M,M,M,M,KQFW 160400Z AUTO 30002KT 9999 SCT050 BKN110 24/20 A2981 RMK A02 TSNO
QFV,2020-09-16 04:00,127.5000,38.0500,71.60,64.40,78.04,140.00,4.00,0.00,29.85,M,6.21,M,FEW,BKN,M,M,3900.00,7500.00,M,M,M,M,M,M,M,M,M,M,KQFV 160400Z AUTO 14004KT 9999 FEW039 BKN075 22/18 A2985 RMK A02 TSNO
RKSI,2020-09-16 04:00,126.4500,37.4667,75.20,62.60,64.91,180.00,7.00,0.00,29.77,M,6.21,M,BKN,BKN,M,M,2500.00,9000.00,M,M,M,M,M,M,M,M,M,M,RKSI 160400Z 18007KT 150V210 9999 BKN025 BKN090 24/17 Q1008 NOSIG
RKTU,2020-09-16 04:01,127.4991,36.7166,69.80,68.00,94.01,340.00,5.00,0.00,29.81,M,6.21,M,FEW,BKN,M,M,2000.00,4000.00,M,M,M,M,M,M,M,M,M,M,RKTU 160401Z 34005KT 9999 FEW020 BKN040 21/20 A2981 RMK CIG040
RKTU,2020-09-16 04:07,127.4991,36.7166,M,M,M,M,M,0.00,M,M,M,M,M,M,M,M,M,M,M,M,M,M,M,M,M,M,M,M,RKTU 160407Z 16SPECI
RKNF,2020-09-16 04:09,128.6667,37.7500,60.80,55.40,82.37,220.00,7.00,0.00,29.92,M,6.21,M,FEW,BKN,M,M,1200.00,8000.00,M,M,-RA,M,M,M,M,M,M,M,RKNF 160409Z 22007KT 9999 -RA FEW012 BKN080 16/13 A2992 RMK CIG080
QFB,2020-09-16 04:10,128.7167,35.6500,73.40,64.40,73.44,280.00,4.00,0.00,29.88,M,6.21,M,BKN,OVC,M,M,2400.00,4600.00,M,M,M,M,M,M,M,M,M,M,KQFB 160410Z AUTO 28004KT 9999 BKN024 OVC046 23/18 A2988 RMK A02 TSNO
QEN,2020-09-16 04:10,128.7500,37.6667,69.80,59.00,68.55,270.00,2.00,0.00,29.89,M,6.21,M,BKN,BKN,M,M,2800.00,13000.00,M,M,M,M,M,M,M,M,M,M,KQEN 160410Z AUTO 27002KT 9999 BKN028 BKN130 21/15 A2989 RMK A02 TSNO
QES,2020-09-16 04:10,126.4500,36.9667,80.60,66.20,61.58,M,M,0.00,M,M,6.21,M,BKN,BKN,M,M,3300.00,10000.00,M,M,M,M,M,M,M,M,M,M,KQES 160410Z AUTO 9999 BKN033 BKN100 27/19 / RMK A02 TSNO
QEJ,2020-09-16 04:10,127.9500,38.2000,73.40,66.20,78.19,350.00,2.00,0.00,29.81,M,6.21,M,FEW,SCT,BKN,M,1300.00,3100.00,12000.00,M,M,M,M,M,M,M,M,M,KQEJ 160410Z AUTO 35002KT 9999 FEW013 SCT031 BKN120 23/19 A2981 RMK A02 TSNO
QEI,2020-09-16 04:10,128.0667,37.9500,69.80,66.20,88.34,320.00,4.00,0.00,29.81,M,6.21,M,SCT,BKN,M,M,4000.00,11000.00,M,M,M,M,M,M,M,M,M,M,KQEI 160410Z AUTO 32004KT 9999 SCT040 BKN110 21/19 A2981 RMK A02 TSNO
QEQ,2020-09-16 04:10,127.5500,37.8500,73.40,69.80,88.51,310.00,2.00,0.00,29.83,M,6.21,M,BKN,M,M,M,6000.00,M,M,M,M,M,M,M,M,M,M,M,KQEQ 160410Z AUTO 31002KT 9999 BKN060 23/21 A2983 RMK A02 TSNO
QEW,2020-09-16 04:10,128.1500,36.4000,69.80,64.40,82.98,90.00,2.00,0.00,29.82,M,6.21,M,OVC,M,M,M,5500.00,M,M,M,M,M,M,M,M,M,M,M,KQEW 160410Z AUTO 09002KT 9999 OVC055 21/18 A2982 RMK A02 TSNO
QEP,2020-09-16 04:10,127.2667,37.4000,75.20,66.20,73.61,130.00,4.00,0.00,29.81,M,6.21,M,FEW,BKN,BKN,M,2900.00,4600.00,15000.00,M,M,M,M,M,M,M,M,M,KQEP 160410Z AUTO 13004KT 9999 FEW029 BKN046 BKN150 24/19 A2981 RMK A02 TSNO
QFT,2020-09-16 04:10,127.3500,37.6000,75.20,66.20,73.61,250.00,2.00,0.00,29.78,M,M,M,FEW,SCT,SCT,M,3000.00,5500.00,12000.00,M,,M,M,M,M,M,M,M,KQFT 160410Z AUTO 25002KT / // FEW030 SCT055 SCT120 24/19 A2978 RMK A02 TSNO
QFU,2020-09-16 04:10,126.9667,37.8000,77.00,66.20,69.33,140.00,5.00,0.00,29.83,M,6.21,M,BKN,BKN,M,M,2800.00,7500.00,M,M,M,M,M,M,M,M,M,M,KQFU 160410Z AUTO 14005KT 9999 BKN028 BKN075 25/19 A2983 RMK A02 TSNO
QEX,2020-09-16 04:10,128.3000,36.1000,73.40,66.20,78.19,20.00,2.00,0.00,29.75,M,6.21,M,BKN,M,M,M,1700.00,M,M,M,M,M,M,M,M,M,M,M,KQEX 160410Z AUTO 02002KT 9999 BKN017 23/19 A2975 RMK A02 TSNO
QFW,2020-09-16 04:10,127.8833,37.6667,75.20,68.00,78.34,300.00,3.00,0.00,29.81,M,6.21,M,BKN,BKN,M,M,3000.00,11000.00,M,M,M,M,M,M,M,M,M,M,KQFW 160410Z AUTO 30003KT 9999 BKN030 BKN110 24/20 A2981 RMK A02 TSNO
QFV,2020-09-16 04:10,127.5000,38.0500,71.60,64.40,78.04,120.00,2.00,0.00,29.85,M,6.21,M,BKN,BKN,M,M,3800.00,7500.00,M,M,M,M,M,M,M,M,M,M,KQFV 160410Z AUTO 12002KT 9999 BKN038 BKN075 22/18 A2985 RMK A02 TSNO
RKPM,2020-09-16 04:12,126.1628,33.2939,73.40,73.40,100.00,200.00,3.00,0.00,29.84,M,6.21,M,BKN,M,M,M,1000.00,M,M,M,M,M,M,M,M,M,M,M,RKPM 160412Z 20003KT 9999 BKN010 23/23 A2984 RMK CIG010
RKTI,2020-09-16 04:18,127.8853,37.0300,71.60,68.00,88.43,220.00,7.00,0.00,29.81,M,4.97,M,BKN,OVC,M,M,3000.00,8000.00,M,M,-RA BR,M,M,M,M,M,M,M,RKTI 160418Z 22007KT 8000 -RA BR BKN030 OVC080 22/20 A2981 RMK CIG030
RKSD,2020-09-16 04:19,127.2667,37.3500,73.40,68.00,83.21,170.00,3.00,0.00,29.80,M,5.59,M,FEW,BKN,BKN,M,1800.00,3000.00,10000.00,M,-RA BR,M,M,M,M,M,M,M,RKSD 160419Z 17003KT 9000 -RA BR FEW018 BKN030 BKN100 23/20 A2980 RMK CIG030
RKTY,2020-09-16 04:19,128.3548,36.6319,71.60,66.20,83.09,120.00,1.00,0.00,29.83,M,5.59,M,FEW,BKN,OVC,M,2000.00,3000.00,10000.00,M,-RA BR,M,M,M,M,M,M,M,RKTY 160419Z 12001KT 9000 -RA BR FEW020 BKN030 OVC100 22/19 A2983 RMK CIG030
RKTE,2020-09-16 04:20,127.5001,36.5682,73.40,68.00,83.21,10.00,1.00,0.00,29.78,M,6.21,M,BKN,BKN,M,M,2000.00,5000.00,M,M,M,M,M,M,M,M,M,M,RKTE 160420Z 01001KT 9999 BKN020 BKN050 23/20 A2978 RMK CIG020
QFB,2020-09-16 04:20,128.7167,35.6500,75.20,64.40,69.14,280.00,3.00,0.00,29.87,M,6.21,M,OVC,M,M,M,2400.00,M,M,M,M,M,M,M,M,M,M,M,KQFB 160420Z AUTO 28003KT 9999 OVC024 24/18 A2987 RMK A02 TSNO
QEN,2020-09-16 04:20,128.7500,37.6667,69.80,59.00,68.55,250.00,2.00,0.00,29.88,M,6.21,M,BKN,BKN,BKN,M,2900.00,9000.00,14000.00,M,M,M,M,M,M,M,M,M,KQEN 160420Z AUTO 25002KT 9999 BKN029 BKN090 BKN140 21/15 A2988 RMK A02 TSNO
QES,2020-09-16 04:20,126.4500,36.9667,80.60,66.20,61.58,M,M,0.00,M,M,6.21,M,OVC,M,M,M,3200.00,M,M,M,M,M,M,M,M,M,M,M,KQES 160420Z AUTO 9999 OVC032 27/19 / RMK A02 TSNO
QEJ,2020-09-16 04:20,127.9500,38.2000,75.20,66.20,73.61,330.00,1.00,0.00,29.80,M,6.21,M,FEW,SCT,SCT,BKN,1300.00,3100.00,10000.00,12000.00,M,M,M,M,M,M,M,M,KQEJ 160420Z AUTO 33001KT 9999 FEW013 SCT031 SCT0100 BKN120 24/19 A2980 RMK A02 TSNO
QEI,2020-09-16 04:20,128.0667,37.9500,73.40,66.20,78.19,260.00,1.00,0.00,29.81,M,6.21,M,FEW,SCT,M,M,3600.00,11000.00,M,M,M,M,M,M,M,M,M,M,KQEI 160420Z AUTO 26001KT 9999 FEW036 SCT110 23/19 A2981 RMK A02 TSNO
QEQ,2020-09-16 04:20,127.5500,37.8500,73.40,68.00,83.21,300.00,1.00,0.00,29.82,M,5.59,M,BKN,M,M,M,6000.00,M,M,M,HZ,M,M,M,M,M,M,M,KQEQ 160420Z AUTO 30001KT 9000 HZ BKN060 23/20 A2982 RMK A02 TSNO
QEW,2020-09-16 04:20,128.1500,36.4000,69.80,64.40,82.98,130.00,1.00,0.00,29.82,M,6.21,M,OVC,M,M,M,4900.00,M,M,M,M,M,M,M,M,M,M,M,KQEW 160420Z AUTO 13001KT 9999 OVC049 21/18 A2982 RMK A02 TSNO
QEP,2020-09-16 04:20,127.2667,37.4000,75.20,66.20,73.61,120.00,4.00,0.00,29.81,M,5.59,M,OVC,M,M,M,2500.00,M,M,M,HZ,M,M,M,M,M,M,M,KQEP 160420Z AUTO 12004KT 9000 HZ OVC025 24/19 A2981 RMK A02 TSNO
QFT,2020-09-16 04:20,127.3500,37.6000,75.20,66.20,73.61,180.00,1.00,0.00,29.78,M,M,M,FEW,SCT,BKN,M,3100.00,5500.00,12000.00,M,,M,M,M,M,M,M,M,KQFT 160420Z AUTO 18001KT / // FEW031 SCT055 BKN120 24/19 A2978 RMK A02 TSNO
QFU,2020-09-16 04:20,126.9667,37.8000,75.20,66.20,73.61,110.00,4.00,0.00,29.83,M,6.21,M,BKN,BKN,M,M,2300.00,3800.00,M,M,M,M,M,M,M,M,M,M,KQFU 160420Z AUTO 11004KT 9999 BKN023 BKN038 24/19 A2983 RMK A02 TSNO
QEX,2020-09-16 04:20,128.3000,36.1000,73.40,66.20,78.19,30.00,1.00,0.00,29.74,M,6.21,M,OVC,M,M,M,1700.00,M,M,M,M,M,M,M,M,M,M,M,KQEX 160420Z AUTO 03001KT 9999 OVC017 23/19 A2974 RMK A02 TSNO
QFW,2020-09-16 04:20,127.8833,37.6667,75.20,68.00,78.34,300.00,3.00,0.00,29.81,M,6.21,M,BKN,BKN,M,M,3100.00,11000.00,M,M,M,M,M,M,M,M,M,M,KQFW 160420Z AUTO 30003KT 9999 BKN031 BKN110 24/20 A2981 RMK A02 TSNO
QFV,2020-09-16 04:20,127.5000,38.0500,73.40,64.40,73.44,140.00,2.00,0.00,29.85,M,6.21,M,BKN,BKN,M,M,3800.00,7500.00,M,M,M,M,M,M,M,M,M,M,KQFV 160420Z AUTO 14002KT 9999 BKN038 BKN075 23/18 A2985 RMK A02 TSNO
RKPS,2020-09-16 04:21,128.0704,35.0885,73.40,69.80,88.51,350.00,3.00,0.00,29.84,M,5.59,M,SCT,BKN,OVC,M,700.00,1500.00,2500.00,M,-RA BR,M,M,M,M,M,M,M,RKPS 160421Z 35003KT 9000 -RA BR SCT007 BKN015 OVC025 23/21 A2984 RMK CIG015
RKPK,2020-09-16 04:23,128.9382,35.1795,73.40,68.00,83.21,360.00,3.00,0.00,29.80,M,3.73,M,SCT,BKN,M,M,1500.00,2500.00,M,M,M,M,M,M,M,M,M,M,RKPK 160423Z 36003KT 6000 SCT015 BKN025 23/20 Q1009 RMK CIG025
RKNO,2020-09-16 04:24,128.4667,38.4667,75.20,68.00,78.34,180.00,4.00,0.00,29.78,M,6.21,M,SCT,BKN,M,M,4000.00,12000.00,M,M,M,M,M,M,M,M,M,M,RKNO 160424Z 18004KT 9999 SCT040 BKN120 24/20 A2978 RMK CIG120
RKTI,2020-09-16 04:26,127.8853,37.0300,75.20,68.00,78.34,200.00,5.00,0.00,29.80,M,5.59,M,SCT,BKN,M,M,3000.00,6000.00,M,M,-RA BR,M,M,M,M,M,M,M,RKTI 160426Z 20005KT 9000 -RA BR SCT030 BKN060 24/20 A2980 RMK CIG060
RKPS,2020-09-16 04:28,128.0704,35.0885,M,M,M,M,M,0.00,M,M,M,M,M,M,M,M,M,M,M,M,M,M,M,M,M,M,M,M,RKPS 160428Z 16SPECI
QFB,2020-09-16 04:30,128.7167,35.6500,75.20,64.40,69.14,310.00,2.00,0.00,29.87,M,6.21,M,OVC,M,M,M,2400.00,M,M,M,M,M,M,M,M,M,M,M,KQFB 160430Z AUTO 31002KT 9999 OVC024 24/18 A2987 RMK A02 TSNO
QEN,2020-09-16 04:30,128.7500,37.6667,71.60,55.40,56.63,170.00,5.00,0.00,29.88,M,6.21,M,BKN,BKN,M,M,3000.00,9000.00,M,M,M,M,M,M,M,M,M,M,KQEN 160430Z AUTO 17005KT 9999 BKN030 BKN090 22/13 A2988 RMK A02 TSNO
QES,2020-09-16 04:30,126.4500,36.9667,80.60,66.20,61.58,M,M,0.00,M,M,6.21,M,OVC,M,M,M,3200.00,M,M,M,M,M,M,M,M,M,M,M,KQES 160430Z AUTO 9999 OVC032 27/19 / RMK A02 TSNO
QEJ,2020-09-16 04:30,127.9500,38.2000,73.40,66.20,78.19,350.00,2.00,0.00,29.80,M,6.21,M,FEW,SCT,BKN,BKN,1200.00,1600.00,10000.00,12000.00,M,M,M,M,M,M,M,M,KQEJ 160430Z AUTO 35002KT 9999 FEW012 SCT016 BKN0100 BKN120 23/19 A2980 RMK A02 TSNO
QEI,2020-09-16 04:30,128.0667,37.9500,73.40,68.00,83.21,160.00,1.00,0.00,29.80,M,6.21,M,FEW,SCT,M,M,3000.00,12000.00,M,M,M,M,M,M,M,M,M,M,KQEI 160430Z AUTO 16001KT 9999 FEW030 SCT120 23/20 A2980 RMK A02 TSNO
QEQ,2020-09-16 04:30,127.5500,37.8500,73.40,69.80,88.51,360.00,1.00,0.00,29.82,M,4.97,M,BKN,M,M,M,6500.00,M,M,M,M,M,M,M,M,M,M,M,KQEQ 160430Z AUTO 36001KT 8000 BKN065 23/21 A2982 RMK A02 TSNO
QEW,2020-09-16 04:30,128.1500,36.4000,69.80,66.20,88.34,100.00,1.00,0.00,29.81,M,6.21,M,BKN,OVC,M,M,4500.00,6000.00,M,M,M,M,M,M,M,M,M,M,KQEW 160430Z AUTO 10001KT 9999 BKN045 OVC060 21/19 A2981 RMK A02 TSNO
QEP,2020-09-16 04:30,127.2667,37.4000,75.20,66.20,73.61,140.00,2.00,0.00,29.81,M,6.21,M,OVC,M,M,M,2400.00,M,M,M,M,M,M,M,M,M,M,M,KQEP 160430Z AUTO 14002KT 9999 OVC024 24/19 A2981 RMK A02 TSNO
RKPK,2020-09-16 04:30,128.9382,35.1795,M,M,M,M,M,0.00,M,M,M,M,M,M,M,M,M,M,M,M,M,M,M,M,M,M,M,M,RKPK 160430Z 16SPECI
QFT,2020-09-16 04:30,127.3500,37.6000,77.00,68.00,73.78,180.00,2.00,0.00,29.77,M,M,M,FEW,BKN,BKN,M,3200.00,4600.00,12000.00,M,,M,M,M,M,M,M,M,KQFT 160430Z AUTO 18002KT / // FEW032 BKN046 BKN120 25/20 A2977 RMK A02 TSNO
QFU,2020-09-16 04:30,126.9667,37.8000,75.20,66.20,73.61,120.00,4.00,0.00,29.83,M,6.21,M,FEW,BKN,BKN,BKN,2200.00,2600.00,5500.00,6000.00,M,M,M,M,M,M,M,M,KQFU 160430Z AUTO 12004KT 9999 FEW022 BKN026 BKN055 BKN060 24/19 A2983 RMK A02 TSNO
QEX,2020-09-16 04:30,128.3000,36.1000,75.20,66.20,73.61,40.00,1.00,0.00,29.74,M,6.21,M,OVC,M,M,M,1900.00,M,M,M,M,M,M,M,M,M,M,M,KQEX 160430Z AUTO 04001KT 9999 OVC019 24/19 A2974 RMK A02 TSNO
QFW,2020-09-16 04:30,127.8833,37.6667,75.20,68.00,78.34,280.00,3.00,0.00,29.81,M,6.21,M,BKN,M,M,M,3100.00,M,M,M,M,M,M,M,M,M,M,M,KQFW 160430Z AUTO 28003KT 9999 BKN031 24/20 A2981 RMK A02 TSNO
QFV,2020-09-16 04:30,127.5000,38.0500,73.40,64.40,73.44,180.00,2.00,0.00,29.84,M,6.21,M,OVC,M,M,M,3900.00,M,M,M,M,M,M,M,M,M,M,M,KQFV 160430Z AUTO 18002KT 9999 OVC039 23/18 A2984 RMK A02 TSNO
RKSI,2020-09-16 04:30,126.4500,37.4667,75.20,62.60,64.91,200.00,7.00,0.00,29.77,M,6.21,M,BKN,OVC,M,M,4000.00,9000.00,M,M,M,M,M,M,M,M,M,M,RKSI 160430Z 20007KT 160V230 9999 BKN040 OVC090 24/17 Q1008 NOSIG
RKSD,2020-09-16 04:31,127.2667,37.3500,73.40,68.00,83.21,180.00,3.00,0.00,29.80,M,5.59,M,FEW,BKN,BKN,M,1800.00,3000.00,10000.00,M,BR,M,M,M,M,M,M,M,RKSD 160431Z 18003KT 9000 BR FEW018 BKN030 BKN100 23/20 A2980 RMK CIG030
RKTY,2020-09-16 04:31,128.3548,36.6319,71.60,68.00,88.43,0.00,0.00,0.00,29.82,M,5.59,M,FEW,BKN,OVC,M,2000.00,3000.00,6000.00,M,-RA BR,M,M,M,M,M,M,M,RKTY 160431Z 00000KT 9000 -RA BR FEW020 BKN030 OVC060 22/20 A2982 RMK CIG030 WR26
RKTY,2020-09-16 04:35,128.3548,36.6319,71.60,68.00,88.43,130.00,1.00,0.00,29.82,M,5.59,M,FEW,BKN,BKN,M,2000.00,3000.00,6000.00,M,BR,M,M,M,M,M,M,M,RKTY 160435Z 13001KT 9000 BR FEW020 BKN030 BKN060 22/20 A2982 RMK CIG030 WR26
RKSU,2020-09-16 04:38,127.6329,37.4369,73.40,68.00,83.21,200.00,5.00,0.00,29.82,M,5.59,M,BKN,OVC,M,M,5000.00,12000.00,M,M,-RA BR,M,M,M,M,M,M,M,RKSU 160438Z 20005KT 9000 -RA BR BKN050 OVC120 23/20 A2982 RMK CIG050
RKJK,2020-09-16 04:40,126.6220,35.8994,75.20,68.00,78.34,90.00,3.00,0.00,29.77,1008.50,10.00,M,OVC,M,M,M,1600.00,M,M,M,M,M,M,M,M,M,M,M,RKJK 160440Z 09003KT 10SM OVC016 24/20 A2977 RMK A02A CIG 013V021 OVC V BKN SLP085 $
QFB,2020-09-16 04:40,128.7167,35.6500,75.20,66.20,73.61,350.00,1.00,0.00,29.87,M,6.21,M,OVC,M,M,M,2700.00,M,M,M,M,M,M,M,M,M,M,M,KQFB 160440Z AUTO 35001KT 9999 OVC027 24/19 A2987 RMK A02 TSNO
QEN,2020-09-16 04:40,128.7500,37.6667,69.80,57.20,64.26,260.00,3.00,0.00,29.88,M,6.21,M,BKN,BKN,BKN,M,3200.00,9000.00,12000.00,M,M,M,M,M,M,M,M,M,KQEN 160440Z AUTO 26003KT 9999 BKN032 BKN090 BKN120 21/14 A2988 RMK A02 TSNO
QES,2020-09-16 04:40,126.4500,36.9667,80.60,66.20,61.58,M,M,0.00,M,M,6.21,M,OVC,M,M,M,3200.00,M,M,M,M,M,M,M,M,M,M,M,KQES 160440Z AUTO 9999 OVC032 27/19 / RMK A02 TSNO
QEJ,2020-09-16 04:40,127.9500,38.2000,73.40,66.20,78.19,360.00,2.00,0.00,29.80,M,6.21,M,FEW,BKN,BKN,M,1300.00,1700.00,10000.00,M,M,M,M,M,M,M,M,M,KQEJ 160440Z AUTO 36002KT 9999 FEW013 BKN017 BKN0100 23/19 A2980 RMK A02 TSNO
QEI,2020-09-16 04:40,128.0667,37.9500,71.60,66.20,83.09,330.00,4.00,0.00,29.80,M,6.21,M,FEW,SCT,M,M,2000.00,12000.00,M,M,M,M,M,M,M,M,M,M,KQEI 160440Z AUTO 33004KT 9999 FEW020 SCT120 22/19 A2980 RMK A02 TSNO
QEQ,2020-09-16 04:40,127.5500,37.8500,73.40,71.60,94.10,10.00,2.00,0.00,29.82,M,4.97,M,FEW,BKN,M,M,1700.00,6500.00,M,M,M,M,M,M,M,M,M,M,KQEQ 160440Z AUTO 01002KT 8000 FEW017 BKN065 23/22 A2982 RMK A02 TSNO
QEW,2020-09-16 04:40,128.1500,36.4000,69.80,66.20,88.34,180.00,1.00,0.00,29.81,M,6.21,M,FEW,BKN,OVC,M,2900.00,4400.00,6000.00,M,M,M,M,M,M,M,M,M,KQEW 160440Z AUTO 18001KT 9999 FEW029 BKN044 OVC060 21/19 A2981 RMK A02 TSNO
QEP,2020-09-16 04:40,127.2667,37.4000,75.20,66.20,73.61,150.00,1.00,0.00,29.81,M,6.21,M,OVC,M,M,M,2400.00,M,M,M,M,M,M,M,M,M,M,M,KQEP 160440Z AUTO 15001KT 9999 OVC024 24/19 A2981 RMK A02 TSNO
QFT,2020-09-16 04:40,127.3500,37.6000,77.00,68.00,73.78,170.00,1.00,0.00,29.77,M,M,M,BKN,M,M,M,4400.00,M,M,M,,M,M,M,M,M,M,M,KQFT 160440Z AUTO 17001KT / // BKN044 25/20 A2977 RMK A02 TSNO
QFU,2020-09-16 04:40,126.9667,37.8000,75.20,66.20,73.61,110.00,3.00,0.00,29.83,M,6.21,M,FEW,BKN,M,M,2200.00,2500.00,M,M,M,M,M,M,M,M,M,M,KQFU 160440Z AUTO 11003KT 9999 FEW022 BKN025 24/19 A2983 RMK A02 TSNO
QEX,2020-09-16 04:40,128.3000,36.1000,73.40,66.20,78.19,50.00,1.00,0.00,29.74,M,6.21,M,OVC,M,M,M,2000.00,M,M,M,M,M,M,M,M,M,M,M,KQEX 160440Z AUTO 05001KT 9999 OVC020 23/19 A2974 RMK A02 TSNO
QFW,2020-09-16 04:40,127.8833,37.6667,73.40,68.00,83.21,280.00,3.00,0.00,29.81,M,6.21,M,BKN,M,M,M,3000.00,M,M,M,M,M,M,M,M,M,M,M,KQFW 160440Z AUTO 28003KT 9999 BKN030 23/20 A2981 RMK A02 TSNO
QFV,2020-09-16 04:40,127.5000,38.0500,73.40,64.40,73.44,160.00,1.00,0.00,29.84,M,6.21,M,OVC,M,M,M,4400.00,M,M,M,M,M,M,M,M,M,M,M,KQFV 160440Z AUTO 16001KT 9999 OVC044 23/18 A2984 RMK A02 TSNO
QFB,2020-09-16 04:50,128.7167,35.6500,75.20,66.20,73.61,360.00,1.00,0.00,29.85,M,6.21,M,FEW,OVC,M,M,2300.00,3200.00,M,M,M,M,M,M,M,M,M,M,KQFB 160450Z AUTO 36001KT 9999 FEW023 OVC032 24/19 A2985 RMK A02 TSNO
QEN,2020-09-16 04:50,128.7500,37.6667,68.00,59.00,72.92,250.00,3.00,0.00,29.87,M,6.21,M,BKN,M,M,M,3400.00,M,M,M,M,M,M,M,M,M,M,M,KQEN 160450Z AUTO 25003KT 9999 BKN034 20/15 A2987 RMK A02 TSNO
QES,2020-09-16 04:50,126.4500,36.9667,80.60,66.20,61.58,M,M,0.00,M,M,6.21,M,OVC,M,M,M,2800.00,M,M,M,M,M,M,M,M,M,M,M,KQES 160450Z AUTO 9999 OVC028 27/19 / RMK A02 TSNO
QEJ,2020-09-16 04:50,127.9500,38.2000,71.60,66.20,83.09,350.00,4.00,0.00,29.79,M,6.21,M,BKN,BKN,M,M,1700.00,6000.00,M,M,M,M,M,M,M,M,M,M,KQEJ 160450Z AUTO 35004KT 9999 BKN017 BKN060 22/19 A2979 RMK A02 TSNO
QEI,2020-09-16 04:50,128.0667,37.9500,73.40,66.20,78.19,300.00,3.00,0.00,29.79,M,6.21,M,FEW,BKN,M,M,1500.00,12000.00,M,M,M,M,M,M,M,M,M,M,KQEI 160450Z AUTO 30003KT 9999 FEW015 BKN120 23/19 A2979 RMK A02 TSNO
QEQ,2020-09-16 04:50,127.5500,37.8500,73.40,69.80,88.51,50.00,2.00,0.00,29.82,M,4.97,M,FEW,SCT,M,M,1700.00,6000.00,M,M,M,M,M,M,M,M,M,M,KQEQ 160450Z AUTO 05002KT 8000 FEW017 SCT060 23/21 A2982 RMK A02 TSNO
QEW,2020-09-16 04:50,128.1500,36.4000,71.60,66.20,83.09,320.00,1.00,0.00,29.81,M,6.21,M,SCT,BKN,OVC,M,2700.00,4300.00,6000.00,M,M,M,M,M,M,M,M,M,KQEW 160450Z AUTO 32001KT 9999 SCT027 BKN043 OVC060 22/19 A2981 RMK A02 TSNO
QEP,2020-09-16 04:50,127.2667,37.4000,75.20,66.20,73.61,130.00,3.00,0.00,29.81,M,6.21,M,FEW,OVC,M,M,2100.00,4300.00,M,M,M,M,M,M,M,M,M,M,KQEP 160450Z AUTO 13003KT 9999 FEW021 OVC043 24/19 A2981 RMK A02 TSNO
QFT,2020-09-16 04:50,127.3500,37.6000,75.20,66.20,73.61,170.00,2.00,0.00,29.77,M,M,M,BKN,M,M,M,4400.00,M,M,M,,M,M,M,M,M,M,M,KQFT 160450Z AUTO 17002KT / // BKN044 24/19 A2977 RMK A02 TSNO
QFU,2020-09-16 04:50,126.9667,37.8000,75.20,66.20,73.61,120.00,3.00,0.00,29.83,M,6.21,M,BKN,M,M,M,2400.00,M,M,M,M,M,M,M,M,M,M,M,KQFU 160450Z AUTO 12003KT 9999 BKN024 24/19 A2983 RMK A02 TSNO
QEX,2020-09-16 04:50,128.3000,36.1000,75.20,64.40,69.14,260.00,2.00,0.00,29.73,M,6.21,M,OVC,M,M,M,2200.00,M,M,M,M,M,M,M,M,M,M,M,KQEX 160450Z AUTO 26002KT 9999 OVC022 24/18 A2973 RMK A02 TSNO
QFW,2020-09-16 04:50,127.8833,37.6667,73.40,68.00,83.21,280.00,2.00,0.00,29.80,M,6.21,M,OVC,M,M,M,2900.00,M,M,M,M,M,M,M,M,M,M,M,KQFW 160450Z AUTO 28002KT 9999 OVC029 23/20 A2980 RMK A02 TSNO
QFV,2020-09-16 04:50,127.5000,38.0500,71.60,64.40,78.04,120.00,3.00,0.00,29.83,M,6.21,M,OVC,M,M,M,4100.00,M,M,M,M,M,M,M,M,M,M,M,KQFV 160450Z AUTO 12003KT 9999 OVC041 22/18 A2983 RMK A02 TSNO
RKNW,2020-09-16 04:51,127.9467,37.3375,73.40,66.20,78.19,240.00,4.00,0.00,29.79,M,6.21,M,BKN,BKN,M,M,3000.00,12000.00,M,M,-RA,M,M,M,M,M,M,M,RKNW 160451Z 24004KT 9999 -RA BKN030 BKN120 23/19 A2979 RMK CIG030
RKJK,2020-09-16 04:56,126.6220,35.8994,75.40,69.10,80.81,80.00,4.00,0.00,29.76,1008.20,10.00,M,OVC,M,M,M,1600.00,M,M,M,M,M,M,M,M,M,M,M,RKJK 160456Z AUTO 08004KT 10SM OVC016 24/21 A2976 RMK AO2 SLP082 T02410206 $
RKSO,2020-09-16 04:58,127.0296,37.0906,71.10,69.10,93.40,180.00,8.00,0.00,29.78,1008.70,7.00,M,FEW,BKN,OVC,M,900.00,3500.00,4500.00,M,M,M,M,M,M,M,M,M,RKSO 160458Z 18008KT 7SM FEW009 BKN035 OVC045 22/21 A2978 RMK AO2A SLP087 T02170206 $
RKSY,2020-09-16 04:58,126.9753,37.5241,77.20,64.40,64.69,0.00,0.00,0.00,29.76,1008.10,6.21,M,SCT,BKN,OVC,M,3200.00,3900.00,6000.00,M,M,M,M,M,M,M,M,M,RKSY 160458Z AUTO 00000KT 9999 SCT032 BKN039 OVC060 25/18 A2976 RMK AO2 SLP081 T02510180
RKSG,2020-09-16 04:59,127.0311,36.9622,68.00,66.20,93.97,150.00,6.00,T,29.81,1009.20,1.50,M,SCT,BKN,OVC,M,400.00,2000.00,3800.00,M,-RA BR,M,M,M,M,M,M,M,RKSG 160459Z 15006KT 1 1/2SM -RA BR SCT004 BKN020 OVC038 20/19 A2981 RMK AO2A TWR VIS 1SM SLP092 P0000 RVRNO $ 0850
RKPS,2020-09-16 05:00,128.0704,35.0885,73.40,69.80,88.51,320.00,3.00,0.00,29.80,1009.80,4.97,M,SCT,BKN,OVC,M,700.00,1200.00,2500.00,M,-RA,M,M,M,M,M,M,M,RKPS 160500Z 32003KT 8000 -RA SCT007 BKN012 OVC025 23/21 Q1009 RMK CIG012 SLP098 8/7// 9/8//
RKJB,2020-09-16 05:00,126.3800,34.9800,77.00,71.60,83.44,190.00,7.00,0.00,29.77,M,6.21,M,OVC,M,M,M,2000.00,M,M,M,M,M,M,M,M,M,M,M,RKJB 160500Z 19007KT 9999 OVC020 25/22 Q1008 NOSIG
RKJJ,2020-09-16 05:00,126.8089,35.1264,77.00,69.80,78.48,170.00,4.00,0.00,29.77,1008.60,6.21,M,BKN,M,M,M,3000.00,M,M,M,M,M,M,M,M,M,M,M,RKJJ 160500Z 17004KT 9999 BKN030 25/21 Q1008 RMK CIG030 SLP086 8/500 9/700
RKPC,2020-09-16 05:00,126.4930,33.5113,77.00,75.20,94.19,360.00,4.00,0.00,29.77,M,6.21,M,SCT,M,M,M,3500.00,M,M,M,M,M,M,M,M,M,M,M,RKPC 160500Z 36004KT 300V040 9999 SCT035 25/24 Q1008 NOSIG
RKNY,2020-09-16 05:00,128.6692,38.0613,69.80,66.20,88.34,50.00,2.00,0.00,29.74,M,5.59,M,SCT,BKN,BKN,M,4500.00,10000.00,18000.00,M,M,M,M,M,M,M,M,M,RKNY 160500Z 05002KT 9000 SCT045 BKN100 BKN180 21/19 Q1007 NOSIG
RKSM,2020-09-16 05:00,127.1139,37.4458,77.00,66.20,69.33,210.00,8.00,0.00,29.79,M,6.21,M,SCT,OVC,M,M,1500.00,4000.00,M,M,M,M,M,M,M,M,M,M,RKSM 160500Z 21008KT 9999 SCT015 OVC040 25/19 A2979
QFB,2020-09-16 05:00,128.7167,35.6500,73.40,64.40,73.44,290.00,3.00,0.00,29.86,M,6.21,M,OVC,M,M,M,2700.00,M,M,M,M,M,M,M,M,M,M,M,KQFB 160500Z AUTO 29003KT 9999 OVC027 23/18 A2986 RMK A02 TSNO
RKSS,2020-09-16 05:00,126.7906,37.5583,77.00,66.20,69.33,210.00,5.00,0.00,29.77,M,6.21,M,BKN,OVC,M,M,4000.00,7000.00,M,M,M,M,M,M,M,M,M,M,RKSS 160500Z 21005KT 160V230 9999 BKN040 OVC070 25/19 Q1008 NOSIG
RKTH,2020-09-16 05:00,129.4205,35.9879,73.40,73.40,100.00,40.00,4.00,0.00,29.80,1009.50,3.73,M,BKN,OVC,M,M,3000.00,8000.00,M,M,M,M,M,M,M,M,M,M,RKTH 160500Z 04004KT 6000 BKN030 OVC080 23/23 Q1009 RMK CIG030 SLP095 8/52/ 9/62/
RKTN,2020-09-16 05:00,128.6589,35.8941,75.20,64.40,69.14,140.00,5.00,0.00,29.80,M,6.21,M,FEW,SCT,BKN,M,1500.00,3000.00,5000.00,M,M,M,M,M,M,M,M,M,RKTN 160500Z 14005KT 9999 FEW015 SCT030 BKN050 24/18 Q1009
RKTU,2020-09-16 05:00,127.4991,36.7166,69.80,68.00,94.01,20.00,4.00,0.00,29.80,M,6.21,M,FEW,SCT,BKN,M,2000.00,2500.00,5000.00,M,M,M,M,M,M,M,M,M,RKTU 160500Z 02004KT 9999 FEW020 SCT025 BKN050 21/20 Q1009
QEN,2020-09-16 05:00,128.7500,37.6667,68.00,59.00,72.92,230.00,2.00,0.00,29.87,M,6.21,M,BKN,M,M,M,3400.00,M,M,M,M,M,M,M,M,M,M,M,KQEN 160500Z AUTO 23002KT 9999 BKN034 20/15 A2987 RMK A02 TSNO
QES,2020-09-16 05:00,126.4500,36.9667,80.60,66.20,61.58,M,M,0.00,M,M,6.21,M,OVC,M,M,M,2600.00,M,M,M,M,M,M,M,M,M,M,M,KQES 160500Z AUTO 9999 OVC026 27/19 / RMK A02 TSNO
QEJ,2020-09-16 05:00,127.9500,38.2000,71.60,66.20,83.09,340.00,3.00,0.00,29.79,M,6.21,M,BKN,M,M,M,1700.00,M,M,M,M,M,M,M,M,M,M,M,KQEJ 160500Z AUTO 34003KT 9999 BKN017 22/19 A2979 RMK A02 TSNO
QEI,2020-09-16 05:00,128.0667,37.9500,73.40,66.20,78.19,310.00,4.00,0.00,29.79,M,6.21,M,FEW,FEW,BKN,M,1500.00,11000.00,12000.00,M,M,M,M,M,M,M,M,M,KQEI 160500Z AUTO 31004KT 9999 FEW015 FEW110 BKN120 23/19 A2979 RMK A02 TSNO
QEQ,2020-09-16 05:00,127.5500,37.8500,73.40,69.80,88.51,40.00,2.00,0.00,29.81,M,4.97,M,FEW,FEW,M,M,1700.00,6000.00,M,M,M,M,M,M,M,M,M,M,KQEQ 160500Z AUTO 04002KT 8000 FEW017 FEW060 23/21 A2981 RMK A02 TSNO
QEW,2020-09-16 05:00,128.1500,36.4000,71.60,66.20,83.09,40.00,2.00,0.00,29.80,M,6.21,M,SCT,BKN,BKN,M,2700.00,4100.00,6000.00,M,M,M,M,M,M,M,M,M,KQEW 160500Z AUTO 04002KT 9999 SCT027 BKN041 BKN060 22/19 A2980 RMK A02 TSNO
QEP,2020-09-16 05:00,127.2667,37.4000,73.40,66.20,78.19,130.00,5.00,0.00,29.80,M,6.21,M,FEW,OVC,M,M,2000.00,4000.00,M,M,M,M,M,M,M,M,M,M,KQEP 160500Z AUTO 13005KT 9999 FEW020 OVC040 23/19 A2980 RMK A02 TSNO
RKPK,2020-09-16 05:00,128.9382,35.1795,77.00,68.00,73.78,150.00,4.00,0.00,29.80,M,5.59,M,SCT,BKN,M,M,1500.00,2500.00,M,M,M,M,M,M,M,M,M,M,RKPK 160500Z 15004KT 9000 SCT015 BKN025 25/20 Q1009
QFT,2020-09-16 05:00,127.3500,37.6000,77.00,66.20,69.33,170.00,1.00,0.00,29.77,M,M,M,FEW,BKN,M,M,4300.00,5500.00,M,M,,M,M,M,M,M,M,M,KQFT 160500Z AUTO 17001KT / // FEW043 BKN055 25/19 A2977 RMK A02 TSNO
QFU,2020-09-16 05:00,126.9667,37.8000,75.20,66.20,73.61,110.00,3.00,0.00,29.82,M,6.21,M,BKN,M,M,M,2400.00,M,M,M,M,M,M,M,M,M,M,M,KQFU 160500Z AUTO 11003KT 9999 BKN024 24/19 A2982 RMK A02 TSNO
QEX,2020-09-16 05:00,128.3000,36.1000,75.20,64.40,69.14,160.00,3.00,0.00,29.73,M,6.21,M,BKN,OVC,M,M,2300.00,4100.00,M,M,M,M,M,M,M,M,M,M,KQEX 160500Z AUTO 16003KT 9999 BKN023 OVC041 24/18 A2973 RMK A02 TSNO
QFW,2020-09-16 05:00,127.8833,37.6667,73.40,68.00,83.21,310.00,1.00,0.00,29.80,M,6.21,M,OVC,M,M,M,2900.00,M,M,M,M,M,M,M,M,M,M,M,KQFW 160500Z AUTO 31001KT 9999 OVC029 23/20 A2980 RMK A02 TSNO
QFV,2020-09-16 05:00,127.5000,38.0500,71.60,64.40,78.04,140.00,2.00,0.00,29.84,M,6.21,M,OVC,M,M,M,4000.00,M,M,M,M,M,M,M,M,M,M,M,KQFV 160500Z AUTO 14002KT 9999 OVC040 22/18 A2984 RMK A02 TSNO
RKSI,2020-09-16 05:00,126.4500,37.4667,75.20,62.60,64.91,210.00,7.00,0.00,29.77,M,6.21,M,BKN,BKN,M,M,4000.00,9000.00,M,M,M,M,M,M,M,M,M,M,RKSI 160500Z 21007KT 9999 BKN040 BKN090 24/17 Q1008 NOSIG
RKTE,2020-09-16 05:03,127.5001,36.5682,73.40,68.00,83.21,110.00,1.00,0.00,29.76,M,6.21,M,BKN,BKN,M,M,2000.00,4000.00,M,M,M,M,M,M,M,M,M,M,RKTE 160503Z 11001KT 9999 BKN020 BKN040 23/20 A2976 RMK CIG020 RWY34 1359
RKTB,2020-09-16 05:05,126.0500,37.0167,69.80,66.20,88.34,240.00,9.00,0.00,29.85,M,6.21,M,SCT,BKN,M,M,1000.00,6000.00,M,M,-RA,M,M,M,M,M,M,M,RKTB 160505Z 24009KT 9999 -RA SCT010 BKN060 21/19 A2985 RMK CIG060
RKNO,2020-09-16 05:05,128.4667,38.4667,69.80,66.20,88.34,180.00,7.00,0.00,29.77,M,5.59,M,BKN,BKN,M,M,5000.00,10000.00,M,M,-RA BR,M,M,M,M,M,M,M,RKNO 160505Z 18007KT 9000 -RA BR BKN050 BKN100 21/19 A2977 RMK CIG050
RKJK,2020-09-16 05:06,126.6220,35.8994,75.20,69.80,83.32,120.00,4.00,0.00,29.76,1008.20,10.00,M,OVC,M,M,M,2000.00,M,M,M,M,M,M,M,M,M,M,M,RKJK 160506Z AUTO 12004KT 10SM OVC020 24/21 A2976 RMK AO2 CIG 019 RWY36 SLP082 $
RKTE,2020-09-16 05:07,127.5001,36.5682,73.40,68.00,83.21,80.00,1.00,0.00,29.76,M,6.21,M,SCT,BKN,M,M,2000.00,4000.00,M,M,M,M,M,M,M,M,M,M,RKTE 160507Z 08001KT 9999 SCT020 BKN040 23/20 A2976 RMK CIG040
RKJJ,2020-09-16 05:10,126.8089,35.1264,75.20,71.60,88.59,170.00,5.00,0.00,29.78,M,6.21,M,BKN,M,M,M,2500.00,M,M,M,M,M,M,M,M,M,M,M,RKJJ 160510Z 17005KT 9999 BKN025 24/22 A2978 RMK CIG025
QFB,2020-09-16 05:10,128.7167,35.6500,75.20,66.20,73.61,310.00,2.00,0.00,29.86,M,6.21,M,OVC,M,M,M,2600.00,M,M,M,M,M,M,M,M,M,M,M,KQFB 160510Z AUTO 31002KT 9999 OVC026 24/19 A2986 RMK A02 TSNO
QEN,2020-09-16 05:10,128.7500,37.6667,68.00,59.00,72.92,150.00,1.00,0.00,29.87,M,6.21,M,OVC,M,M,M,3400.00,M,M,M,M,M,M,M,M,M,M,M,KQEN 160510Z AUTO 15001KT 9999 OVC034 20/15 A2987 RMK A02 TSNO
QES,2020-09-16 05:10,126.4500,36.9667,80.60,66.20,61.58,M,M,0.00,M,M,6.21,M,OVC,M,M,M,2200.00,M,M,M,-DZ,M,M,M,M,M,M,M,KQES 160510Z AUTO 9999 -DZ OVC022 27/19 / RMK A02 TSNO
QEJ,2020-09-16 05:10,127.9500,38.2000,75.20,66.20,73.61,360.00,2.00,0.00,29.79,M,6.21,M,BKN,M,M,M,1700.00,M,M,M,M,M,M,M,M,M,M,M,KQEJ 160510Z AUTO 36002KT 9999 BKN017 24/19 A2979 RMK A02 TSNO
QEI,2020-09-16 05:10,128.0667,37.9500,75.20,66.20,73.61,260.00,2.00,0.00,29.79,M,6.21,M,FEW,BKN,M,M,1400.00,11000.00,M,M,M,M,M,M,M,M,M,M,KQEI 160510Z AUTO 26002KT 9999 FEW014 BKN110 24/19 A2979 RMK A02 TSNO
QEQ,2020-09-16 05:10,127.5500,37.8500,73.40,69.80,88.51,350.00,1.00,0.00,29.81,M,4.97,M,FEW,M,M,M,7500.00,M,M,M,HZ,M,M,M,M,M,M,M,KQEQ 160510Z AUTO 35001KT 8000 HZ FEW075 23/21 A2981 RMK A02 TSNO
QEW,2020-09-16 05:10,128.1500,36.4000,71.60,64.40,78.04,40.00,2.00,0.00,29.80,M,6.21,M,FEW,SCT,BKN,M,1500.00,2500.00,4000.00,M,M,M,M,M,M,M,M,M,KQEW 160510Z AUTO 04002KT 9999 FEW015 SCT025 BKN040 22/18 A2980 RMK A02 TSNO
QEP,2020-09-16 05:10,127.2667,37.4000,73.40,66.20,78.19,130.00,7.00,0.00,29.80,M,6.21,12.00,FEW,OVC,M,M,2000.00,3900.00,M,M,M,M,M,M,M,M,M,M,KQEP 160510Z AUTO 13007G12KT 9999 FEW020 OVC039 23/19 A2980 RMK A02 TSNO
QFT,2020-09-16 05:10,127.3500,37.6000,75.20,68.00,78.34,230.00,1.00,0.00,29.77,M,M,M,SCT,BKN,M,M,3000.00,5500.00,M,M,,M,M,M,M,M,M,M,KQFT 160510Z AUTO 23001KT / // SCT030 BKN055 24/20 A2977 RMK A02 TSNO
QFU,2020-09-16 05:10,126.9667,37.8000,75.20,68.00,78.34,140.00,4.00,0.00,29.82,M,6.21,M,FEW,SCT,BKN,M,2300.00,5000.00,7000.00,M,M,M,M,M,M,M,M,M,KQFU 160510Z AUTO 14004KT 9999 FEW023 SCT050 BKN070 24/20 A2982 RMK A02 TSNO
QEX,2020-09-16 05:10,128.3000,36.1000,73.40,64.40,73.44,190.00,3.00,0.00,29.73,M,6.21,M,OVC,M,M,M,2300.00,M,M,M,M,M,M,M,M,M,M,M,KQEX 160510Z AUTO 19003KT 9999 OVC023 23/18 A2973 RMK A02 TSNO
QFW,2020-09-16 05:10,127.8833,37.6667,73.40,68.00,83.21,240.00,2.00,0.00,29.80,M,6.21,M,BKN,OVC,M,M,2900.00,4700.00,M,M,M,M,M,M,M,M,M,M,KQFW 160510Z AUTO 24002KT 9999 BKN029 OVC047 23/20 A2980 RMK A02 TSNO
QFV,2020-09-16 05:10,127.5000,38.0500,71.60,64.40,78.04,120.00,2.00,0.00,29.83,M,6.21,M,OVC,M,M,M,3300.00,M,M,M,M,M,M,M,M,M,M,M,KQFV 160510Z AUTO 12002KT 9999 OVC033 22/18 A2983 RMK A02 TSNO
RKTI,2020-09-16 05:14,127.8853,37.0300,69.80,68.00,94.01,280.00,2.00,0.00,29.80,M,3.73,M,SCT,BKN,OVC,M,1500.00,3000.00,8000.00,M,-RA BR,M,M,M,M,M,M,M,RKTI 160514Z 28002KT 6000 -RA BR SCT015 BKN030 OVC080 21/20 A2980 RMK CIG030
RKTN,2020-09-16 05:14,128.6589,35.8941,75.20,64.40,69.14,150.00,3.00,0.00,29.80,M,6.21,M,FEW,BKN,BKN,M,1500.00,3000.00,5000.00,M,M,M,M,M,M,M,M,M,RKTN 160514Z 15003KT 9999 FEW015 BKN030 BKN050 24/18 Q1009 RMK CIG030
RKTN,2020-09-16 05:16,128.6589,35.8941,75.20,64.40,69.14,150.00,3.00,0.00,29.80,M,6.21,M,FEW,BKN,BKN,M,1500.00,3000.00,5000.00,M,M,M,M,M,M,M,M,M,RKTN 160516Z 15003KT 9999 FEW015 BKN030 BKN050 24/18 A2980 RMK CIG030
RKJJ,2020-09-16 05:17,126.8089,35.1264,M,M,M,M,M,0.00,M,M,M,M,M,M,M,M,M,M,M,M,M,M,M,M,M,M,M,M,RKJJ 160517Z 16SPECI
RKSO,2020-09-16 05:19,127.0296,37.0906,69.80,69.80,100.00,M,5.00,0.00,29.78,1008.70,3.00,M,BKN,BKN,OVC,M,700.00,1800.00,3000.00,M,-RA,M,M,M,M,M,M,M,RKSO 160519Z VRB05KT 3SM -RA BKN007 BKN018 OVC030 21/21 A2978 RMK SLP087 $
QFB,2020-09-16 05:20,128.7167,35.6500,73.40,64.40,73.44,290.00,4.00,0.00,29.86,M,6.21,M,OVC,M,M,M,2200.00,M,M,M,M,M,M,M,M,M,M,M,KQFB 160520Z AUTO 29004KT 9999 OVC022 23/18 A2986 RMK A02 TSNO
QEN,2020-09-16 05:20,128.7500,37.6667,68.00,60.80,77.75,240.00,1.00,0.00,29.87,M,6.21,M,OVC,M,M,M,3400.00,M,M,M,M,M,M,M,M,M,M,M,KQEN 160520Z AUTO 24001KT 9999 OVC034 20/16 A2987 RMK A02 TSNO
QES,2020-09-16 05:20,126.4500,36.9667,80.60,66.20,61.58,M,M,0.00,M,M,6.21,M,OVC,M,M,M,2000.00,M,M,M,-DZ,M,M,M,M,M,M,M,KQES 160520Z AUTO 9999 -DZ OVC020 27/19 / RMK A02 TSNO
QEJ,2020-09-16 05:20,127.9500,38.2000,75.20,66.20,73.61,330.00,1.00,0.00,29.79,M,6.21,M,BKN,BKN,M,M,1800.00,6000.00,M,M,M,M,M,M,M,M,M,M,KQEJ 160520Z AUTO 33001KT 9999 BKN018 BKN060 24/19 A2979 RMK A02 TSNO
QEI,2020-09-16 05:20,128.0667,37.9500,73.40,66.20,78.19,310.00,1.00,0.00,29.79,M,6.21,M,FEW,BKN,M,M,6000.00,11000.00,M,M,M,M,M,M,M,M,M,M,KQEI 160520Z AUTO 31001KT 9999 FEW060 BKN110 23/19 A2979 RMK A02 TSNO
QEQ,2020-09-16 05:20,127.5500,37.8500,75.20,69.80,83.32,360.00,1.00,0.00,29.81,M,4.97,M,SCT,M,M,M,7500.00,M,M,M,HZ,M,M,M,M,M,M,M,KQEQ 160520Z AUTO 36001KT 8000 HZ SCT075 24/21 A2981 RMK A02 TSNO
QEW,2020-09-16 05:20,128.1500,36.4000,71.60,64.40,78.04,10.00,2.00,0.00,29.80,M,6.21,M,BKN,M,M,M,2400.00,M,M,M,M,M,M,M,M,M,M,M,KQEW 160520Z AUTO 01002KT 9999 BKN024 22/18 A2980 RMK A02 TSNO
QEP,2020-09-16 05:20,127.2667,37.4000,71.60,66.20,83.09,120.00,4.00,0.00,29.80,M,6.21,13.00,FEW,OVC,M,M,2000.00,3300.00,M,M,M,M,M,M,M,M,M,M,KQEP 160520Z AUTO 12004G13KT 9999 FEW020 OVC033 22/19 A2980 RMK A02 TSNO
QFT,2020-09-16 05:20,127.3500,37.6000,75.20,68.00,78.34,180.00,2.00,0.00,29.77,M,M,M,BKN,BKN,M,M,2600.00,6000.00,M,M,,M,M,M,M,M,M,M,KQFT 160520Z AUTO 18002KT / // BKN026 BKN060 24/20 A2977 RMK A02 TSNO
QFU,2020-09-16 05:20,126.9667,37.8000,75.20,66.20,73.61,120.00,3.00,0.00,29.82,M,6.21,M,FEW,BKN,M,M,4900.00,6500.00,M,M,M,M,M,M,M,M,M,M,KQFU 160520Z AUTO 12003KT 9999 FEW049 BKN065 24/19 A2982 RMK A02 TSNO
QEX,2020-09-16 05:20,128.3000,36.1000,75.20,64.40,69.14,170.00,3.00,0.00,29.73,M,6.21,M,FEW,OVC,M,M,2300.00,3100.00,M,M,M,M,M,M,M,M,M,M,KQEX 160520Z AUTO 17003KT 9999 FEW023 OVC031 24/18 A2973 RMK A02 TSNO
QFW,2020-09-16 05:20,127.8833,37.6667,75.20,68.00,78.34,220.00,1.00,0.00,29.79,M,6.21,M,SCT,OVC,M,M,2900.00,4800.00,M,M,M,M,M,M,M,M,M,M,KQFW 160520Z AUTO 22001KT 9999 SCT029 OVC048 24/20 A2979 RMK A02 TSNO
QFV,2020-09-16 05:20,127.5000,38.0500,69.80,64.40,82.98,130.00,2.00,0.00,29.83,M,6.21,M,OVC,M,M,M,3400.00,M,M,M,M,M,M,M,M,M,M,M,KQFV 160520Z AUTO 13002KT 9999 OVC034 21/18 A2983 RMK A02 TSNO
RKTN,2020-09-16 05:22,128.6589,35.8941,M,M,M,M,M,0.00,M,M,M,M,M,M,M,M,M,M,M,M,M,M,M,M,M,M,M,M,RKTN 160522Z 16SPECI
QFB,2020-09-16 05:30,128.7167,35.6500,73.40,66.20,78.19,290.00,4.00,0.00,29.85,M,6.21,M,OVC,M,M,M,2200.00,M,M,M,M,M,M,M,M,M,M,M,KQFB 160530Z AUTO 29004KT 9999 OVC022 23/19 A2985 RMK A02 TSNO
QEN,2020-09-16 05:30,128.7500,37.6667,66.20,60.80,82.74,240.00,2.00,0.00,29.87,M,6.21,M,OVC,M,M,M,3300.00,M,M,M,M,M,M,M,M,M,M,M,KQEN 160530Z AUTO 24002KT 9999 OVC033 19/16 A2987 RMK A02 TSNO
QES,2020-09-16 05:30,126.4500,36.9667,80.60,66.20,61.58,M,M,0.00,M,M,6.21,M,OVC,M,M,M,1900.00,M,M,M,-SHRA,M,M,M,M,M,M,M,KQES 160530Z AUTO 9999 -SHRA OVC019 27/19 / RMK A02 TSNO
QEJ,2020-09-16 05:30,127.9500,38.2000,73.40,64.40,73.44,330.00,2.00,0.00,29.78,M,6.21,M,BKN,M,M,M,2000.00,M,M,M,M,M,M,M,M,M,M,M,KQEJ 160530Z AUTO 33002KT 9999 BKN020 23/18 A2978 RMK A02 TSNO
QEI,2020-09-16 05:30,128.0667,37.9500,73.40,66.20,78.19,300.00,1.00,0.00,29.78,M,6.21,M,SCT,BKN,M,M,6000.00,11000.00,M,M,M,M,M,M,M,M,M,M,KQEI 160530Z AUTO 30001KT 9999 SCT060 BKN110 23/19 A2978 RMK A02 TSNO
QEQ,2020-09-16 05:30,127.5500,37.8500,75.20,69.80,83.32,40.00,1.00,0.00,29.81,M,4.97,M,FEW,SCT,M,M,1900.00,7500.00,M,M,HZ,M,M,M,M,M,M,M,KQEQ 160530Z AUTO 04001KT 8000 HZ FEW019 SCT075 24/21 A2981 RMK A02 TSNO
QEW,2020-09-16 05:30,128.1500,36.4000,71.60,66.20,83.09,60.00,2.00,0.00,29.80,M,6.21,M,FEW,BKN,M,M,1700.00,2400.00,M,M,M,M,M,M,M,M,M,M,KQEW 160530Z AUTO 06002KT 9999 FEW017 BKN024 22/19 A2980 RMK A02 TSNO
QEP,2020-09-16 05:30,127.2667,37.4000,71.60,66.20,83.09,120.00,7.00,0.00,29.80,M,6.21,13.00,OVC,M,M,M,2700.00,M,M,M,M,M,M,M,M,M,M,M,KQEP 160530Z AUTO 12007G13KT 9999 OVC027 22/19 A2980 RMK A02 TSNO
QFT,2020-09-16 05:30,127.3500,37.6000,73.40,69.80,88.51,170.00,2.00,0.00,29.76,M,M,M,OVC,M,M,M,2600.00,M,M,M,,M,M,M,M,M,M,M,KQFT 160530Z AUTO 17002KT / // OVC026 23/21 A2976 RMK A02 TSNO
QFU,2020-09-16 05:30,126.9667,37.8000,75.20,66.20,73.61,120.00,2.00,0.00,29.82,M,6.21,M,BKN,M,M,M,5000.00,M,M,M,M,M,M,M,M,M,M,M,KQFU 160530Z AUTO 12002KT 9999 BKN050 24/19 A2982 RMK A02 TSNO
QEX,2020-09-16 05:30,128.3000,36.1000,75.20,64.40,69.14,180.00,2.00,0.00,29.72,M,6.21,M,OVC,M,M,M,3100.00,M,M,M,M,M,M,M,M,M,M,M,KQEX 160530Z AUTO 18002KT 9999 OVC031 24/18 A2972 RMK A02 TSNO
QFW,2020-09-16 05:30,127.8833,37.6667,75.20,68.00,78.34,230.00,2.00,0.00,29.79,M,6.21,M,FEW,OVC,M,M,2900.00,4800.00,M,M,M,M,M,M,M,M,M,M,KQFW 160530Z AUTO 23002KT 9999 FEW029 OVC048 24/20 A2979 RMK A02 TSNO
QFV,2020-09-16 05:30,127.5000,38.0500,71.60,66.20,83.09,140.00,1.00,0.00,29.83,M,6.21,M,OVC,M,M,M,3400.00,M,M,M,M,M,M,M,M,M,M,M,KQFV 160530Z AUTO 14001KT 9999 OVC034 22/19 A2983 RMK A02 TSNO
RKSI,2020-09-16 05:30,126.4500,37.4667,75.20,64.40,69.14,220.00,8.00,0.00,29.77,M,6.21,M,BKN,OVC,M,M,4000.00,8000.00,M,M,-RA,M,M,M,M,M,M,M,RKSI 160530Z 22008KT 9999 -RA BKN040 OVC080 24/18 Q1008 NOSIG
RKTB,2020-09-16 05:34,126.0500,37.0167,71.60,68.00,88.43,220.00,5.00,0.00,29.85,M,6.21,M,FEW,SCT,BKN,M,1000.00,5000.00,10000.00,M,M,M,M,M,M,M,M,M,RKTB 160534Z 22005KT 9999 FEW010 SCT050 BKN100 22/20 A2985 RMK CIG100
RKSD,2020-09-16 05:34,127.2667,37.3500,69.80,66.20,88.34,210.00,3.00,0.00,29.79,M,6.21,M,SCT,BKN,M,M,1800.00,3000.00,M,M,-RA,M,M,M,M,M,M,M,RKSD 160534Z 21003KT 9999 -RA SCT018 BKN030 21/19 A2979 RMK CIG030
RKPS,2020-09-16 05:35,128.0704,35.0885,73.40,69.80,88.51,50.00,1.00,0.00,29.82,M,6.21,M,SCT,BKN,OVC,M,1000.00,1500.00,2500.00,M,M,M,M,M,M,M,M,M,RKPS 160535Z 05001KT 9999 SCT010 BKN015 OVC025 23/21 A2982 RMK CIG015
RKPK,2020-09-16 05:38,128.9382,35.1795,75.20,68.00,78.34,180.00,6.00,0.00,29.77,M,6.21,M,SCT,BKN,M,M,1500.00,2500.00,M,M,-RA,M,M,M,M,M,M,M,RKPK 160538Z 18006KT 9999 -RA SCT015 BKN025 24/20 Q1008 RMK CIG025
RKPK,2020-09-16 05:39,128.9382,35.1795,75.20,68.00,78.34,180.00,6.00,0.00,29.78,M,6.21,M,SCT,BKN,M,M,1500.00,2500.00,M,M,-RA,M,M,M,M,M,M,M,RKPK 160539Z 18006KT 9999 -RA SCT015 BKN025 24/20 A2978 RMK CIG025
QFB,2020-09-16 05:40,128.7167,35.6500,73.40,66.20,78.19,310.00,3.00,0.00,29.85,M,6.21,M,OVC,M,M,M,2100.00,M,M,M,M,M,M,M,M,M,M,M,KQFB 160540Z AUTO 31003KT 9999 OVC021 23/19 A2985 RMK A02 TSNO
QEN,2020-09-16 05:40,128.7500,37.6667,66.20,62.60,88.18,230.00,1.00,0.00,29.87,M,6.21,M,OVC,M,M,M,3200.00,M,M,M,M,M,M,M,M,M,M,M,KQEN 160540Z AUTO 23001KT 9999 OVC032 19/17 A2987 RMK A02 TSNO
QES,2020-09-16 05:40,126.4500,36.9667,80.60,66.20,61.58,M,M,0.00,M,M,6.21,M,OVC,M,M,M,1900.00,M,M,M,M,M,M,M,M,M,M,M,KQES 160540Z AUTO 9999 OVC019 27/19 / RMK A02 TSNO
QEJ,2020-09-16 05:40,127.9500,38.2000,73.40,66.20,78.19,190.00,1.00,0.00,29.78,M,6.21,M,SCT,BKN,M,M,2000.00,6000.00,M,M,M,M,M,M,M,M,M,M,KQEJ 160540Z AUTO 19001KT 9999 SCT020 BKN060 23/19 A2978 RMK A02 TSNO
QEI,2020-09-16 05:40,128.0667,37.9500,73.40,66.20,78.19,290.00,4.00,0.00,29.78,M,6.21,M,BKN,BKN,M,M,6000.00,12000.00,M,M,M,M,M,M,M,M,M,M,KQEI 160540Z AUTO 29004KT 9999 BKN060 BKN120 23/19 A2978 RMK A02 TSNO
QEQ,2020-09-16 05:40,127.5500,37.8500,77.00,68.00,73.78,190.00,3.00,0.00,29.80,M,4.97,M,FEW,SCT,M,M,1900.00,7500.00,M,M,HZ,M,M,M,M,M,M,M,KQEQ 160540Z AUTO 19003KT 8000 HZ FEW019 SCT075 25/20 A2980 RMK A02 TSNO
QEW,2020-09-16 05:40,128.1500,36.4000,71.60,66.20,83.09,10.00,1.00,0.00,29.79,M,6.21,M,BKN,BKN,M,M,2000.00,5000.00,M,M,M,M,M,M,M,M,M,M,KQEW 160540Z AUTO 01001KT 9999 BKN020 BKN050 22/19 A2979 RMK A02 TSNO
QEP,2020-09-16 05:40,127.2667,37.4000,71.60,64.40,78.04,110.00,5.00,0.00,29.81,M,6.21,13.00,OVC,M,M,M,2200.00,M,M,M,M,M,M,M,M,M,M,M,KQEP 160540Z AUTO 11005G13KT 9999 OVC022 22/18 A2981 RMK A02 TSNO
QFT,2020-09-16 05:40,127.3500,37.6000,71.60,69.80,94.06,170.00,2.00,0.00,29.76,M,M,M,OVC,M,M,M,2200.00,M,M,M,,M,M,M,M,M,M,M,KQFT 160540Z AUTO 17002KT / // OVC022 22/21 A2976 RMK A02 TSNO
QFU,2020-09-16 05:40,126.9667,37.8000,73.40,66.20,78.19,310.00,2.00,0.00,29.82,M,6.21,M,SCT,OVC,M,M,2500.00,4700.00,M,M,M,M,M,M,M,M,M,M,KQFU 160540Z AUTO 31002KT 9999 SCT025 OVC047 23/19 A2982 RMK A02 TSNO
QEX,2020-09-16 05:40,128.3000,36.1000,75.20,64.40,69.14,180.00,4.00,0.00,29.72,M,6.21,M,OVC,M,M,M,2900.00,M,M,M,M,M,M,M,M,M,M,M,KQEX 160540Z AUTO 18004KT 9999 OVC029 24/18 A2972 RMK A02 TSNO
QFW,2020-09-16 05:40,127.8833,37.6667,75.20,68.00,78.34,240.00,3.00,0.00,29.79,M,6.21,M,OVC,M,M,M,4500.00,M,M,M,M,M,M,M,M,M,M,M,KQFW 160540Z AUTO 24003KT 9999 OVC045 24/20 A2979 RMK A02 TSNO
QFV,2020-09-16 05:40,127.5000,38.0500,69.80,66.20,88.34,130.00,2.00,0.00,29.83,M,6.21,M,OVC,M,M,M,3800.00,M,M,M,M,M,M,M,M,M,M,M,KQFV 160540Z AUTO 13002KT 9999 OVC038 21/19 A2983 RMK A02 TSNO
RKPS,2020-09-16 05:43,128.0704,35.0885,M,M,M,M,M,0.00,M,M,M,M,M,M,M,M,M,M,M,M,M,M,M,M,M,M,M,M,RKPS 160543Z 16SPECI
RKSG,2020-09-16 05:44,127.0311,36.9622,68.00,66.20,93.97,130.00,3.00,0.00,29.80,1009.00,2.50,M,FEW,BKN,OVC,M,400.00,2000.00,3700.00,M,DZ,M,M,M,M,M,M,M,RKSG 160544Z 13003KT 2 1/2SM DZ FEW004 BKN020 OVC037 20/19 A2980 RMK AO2A RAB0343E0532DZB0532 SLP090 RVRNO $
RKPK,2020-09-16 05:46,128.9382,35.1795,M,M,M,M,M,0.00,M,M,M,M,M,M,M,M,M,M,M,M,M,M,M,M,M,M,M,M,RKPK 160546Z 16SPECI
QFB,2020-09-16 05:50,128.7167,35.6500,73.40,66.20,78.19,290.00,2.00,0.00,29.86,M,6.21,M,OVC,M,M,M,2000.00,M,M,M,M,M,M,M,M,M,M,M,KQFB 160550Z AUTO 29002KT 9999 OVC020 23/19 A2986 RMK A02 TSNO
QEN,2020-09-16 05:50,128.7500,37.6667,66.20,60.80,82.74,270.00,4.00,0.00,29.87,M,6.21,M,OVC,M,M,M,2900.00,M,M,M,M,M,M,M,M,M,M,M,KQEN 160550Z AUTO 27004KT 9999 OVC029 19/16 A2987 RMK A02 TSNO
QES,2020-09-16 05:50,126.4500,36.9667,80.60,66.20,61.58,M,M,0.00,M,M,6.21,M,OVC,M,M,M,1800.00,M,M,M,M,M,M,M,M,M,M,M,KQES 160550Z AUTO 9999 OVC018 27/19 / RMK A02 TSNO
QEJ,2020-09-16 05:50,127.9500,38.2000,75.20,66.20,73.61,360.00,1.00,0.00,29.78,M,6.21,M,SCT,BKN,M,M,2000.00,6000.00,M,M,M,M,M,M,M,M,M,M,KQEJ 160550Z AUTO 36001KT 9999 SCT020 BKN060 24/19 A2978 RMK A02 TSNO
QEI,2020-09-16 05:50,128.0667,37.9500,73.40,66.20,78.19,290.00,4.00,0.00,29.78,M,6.21,M,FEW,BKN,M,M,1900.00,5500.00,M,M,M,M,M,M,M,M,M,M,KQEI 160550Z AUTO 29004KT 9999 FEW019 BKN055 23/19 A2978 RMK A02 TSNO
QEQ,2020-09-16 05:50,127.5500,37.8500,77.00,68.00,73.78,200.00,2.00,0.00,29.80,M,6.21,M,FEW,M,M,M,1900.00,M,M,M,M,M,M,M,M,M,M,M,KQEQ 160550Z AUTO 20002KT 9999 FEW019 25/20 A2980 RMK A02 TSNO
QEW,2020-09-16 05:50,128.1500,36.4000,71.60,66.20,83.09,60.00,1.00,0.00,29.79,M,6.21,M,BKN,OVC,M,M,1800.00,5000.00,M,M,M,M,M,M,M,M,M,M,KQEW 160550Z AUTO 06001KT 9999 BKN018 OVC050 22/19 A2979 RMK A02 TSNO
QEP,2020-09-16 05:50,127.2667,37.4000,71.60,66.20,83.09,130.00,2.00,0.00,29.81,M,5.59,M,OVC,M,M,M,2200.00,M,M,M,HZ,M,M,M,M,M,M,M,KQEP 160550Z AUTO 13002KT 9000 HZ OVC022 22/19 A2981 RMK A02 TSNO
QFT,2020-09-16 05:50,127.3500,37.6000,71.60,69.80,94.06,170.00,1.00,0.00,29.76,M,M,M,OVC,M,M,M,2100.00,M,M,M,,M,M,M,M,M,M,M,KQFT 160550Z AUTO 17001KT / // OVC021 22/21 A2976 RMK A02 TSNO
QFU,2020-09-16 05:50,126.9667,37.8000,73.40,68.00,83.21,360.00,2.00,0.00,29.81,M,4.97,M,BKN,OVC,M,M,2200.00,4500.00,M,M,HZ,M,M,M,M,M,M,M,KQFU 160550Z AUTO 36002KT 8000 HZ BKN022 OVC045 23/20 A2981 RMK A02 TSNO
QEX,2020-09-16 05:50,128.3000,36.1000,75.20,64.40,69.14,170.00,2.00,0.00,29.71,M,6.21,M,OVC,M,M,M,2500.00,M,M,M,M,M,M,M,M,M,M,M,KQEX 160550Z AUTO 17002KT 9999 OVC025 24/18 A2971 RMK A02 TSNO
QFW,2020-09-16 05:50,127.8833,37.6667,73.40,68.00,83.21,230.00,2.00,0.00,29.79,M,6.21,M,OVC,M,M,M,4100.00,M,M,M,M,M,M,M,M,M,M,M,KQFW 160550Z AUTO 23002KT 9999 OVC041 23/20 A2979 RMK A02 TSNO
QFV,2020-09-16 05:50,127.5000,38.0500,69.80,66.20,88.34,100.00,1.00,0.00,29.83,M,6.21,M,OVC,M,M,M,3600.00,M,M,M,M,M,M,M,M,M,M,M,KQFV 160550Z AUTO 10001KT 9999 OVC036 21/19 A2983 RMK A02 TSNO
RKPS,2020-09-16 05:52,128.0704,35.0885,73.40,69.80,88.51,80.00,2.00,0.00,29.81,M,6.21,M,SCT,BKN,OVC,M,1000.00,1700.00,2500.00,M,M,M,M,M,M,M,M,M,RKPS 160552Z 08002KT 9999 SCT010 BKN017 OVC025 23/21 A2981 RMK CIG017
RKSO,2020-09-16 05:53,127.0296,37.0906,69.80,68.00,94.01,150.00,5.00,0.00,16.36,M,3.00,M,OVC,M,M,M,500.00,M,M,M,-RA,M,M,M,M,M,M,M,RKSO 160553Z 15005KT 3SM -RA OVC005 21/20 A2977 SLP084 COR 0554
RKJK,2020-09-16 05:56,126.6220,35.8994,73.40,69.80,88.51,230.00,4.00,0.00,29.75,M,4.00,M,BKN,OVC,M,M,1900.00,2500.00,M,M,BR,M,M,M,M,M,M,M,RKJK 160556Z AUTO 23004KT 4SM BR BKN019 OVC025 23/21 A2975 RMK AO2 SLPNO RVRNO $
RKSG,2020-09-16 05:56,127.0311,36.9622,69.80,66.20,88.34,M,6.00,0.01,29.80,1009.00,2.50,M,FEW,BKN,M,M,400.00,2000.00,M,M,-DZ BR,M,M,M,M,M,M,M,RKSG 160556Z VRB06KT 2 1/2SM -DZ BR FEW004 BKN020 21/19 A2980 RMK AO2A RAB0343E0532DZB0532 SLP090 P0001 60002 RVRNO $ COR 0853
RKPS,2020-09-16 05:58,128.0704,35.0885,M,M,M,M,M,0.00,M,M,M,M,M,M,M,M,M,M,M,M,M,M,M,M,M,M,M,M,RKPS 160558Z 16SPECI
RKSO,2020-09-16 05:58,127.0296,37.0906,68.90,68.70,99.32,190.00,4.00,0.02,29.77,1008.40,4.00,M,OVC,M,M,M,500.00,M,M,M,-RA BR,M,M,M,M,M,M,M,RKSO 160558Z 19004KT 4SM -RA BR OVC005 21/20 A2977 RMK AO2A SLP084 P0002 60002 T02050204 10248 20205 58005 $
RKSY,2020-09-16 05:58,126.9753,37.5241,75.20,64.90,70.36,160.00,4.00,0.00,29.75,1007.70,6.21,M,BKN,OVC,M,M,3200.00,4100.00,M,M,M,M,M,M,M,M,M,M,RKSY 160558Z AUTO 16004KT 9999 BKN032 OVC041 24/18 A2975 RMK AO2 SLP077 60000 T02400183 10255 20226 57009
RKPS,2020-09-16 06:00,128.0704,35.0885,73.40,69.80,88.51,70.00,2.00,0.00,29.80,1009.60,6.21,M,SCT,BKN,OVC,M,1000.00,1700.00,2500.00,M,M,M,M,M,M,M,M,M,RKPS 160600Z 07002KT 9999 SCT010 BKN017 OVC025 23/21 Q1009 RMK CIG017 SLP096 8/6// 9/8//
RKJB,2020-09-16 06:00,126.3800,34.9800,78.80,71.60,78.62,220.00,5.00,0.00,29.77,M,6.21,M,BKN,M,M,M,2000.00,M,M,M,M,M,M,M,M,M,M,M,RKJB 160600Z 22005KT 180V250 9999 BKN020 26/22 Q1008 NOSIG
RKJJ,2020-09-16 06:00,126.8089,35.1264,77.00,71.60,83.44,170.00,6.00,0.00,29.77,1008.20,6.21,M,BKN,M,M,M,2500.00,M,M,M,M,M,M,M,M,M,M,M,RKJJ 160600Z 17006KT 9999 BKN025 25/22 Q1008 RMK CIG025 SLP082 60000 8/500 9/700 WR24P
RKPC,2020-09-16 06:00,126.4930,33.5113,75.20,73.40,94.14,300.00,4.00,0.00,29.77,M,6.21,M,SCT,M,M,M,3000.00,M,M,M,M,M,M,M,M,M,M,M,RKPC 160600Z 30004KT 270V340 9999 SCT030 24/23 Q1008 NOSIG
RKNY,2020-09-16 06:00,128.6692,38.0613,69.80,68.00,94.01,80.00,2.00,0.00,29.74,M,5.59,M,FEW,SCT,BKN,M,3000.00,5000.00,11000.00,M,-RA,M,M,M,M,M,M,M,RKNY 160600Z 08002KT 9000 -RA FEW030 SCT050 BKN110 21/20 Q1007 NOSIG
RKSM,2020-09-16 06:00,127.1139,37.4458,75.20,66.20,73.61,210.00,11.00,0.00,29.78,M,6.21,M,SCT,OVC,M,M,1500.00,3000.00,M,M,M,M,M,M,M,M,M,M,RKSM 160600Z 21011KT 9999 SCT015 OVC030 24/19 A2978
QFB,2020-09-16 06:00,128.7167,35.6500,73.40,66.20,78.19,310.00,1.00,0.00,29.85,M,6.21,M,OVC,M,M,M,2000.00,M,M,M,M,M,M,M,M,M,M,M,KQFB 160600Z AUTO 31001KT 9999 OVC020 23/19 A2985 RMK A02 TSNO
RKSS,2020-09-16 06:00,126.7906,37.5583,75.20,68.00,78.34,200.00,8.00,0.00,29.77,M,6.21,M,BKN,OVC,M,M,3000.00,7000.00,M,M,-RA,M,M,M,M,M,M,M,RKSS 160600Z 20008KT 160V220 9999 -RA BKN030 OVC070 24/20 Q1008 NOSIG
RKTH,2020-09-16 06:00,129.4205,35.9879,73.40,73.40,100.00,20.00,4.00,0.00,29.77,1008.90,3.73,M,FEW,OVC,M,M,1000.00,3000.00,M,M,M,M,M,M,M,M,M,M,RKTH 160600Z 02004KT 6000 FEW010 OVC030 23/23 Q1008 RMK CIG030 SLP089 60002 8/5// 9/8//
RKTN,2020-09-16 06:00,128.6589,35.8941,75.20,66.20,73.61,210.00,2.00,0.00,29.80,M,6.21,M,BKN,BKN,M,M,3000.00,6000.00,M,M,M,M,M,M,M,M,M,M,RKTN 160600Z 21002KT 9999 BKN030 BKN060 24/19 Q1009
RKTU,2020-09-16 06:00,127.4991,36.7166,71.60,68.00,88.43,40.00,4.00,0.00,29.77,M,6.21,M,FEW,BKN,M,M,2000.00,4000.00,M,M,M,M,M,M,M,M,M,M,RKTU 160600Z 04004KT 9999 FEW020 BKN040 22/20 Q1008
QEN,2020-09-16 06:00,128.7500,37.6667,66.20,60.80,82.74,260.00,3.00,0.00,29.87,M,6.21,M,OVC,M,M,M,2900.00,M,M,M,M,M,M,M,M,M,M,M,KQEN 160600Z AUTO 26003KT 9999 OVC029 19/16 A2987 RMK A02 TSNO
QES,2020-09-16 06:00,126.4500,36.9667,80.60,66.20,61.58,M,M,0.00,M,M,6.21,M,BKN,OVC,M,M,1400.00,2300.00,M,M,M,M,M,M,M,M,M,M,KQES 160600Z AUTO 9999 BKN014 OVC023 27/19 / RMK A02 TSNO
QEJ,2020-09-16 06:00,127.9500,38.2000,75.20,66.20,73.61,120.00,1.00,0.00,29.78,M,6.21,M,FEW,FEW,BKN,M,1900.00,2200.00,6000.00,M,M,M,M,M,M,M,M,M,KQEJ 160600Z AUTO 12001KT 9999 FEW019 FEW022 BKN060 24/19 A2978 RMK A02 TSNO
QEI,2020-09-16 06:00,128.0667,37.9500,73.40,66.20,78.19,310.00,3.00,0.00,29.78,M,6.21,M,FEW,BKN,M,M,1900.00,5500.00,M,M,M,M,M,M,M,M,M,M,KQEI 160600Z AUTO 31003KT 9999 FEW019 BKN055 23/19 A2978 RMK A02 TSNO
QEQ,2020-09-16 06:00,127.5500,37.8500,77.00,66.20,69.33,240.00,2.00,0.00,29.80,M,6.21,M,FEW,M,M,M,1800.00,M,M,M,M,M,M,M,M,M,M,M,KQEQ 160600Z AUTO 24002KT 9999 FEW018 25/19 A2980 RMK A02 TSNO
QEW,2020-09-16 06:00,128.1500,36.4000,71.60,66.20,83.09,40.00,1.00,0.00,29.78,M,6.21,M,BKN,OVC,M,M,2100.00,5000.00,M,M,M,M,M,M,M,M,M,M,KQEW 160600Z AUTO 04001KT 9999 BKN021 OVC050 22/19 A2978 RMK A02 TSNO
QEP,2020-09-16 06:00,127.2667,37.4000,71.60,66.20,83.09,110.00,2.00,0.00,29.81,M,6.21,M,OVC,M,M,M,2400.00,M,M,M,M,M,M,M,M,M,M,M,KQEP 160600Z AUTO 11002KT 9999 OVC024 22/19 A2981 RMK A02 TSNO
RKPK,2020-09-16 06:00,128.9382,35.1795,75.20,68.00,78.34,200.00,6.00,0.00,29.77,M,6.21,M,SCT,BKN,M,M,2000.00,2500.00,M,M,-RA,M,M,M,M,M,M,M,RKPK 160600Z 20006KT 9999 -RA SCT020 BKN025 24/20 Q1008
QFT,2020-09-16 06:00,127.3500,37.6000,71.60,69.80,94.06,150.00,1.00,0.00,29.77,M,M,M,BKN,OVC,M,M,2100.00,2300.00,M,M,,M,M,M,M,M,M,M,KQFT 160600Z AUTO 15001KT / // BKN021 OVC023 22/21 A2977 RMK A02 TSNO
QFU,2020-09-16 06:00,126.9667,37.8000,73.40,66.20,78.19,340.00,3.00,0.00,29.82,M,3.73,M,OVC,M,M,M,2200.00,M,M,M,HZ,M,M,M,M,M,M,M,KQFU 160600Z AUTO 34003KT 6000 HZ OVC022 23/19 A2982 RMK A02 TSNO
QEX,2020-09-16 06:00,128.3000,36.1000,75.20,64.40,69.14,180.00,4.00,0.00,29.71,M,6.21,M,OVC,M,M,M,2500.00,M,M,M,M,M,M,M,M,M,M,M,KQEX 160600Z AUTO 18004KT 9999 OVC025 24/18 A2971 RMK A02 TSNO
QFW,2020-09-16 06:00,127.8833,37.6667,73.40,68.00,83.21,240.00,1.00,0.00,29.79,M,6.21,M,OVC,M,M,M,3700.00,M,M,M,M,M,M,M,M,M,M,M,KQFW 160600Z AUTO 24001KT 9999 OVC037 23/20 A2979 RMK A02 TSNO
QFV,2020-09-16 06:00,127.5000,38.0500,69.80,64.40,82.98,30.00,1.00,0.00,29.83,M,2.98,M,FEW,OVC,M,M,3000.00,4800.00,M,M,HZ,M,M,M,M,M,M,M,KQFV 160600Z AUTO 03001KT 4800 HZ FEW030 OVC048 21/18 A2983 RMK A02 TSNO
RKSI,2020-09-16 06:00,126.4500,37.4667,73.40,62.60,68.94,220.00,7.00,0.00,29.77,M,6.21,M,BKN,BKN,M,M,2500.00,8000.00,M,M,M,M,M,M,M,M,M,M,RKSI 160600Z 22007KT 190V250 9999 BKN025 BKN080 23/17 Q1008 NOSIG
RKSD,2020-09-16 06:05,127.2667,37.3500,69.80,66.20,88.34,210.00,6.00,0.00,29.79,M,6.21,M,SCT,BKN,M,M,1800.00,4000.00,M,M,M,M,M,M,M,M,M,M,RKSD 160605Z 21006KT 9999 SCT018 BKN040 21/19 A2979 RMK CIG040
QFB,2020-09-16 06:10,128.7167,35.6500,75.20,66.20,73.61,60.00,1.00,0.00,29.85,M,6.21,M,OVC,M,M,M,2000.00,M,M,M,M,M,M,M,M,M,M,M,KQFB 160610Z AUTO 06001KT 9999 OVC020 24/19 A2985 RMK A02 TSNO
QEN,2020-09-16 06:10,128.7500,37.6667,64.40,60.80,88.09,260.00,4.00,0.00,29.87,M,6.21,M,OVC,M,M,M,2900.00,M,M,M,M,M,M,M,M,M,M,M,KQEN 160610Z AUTO 26004KT 9999 OVC029 18/16 A2987 RMK A02 TSNO
QES,2020-09-16 06:10,126.4500,36.9667,80.60,66.20,61.58,M,M,0.00,M,M,6.21,M,OVC,M,M,M,1200.00,M,M,M,M,M,M,M,M,M,M,M,KQES 160610Z AUTO 9999 OVC012 27/19 / RMK A02 TSNO
QEJ,2020-09-16 06:10,127.9500,38.2000,75.20,66.20,73.61,360.00,1.00,0.00,29.78,M,6.21,M,FEW,BKN,M,M,2200.00,6000.00,M,M,M,M,M,M,M,M,M,M,KQEJ 160610Z AUTO 36001KT 9999 FEW022 BKN060 24/19 A2978 RMK A02 TSNO
QEI,2020-09-16 06:10,128.0667,37.9500,73.40,66.20,78.19,350.00,1.00,0.00,29.78,M,6.21,M,FEW,BKN,M,M,1900.00,5000.00,M,M,M,M,M,M,M,M,M,M,KQEI 160610Z AUTO 35001KT 9999 FEW019 BKN050 23/19 A2978 RMK A02 TSNO
QEQ,2020-09-16 06:10,127.5500,37.8500,75.20,68.00,78.34,250.00,2.00,0.00,29.81,M,6.21,M,FEW,M,M,M,2600.00,M,M,M,M,M,M,M,M,M,M,M,KQEQ 160610Z AUTO 25002KT 9999 FEW026 24/20 A2981 RMK A02 TSNO
QEW,2020-09-16 06:10,128.1500,36.4000,71.60,66.20,83.09,10.00,1.00,0.00,29.79,M,6.21,M,BKN,OVC,M,M,1800.00,5500.00,M,M,M,M,M,M,M,M,M,M,KQEW 160610Z AUTO 01001KT 9999 BKN018 OVC055 22/19 A2979 RMK A02 TSNO
QEP,2020-09-16 06:10,127.2667,37.4000,71.60,66.20,83.09,130.00,2.00,0.00,29.81,M,6.21,M,OVC,M,M,M,3300.00,M,M,M,M,M,M,M,M,M,M,M,KQEP 160610Z AUTO 13002KT 9999 OVC033 22/19 A2981 RMK A02 TSNO
QFT,2020-09-16 06:10,127.3500,37.6000,71.60,69.80,94.06,190.00,1.00,0.00,29.76,M,M,M,BKN,OVC,M,M,2200.00,4400.00,M,M,,M,M,M,M,M,M,M,KQFT 160610Z AUTO 19001KT / // BKN022 OVC044 22/21 A2976 RMK A02 TSNO
QFU,2020-09-16 06:10,126.9667,37.8000,73.40,66.20,78.19,340.00,2.00,0.00,29.82,M,3.73,M,OVC,M,M,M,2200.00,M,M,M,HZ,M,M,M,M,M,M,M,KQFU 160610Z AUTO 34002KT 6000 HZ OVC022 23/19 A2982 RMK A02 TSNO
QEX,2020-09-16 06:10,128.3000,36.1000,75.20,64.40,69.14,180.00,3.00,0.00,29.71,M,6.21,M,FEW,OVC,M,M,2400.00,3200.00,M,M,M,M,M,M,M,M,M,M,KQEX 160610Z AUTO 18003KT 9999 FEW024 OVC032 24/18 A2971 RMK A02 TSNO
QFW,2020-09-16 06:10,127.8833,37.6667,75.20,68.00,78.34,160.00,3.00,0.00,29.79,M,6.21,M,OVC,M,M,M,3600.00,M,M,M,M,M,M,M,M,M,M,M,KQFW 160610Z AUTO 16003KT 9999 OVC036 24/20 A2979 RMK A02 TSNO
QFV,2020-09-16 06:10,127.5000,38.0500,69.80,66.20,88.34,20.00,1.00,0.00,29.83,M,6.21,M,FEW,OVC,M,M,2900.00,4400.00,M,M,M,M,M,M,M,M,M,M,KQFV 160610Z AUTO 02001KT 9999 FEW029 OVC044 21/19 A2983 RMK A02 TSNO
RKPK,2020-09-16 06:18,128.9382,35.1795,75.20,68.00,78.34,190.00,5.00,0.00,29.77,M,6.21,M,FEW,SCT,BKN,M,1500.00,2000.00,2500.00,M,M,M,M,M,M,M,M,M,RKPK 160618Z 19005KT 9999 FEW015 SCT020 BKN025 24/20 Q1008 RMK CIG025
RKPK,2020-09-16 06:19,128.9382,35.1795,75.20,68.00,78.34,190.00,5.00,0.00,29.78,M,6.21,M,FEW,SCT,BKN,M,1500.00,2000.00,2500.00,M,M,M,M,M,M,M,M,M,RKPK 160619Z 19005KT 9999 FEW015 SCT020 BKN025 24/20 A2978 RMK CIG025
QFB,2020-09-16 06:20,128.7167,35.6500,75.20,66.20,73.61,100.00,1.00,0.00,29.85,M,6.21,M,OVC,M,M,M,1900.00,M,M,M,M,M,M,M,M,M,M,M,KQFB 160620Z AUTO 10001KT 9999 OVC019 24/19 A2985 RMK A02 TSNO
QEN,2020-09-16 06:20,128.7500,37.6667,64.40,60.80,88.09,250.00,3.00,0.00,29.86,M,6.21,M,OVC,M,M,M,3100.00,M,M,M,M,M,M,M,M,M,M,M,KQEN 160620Z AUTO 25003KT 9999 OVC031 18/16 A2986 RMK A02 TSNO
QES,2020-09-16 06:20,126.4500,36.9667,80.60,66.20,61.58,M,M,0.00,M,M,6.21,M,OVC,M,M,M,1100.00,M,M,M,M,M,M,M,M,M,M,M,KQES 160620Z AUTO 9999 OVC011 27/19 / RMK A02 TSNO
QEJ,2020-09-16 06:20,127.9500,38.2000,73.40,64.40,73.44,300.00,2.00,0.00,29.78,M,6.21,M,FEW,BKN,M,M,2200.00,5500.00,M,M,M,M,M,M,M,M,M,M,KQEJ 160620Z AUTO 30002KT 9999 FEW022 BKN055 23/18 A2978 RMK A02 TSNO
QEI,2020-09-16 06:20,128.0667,37.9500,73.40,66.20,78.19,330.00,3.00,0.00,29.78,M,6.21,M,OVC,M,M,M,5000.00,M,M,M,M,M,M,M,M,M,M,M,KQEI 160620Z AUTO 33003KT 9999 OVC050 23/19 A2978 RMK A02 TSNO
QEQ,2020-09-16 06:20,127.5500,37.8500,75.20,66.20,73.61,280.00,2.00,0.00,29.81,M,6.21,M,SCT,SCT,M,M,3300.00,7500.00,M,M,M,M,M,M,M,M,M,M,KQEQ 160620Z AUTO 28002KT 9999 SCT033 SCT075 24/19 A2981 RMK A02 TSNO
QEW,2020-09-16 06:20,128.1500,36.4000,71.60,66.20,83.09,360.00,2.00,0.00,29.79,M,6.21,M,BKN,BKN,OVC,M,1600.00,4800.00,5500.00,M,M,M,M,M,M,M,M,M,KQEW 160620Z AUTO 36002KT 9999 BKN016 BKN048 OVC055 22/19 A2979 RMK A02 TSNO
QEP,2020-09-16 06:20,127.2667,37.4000,71.60,64.40,78.04,130.00,4.00,0.00,29.81,M,6.21,M,OVC,M,M,M,3500.00,M,M,M,M,M,M,M,M,M,M,M,KQEP 160620Z AUTO 13004KT 9999 OVC035 22/18 A2981 RMK A02 TSNO
QFT,2020-09-16 06:20,127.3500,37.6000,71.60,68.00,88.43,180.00,6.00,0.00,29.76,M,M,11.00,FEW,BKN,OVC,M,1000.00,2200.00,4400.00,M,,M,M,M,M,M,M,M,KQFT 160620Z AUTO 18006G11KT / // FEW010 BKN022 OVC044 22/20 A2976 RMK A02 TSNO
QFU,2020-09-16 06:20,126.9667,37.8000,73.40,68.00,83.21,350.00,2.00,0.00,29.82,M,3.73,M,BKN,OVC,M,M,2200.00,4700.00,M,M,HZ,M,M,M,M,M,M,M,KQFU 160620Z AUTO 35002KT 6000 HZ BKN022 OVC047 23/20 A2982 RMK A02 TSNO
QEX,2020-09-16 06:20,128.3000,36.1000,73.40,64.40,73.44,170.00,4.00,0.00,29.71,M,6.21,M,FEW,OVC,M,M,2400.00,3000.00,M,M,M,M,M,M,M,M,M,M,KQEX 160620Z AUTO 17004KT 9999 FEW024 OVC030 23/18 A2971 RMK A02 TSNO
QFW,2020-09-16 06:20,127.8833,37.6667,73.40,68.00,83.21,240.00,3.00,0.00,29.79,M,6.21,M,OVC,M,M,M,3600.00,M,M,M,M,M,M,M,M,M,M,M,KQFW 160620Z AUTO 24003KT 9999 OVC036 23/20 A2979 RMK A02 TSNO
QFV,2020-09-16 06:20,127.5000,38.0500,69.80,68.00,94.01,360.00,2.00,0.00,29.83,M,0.75,M,FEW,OVC,M,M,1800.00,4200.00,M,M,,M,M,M,M,M,M,M,KQFV 160620Z AUTO 36002KT 1200 // FEW018 OVC042 21/20 A2983 RMK A02 TSNO
RKSF,2020-09-16 06:22,126.9667,37.5333,73.40,66.20,78.19,210.00,5.00,0.00,29.77,M,6.21,M,BKN,M,M,M,4000.00,M,M,M,M,M,M,M,M,M,M,M,RKSF 160622Z 21005KT 9999 BKN040 23/19 A2977 RMK CIG040
RKSO,2020-09-16 06:23,127.0296,37.0906,68.00,68.00,100.00,0.00,0.00,0.00,29.78,1008.70,2.00,M,BKN,OVC,M,M,600.00,3600.00,M,M,RA BR,M,M,M,M,M,M,M,RKSO 160623Z 00000KT 2SM RA BR BKN006 OVC036 20/20 A2978 RMK AO2A SLP087 $
RKPK,2020-09-16 06:25,128.9382,35.1795,M,M,M,M,M,0.00,M,M,M,M,M,M,M,M,M,M,M,M,M,M,M,M,M,M,M,M,RKPK 160625Z 16SPECI
RKSM,2020-09-16 06:30,127.1139,37.4458,75.20,66.20,73.61,210.00,9.00,0.00,29.79,M,6.21,M,SCT,OVC,M,M,1500.00,3000.00,M,M,-RA,M,M,M,M,M,M,M,RKSM 160630Z 21009KT 9999 -RA SCT015 OVC030 24/19 A2979 RMK CIG030
QFB,2020-09-16 06:30,128.7167,35.6500,75.20,66.20,73.61,110.00,1.00,0.00,29.85,M,6.21,M,OVC,M,M,M,1900.00,M,M,M,M,M,M,M,M,M,M,M,KQFB 160630Z AUTO 11001KT 9999 OVC019 24/19 A2985 RMK A02 TSNO
QEN,2020-09-16 06:30,128.7500,37.6667,64.40,60.80,88.09,250.00,3.00,0.00,29.87,M,6.21,M,OVC,M,M,M,3200.00,M,M,M,M,M,M,M,M,M,M,M,KQEN 160630Z AUTO 25003KT 9999 OVC032 18/16 A2987 RMK A02 TSNO
QES,2020-09-16 06:30,126.4500,36.9667,80.60,66.20,61.58,M,M,0.00,M,M,6.21,M,BKN,BKN,M,M,1100.00,7000.00,M,M,M,M,M,M,M,M,M,M,KQES 160630Z AUTO 9999 BKN011 BKN070 27/19 / RMK A02 TSNO
QEJ,2020-09-16 06:30,127.9500,38.2000,73.40,66.20,78.19,0.00,0.00,0.00,29.78,M,6.21,M,OVC,M,M,M,5500.00,M,M,M,M,M,M,M,M,M,M,M,KQEJ 160630Z AUTO 00000KT 9999 OVC055 23/19 A2978 RMK A02 TSNO
QEI,2020-09-16 06:30,128.0667,37.9500,73.40,68.00,83.21,0.00,0.00,0.00,29.78,M,6.21,M,OVC,M,M,M,5000.00,M,M,M,M,M,M,M,M,M,M,M,KQEI 160630Z AUTO 00000KT 9999 OVC050 23/20 A2978 RMK A02 TSNO
QEQ,2020-09-16 06:30,127.5500,37.8500,75.20,66.20,73.61,240.00,3.00,0.00,29.81,M,6.21,M,SCT,BKN,M,M,3400.00,7000.00,M,M,M,M,M,M,M,M,M,M,KQEQ 160630Z AUTO 24003KT 9999 SCT034 BKN070 24/19 A2981 RMK A02 TSNO
QEW,2020-09-16 06:30,128.1500,36.4000,71.60,66.20,83.09,340.00,3.00,0.00,29.79,M,6.21,M,BKN,OVC,M,M,1600.00,4800.00,M,M,M,M,M,M,M,M,M,M,KQEW 160630Z AUTO 34003KT 9999 BKN016 OVC048 22/19 A2979 RMK A02 TSNO
QEP,2020-09-16 06:30,127.2667,37.4000,71.60,66.20,83.09,120.00,5.00,0.00,29.81,M,6.21,M,OVC,M,M,M,4200.00,M,M,M,M,M,M,M,M,M,M,M,KQEP 160630Z AUTO 12005KT 9999 OVC042 22/19 A2981 RMK A02 TSNO
QFT,2020-09-16 06:30,127.3500,37.6000,69.80,66.20,88.34,190.00,5.00,0.00,29.77,M,M,M,OVC,M,M,M,1600.00,M,M,M,,M,M,M,M,M,M,M,KQFT 160630Z AUTO 19005KT / // OVC016 21/19 A2977 RMK A02 TSNO
QFU,2020-09-16 06:30,126.9667,37.8000,73.40,66.20,78.19,210.00,1.00,0.00,29.82,M,3.73,M,SCT,OVC,M,M,2200.00,5000.00,M,M,HZ,M,M,M,M,M,M,M,KQFU 160630Z AUTO 21001KT 6000 HZ SCT022 OVC050 23/19 A2982 RMK A02 TSNO
QEX,2020-09-16 06:30,128.3000,36.1000,75.20,66.20,73.61,170.00,3.00,0.00,29.72,M,6.21,M,OVC,M,M,M,2800.00,M,M,M,M,M,M,M,M,M,M,M,KQEX 160630Z AUTO 17003KT 9999 OVC028 24/19 A2972 RMK A02 TSNO
QFW,2020-09-16 06:30,127.8833,37.6667,73.40,68.00,83.21,240.00,2.00,0.00,29.79,M,6.21,M,SCT,OVC,M,M,3100.00,4700.00,M,M,M,M,M,M,M,M,M,M,KQFW 160630Z AUTO 24002KT 9999 SCT031 OVC047 23/20 A2979 RMK A02 TSNO
QFV,2020-09-16 06:30,127.5000,38.0500,68.00,66.20,93.97,350.00,1.00,0.00,29.83,M,2.49,M,FEW,OVC,M,M,1800.00,4400.00,M,M,,M,M,M,M,M,M,M,KQFV 160630Z AUTO 35001KT 4000 // FEW018 OVC044 20/19 A2983 RMK A02 TSNO
RKSI,2020-09-16 06:30,126.4500,37.4667,75.20,64.40,69.14,190.00,9.00,0.00,29.77,M,6.21,M,FEW,BKN,BKN,M,1600.00,2500.00,8000.00,M,M,M,M,M,M,M,M,M,RKSI 160630Z 19009KT 9999 FEW016 BKN025 BKN080 24/18 Q1008 NOSIG
RKSO,2020-09-16 06:31,127.0296,37.0906,68.00,68.00,100.00,0.00,0.00,0.00,29.77,1008.40,3.00,M,BKN,OVC,M,M,500.00,4200.00,M,M,-RA BR,M,M,M,M,M,M,M,RKSO 160631Z 00000KT 3SM -RA BR BKN005 OVC042 20/20 A2977 RMK AO2A SLP084 $
RKNF,2020-09-16 06:34,128.6667,37.7500,57.20,55.40,93.69,230.00,9.00,0.00,29.90,M,0.99,M,OVC,M,M,M,100.00,M,M,M,-RA BR,M,M,M,M,M,M,M,RKNF 160634Z 23009KT 1600 -RA BR OVC001 14/13 A2990 RMK CIG001
RKSO,2020-09-16 06:37,127.0296,37.0906,68.00,68.00,100.00,160.00,3.00,0.00,29.77,1008.40,5.00,M,BKN,OVC,M,M,600.00,4100.00,M,M,-RA BR,M,M,M,M,M,M,M,RKSO 160637Z 16003KT 5SM -RA BR BKN006 OVC041 20/20 A2977 RMK AO2A SLP084 $
RKSF,2020-09-16 06:38,126.9667,37.5333,73.40,68.00,83.21,160.00,4.00,0.00,29.78,M,6.21,M,FEW,BKN,BKN,M,1800.00,4000.00,7000.00,M,-RA,M,M,M,M,M,M,M,RKSF 160638Z 16004KT 9999 -RA FEW018 BKN040 BKN070 23/20 A2978 RMK CIG040
RKSD,2020-09-16 06:40,127.2667,37.3500,71.60,66.20,83.09,210.00,5.00,0.00,29.79,M,6.21,M,SCT,BKN,M,M,1800.00,4000.00,M,M,-RA,M,M,M,M,M,M,M,RKSD 160640Z 21005KT 9999 -RA SCT018 BKN040 22/19 A2979 RMK CIG040
QFB,2020-09-16 06:40,128.7167,35.6500,75.20,66.20,73.61,90.00,1.00,0.00,29.85,M,6.21,M,OVC,M,M,M,1800.00,M,M,M,M,M,M,M,M,M,M,M,KQFB 160640Z AUTO 09001KT 9999 OVC018 24/19 A2985 RMK A02 TSNO
RKSY,2020-09-16 06:40,126.9753,37.5241,75.20,66.20,73.61,160.00,4.00,0.00,29.76,1008.10,6.21,M,FEW,SCT,BKN,BKN,4300.00,5000.00,6000.00,7500.00,-RA,M,M,M,M,M,M,M,RKSY 160640Z AUTO 16004KT 9999 -RA FEW043 SCT050 BKN060 BKN075 OVC100 24/19 A2976 RMK AO2 RAB40 SLP081
QEN,2020-09-16 06:40,128.7500,37.6667,62.60,62.60,100.00,250.00,4.00,0.00,29.87,M,6.21,M,OVC,M,M,M,3200.00,M,M,M,M,M,M,M,M,M,M,M,KQEN 160640Z AUTO 25004KT 9999 OVC032 17/17 A2987 RMK A02 TSNO
QES,2020-09-16 06:40,126.4500,36.9667,80.60,66.20,61.58,M,M,0.00,M,M,6.21,M,FEW,SCT,BKN,BKN,400.00,1800.00,2600.00,6500.00,M,M,M,M,M,M,M,M,KQES 160640Z AUTO 9999 FEW004 SCT018 BKN026 BKN065 27/19 / RMK A02 TSNO
QEJ,2020-09-16 06:40,127.9500,38.2000,73.40,66.20,78.19,350.00,2.00,0.00,29.78,M,6.21,M,FEW,OVC,M,M,2400.00,4800.00,M,M,M,M,M,M,M,M,M,M,KQEJ 160640Z AUTO 35002KT 9999 FEW024 OVC048 23/19 A2978 RMK A02 TSNO
QEI,2020-09-16 06:40,128.0667,37.9500,73.40,66.20,78.19,350.00,1.00,0.00,29.78,M,6.21,M,OVC,M,M,M,5000.00,M,M,M,M,M,M,M,M,M,M,M,KQEI 160640Z AUTO 35001KT 9999 OVC050 23/19 A2978 RMK A02 TSNO
QEQ,2020-09-16 06:40,127.5500,37.8500,75.20,66.20,73.61,230.00,5.00,0.00,29.81,M,6.21,M,SCT,BKN,BKN,M,3400.00,5500.00,7000.00,M,M,M,M,M,M,M,M,M,KQEQ 160640Z AUTO 23005KT 9999 SCT034 BKN055 BKN070 24/19 A2981 RMK A02 TSNO
QEW,2020-09-16 06:40,128.1500,36.4000,71.60,66.20,83.09,20.00,3.00,0.00,29.79,M,6.21,M,BKN,OVC,M,M,1600.00,4800.00,M,M,M,M,M,M,M,M,M,M,KQEW 160640Z AUTO 02003KT 9999 BKN016 OVC048 22/19 A2979 RMK A02 TSNO
QEP,2020-09-16 06:40,127.2667,37.4000,71.60,66.20,83.09,120.00,6.00,0.00,29.81,M,6.21,M,OVC,M,M,M,4200.00,M,M,M,M,M,M,M,M,M,M,M,KQEP 160640Z AUTO 12006KT 9999 OVC042 22/19 A2981 RMK A02 TSNO
QFT,2020-09-16 06:40,127.3500,37.6000,69.80,66.20,88.34,180.00,3.00,0.00,29.77,M,M,M,OVC,M,M,M,1600.00,M,M,M,,M,M,M,M,M,M,M,KQFT 160640Z AUTO 18003KT / // OVC016 21/19 A2977 RMK A02 TSNO
QFU,2020-09-16 06:40,126.9667,37.8000,73.40,66.20,78.19,240.00,1.00,0.00,29.82,M,4.97,M,SCT,SCT,OVC,M,2300.00,3200.00,5500.00,M,HZ,M,M,M,M,M,M,M,KQFU 160640Z AUTO 24001KT 8000 HZ SCT023 SCT032 OVC055 23/19 A2982 RMK A02 TSNO
QEX,2020-09-16 06:40,128.3000,36.1000,73.40,66.20,78.19,160.00,3.00,0.00,29.71,M,6.21,M,OVC,M,M,M,2700.00,M,M,M,M,M,M,M,M,M,M,M,KQEX 160640Z AUTO 16003KT 9999 OVC027 23/19 A2971 RMK A02 TSNO
QFW,2020-09-16 06:40,127.8833,37.6667,73.40,68.00,83.21,180.00,2.00,0.00,29.79,M,6.21,M,BKN,OVC,M,M,2200.00,4700.00,M,M,M,M,M,M,M,M,M,M,KQFW 160640Z AUTO 18002KT 9999 BKN022 OVC047 23/20 A2979 RMK A02 TSNO
QFV,2020-09-16 06:40,127.5000,38.0500,68.00,66.20,93.97,320.00,2.00,0.00,29.83,M,2.49,M,FEW,OVC,M,M,700.00,4700.00,M,M,,M,M,M,M,M,M,M,KQFV 160640Z AUTO 32002KT 4000 // FEW007 OVC047 20/19 A2983 RMK A02 TSNO
RKTN,2020-09-16 06:41,128.6589,35.8941,75.20,66.20,73.61,160.00,4.00,0.00,29.80,M,6.21,M,FEW,OVC,M,M,2000.00,2700.00,M,M,M,M,M,M,M,M,M,M,RKTN 160641Z 16004KT 9999 FEW020 OVC027 24/19 Q1009 RMK CIG027
RKTN,2020-09-16 06:43,128.6589,35.8941,75.20,66.20,73.61,160.00,4.00,0.00,29.80,M,6.21,M,FEW,OVC,M,M,2000.00,2700.00,M,M,M,M,M,M,M,M,M,M,RKTN 160643Z 16004KT 9999 FEW020 OVC027 24/19 A2980 RMK CIG027
RKSD,2020-09-16 06:45,127.2667,37.3500,71.60,66.20,83.09,210.00,5.00,0.00,29.79,M,6.21,M,SCT,BKN,M,M,1800.00,4000.00,M,M,-RA,M,M,M,M,M,M,M,RKSD 160645Z 21005KT 9999 -RA SCT018 BKN040 22/19 A2979 RMK CIG040
RKTN,2020-09-16 06:49,128.6589,35.8941,M,M,M,M,M,0.00,M,M,M,M,M,M,M,M,M,M,M,M,M,M,M,M,M,M,M,M,RKTN 160649Z 16SPECI
RKTE,2020-09-16 06:50,127.5001,36.5682,73.40,66.20,78.19,10.00,1.00,0.00,29.75,M,6.21,M,SCT,BKN,M,M,2000.00,3000.00,M,M,-RA,M,M,M,M,M,M,M,RKTE 160650Z 01001KT 9999 -RA SCT020 BKN030 23/19 A2975 RMK CIG030
QFB,2020-09-16 06:50,128.7167,35.6500,75.20,68.00,78.34,30.00,1.00,0.00,29.85,M,6.21,M,OVC,M,M,M,1800.00,M,M,M,M,M,M,M,M,M,M,M,KQFB 160650Z AUTO 03001KT 9999 OVC018 24/20 A2985 RMK A02 TSNO
QEN,2020-09-16 06:50,128.7500,37.6667,60.80,62.60,M,250.00,5.00,0.00,29.88,M,4.97,M,BKN,OVC,M,M,3200.00,6500.00,M,M,-SHRA,M,M,M,M,M,M,M,KQEN 160650Z AUTO 25005KT 8000 -SHRA BKN032 OVC065 16/17 A2988 RMK A02 TSNO
QES,2020-09-16 06:50,126.4500,36.9667,80.60,66.20,61.58,M,M,0.00,M,M,6.21,M,FEW,BKN,BKN,M,400.00,1900.00,6500.00,M,M,M,M,M,M,M,M,M,KQES 160650Z AUTO 9999 FEW004 BKN019 BKN065 27/19 / RMK A02 TSNO
QEJ,2020-09-16 06:50,127.9500,38.2000,71.60,66.20,83.09,360.00,3.00,0.00,29.78,M,6.21,M,SCT,OVC,M,M,2100.00,4800.00,M,M,M,M,M,M,M,M,M,M,KQEJ 160650Z AUTO 36003KT 9999 SCT021 OVC048 22/19 A2978 RMK A02 TSNO
QEI,2020-09-16 06:50,128.0667,37.9500,73.40,66.20,78.19,280.00,3.00,0.00,29.78,M,6.21,M,OVC,M,M,M,5000.00,M,M,M,M,M,M,M,M,M,M,M,KQEI 160650Z AUTO 28003KT 9999 OVC050 23/19 A2978 RMK A02 TSNO
QEQ,2020-09-16 06:50,127.5500,37.8500,75.20,68.00,78.34,270.00,2.00,0.00,29.81,M,6.21,M,FEW,BKN,M,M,3400.00,5500.00,M,M,M,M,M,M,M,M,M,M,KQEQ 160650Z AUTO 27002KT 9999 FEW034 BKN055 24/20 A2981 RMK A02 TSNO
QEW,2020-09-16 06:50,128.1500,36.4000,71.60,66.20,83.09,40.00,2.00,0.00,29.79,M,6.21,M,OVC,M,M,M,1900.00,M,M,M,M,M,M,M,M,M,M,M,KQEW 160650Z AUTO 04002KT 9999 OVC019 22/19 A2979 RMK A02 TSNO
QEP,2020-09-16 06:50,127.2667,37.4000,71.60,66.20,83.09,120.00,5.00,0.00,29.81,M,6.21,M,OVC,M,M,M,4100.00,M,M,M,M,M,M,M,M,M,M,M,KQEP 160650Z AUTO 12005KT 9999 OVC041 22/19 A2981 RMK A02 TSNO
QFT,2020-09-16 06:50,127.3500,37.6000,69.80,66.20,88.34,170.00,3.00,0.00,29.77,M,M,M,BKN,OVC,M,M,1600.00,4100.00,M,M,,M,M,M,M,M,M,M,KQFT 160650Z AUTO 17003KT / // BKN016 OVC041 21/19 A2977 RMK A02 TSNO
QFU,2020-09-16 06:50,126.9667,37.8000,73.40,66.20,78.19,230.00,2.00,0.00,29.82,M,4.97,M,BKN,BKN,M,M,2200.00,5500.00,M,M,HZ,M,M,M,M,M,M,M,KQFU 160650Z AUTO 23002KT 8000 HZ BKN022 BKN055 23/19 A2982 RMK A02 TSNO
QEX,2020-09-16 06:50,128.3000,36.1000,73.40,66.20,78.19,140.00,3.00,0.00,29.71,M,6.21,M,OVC,M,M,M,2600.00,M,M,M,M,M,M,M,M,M,M,M,KQEX 160650Z AUTO 14003KT 9999 OVC026 23/19 A2971 RMK A02 TSNO
QFW,2020-09-16 06:50,127.8833,37.6667,71.60,66.20,83.09,180.00,3.00,0.00,29.80,M,6.21,M,SCT,OVC,M,M,2200.00,4500.00,M,M,M,M,M,M,M,M,M,M,KQFW 160650Z AUTO 18003KT 9999 SCT022 OVC045 22/19 A2980 RMK A02 TSNO
QFV,2020-09-16 06:50,127.5000,38.0500,68.00,66.20,93.97,320.00,1.00,0.00,29.83,M,3.73,M,FEW,OVC,M,M,1600.00,4400.00,M,M,,M,M,M,M,M,M,M,KQFV 160650Z AUTO 32001KT 6000 // FEW016 OVC044 20/19 A2983 RMK A02 TSNO
RKSG,2020-09-16 06:55,127.0311,36.9622,69.80,66.20,88.34,110.00,2.00,T,29.80,1008.90,2.50,M,FEW,SCT,BKN,OVC,300.00,800.00,2500.00,3300.00,-DZ BR,M,M,M,M,M,M,M,RKSG 160655Z 11002KT 2 1/2SM -DZ BR FEW003 SCT008 BKN025 OVC033 21/19 A2980 RMK AO2A SLP089 P0000 RVRNO $ 0852
RKSY,2020-09-16 06:55,126.9753,37.5241,75.20,66.20,73.61,190.00,4.00,0.00,29.76,1008.10,6.21,M,FEW,SCT,BKN,BKN,2300.00,3800.00,5500.00,7500.00,M,M,M,M,M,M,M,M,RKSY 160655Z AUTO 19004KT 9999 FEW023 SCT038 BKN055 BKN075 OVC130 24/19 A2976 RMK AO2 RAB40E55 SLP081
RKJK,2020-09-16 06:56,126.6220,35.8994,72.10,70.00,93.11,260.00,5.00,0.02,29.75,1007.80,2.00,M,OVC,M,M,M,1000.00,M,M,M,-DZ BR,M,M,M,M,M,M,M,RKJK 160656Z 26005KT 2SM -DZ BR OVC010 22/21 A2975 RMK DZB06 SLP078 P0002 T02230211 RVRNO $
RKSO,2020-09-16 06:58,127.0296,37.0906,68.00,68.00,100.00,0.00,0.00,0.13,29.78,1008.70,3.00,M,BKN,OVC,M,M,600.00,3500.00,M,M,-RA BR,M,M,M,M,M,M,M,RKSO 160658Z 00000KT 3SM -RA BR BKN006 OVC035 20/20 A2978 RMK AO2A SLP087 P0013 $
RKSY,2020-09-16 06:58,126.9753,37.5241,75.20,66.20,73.61,160.00,3.00,T,29.76,1008.10,6.21,M,FEW,BKN,BKN,BKN,2300.00,3800.00,7500.00,13000.00,M,M,M,M,M,M,M,M,RKSY 160658Z AUTO 16003KT 9999 FEW023 BKN038 BKN075 BKN130 24/19 A2976 RMK AO2 RAB40E55 SLP081 P0000
RKPS,2020-09-16 07:00,128.0704,35.0885,73.40,69.80,88.51,90.00,2.00,0.00,29.80,1009.40,6.21,M,SCT,BKN,OVC,M,1000.00,1700.00,2500.00,M,M,M,M,M,M,M,M,M,RKPS 160700Z 09002KT 9999 SCT010 BKN017 OVC025 23/21 Q1009 RMK CIG017 SLP094 8/6// 9/8//
RKJB,2020-09-16 07:00,126.3800,34.9800,77.00,73.40,88.67,240.00,6.00,0.00,29.77,M,6.21,M,BKN,M,M,M,2500.00,M,M,M,M,M,M,M,M,M,M,M,RKJB 160700Z 24006KT 210V280 9999 BKN025 25/23 Q1008 NOSIG
RKJJ,2020-09-16 07:00,126.8089,35.1264,78.80,71.60,78.62,150.00,2.00,0.00,29.74,1007.90,6.21,M,BKN,M,M,M,3500.00,M,M,M,M,M,M,M,M,M,M,M,RKJJ 160700Z 15002KT 9999 BKN035 26/22 Q1007 RMK CIG035 SLP079 8/500 9/700
RKPC,2020-09-16 07:00,126.4930,33.5113,75.20,75.20,100.00,30.00,4.00,0.00,29.77,M,6.21,M,FEW,BKN,M,M,1000.00,3000.00,M,M,M,M,M,M,M,M,M,M,RKPC 160700Z 03004KT 360V060 9999 FEW010 BKN030 24/24 Q1008 NOSIG
RKNY,2020-09-16 07:00,128.6692,38.0613,69.80,68.00,94.01,0.00,0.00,0.00,29.74,M,6.21,M,SCT,OVC,M,M,3000.00,8000.00,M,M,M,M,M,M,M,M,M,M,RKNY 160700Z 00000KT 9999 SCT030 OVC080 21/20 Q1007 NOSIG
RKSM,2020-09-16 07:00,127.1139,37.4458,73.40,66.20,78.19,190.00,8.00,0.00,29.78,M,6.21,M,SCT,OVC,M,M,1500.00,3000.00,M,M,-RA,M,M,M,M,M,M,M,RKSM 160700Z 19008KT 9999 -RA SCT015 OVC030 23/19 A2978
QFB,2020-09-16 07:00,128.7167,35.6500,75.20,68.00,78.34,70.00,1.00,0.00,29.85,M,6.21,M,OVC,M,M,M,1800.00,M,M,M,M,M,M,M,M,M,M,M,KQFB 160700Z AUTO 07001KT 9999 OVC018 24/20 A2985 RMK A02 TSNO
RKSS,2020-09-16 07:00,126.7906,37.5583,73.40,68.00,83.21,200.00,7.00,0.00,29.77,M,6.21,M,FEW,BKN,OVC,M,1500.00,2500.00,7000.00,M,-RA,M,M,M,M,M,M,M,RKSS 160700Z 20007KT 9999 -RA FEW015 BKN025 OVC070 23/20 Q1008 NOSIG
RKTH,2020-09-16 07:00,129.4205,35.9879,73.40,73.40,100.00,40.00,2.00,0.00,29.77,1008.70,3.73,M,FEW,OVC,M,M,1000.00,3000.00,M,M,M,M,M,M,M,M,M,M,RKTH 160700Z 04002KT 6000 FEW010 OVC030 23/23 Q1008 RMK CIG030 SLP087 8/5// 9/8//
RKTN,2020-09-16 07:00,128.6589,35.8941,75.20,66.20,73.61,170.00,2.00,0.00,29.77,M,6.21,M,FEW,OVC,M,M,2000.00,2700.00,M,M,M,M,M,M,M,M,M,M,RKTN 160700Z 17002KT 9999 FEW020 OVC027 24/19 Q1008
RKTU,2020-09-16 07:00,127.4991,36.7166,69.80,68.00,94.01,30.00,4.00,0.00,29.77,M,6.21,M,FEW,BKN,M,M,2000.00,3000.00,M,M,M,M,M,M,M,M,M,M,RKTU 160700Z 03004KT 9999 FEW020 BKN030 21/20 Q1008
QEN,2020-09-16 07:00,128.7500,37.6667,60.80,64.40,M,260.00,6.00,0.00,M,M,3.73,M,SCT,OVC,M,M,3200.00,6500.00,M,M,-SHRA,M,M,M,M,M,M,M,KQEN 160700Z AUTO 26006KT 6000 -SHRA SCT032 OVC065 16/18 / RMK A02 TSNO
QES,2020-09-16 07:00,126.4500,36.9667,80.60,66.20,61.58,M,M,0.00,M,M,6.21,M,FEW,BKN,OVC,M,400.00,2000.00,6500.00,M,M,M,M,M,M,M,M,M,KQES 160700Z AUTO 9999 FEW004 BKN020 OVC065 27/19 / RMK A02 TSNO
QEJ,2020-09-16 07:00,127.9500,38.2000,71.60,66.20,83.09,10.00,2.00,0.00,29.78,M,6.21,M,FEW,OVC,M,M,2100.00,4600.00,M,M,M,M,M,M,M,M,M,M,KQEJ 160700Z AUTO 01002KT 9999 FEW021 OVC046 22/19 A2978 RMK A02 TSNO
QEI,2020-09-16 07:00,128.0667,37.9500,71.60,66.20,83.09,340.00,3.00,0.00,29.78,M,6.21,M,OVC,M,M,M,5000.00,M,M,M,M,M,M,M,M,M,M,M,KQEI 160700Z AUTO 34003KT 9999 OVC050 22/19 A2978 RMK A02 TSNO
QEQ,2020-09-16 07:00,127.5500,37.8500,75.20,68.00,78.34,240.00,2.00,0.00,29.81,M,6.21,M,FEW,BKN,M,M,4100.00,6000.00,M,M,M,M,M,M,M,M,M,M,KQEQ 160700Z AUTO 24002KT 9999 FEW041 BKN060 24/20 A2981 RMK A02 TSNO
QEW,2020-09-16 07:00,128.1500,36.4000,71.60,66.20,83.09,20.00,2.00,0.00,29.79,M,6.21,M,OVC,M,M,M,1900.00,M,M,M,M,M,M,M,M,M,M,M,KQEW 160700Z AUTO 02002KT 9999 OVC019 22/19 A2979 RMK A02 TSNO
QEP,2020-09-16 07:00,127.2667,37.4000,71.60,66.20,83.09,120.00,7.00,0.00,29.81,M,6.21,11.00,FEW,OVC,M,M,1500.00,4100.00,M,M,M,M,M,M,M,M,M,M,KQEP 160700Z AUTO 12007G11KT 9999 FEW015 OVC041 22/19 A2981 RMK A02 TSNO
RKPK,2020-09-16 07:00,128.9382,35.1795,75.20,68.00,78.34,170.00,8.00,0.00,29.77,M,6.21,M,FEW,SCT,BKN,M,1500.00,2000.00,2500.00,M,M,M,M,M,M,M,M,M,RKPK 160700Z 17008KT 9999 FEW015 SCT020 BKN025 24/20 Q1008
QFT,2020-09-16 07:00,127.3500,37.6000,69.80,66.20,88.34,170.00,3.00,0.00,29.77,M,M,M,OVC,M,M,M,2700.00,M,M,M,,M,M,M,M,M,M,M,KQFT 160700Z AUTO 17003KT / // OVC027 21/19 A2977 RMK A02 TSNO
QFU,2020-09-16 07:00,126.9667,37.8000,73.40,66.20,78.19,210.00,2.00,0.00,29.82,M,4.97,M,BKN,BKN,M,M,2300.00,4300.00,M,M,HZ,M,M,M,M,M,M,M,KQFU 160700Z AUTO 21002KT 8000 HZ BKN023 BKN043 23/19 A2982 RMK A02 TSNO
QEX,2020-09-16 07:00,128.3000,36.1000,73.40,66.20,78.19,180.00,3.00,0.00,29.72,M,6.21,M,OVC,M,M,M,2400.00,M,M,M,M,M,M,M,M,M,M,M,KQEX 160700Z AUTO 18003KT 9999 OVC024 23/19 A2972 RMK A02 TSNO
QFW,2020-09-16 07:00,127.8833,37.6667,71.60,68.00,88.43,150.00,2.00,0.00,29.80,M,6.21,M,SCT,OVC,M,M,2100.00,4300.00,M,M,M,M,M,M,M,M,M,M,KQFW 160700Z AUTO 15002KT 9999 SCT021 OVC043 22/20 A2980 RMK A02 TSNO
QFV,2020-09-16 07:00,127.5000,38.0500,68.00,66.20,93.97,310.00,1.00,0.00,29.83,M,5.59,M,FEW,OVC,M,M,1400.00,4100.00,M,M,,M,M,M,M,M,M,M,KQFV 160700Z AUTO 31001KT 9000 // FEW014 OVC041 20/19 A2983 RMK A02 TSNO
RKSI,2020-09-16 07:00,126.4500,37.4667,73.40,64.40,73.44,180.00,8.00,0.00,29.77,M,6.21,M,FEW,SCT,BKN,M,1500.00,2500.00,7000.00,M,M,M,M,M,M,M,M,M,RKSI 160700Z 18008KT 150V210 9999 FEW015 SCT025 BKN070 23/18 Q1008 NOSIG
RKTU,2020-09-16 07:03,127.4991,36.7166,69.80,68.00,94.01,30.00,4.00,0.00,29.77,M,4.97,M,FEW,OVC,M,M,2000.00,3000.00,M,M,-RA,M,M,M,M,M,M,M,RKTU 160703Z 03004KT 8000 -RA FEW020 OVC030 21/20 Q1008 RMK CIG030
RKTU,2020-09-16 07:06,127.4991,36.7166,69.80,68.00,94.01,30.00,4.00,0.00,29.78,M,4.97,M,FEW,OVC,M,M,2000.00,3000.00,M,M,-RA BR,M,M,M,M,M,M,M,RKTU 160706Z 03004KT 8000 -RA BR FEW020 OVC030 21/20 A2978 RMK CIG030
QEJ,2020-09-16 07:10,127.9500,38.2000,71.60,66.20,83.09,10.00,4.00,0.00,29.78,M,6.21,M,FEW,OVC,M,M,2100.00,4600.00,M,M,M,M,M,M,M,M,M,M,KQEJ 160710Z AUTO 01004KT 9999 FEW021 OVC046 22/19 A2978 RMK A02 TSNO
QFT,2020-09-16 07:10,127.3500,37.6000,69.80,66.20,88.34,200.00,3.00,0.00,29.77,M,M,M,OVC,M,M,M,3500.00,M,M,M,,M,M,M,M,M,M,M,KQFT 160710Z AUTO 20003KT / // OVC035 21/19 A2977 RMK A02 TSNO
QFU,2020-09-16 07:10,126.9667,37.8000,73.40,68.00,83.21,240.00,1.00,0.00,29.82,M,4.97,M,SCT,BKN,M,M,2300.00,4000.00,M,M,HZ,M,M,M,M,M,M,M,KQFU 160710Z AUTO 24001KT 8000 HZ SCT023 BKN040 23/20 A2982 RMK A02 TSNO
QFV,2020-09-16 07:10,127.5000,38.0500,68.00,66.20,93.97,40.00,1.00,0.00,29.83,M,3.73,M,OVC,M,M,M,3500.00,M,M,M,,M,M,M,M,M,M,M,KQFV 160710Z AUTO 04001KT 6000 // OVC035 20/19 A2983 RMK A02 TSNO
RKTU,2020-09-16 07:12,127.4991,36.7166,69.80,68.00,94.01,20.00,3.00,0.00,29.77,M,2.98,M,FEW,OVC,M,M,2000.00,3000.00,M,M,-RA BR,M,M,M,M,M,M,M,RKTU 160712Z 02003KT 4800 -RA BR FEW020 OVC030 21/20 Q1008 RMK CIG030
RKSY,2020-09-16 07:13,126.9753,37.5241,75.20,64.40,69.14,190.00,3.00,0.00,29.76,1008.10,6.21,M,SCT,BKN,OVC,M,2400.00,3600.00,12000.00,M,-RA,M,M,M,M,M,M,M,RKSY 160713Z AUTO 19003KT 9999 -RA SCT024 BKN036 OVC120 24/18 A2976 RMK AO2 RAB13 SLP081
RKTU,2020-09-16 07:14,127.4991,36.7166,69.80,68.00,94.01,20.00,3.00,0.00,29.78,M,2.98,M,FEW,OVC,M,M,2000.00,3000.00,M,M,-RA BR,M,M,M,M,M,M,M,RKTU 160714Z 02003KT 4800 -RA BR FEW020 OVC030 21/20 A2978 RMK CIG030
RKNR,2020-09-16 07:17,128.9000,37.1000,62.60,62.60,100.00,310.00,4.00,0.00,29.85,M,1.99,M,FEW,OVC,M,M,1000.00,2000.00,M,M,-RA BR,M,M,M,M,M,M,M,RKNR 160717Z 31004KT 3200 -RA BR FEW010 OVC020 17/17 A2985 RMK CIG020
RKSY,2020-09-16 07:18,126.9753,37.5241,73.40,66.20,78.19,0.00,0.00,0.00,29.75,1007.70,6.21,M,BKN,BKN,OVC,M,2500.00,3500.00,12000.00,M,-RA,M,M,M,M,M,M,M,RKSY 160718Z AUTO 00000KT 9999 -RA BKN025 BKN035 OVC120 23/19 A2975 RMK AO2 RAB13 CIG 025V037 SLP077
RKNO,2020-09-16 07:18,128.4667,38.4667,69.80,68.00,94.01,250.00,3.00,0.00,29.77,M,2.98,M,FEW,BKN,M,M,1800.00,4000.00,M,M,-TSRA BR,M,M,M,M,M,M,M,RKNO 160718Z 25003KT 4800 -TSRA BR FEW018CB BKN040 21/20 A2977 RMK CIG040 TS B17
QFB,2020-09-16 07:20,128.7167,35.6500,73.40,68.00,83.21,320.00,1.00,0.00,29.85,M,6.21,M,OVC,M,M,M,1700.00,M,M,M,M,M,M,M,M,M,M,M,KQFB 160720Z AUTO 32001KT 9999 OVC017 23/20 A2985 RMK A02 TSNO
QEN,2020-09-16 07:20,128.7500,37.6667,60.80,64.40,M,260.00,5.00,0.00,M,M,4.97,M,FEW,OVC,M,M,3800.00,5500.00,M,M,-SHRA,M,M,M,M,M,M,M,KQEN 160720Z AUTO 26005KT 8000 -SHRA FEW038 OVC055 16/18 / RMK A02 TSNO
QES,2020-09-16 07:20,126.4500,36.9667,80.60,66.20,61.58,M,M,0.00,M,M,6.21,M,FEW,SCT,OVC,M,600.00,2900.00,6000.00,M,M,M,M,M,M,M,M,M,KQES 160720Z AUTO 9999 FEW006 SCT029 OVC060 27/19 / RMK A02 TSNO
QEJ,2020-09-16 07:20,127.9500,38.2000,71.60,66.20,83.09,40.00,2.00,0.00,29.78,M,4.97,M,FEW,OVC,M,M,2200.00,4500.00,M,M,HZ,M,M,M,M,M,M,M,KQEJ 160720Z AUTO 04002KT 8000 HZ FEW022 OVC045 22/19 A2978 RMK A02 TSNO
QEI,2020-09-16 07:20,128.0667,37.9500,71.60,66.20,83.09,160.00,1.00,0.00,29.78,M,6.21,M,OVC,M,M,M,3900.00,M,M,M,M,M,M,M,M,M,M,M,KQEI 160720Z AUTO 16001KT 9999 OVC039 22/19 A2978 RMK A02 TSNO
QEQ,2020-09-16 07:20,127.5500,37.8500,75.20,68.00,78.34,250.00,2.00,0.00,29.80,M,6.21,M,BKN,M,M,M,5500.00,M,M,M,M,M,M,M,M,M,M,M,KQEQ 160720Z AUTO 25002KT 9999 BKN055 24/20 A2980 RMK A02 TSNO
QEW,2020-09-16 07:20,128.1500,36.4000,71.60,66.20,83.09,360.00,2.00,0.00,29.78,M,6.21,M,OVC,M,M,M,1900.00,M,M,M,M,M,M,M,M,M,M,M,KQEW 160720Z AUTO 36002KT 9999 OVC019 22/19 A2978 RMK A02 TSNO
QEP,2020-09-16 07:20,127.2667,37.4000,69.80,66.20,88.34,120.00,5.00,0.00,29.80,M,6.21,M,FEW,OVC,M,M,2200.00,4100.00,M,M,M,M,M,M,M,M,M,M,KQEP 160720Z AUTO 12005KT 9999 FEW022 OVC041 21/19 A2980 RMK A02 TSNO
QEX,2020-09-16 07:20,128.3000,36.1000,75.20,64.40,69.14,200.00,5.00,0.00,29.71,M,6.21,M,OVC,M,M,M,2200.00,M,M,M,M,M,M,M,M,M,M,M,KQEX 160720Z AUTO 20005KT 9999 OVC022 24/18 A2971 RMK A02 TSNO
QFW,2020-09-16 07:20,127.8833,37.6667,71.60,66.20,83.09,160.00,1.00,0.00,29.79,M,6.21,M,OVC,M,M,M,3800.00,M,M,M,M,M,M,M,M,M,M,M,KQFW 160720Z AUTO 16001KT 9999 OVC038 22/19 A2979 RMK A02 TSNO
QFV,2020-09-16 07:20,127.5000,38.0500,68.00,66.20,93.97,60.00,2.00,0.00,29.83,M,1.49,M,OVC,M,M,M,3500.00,M,M,M,,M,M,M,M,M,M,M,KQFV 160720Z AUTO 06002KT 2400 // OVC035 20/19 A2983 RMK A02 TSNO
RKNO,2020-09-16 07:20,128.4667,38.4667,69.80,68.00,94.01,250.00,3.00,0.00,29.77,M,2.98,M,FEW,BKN,M,M,1800.00,4000.00,M,M,-TSRA BR,M,M,M,M,M,M,M,RKNO 160720Z 25003KT 4800 -TSRA BR FEW018CB BKN040 21/20 A2977 RMK CIG040 TS B17 NW
RKTU,2020-09-16 07:23,127.4991,36.7166,M,M,M,M,M,0.00,M,M,M,M,M,M,M,M,M,M,M,M,M,M,M,M,M,M,M,M,RKTU 160723Z 16SPECI
RKSY,2020-09-16 07:25,126.9753,37.5241,73.40,66.20,78.19,160.00,5.00,0.00,29.76,1008.10,6.21,M,BKN,OVC,M,M,2500.00,3400.00,M,M,M,M,M,M,M,M,M,M,RKSY 160725Z AUTO 16005KT 9999 BKN025 OVC034 23/19 A2976 RMK AO2 RAB13E25 SLP081
RKTU,2020-09-16 07:25,127.4991,36.7166,69.80,68.00,94.01,10.00,3.00,0.00,29.77,M,3.73,M,FEW,OVC,M,M,2000.00,3000.00,M,M,M,M,M,M,M,M,M,M,RKTU 160725Z 01003KT 6000 FEW020 OVC030 21/20 Q1008 RMK CIG030 WR24
RKTU,2020-09-16 07:26,127.4991,36.7166,69.80,68.00,94.01,10.00,3.00,0.00,29.79,M,3.73,M,FEW,OVC,M,M,2000.00,3000.00,M,M,BR,M,M,M,M,M,M,M,RKTU 160726Z 01003KT 6000 BR FEW020 OVC030 21/20 A2979 RMK CIG030 WR24
RKNN,2020-09-16 07:27,128.9436,37.7536,73.40,68.00,83.21,210.00,4.00,0.00,29.77,M,6.21,M,BKN,BKN,M,M,6000.00,12000.00,M,M,M,M,M,M,M,M,M,M,RKNN 160727Z 21004KT 9999 BKN060 BKN120 23/20 A2977 RMK CIG060
RKJK,2020-09-16 07:28,126.6220,35.8994,71.60,69.80,94.06,0.00,0.00,0.00,29.75,1007.80,2.00,M,BKN,OVC,M,M,700.00,1100.00,M,M,DZ BR,M,M,M,M,M,M,M,RKJK 160728Z 00000KT 2SM DZ BR BKN007 OVC011 22/21 A2975 RMK AO2A VIS 2V3 SLP078 $
QFB,2020-09-16 07:30,128.7167,35.6500,75.20,68.00,78.34,270.00,1.00,0.00,29.85,M,6.21,M,OVC,M,M,M,1600.00,M,M,M,M,M,M,M,M,M,M,M,KQFB 160730Z AUTO 27001KT 9999 OVC016 24/20 A2985 RMK A02 TSNO
RKTF,2020-09-16 07:30,127.3720,36.3720,71.60,68.00,88.43,30.00,1.00,0.00,29.79,M,5.59,M,FEW,BKN,M,M,1500.00,3000.00,M,M,-RA BR,M,M,M,M,M,M,M,RKTF 160730Z 03001KT 9000 -RA BR FEW015 BKN030 22/20 A2979 RMK CIG030
RKTU,2020-09-16 07:30,127.4991,36.7166,69.80,68.00,94.01,360.00,3.00,0.00,29.77,M,2.98,M,FEW,FEW,OVC,M,1000.00,2000.00,3000.00,M,-RA BR,M,M,M,M,M,M,M,RKTU 160730Z 36003KT 4800 -RA BR FEW010 FEW020 OVC030 21/20 Q1008 RMK CIG030 WR24
QEN,2020-09-16 07:30,128.7500,37.6667,60.80,64.40,M,240.00,5.00,0.00,M,M,4.97,M,FEW,BKN,BKN,BKN,400.00,4300.00,6000.00,11000.00,-SHRA,M,M,M,M,M,M,M,KQEN 160730Z AUTO 24005KT 8000 -SHRA FEW004 BKN043 BKN060 BKN110 16/18 / RMK A02 TSNO
QES,2020-09-16 07:30,126.4500,36.9667,80.60,66.20,61.58,M,M,0.00,M,M,6.21,M,BKN,OVC,M,M,2200.00,6000.00,M,M,M,M,M,M,M,M,M,M,KQES 160730Z AUTO 9999 BKN022 OVC060 27/19 / RMK A02 TSNO
QEJ,2020-09-16 07:30,127.9500,38.2000,69.80,68.00,94.01,20.00,2.00,0.00,29.77,M,5.59,M,SCT,OVC,M,M,2500.00,4500.00,M,M,-SHRA,M,M,M,M,M,M,M,KQEJ 160730Z AUTO 02002KT 9000 -SHRA SCT025 OVC045 21/20 A2977 RMK A02 TSNO
QEI,2020-09-16 07:30,128.0667,37.9500,71.60,68.00,88.43,140.00,1.00,0.00,29.78,M,6.21,M,OVC,M,M,M,2400.00,M,M,M,M,M,M,M,M,M,M,M,KQEI 160730Z AUTO 14001KT 9999 OVC024 22/20 A2978 RMK A02 TSNO
QEQ,2020-09-16 07:30,127.5500,37.8500,75.20,68.00,78.34,230.00,2.00,0.00,29.80,M,6.21,M,FEW,BKN,M,M,2400.00,5500.00,M,M,M,M,M,M,M,M,M,M,KQEQ 160730Z AUTO 23002KT 9999 FEW024 BKN055 24/20 A2980 RMK A02 TSNO
QEW,2020-09-16 07:30,128.1500,36.4000,71.60,66.20,83.09,70.00,2.00,0.00,29.78,M,6.21,M,OVC,M,M,M,1900.00,M,M,M,M,M,M,M,M,M,M,M,KQEW 160730Z AUTO 07002KT 9999 OVC019 22/19 A2978 RMK A02 TSNO
QEP,2020-09-16 07:30,127.2667,37.4000,69.80,66.20,88.34,120.00,5.00,0.00,29.80,M,6.21,M,FEW,FEW,BKN,M,900.00,2200.00,4200.00,M,M,M,M,M,M,M,M,M,KQEP 160730Z AUTO 12005KT 9999 FEW009 FEW022 BKN042 21/19 A2980 RMK A02 TSNO
QFT,2020-09-16 07:30,127.3500,37.6000,69.80,66.20,88.34,180.00,3.00,0.00,29.77,M,M,M,FEW,OVC,M,M,2500.00,3900.00,M,M,,M,M,M,M,M,M,M,KQFT 160730Z AUTO 18003KT / // FEW025 OVC039 21/19 A2977 RMK A02 TSNO
QFU,2020-09-16 07:30,126.9667,37.8000,73.40,68.00,83.21,200.00,1.00,0.00,29.81,M,3.73,M,OVC,M,M,M,2800.00,M,M,M,HZ,M,M,M,M,M,M,M,KQFU 160730Z AUTO 20001KT 6000 HZ OVC028 23/20 A2981 RMK A02 TSNO
QEX,2020-09-16 07:30,128.3000,36.1000,73.40,66.20,78.19,180.00,3.00,0.00,29.71,M,6.21,M,OVC,M,M,M,2100.00,M,M,M,M,M,M,M,M,M,M,M,KQEX 160730Z AUTO 18003KT 9999 OVC021 23/19 A2971 RMK A02 TSNO
QFW,2020-09-16 07:30,127.8833,37.6667,71.60,66.20,83.09,150.00,1.00,0.00,29.79,M,6.21,M,OVC,M,M,M,3800.00,M,M,M,M,M,M,M,M,M,M,M,KQFW 160730Z AUTO 15001KT 9999 OVC038 22/19 A2979 RMK A02 TSNO
QFV,2020-09-16 07:30,127.5000,38.0500,68.00,66.20,93.97,0.00,0.00,0.00,29.83,M,3.73,M,OVC,M,M,M,3400.00,M,M,M,,M,M,M,M,M,M,M,KQFV 160730Z AUTO 00000KT 6000 // OVC034 20/19 A2983 RMK A02 TSNO
RKSI,2020-09-16 07:30,126.4500,37.4667,73.40,64.40,73.44,190.00,9.00,0.00,29.74,M,6.21,M,FEW,BKN,BKN,M,1500.00,2500.00,7000.00,M,M,M,M,M,M,M,M,M,RKSI 160730Z 19009KT 9999 FEW015 BKN025 BKN070 23/18 Q1007 NOSIG
RKTU,2020-09-16 07:31,127.4991,36.7166,69.80,68.00,94.01,360.00,3.00,0.00,29.79,M,2.98,M,FEW,FEW,OVC,M,1000.00,2000.00,3000.00,M,-RA BR,M,M,M,M,M,M,M,RKTU 160731Z 36003KT 4800 -RA BR FEW010 FEW020 OVC030 21/20 A2979 RMK CIG030 WR24
RKSG,2020-09-16 07:32,127.0311,36.9622,68.00,64.40,88.26,150.00,3.00,0.00,29.79,1008.80,3.00,M,FEW,OVC,M,M,900.00,2800.00,M,M,BR DZ,M,M,M,M,M,M,M,RKSG 160732Z 15003KT 3SM BR DZ FEW009 OVC028 20/18 A2979 RMK AO2A SLP088 RVRNO $
RKSM,2020-09-16 07:32,127.1139,37.4458,M,M,M,220.00,7.00,0.00,M,M,6.21,M,M,M,M,M,M,M,M,M,M,M,M,M,M,M,M,M,RKSM 160732Z 22007KT 9999 RERA SCT020 BKN100 23/20 A2978 RMK CIG100
RKTY,2020-09-16 07:36,128.3548,36.6319,71.60,66.20,83.09,60.00,3.00,0.00,29.79,M,5.59,M,FEW,OVC,M,M,1500.00,2500.00,M,M,BR,M,M,M,M,M,M,M,RKTY 160736Z 06003KT 9000 BR FEW015 OVC025 22/19 A2979 RMK CIG025 WR26
RKTU,2020-09-16 07:37,127.4991,36.7166,69.80,69.80,100.00,350.00,4.00,0.00,29.77,M,3.73,M,FEW,FEW,OVC,M,1000.00,2000.00,3000.00,M,-RA,M,M,M,M,M,M,M,RKTU 160737Z 35004KT 6000 -RA FEW010 FEW020 OVC030 21/21 Q1008 RMK CIG030
RKJK,2020-09-16 07:38,126.6220,35.8994,71.60,71.60,100.00,0.00,0.00,0.00,29.75,1007.80,1.88,M,OVC,M,M,M,400.00,M,M,M,DZ BR,M,M,M,M,M,M,M,RKJK 160738Z 00000KT 1 7/8SM DZ BR OVC004 22/22 A2975 RMK AO2A SLP078 $
RKTU,2020-09-16 07:38,127.4991,36.7166,69.80,69.80,100.00,350.00,4.00,0.00,29.79,M,3.73,M,FEW,FEW,OVC,M,1000.00,2000.00,3000.00,M,-RA BR,M,M,M,M,M,M,M,RKTU 160738Z 35004KT 6000 -RA BR FEW010 FEW020 OVC030 21/21 A2979 RMK CIG030
QFB,2020-09-16 07:40,128.7167,35.6500,73.40,68.00,83.21,240.00,1.00,0.00,29.85,M,6.21,M,OVC,M,M,M,1500.00,M,M,M,M,M,M,M,M,M,M,M,KQFB 160740Z AUTO 24001KT 9999 OVC015 23/20 A2985 RMK A02 TSNO
QEN,2020-09-16 07:40,128.7500,37.6667,60.80,64.40,M,250.00,5.00,0.00,M,M,3.73,M,BKN,BKN,BKN,BKN,400.00,3500.00,5500.00,11000.00,M,M,M,M,M,M,M,M,KQEN 160740Z AUTO 25005KT 6000 BKN004 BKN035 BKN055 BKN110 16/18 / RMK A02 TSNO
QES,2020-09-16 07:40,126.4500,36.9667,80.60,66.20,61.58,M,M,0.00,M,M,6.21,M,SCT,OVC,M,M,2200.00,5500.00,M,M,M,M,M,M,M,M,M,M,KQES 160740Z AUTO 9999 SCT022 OVC055 27/19 / RMK A02 TSNO
QEJ,2020-09-16 07:40,127.9500,38.2000,69.80,66.20,88.34,10.00,4.00,0.00,29.78,M,5.59,M,BKN,OVC,M,M,2200.00,4500.00,M,M,HZ,M,M,M,M,M,M,M,KQEJ 160740Z AUTO 01004KT 9000 HZ BKN022 OVC045 21/19 A2978 RMK A02 TSNO
QEI,2020-09-16 07:40,128.0667,37.9500,69.80,68.00,94.01,130.00,3.00,0.00,29.78,M,6.21,M,OVC,M,M,M,2400.00,M,M,M,M,M,M,M,M,M,M,M,KQEI 160740Z AUTO 13003KT 9999 OVC024 21/20 A2978 RMK A02 TSNO
QEQ,2020-09-16 07:40,127.5500,37.8500,75.20,68.00,78.34,230.00,5.00,0.00,29.79,M,6.21,M,BKN,BKN,M,M,2400.00,5500.00,M,M,M,M,M,M,M,M,M,M,KQEQ 160740Z AUTO 23005KT 9999 BKN024 BKN055 24/20 A2979 RMK A02 TSNO
QEW,2020-09-16 07:40,128.1500,36.4000,71.60,66.20,83.09,0.00,0.00,0.00,29.79,M,6.21,M,BKN,OVC,M,M,1900.00,3800.00,M,M,M,M,M,M,M,M,M,M,KQEW 160740Z AUTO 00000KT 9999 BKN019 OVC038 22/19 A2979 RMK A02 TSNO
QEP,2020-09-16 07:40,127.2667,37.4000,69.80,66.20,88.34,140.00,4.00,0.00,29.80,M,6.21,M,SCT,BKN,M,M,1000.00,5000.00,M,M,M,M,M,M,M,M,M,M,KQEP 160740Z AUTO 14004KT 9999 SCT010 BKN050 21/19 A2980 RMK A02 TSNO
QFT,2020-09-16 07:40,127.3500,37.6000,69.80,66.20,88.34,0.00,0.00,0.00,29.77,M,M,M,FEW,OVC,M,M,2100.00,3900.00,M,M,,M,M,M,M,M,M,M,KQFT 160740Z AUTO 00000KT / // FEW021 OVC039 21/19 A2977 RMK A02 TSNO
QFU,2020-09-16 07:40,126.9667,37.8000,73.40,66.20,78.19,160.00,2.00,0.00,29.81,M,4.97,M,BKN,M,M,M,2800.00,M,M,M,HZ,M,M,M,M,M,M,M,KQFU 160740Z AUTO 16002KT 8000 HZ BKN028 23/19 A2981 RMK A02 TSNO
QEX,2020-09-16 07:40,128.3000,36.1000,73.40,66.20,78.19,180.00,3.00,0.00,29.71,M,6.21,M,BKN,BKN,OVC,M,2100.00,3100.00,5000.00,M,M,M,M,M,M,M,M,M,KQEX 160740Z AUTO 18003KT 9999 BKN021 BKN031 OVC050 23/19 A2971 RMK A02 TSNO
QFW,2020-09-16 07:40,127.8833,37.6667,71.60,66.20,83.09,330.00,1.00,0.00,29.79,M,6.21,M,OVC,M,M,M,4300.00,M,M,M,M,M,M,M,M,M,M,M,KQFW 160740Z AUTO 33001KT 9999 OVC043 22/19 A2979 RMK A02 TSNO
QFV,2020-09-16 07:40,127.5000,38.0500,68.00,66.20,93.97,100.00,1.00,0.00,29.83,M,3.73,M,OVC,M,M,M,3500.00,M,M,M,,M,M,M,M,M,M,M,KQFV 160740Z AUTO 10001KT 6000 // OVC035 20/19 A2983 RMK A02 TSNO
RKTE,2020-09-16 07:41,127.5001,36.5682,69.80,69.80,100.00,300.00,2.00,0.00,29.75,M,4.97,M,FEW,OVC,M,M,1500.00,2500.00,M,M,BR,M,M,M,M,M,M,M,RKTE 160741Z 30002KT 8000 BR FEW015 OVC025 21/21 A2975 RMK CIG025
RKTI,2020-09-16 07:42,127.8853,37.0300,69.80,68.00,94.01,350.00,3.00,0.00,29.79,M,2.98,M,SCT,BKN,OVC,M,500.00,1500.00,3000.00,M,BR,M,M,M,M,M,M,M,RKTI 160742Z 35003KT 4800 BR SCT005 BKN015 OVC030 21/20 A2979 RMK CIG015
RKNO,2020-09-16 07:43,128.4667,38.4667,69.80,66.20,88.34,80.00,1.00,0.00,29.78,M,3.73,M,BKN,BKN,M,M,4000.00,7000.00,M,M,-RA BR,M,M,M,M,M,M,M,RKNO 160743Z 08001KT 6000 -RA BR BKN040 BKN070 21/19 A2978 RMK CIG040 TS E43 MOVD E
RKSY,2020-09-16 07:45,126.9753,37.5241,73.40,66.20,78.19,150.00,4.00,0.00,29.75,1007.70,6.21,M,BKN,OVC,M,M,3000.00,3400.00,M,M,M,M,M,M,M,M,M,M,RKSY 160745Z AUTO 15004KT 9999 BKN030 OVC034 23/19 A2975 RMK AO2 RAB13E25 SLP077
RKTU,2020-09-16 07:45,127.4991,36.7166,M,M,M,M,M,0.00,M,M,M,M,M,M,M,M,M,M,M,M,M,M,M,M,M,M,M,M,RKTU 160745Z 16SPECI
RKTF,2020-09-16 07:46,127.3720,36.3720,71.60,68.00,88.43,30.00,1.00,0.00,29.79,M,5.59,M,FEW,BKN,M,M,1500.00,3000.00,M,M,BR,M,M,M,M,M,M,M,RKTF 160746Z 03001KT 9000 BR FEW015 BKN030 22/20 A2979 RMK CIG030
RKJK,2020-09-16 07:48,126.6220,35.8994,71.60,71.60,100.00,260.00,2.00,0.00,29.75,1007.80,1.62,M,OVC,M,M,M,400.00,M,M,M,DZ BR,M,M,M,M,M,M,M,RKJK 160748Z 26002KT 1 5/8SM DZ BR OVC004 22/22 A2975 RMK AO2A DZE42RAB42E44DZB44 SLP078 $
QFB,2020-09-16 07:50,128.7167,35.6500,73.40,68.00,83.21,90.00,1.00,0.00,29.85,M,6.21,M,OVC,M,M,M,1500.00,M,M,M,M,M,M,M,M,M,M,M,KQFB 160750Z AUTO 09001KT 9999 OVC015 23/20 A2985 RMK A02 TSNO
QEN,2020-09-16 07:50,128.7500,37.6667,60.80,64.40,M,260.00,5.00,0.00,M,M,3.73,M,BKN,BKN,M,M,300.00,4500.00,M,M,M,M,M,M,M,M,M,M,KQEN 160750Z AUTO 26005KT 6000 BKN003 BKN045 16/18 / RMK A02 TSNO
QES,2020-09-16 07:50,126.4500,36.9667,80.60,66.20,61.58,M,M,0.00,M,M,6.21,M,SCT,OVC,M,M,2200.00,5500.00,M,M,M,M,M,M,M,M,M,M,KQES 160750Z AUTO 9999 SCT022 OVC055 27/19 / RMK A02 TSNO
QEJ,2020-09-16 07:50,127.9500,38.2000,69.80,66.20,88.34,20.00,3.00,0.00,29.78,M,3.73,M,OVC,M,M,M,2100.00,M,M,M,M,M,M,M,M,M,M,M,KQEJ 160750Z AUTO 02003KT 6000 OVC021 21/19 A2978 RMK A02 TSNO
QEI,2020-09-16 07:50,128.0667,37.9500,69.80,68.00,94.01,140.00,1.00,0.00,29.77,M,6.21,M,OVC,M,M,M,2400.00,M,M,M,M,M,M,M,M,M,M,M,KQEI 160750Z AUTO 14001KT 9999 OVC024 21/20 A2977 RMK A02 TSNO
QEQ,2020-09-16 07:50,127.5500,37.8500,75.20,68.00,78.34,210.00,4.00,0.00,29.79,M,6.21,M,BKN,M,M,M,2400.00,M,M,M,M,M,M,M,M,M,M,M,KQEQ 160750Z AUTO 21004KT 9999 BKN024 24/20 A2979 RMK A02 TSNO
QEW,2020-09-16 07:50,128.1500,36.4000,71.60,66.20,83.09,90.00,1.00,0.00,29.78,M,6.21,M,BKN,OVC,M,M,1900.00,3700.00,M,M,M,M,M,M,M,M,M,M,KQEW 160750Z AUTO 09001KT 9999 BKN019 OVC037 22/19 A2978 RMK A02 TSNO
QEP,2020-09-16 07:50,127.2667,37.4000,69.80,66.20,88.34,120.00,5.00,0.00,29.80,M,6.21,M,BKN,BKN,M,M,1200.00,6500.00,M,M,M,M,M,M,M,M,M,M,KQEP 160750Z AUTO 12005KT 9999 BKN012 BKN065 21/19 A2980 RMK A02 TSNO
QFT,2020-09-16 07:50,127.3500,37.6000,71.60,66.20,83.09,200.00,1.00,0.00,29.77,M,M,M,SCT,OVC,M,M,2200.00,3900.00,M,M,,M,M,M,M,M,M,M,KQFT 160750Z AUTO 20001KT / // SCT022 OVC039 22/19 A2977 RMK A02 TSNO
QFU,2020-09-16 07:50,126.9667,37.8000,73.40,66.20,78.19,150.00,3.00,0.00,29.81,M,3.73,M,BKN,BKN,M,M,2400.00,2800.00,M,M,HZ,M,M,M,M,M,M,M,KQFU 160750Z AUTO 15003KT 6000 HZ BKN024 BKN028 23/19 A2981 RMK A02 TSNO
QEX,2020-09-16 07:50,128.3000,36.1000,73.40,66.20,78.19,170.00,4.00,0.00,29.72,M,6.21,M,SCT,OVC,M,M,2100.00,4100.00,M,M,M,M,M,M,M,M,M,M,KQEX 160750Z AUTO 17004KT 9999 SCT021 OVC041 23/19 A2972 RMK A02 TSNO
QFW,2020-09-16 07:50,127.8833,37.6667,71.60,66.20,83.09,230.00,1.00,0.00,29.79,M,6.21,M,BKN,OVC,M,M,4300.00,5000.00,M,M,M,M,M,M,M,M,M,M,KQFW 160750Z AUTO 23001KT 9999 BKN043 OVC050 22/19 A2979 RMK A02 TSNO
QFV,2020-09-16 07:50,127.5000,38.0500,68.00,66.20,93.97,70.00,1.00,0.00,29.83,M,3.73,M,FEW,OVC,M,M,500.00,4700.00,M,M,,M,M,M,M,M,M,M,KQFV 160750Z AUTO 07001KT 6000 // FEW005 OVC047 20/19 A2983 RMK A02 TSNO
RKSG,2020-09-16 07:51,127.0311,36.9622,68.00,64.40,88.26,140.00,2.00,0.01,29.79,1008.70,3.00,M,FEW,OVC,M,M,500.00,2500.00,M,M,BR,M,M,M,M,M,M,M,RKSG 160751Z 14002KT 3SM BR FEW005 OVC025 20/18 A2979 RMK AO2A DZE51 SLP087 P0001 RVRNO $ 0853
RKJK,2020-09-16 07:57,126.6220,35.8994,72.00,71.10,96.99,0.00,0.00,0.01,29.75,1007.80,1.38,M,OVC,M,M,M,400.00,M,M,M,-DZ BR,M,M,M,M,M,M,M,RKJK 160757Z 00000KT 1 3/8SM -DZ BR OVC004 22/22 A2975 RMK AO2A DZE42RAB42E44DZB44 SLP078 P0001 T02220217 $
RKSO,2020-09-16 07:58,127.0296,37.0906,68.90,68.70,99.32,160.00,3.00,0.05,29.76,1008.00,7.00,M,SCT,OVC,M,M,600.00,4000.00,M,M,M,M,M,M,M,M,M,M,RKSO 160758Z 16003KT 7SM R27/5500FT SCT006 OVC040 21/20 A2976 RMK AO2A SLP080 P0005 T02050204 $
RKSY,2020-09-16 07:58,126.9753,37.5241,73.40,65.70,76.84,160.00,4.00,T,29.75,1007.70,6.21,M,FEW,OVC,M,M,2900.00,3500.00,M,M,M,M,M,M,M,M,M,M,RKSY 160758Z AUTO 16004KT 9999 FEW029 OVC035 23/19 A2975 RMK AO2 RAB13E25 SLP077 P0000 T02300187 402680214
RKPS,2020-09-16 08:00,128.0704,35.0885,73.40,69.80,88.51,60.00,4.00,0.00,29.80,1009.40,6.21,M,SCT,BKN,OVC,M,1000.00,1700.00,2500.00,M,M,M,M,M,M,M,M,M,RKPS 160800Z 06004KT 9999 SCT010 BKN017 OVC025 23/21 Q1009 RMK CIG017 SLP094 8/6// 9/8//
RKJB,2020-09-16 08:00,126.3800,34.9800,77.00,73.40,88.67,240.00,4.00,0.00,29.77,M,6.21,M,BKN,M,M,M,2500.00,M,M,M,M,M,M,M,M,M,M,M,RKJB 160800Z 24004KT 210V290 9999 BKN025 25/23 Q1008 NOSIG
RKJJ,2020-09-16 08:00,126.8089,35.1264,77.00,71.60,83.44,140.00,2.00,0.00,29.74,1007.70,6.21,M,BKN,M,M,M,4000.00,M,M,M,M,M,M,M,M,M,M,M,RKJJ 160800Z 14002KT 9999 BKN040 25/22 Q1007 RMK CIG040 SLP077 8/500 9/700
RKPC,2020-09-16 08:00,126.4930,33.5113,75.20,75.20,100.00,30.00,4.00,0.00,29.77,M,6.21,M,FEW,BKN,M,M,1000.00,3000.00,M,M,M,M,M,M,M,M,M,M,RKPC 160800Z 03004KT 350V060 9999 FEW010 BKN030 24/24 Q1008 NOSIG
RKNY,2020-09-16 08:00,128.6692,38.0613,69.80,69.80,100.00,230.00,1.00,0.00,29.74,M,4.97,M,BKN,OVC,M,M,3000.00,8000.00,M,M,-RA,M,M,M,M,M,M,M,RKNY 160800Z 23001KT 8000 -RA BKN030 OVC080 21/21 Q1007 NOSIG
RKSM,2020-09-16 08:00,127.1139,37.4458,M,M,M,220.00,7.00,0.00,M,M,6.21,M,M,M,M,M,M,M,M,M,M,M,M,M,M,M,M,M,RKSM 160800Z 22007KT 9999 RERA FEW025 BKN100 23/19 A2978
QFB,2020-09-16 08:00,128.7167,35.6500,73.40,68.00,83.21,350.00,1.00,0.00,29.85,M,6.21,M,OVC,M,M,M,1400.00,M,M,M,M,M,M,M,M,M,M,M,KQFB 160800Z AUTO 35001KT 9999 OVC014 23/20 A2985 RMK A02 TSNO
RKSS,2020-09-16 08:00,126.7906,37.5583,73.40,66.20,78.19,180.00,5.00,0.00,29.77,M,6.21,M,SCT,BKN,M,M,4000.00,10000.00,M,M,M,M,M,M,M,M,M,M,RKSS 160800Z 18005KT 9999 SCT040 BKN100 23/19 Q1008 NOSIG
RKTH,2020-09-16 08:00,129.4205,35.9879,75.20,73.40,94.14,300.00,1.00,0.00,29.77,1008.80,3.73,M,FEW,OVC,M,M,1000.00,3000.00,M,M,M,M,M,M,M,M,M,M,RKTH 160800Z 30001KT 6000 FEW010 OVC030 24/23 Q1008 RMK CIG030 SLP088 8/5// 9/8//
RKTN,2020-09-16 08:00,128.6589,35.8941,75.20,66.20,73.61,330.00,1.00,0.00,29.80,M,6.21,M,SCT,OVC,M,M,2000.00,2500.00,M,M,M,M,M,M,M,M,M,M,RKTN 160800Z 33001KT 9999 SCT020 OVC025 24/19 Q1009
RKTU,2020-09-16 08:00,127.4991,36.7166,68.00,68.00,100.00,360.00,4.00,0.00,29.77,1008.50,2.98,M,FEW,SCT,OVC,M,500.00,1500.00,2500.00,M,-RA BR,M,M,M,M,M,M,M,RKTU 160800Z 36004KT 4800 -RA BR FEW005 SCT015 OVC025 20/20 Q1008 RMK CIG025 SLP085 8/7// 9/8// WR24
QEN,2020-09-16 08:00,128.7500,37.6667,60.80,64.40,M,250.00,4.00,0.00,M,M,6.21,M,BKN,OVC,M,M,300.00,4400.00,M,M,M,M,M,M,M,M,M,M,KQEN 160800Z AUTO 25004KT 9999 BKN003 OVC044 16/18 / RMK A02 TSNO
QES,2020-09-16 08:00,126.4500,36.9667,80.60,66.20,61.58,M,M,0.00,M,M,6.21,M,FEW,OVC,M,M,2200.00,5000.00,M,M,M,M,M,M,M,M,M,M,KQES 160800Z AUTO 9999 FEW022 OVC050 27/19 / RMK A02 TSNO
QEJ,2020-09-16 08:00,127.9500,38.2000,68.00,66.20,93.97,20.00,2.00,0.00,29.78,M,2.98,M,OVC,M,M,M,2100.00,M,M,M,-SHRA,M,M,M,M,M,M,M,KQEJ 160800Z AUTO 02002KT 4800 -SHRA OVC021 20/19 A2978 RMK A02 TSNO
QEI,2020-09-16 08:00,128.0667,37.9500,69.80,68.00,94.01,110.00,2.00,0.00,29.77,M,2.98,M,OVC,M,M,M,2600.00,M,M,M,,M,M,M,M,M,M,M,KQEI 160800Z AUTO 11002KT 4800 // OVC026 21/20 A2977 RMK A02 TSNO
QEQ,2020-09-16 08:00,127.5500,37.8500,75.20,68.00,78.34,220.00,3.00,0.00,29.79,M,6.21,M,BKN,M,M,M,2400.00,M,M,M,M,M,M,M,M,M,M,M,KQEQ 160800Z AUTO 22003KT 9999 BKN024 24/20 A2979 RMK A02 TSNO
QEW,2020-09-16 08:00,128.1500,36.4000,71.60,66.20,83.09,10.00,1.00,0.00,29.78,M,6.21,M,BKN,OVC,M,M,1900.00,3700.00,M,M,M,M,M,M,M,M,M,M,KQEW 160800Z AUTO 01001KT 9999 BKN019 OVC037 22/19 A2978 RMK A02 TSNO
QEP,2020-09-16 08:00,127.2667,37.4000,69.80,66.20,88.34,120.00,6.00,0.00,29.80,M,6.21,M,FEW,BKN,BKN,M,1300.00,2000.00,7500.00,M,M,M,M,M,M,M,M,M,KQEP 160800Z AUTO 12006KT 9999 FEW013 BKN020 BKN075 21/19 A2980 RMK A02 TSNO
RKPK,2020-09-16 08:00,128.9382,35.1795,75.20,68.00,78.34,180.00,7.00,0.00,29.77,M,6.21,M,FEW,SCT,BKN,M,1500.00,2000.00,2500.00,M,M,M,M,M,M,M,M,M,RKPK 160800Z 18007KT 9999 FEW015 SCT020 BKN025 24/20 Q1008
QFT,2020-09-16 08:00,127.3500,37.6000,69.80,66.20,88.34,220.00,1.00,0.00,29.77,M,M,M,BKN,OVC,M,M,2100.00,3900.00,M,M,,M,M,M,M,M,M,M,KQFT 160800Z AUTO 22001KT / // BKN021 OVC039 21/19 A2977 RMK A02 TSNO
QFU,2020-09-16 08:00,126.9667,37.8000,73.40,66.20,78.19,140.00,3.00,0.00,29.80,M,3.73,M,BKN,M,M,M,2300.00,M,M,M,HZ,M,M,M,M,M,M,M,KQFU 160800Z AUTO 14003KT 6000 HZ BKN023 23/19 A2980 RMK A02 TSNO
QEX,2020-09-16 08:00,128.3000,36.1000,73.40,66.20,78.19,170.00,6.00,0.00,29.71,M,6.21,M,FEW,OVC,M,M,2100.00,4100.00,M,M,M,M,M,M,M,M,M,M,KQEX 160800Z AUTO 17006KT 9999 FEW021 OVC041 23/19 A2971 RMK A02 TSNO
QFW,2020-09-16 08:00,127.8833,37.6667,71.60,68.00,88.43,210.00,2.00,0.00,29.79,M,6.21,M,OVC,M,M,M,4200.00,M,M,M,M,M,M,M,M,M,M,M,KQFW 160800Z AUTO 21002KT 9999 OVC042 22/20 A2979 RMK A02 TSNO
QFV,2020-09-16 08:00,127.5000,38.0500,68.00,66.20,93.97,50.00,3.00,0.00,29.83,M,2.49,M,FEW,FEW,BKN,OVC,500.00,1300.00,4600.00,5500.00,,M,M,M,M,M,M,M,KQFV 160800Z AUTO 05003KT 4000 // FEW005 FEW013 BKN046 OVC055 20/19 A2983 RMK A02 TSNO
RKSI,2020-09-16 08:00,126.4500,37.4667,71.60,64.40,78.04,180.00,9.00,0.00,29.74,M,6.21,M,FEW,BKN,M,M,1500.00,2500.00,M,M,M,M,M,M,M,M,M,M,RKSI 160800Z 18009KT 150V210 9999 FEW015 BKN025 22/18 Q1007 NOSIG
RKTF,2020-09-16 08:01,127.3720,36.3720,69.80,68.00,94.01,50.00,1.00,0.00,29.79,M,5.59,M,SCT,BKN,M,M,2000.00,3000.00,M,M,-RA BR,M,M,M,M,M,M,M,RKTF 160801Z 05001KT 9000 -RA BR SCT020 BKN030 21/20 A2979 RMK CIG030
RKJK,2020-09-16 08:02,126.6220,35.8994,71.60,69.80,94.06,0.00,0.00,0.00,29.75,1007.80,1.50,M,OVC,M,M,M,300.00,M,M,M,-DZ BR,M,M,M,M,M,M,M,RKJK 160802Z 00000KT 1 1/2SM -DZ BR OVC003 22/21 A2975 RMK A02 TWR VIS 1/2 SLP078 $
RKJK,2020-09-16 08:07,126.6220,35.8994,71.60,69.80,94.06,0.00,0.00,0.00,29.74,1007.50,1.88,M,BKN,OVC,M,M,400.00,1400.00,M,M,-DZ BR,M,M,M,M,M,M,M,RKJK 160807Z 00000KT 1 7/8SM -DZ BR BKN004 OVC014 22/21 A2974 RMK AO2A VIS 1 1/4V1 7/8 BKN V OVC SLP075 $
RKTU,2020-09-16 08:08,127.4991,36.7166,68.00,68.00,100.00,360.00,3.00,0.00,29.77,M,3.73,M,FEW,SCT,OVC,M,500.00,1500.00,2500.00,M,M,M,M,M,M,M,M,M,RKTU 160808Z 36003KT 6000 FEW005 SCT015 OVC025 20/20 Q1008 RMK CIG025 WR24
RKTU,2020-09-16 08:09,127.4991,36.7166,68.00,68.00,100.00,360.00,3.00,0.00,29.79,M,3.73,M,FEW,SCT,OVC,M,500.00,1500.00,2500.00,M,BR,M,M,M,M,M,M,M,RKTU 160809Z 36003KT 6000 BR FEW005 SCT015 OVC025 20/20 A2979 RMK CIG025 WR24
QFB,2020-09-16 08:10,128.7167,35.6500,73.40,68.00,83.21,330.00,2.00,0.00,29.85,M,6.21,M,OVC,M,M,M,1400.00,M,M,M,M,M,M,M,M,M,M,M,KQFB 160810Z AUTO 33002KT 9999 OVC014 23/20 A2985 RMK A02 TSNO
QEN,2020-09-16 08:10,128.7500,37.6667,60.80,64.40,M,260.00,5.00,0.00,M,M,6.21,M,BKN,OVC,M,M,300.00,4100.00,M,M,M,M,M,M,M,M,M,M,KQEN 160810Z AUTO 26005KT 9999 BKN003 OVC041 16/18 / RMK A02 TSNO
QES,2020-09-16 08:10,126.4500,36.9667,80.60,66.20,61.58,M,M,0.00,M,M,6.21,M,OVC,M,M,M,5000.00,M,M,M,M,M,M,M,M,M,M,M,KQES 160810Z AUTO 9999 OVC050 27/19 / RMK A02 TSNO
QEJ,2020-09-16 08:10,127.9500,38.2000,68.00,66.20,93.97,110.00,2.00,0.00,29.79,M,1.49,M,OVC,M,M,M,2200.00,M,M,M,SHRA,M,M,M,M,M,M,M,KQEJ 160810Z AUTO 11002KT 2400 SHRA OVC022 20/19 A2979 RMK A02 TSNO
QEI,2020-09-16 08:10,128.0667,37.9500,69.80,68.00,94.01,210.00,1.00,0.00,29.78,M,6.21,M,OVC,M,M,M,2300.00,M,M,M,M,M,M,M,M,M,M,M,KQEI 160810Z AUTO 21001KT 9999 OVC023 21/20 A2978 RMK A02 TSNO
QEQ,2020-09-16 08:10,127.5500,37.8500,75.20,68.00,78.34,220.00,3.00,0.00,29.79,M,6.21,M,BKN,M,M,M,2600.00,M,M,M,M,M,M,M,M,M,M,M,KQEQ 160810Z AUTO 22003KT 9999 BKN026 24/20 A2979 RMK A02 TSNO
QEW,2020-09-16 08:10,128.1500,36.4000,71.60,66.20,83.09,10.00,2.00,0.00,29.78,M,6.21,M,BKN,OVC,M,M,1900.00,3600.00,M,M,M,M,M,M,M,M,M,M,KQEW 160810Z AUTO 01002KT 9999 BKN019 OVC036 22/19 A2978 RMK A02 TSNO
QEP,2020-09-16 08:10,127.2667,37.4000,69.80,66.20,88.34,130.00,4.00,0.00,29.80,M,6.21,M,BKN,M,M,M,1500.00,M,M,M,M,M,M,M,M,M,M,M,KQEP 160810Z AUTO 13004KT 9999 BKN015 21/19 A2980 RMK A02 TSNO
QFT,2020-09-16 08:10,127.3500,37.6000,71.60,66.20,83.09,280.00,1.00,0.00,29.77,M,M,M,BKN,OVC,M,M,2000.00,3900.00,M,M,,M,M,M,M,M,M,M,KQFT 160810Z AUTO 28001KT / // BKN020 OVC039 22/19 A2977 RMK A02 TSNO
QFU,2020-09-16 08:10,126.9667,37.8000,73.40,66.20,78.19,150.00,4.00,0.00,29.80,M,4.97,M,OVC,M,M,M,2000.00,M,M,M,HZ,M,M,M,M,M,M,M,KQFU 160810Z AUTO 15004KT 8000 HZ OVC020 23/19 A2980 RMK A02 TSNO
QEX,2020-09-16 08:10,128.3000,36.1000,73.40,66.20,78.19,160.00,4.00,0.00,29.71,M,6.21,M,OVC,M,M,M,4100.00,M,M,M,M,M,M,M,M,M,M,M,KQEX 160810Z AUTO 16004KT 9999 OVC041 23/19 A2971 RMK A02 TSNO
QFW,2020-09-16 08:10,127.8833,37.6667,71.60,68.00,88.43,200.00,1.00,0.00,29.79,M,6.21,M,OVC,M,M,M,4200.00,M,M,M,M,M,M,M,M,M,M,M,KQFW 160810Z AUTO 20001KT 9999 OVC042 22/20 A2979 RMK A02 TSNO
QFV,2020-09-16 08:10,127.5000,38.0500,68.00,66.20,93.97,90.00,1.00,0.00,29.82,M,2.49,M,FEW,OVC,M,M,500.00,4600.00,M,M,,M,M,M,M,M,M,M,KQFV 160810Z AUTO 09001KT 4000 // FEW005 OVC046 20/19 A2982 RMK A02 TSNO
RKTF,2020-09-16 08:15,127.3720,36.3720,69.80,68.00,94.01,360.00,1.00,0.00,29.78,M,4.97,M,FEW,SCT,OVC,M,1000.00,2000.00,3000.00,M,-RA BR,M,M,M,M,M,M,M,RKTF 160815Z 36001KT 8000 -RA BR FEW010 SCT020 OVC030 21/20 A2978 RMK CIG030
RKTU,2020-09-16 08:15,127.4991,36.7166,M,M,M,M,M,0.00,M,M,M,M,M,M,M,M,M,M,M,M,M,M,M,M,M,M,M,M,RKTU 160815Z 16SPECI
RKSW,2020-09-16 08:16,127.0071,37.2394,69.80,68.00,94.01,180.00,5.00,0.00,29.79,M,6.21,M,FEW,SCT,BKN,M,1500.00,2000.00,4500.00,M,M,M,M,M,M,M,M,M,RKSW 160816Z 18005KT 9999 FEW015 SCT020 BKN045 21/20 A2979 RMK CIG045
RKJK,2020-09-16 08:17,126.6220,35.8994,71.60,71.60,100.00,0.00,0.00,0.00,29.74,1007.50,2.25,M,OVC,M,M,M,300.00,M,M,M,BR,M,M,M,M,M,M,M,RKJK 160817Z AUTO 00000KT 2 1/4SM BR OVC003 22/22 A2974 RMK AO2 VIS 1 3/8 RWY36 DZE13 OVC V BKN SLP075 $
RKTU,2020-09-16 08:17,127.4991,36.7166,68.00,68.00,100.00,10.00,3.00,0.00,29.77,M,3.73,M,FEW,SCT,OVC,M,500.00,1500.00,2500.00,M,-DZ,M,M,M,M,M,M,M,RKTU 160817Z 01003KT 6000 -DZ FEW005 SCT015 OVC025 20/20 Q1008 RMK CIG025 WR24
RKNR,2020-09-16 08:18,128.9000,37.1000,62.60,62.60,100.00,70.00,3.00,0.00,29.84,M,1.99,M,FEW,BKN,OVC,M,1000.00,2000.00,4000.00,M,-RA BR,M,M,M,M,M,M,M,RKNR 160818Z 07003KT 3200 -RA BR FEW010 BKN020 OVC040 17/17 A2984 RMK CIG020
RKTU,2020-09-16 08:18,127.4991,36.7166,68.00,68.00,100.00,10.00,3.00,0.00,29.79,M,3.73,M,FEW,SCT,OVC,M,500.00,1500.00,2500.00,M,-DZ BR,M,M,M,M,M,M,M,RKTU 160818Z 01003KT 6000 -DZ BR FEW005 SCT015 OVC025 20/20 A2979 RMK CIG025 WR24
QFB,2020-09-16 08:20,128.7167,35.6500,73.40,68.00,83.21,350.00,2.00,0.00,29.85,M,6.21,M,OVC,M,M,M,1400.00,M,M,M,M,M,M,M,M,M,M,M,KQFB 160820Z AUTO 35002KT 9999 OVC014 23/20 A2985 RMK A02 TSNO
QEN,2020-09-16 08:20,128.7500,37.6667,60.80,64.40,M,260.00,6.00,0.00,M,M,6.21,M,FEW,SCT,BKN,BKN,300.00,1300.00,4100.00,7000.00,M,M,M,M,M,M,M,M,KQEN 160820Z AUTO 26006KT 9999 FEW003 SCT013 BKN041 BKN070 16/18 / RMK A02 TSNO
QES,2020-09-16 08:20,126.4500,36.9667,80.60,66.20,61.58,M,M,0.00,M,M,6.21,M,OVC,M,M,M,4900.00,M,M,M,M,M,M,M,M,M,M,M,KQES 160820Z AUTO 9999 OVC049 27/19 / RMK A02 TSNO
QEJ,2020-09-16 08:20,127.9500,38.2000,68.00,66.20,93.97,190.00,1.00,0.00,29.79,M,1.74,M,FEW,OVC,M,M,3300.00,4100.00,M,M,SHRA,M,M,M,M,M,M,M,KQEJ 160820Z AUTO 19001KT 2800 SHRA FEW033 OVC041 20/19 A2979 RMK A02 TSNO
QEI,2020-09-16 08:20,128.0667,37.9500,68.00,66.20,93.97,270.00,3.00,0.00,29.80,M,1.24,M,OVC,M,M,M,1300.00,M,M,M,,M,M,M,M,M,M,M,KQEI 160820Z AUTO 27003KT 2000 // OVC013 20/19 A2980 RMK A02 TSNO
QEQ,2020-09-16 08:20,127.5500,37.8500,73.40,68.00,83.21,220.00,3.00,0.00,29.79,M,6.21,M,SCT,M,M,M,2900.00,M,M,M,M,M,M,M,M,M,M,M,KQEQ 160820Z AUTO 22003KT 9999 SCT029 23/20 A2979 RMK A02 TSNO
QEW,2020-09-16 08:20,128.1500,36.4000,71.60,66.20,83.09,10.00,1.00,0.00,29.78,M,6.21,M,BKN,OVC,M,M,1900.00,3600.00,M,M,M,M,M,M,M,M,M,M,KQEW 160820Z AUTO 01001KT 9999 BKN019 OVC036 22/19 A2978 RMK A02 TSNO
QEP,2020-09-16 08:20,127.2667,37.4000,69.80,66.20,88.34,120.00,3.00,0.00,29.80,M,6.21,M,BKN,BKN,M,M,1500.00,10000.00,M,M,M,M,M,M,M,M,M,M,KQEP 160820Z AUTO 12003KT 9999 BKN015 BKN0100 21/19 A2980 RMK A02 TSNO
QFT,2020-09-16 08:20,127.3500,37.6000,71.60,68.00,88.43,170.00,1.00,0.00,29.76,M,M,M,BKN,OVC,M,M,2000.00,3800.00,M,M,,M,M,M,M,M,M,M,KQFT 160820Z AUTO 17001KT / // BKN020 OVC038 22/20 A2976 RMK A02 TSNO
QFU,2020-09-16 08:20,126.9667,37.8000,71.60,66.20,83.09,170.00,4.00,0.00,29.80,M,5.59,M,OVC,M,M,M,2000.00,M,M,M,HZ,M,M,M,M,M,M,M,KQFU 160820Z AUTO 17004KT 9000 HZ OVC020 22/19 A2980 RMK A02 TSNO
QEX,2020-09-16 08:20,128.3000,36.1000,73.40,66.20,78.19,170.00,3.00,0.00,29.71,M,6.21,M,FEW,BKN,OVC,M,3700.00,4200.00,5500.00,M,M,M,M,M,M,M,M,M,KQEX 160820Z AUTO 17003KT 9999 FEW037 BKN042 OVC055 23/19 A2971 RMK A02 TSNO
QFW,2020-09-16 08:20,127.8833,37.6667,69.80,68.00,94.01,290.00,3.00,0.00,29.80,M,6.21,M,FEW,OVC,M,M,2300.00,4200.00,M,M,M,M,M,M,M,M,M,M,KQFW 160820Z AUTO 29003KT 9999 FEW023 OVC042 21/20 A2980 RMK A02 TSNO
QFV,2020-09-16 08:20,127.5000,38.0500,68.00,66.20,93.97,50.00,1.00,0.00,29.82,M,2.49,M,FEW,BKN,M,M,1300.00,4500.00,M,M,,M,M,M,M,M,M,M,KQFV 160820Z AUTO 05001KT 4000 // FEW013 BKN045 20/19 A2982 RMK A02 TSNO
RKTY,2020-09-16 08:23,128.3548,36.6319,71.60,66.20,83.09,90.00,4.00,0.00,29.80,M,4.97,M,SCT,OVC,M,M,1000.00,2000.00,M,M,BR,M,M,M,M,M,M,M,RKTY 160823Z 09004KT 8000 BR SCT010 OVC020 22/19 A2980 RMK CIG020 WR26
RKTU,2020-09-16 08:25,127.4991,36.7166,M,M,M,M,M,0.00,M,M,M,M,M,M,M,M,M,M,M,M,M,M,M,M,M,M,M,M,RKTU 160825Z 16SPECI
QFB,2020-09-16 08:30,128.7167,35.6500,73.40,68.00,83.21,350.00,1.00,0.00,29.85,M,6.21,M,OVC,M,M,M,1400.00,M,M,M,M,M,M,M,M,M,M,M,KQFB 160830Z AUTO 35001KT 9999 OVC014 23/20 A2985 RMK A02 TSNO
QEN,2020-09-16 08:30,128.7500,37.6667,60.80,64.40,M,250.00,4.00,0.00,M,M,6.21,M,SCT,SCT,BKN,M,1200.00,4100.00,6000.00,M,M,M,M,M,M,M,M,M,KQEN 160830Z AUTO 25004KT 9999 SCT012 SCT041 BKN060 16/18 / RMK A02 TSNO
QES,2020-09-16 08:30,126.4500,36.9667,80.60,66.20,61.58,M,M,0.00,M,M,6.21,M,OVC,M,M,M,4800.00,M,M,M,M,M,M,M,M,M,M,M,KQES 160830Z AUTO 9999 OVC048 27/19 / RMK A02 TSNO
QEJ,2020-09-16 08:30,127.9500,38.2000,68.00,66.20,93.97,190.00,2.00,0.00,29.79,M,2.49,M,OVC,M,M,M,4100.00,M,M,M,SHRA,M,M,M,M,M,M,M,KQEJ 160830Z AUTO 19002KT 4000 SHRA OVC041 20/19 A2979 RMK A02 TSNO
QEI,2020-09-16 08:30,128.0667,37.9500,66.20,64.40,93.92,330.00,4.00,0.00,29.81,M,0.75,M,OVC,M,M,M,1300.00,M,M,M,,M,M,M,M,M,M,M,KQEI 160830Z AUTO 33004KT 1200 // OVC013 19/18 A2981 RMK A02 TSNO
QEQ,2020-09-16 08:30,127.5500,37.8500,73.40,69.80,88.51,220.00,4.00,0.00,29.79,M,6.21,M,SCT,M,M,M,2700.00,M,M,M,M,M,M,M,M,M,M,M,KQEQ 160830Z AUTO 22004KT 9999 SCT027 23/21 A2979 RMK A02 TSNO
QEW,2020-09-16 08:30,128.1500,36.4000,71.60,66.20,83.09,340.00,2.00,0.00,29.78,M,6.21,M,OVC,M,M,M,1900.00,M,M,M,M,M,M,M,M,M,M,M,KQEW 160830Z AUTO 34002KT 9999 OVC019 22/19 A2978 RMK A02 TSNO
QEP,2020-09-16 08:30,127.2667,37.4000,69.80,66.20,88.34,110.00,1.00,0.00,29.80,M,6.21,M,BKN,M,M,M,1500.00,M,M,M,M,M,M,M,M,M,M,M,KQEP 160830Z AUTO 11001KT 9999 BKN015 21/19 A2980 RMK A02 TSNO
QFT,2020-09-16 08:30,127.3500,37.6000,71.60,66.20,83.09,0.00,0.00,0.00,29.76,M,M,M,BKN,OVC,M,M,2000.00,3600.00,M,M,,M,M,M,M,M,M,M,KQFT 160830Z AUTO 00000KT / // BKN020 OVC036 22/19 A2976 RMK A02 TSNO
QFU,2020-09-16 08:30,126.9667,37.8000,71.60,66.20,83.09,160.00,3.00,0.00,29.80,M,5.59,M,OVC,M,M,M,2000.00,M,M,M,HZ,M,M,M,M,M,M,M,KQFU 160830Z AUTO 16003KT 9000 HZ OVC020 22/19 A2980 RMK A02 TSNO
QEX,2020-09-16 08:30,128.3000,36.1000,73.40,66.20,78.19,140.00,2.00,0.00,29.71,M,6.21,M,FEW,BKN,M,M,3700.00,5000.00,M,M,M,M,M,M,M,M,M,M,KQEX 160830Z AUTO 14002KT 9999 FEW037 BKN050 23/19 A2971 RMK A02 TSNO
QFW,2020-09-16 08:30,127.8833,37.6667,69.80,68.00,94.01,290.00,2.00,0.00,29.80,M,6.21,M,SCT,OVC,M,M,1700.00,4400.00,M,M,M,M,M,M,M,M,M,M,KQFW 160830Z AUTO 29002KT 9999 SCT017 OVC044 21/20 A2980 RMK A02 TSNO
QFV,2020-09-16 08:30,127.5000,38.0500,68.00,66.20,93.97,90.00,4.00,0.00,29.82,M,3.73,M,BKN,M,M,M,4000.00,M,M,M,,M,M,M,M,M,M,M,KQFV 160830Z AUTO 09004KT 6000 // BKN040 20/19 A2982 RMK A02 TSNO
RKSI,2020-09-16 08:30,126.4500,37.4667,71.60,64.40,78.04,180.00,9.00,0.00,29.74,M,6.21,M,FEW,BKN,M,M,1000.00,2500.00,M,M,M,M,M,M,M,M,M,M,RKSI 160830Z 18009KT 9999 FEW010 BKN025 22/18 Q1007 NOSIG
RKJK,2020-09-16 08:35,126.6220,35.8994,71.60,69.80,94.06,260.00,3.00,0.00,29.76,1008.20,1.50,M,OVC,M,M,M,300.00,M,M,M,-DZ BR,M,M,M,M,M,M,M,RKJK 160835Z 26003KT 1 1/2SM -DZ BR OVC003 22/21 A2976 RMK DZE13DZB22 OVC V BKN PRESRR SLP082 $
RKTF,2020-09-16 08:37,127.3720,36.3720,69.80,68.00,94.01,330.00,2.00,0.00,29.78,M,4.97,M,SCT,OVC,M,M,1000.00,2000.00,M,M,-RA BR,M,M,M,M,M,M,M,RKTF 160837Z 33002KT 8000 -RA BR SCT010 OVC020 21/20 A2978 RMK CIG020
QFB,2020-09-16 08:40,128.7167,35.6500,73.40,68.00,83.21,360.00,1.00,0.00,29.84,M,6.21,M,OVC,M,M,M,1600.00,M,M,M,M,M,M,M,M,M,M,M,KQFB 160840Z AUTO 36001KT 9999 OVC016 23/20 A2984 RMK A02 TSNO
QEN,2020-09-16 08:40,128.7500,37.6667,60.80,64.40,M,260.00,4.00,0.00,M,M,6.21,M,FEW,BKN,M,M,1200.00,6000.00,M,M,M,M,M,M,M,M,M,M,KQEN 160840Z AUTO 26004KT 9999 FEW012 BKN060 16/18 / RMK A02 TSNO
QES,2020-09-16 08:40,126.4500,36.9667,80.60,66.20,61.58,M,M,0.00,M,M,6.21,M,OVC,M,M,M,4800.00,M,M,M,M,M,M,M,M,M,M,M,KQES 160840Z AUTO 9999 OVC048 27/19 / RMK A02 TSNO
QEJ,2020-09-16 08:40,127.9500,38.2000,68.00,66.20,93.97,120.00,1.00,0.00,29.79,M,2.98,M,OVC,M,M,M,4800.00,M,M,M,-SHRA,M,M,M,M,M,M,M,KQEJ 160840Z AUTO 12001KT 4800 -SHRA OVC048 20/19 A2979 RMK A02 TSNO
QEI,2020-09-16 08:40,128.0667,37.9500,64.40,64.40,100.00,140.00,1.00,0.00,29.80,M,0.99,M,FEW,OVC,M,M,1100.00,1300.00,M,M,,M,M,M,M,M,M,M,KQEI 160840Z AUTO 14001KT 1600 // FEW011 OVC013 18/18 A2980 RMK A02 TSNO
QEQ,2020-09-16 08:40,127.5500,37.8500,73.40,68.00,83.21,240.00,3.00,0.00,29.78,M,6.21,M,SCT,M,M,M,2700.00,M,M,M,M,M,M,M,M,M,M,M,KQEQ 160840Z AUTO 24003KT 9999 SCT027 23/20 A2978 RMK A02 TSNO
QEW,2020-09-16 08:40,128.1500,36.4000,71.60,66.20,83.09,50.00,1.00,0.00,29.78,M,6.21,M,OVC,M,M,M,1800.00,M,M,M,M,M,M,M,M,M,M,M,KQEW 160840Z AUTO 05001KT 9999 OVC018 22/19 A2978 RMK A02 TSNO
QEP,2020-09-16 08:40,127.2667,37.4000,69.80,66.20,88.34,120.00,2.00,0.00,29.80,M,6.21,M,FEW,BKN,M,M,1000.00,1600.00,M,M,M,M,M,M,M,M,M,M,KQEP 160840Z AUTO 12002KT 9999 FEW010 BKN016 21/19 A2980 RMK A02 TSNO
QFT,2020-09-16 08:40,127.3500,37.6000,69.80,66.20,88.34,240.00,1.00,0.00,29.76,M,M,M,BKN,OVC,M,M,1900.00,3600.00,M,M,,M,M,M,M,M,M,M,KQFT 160840Z AUTO 24001KT / // BKN019 OVC036 21/19 A2976 RMK A02 TSNO
QFU,2020-09-16 08:40,126.9667,37.8000,71.60,66.20,83.09,150.00,2.00,0.00,29.80,M,6.21,M,BKN,OVC,M,M,2200.00,4300.00,M,M,M,M,M,M,M,M,M,M,KQFU 160840Z AUTO 15002KT 9999 BKN022 OVC043 22/19 A2980 RMK A02 TSNO
QEX,2020-09-16 08:40,128.3000,36.1000,73.40,66.20,78.19,160.00,3.00,0.00,29.71,M,6.21,M,FEW,BKN,M,M,1800.00,5000.00,M,M,M,M,M,M,M,M,M,M,KQEX 160840Z AUTO 16003KT 9999 FEW018 BKN050 23/19 A2971 RMK A02 TSNO
QFW,2020-09-16 08:40,127.8833,37.6667,69.80,68.00,94.01,270.00,2.00,0.00,29.80,M,6.21,M,BKN,OVC,M,M,1700.00,4400.00,M,M,M,M,M,M,M,M,M,M,KQFW 160840Z AUTO 27002KT 9999 BKN017 OVC044 21/20 A2980 RMK A02 TSNO
QFV,2020-09-16 08:40,127.5000,38.0500,68.00,66.20,93.97,80.00,2.00,0.00,29.81,M,5.59,M,BKN,M,M,M,3500.00,M,M,M,,M,M,M,M,M,M,M,KQFV 160840Z AUTO 08002KT 9000 // BKN035 20/19 A2981 RMK A02 TSNO
RKTE,2020-09-16 08:42,127.5001,36.5682,69.80,69.80,100.00,350.00,2.00,0.00,29.75,M,4.97,M,BKN,BKN,M,M,1200.00,2500.00,M,M,BR,M,M,M,M,M,M,M,RKTE 160842Z 35002KT 8000 BR BKN012 BKN025 21/21 A2975 RMK CIG012
RKTU,2020-09-16 08:43,127.4991,36.7166,68.00,68.00,100.00,10.00,3.00,0.00,29.77,M,3.73,M,BKN,OVC,M,M,1000.00,2500.00,M,M,-RA,M,M,M,M,M,M,M,RKTU 160843Z 01003KT 6000 -RA BKN010 OVC025 20/20 Q1008 RMK CIG010 WR24
RKTU,2020-09-16 08:46,127.4991,36.7166,68.00,68.00,100.00,10.00,3.00,0.00,29.79,M,3.73,M,BKN,OVC,M,M,1000.00,2500.00,M,M,-RA BR,M,M,M,M,M,M,M,RKTU 160846Z 01003KT 6000 -RA BR BKN010 OVC025 20/20 A2979 RMK CIG010 WR24
QFB,2020-09-16 08:50,128.7167,35.6500,73.40,68.00,83.21,10.00,1.00,0.00,29.84,M,6.21,M,OVC,M,M,M,1700.00,M,M,M,M,M,M,M,M,M,M,M,KQFB 160850Z AUTO 01001KT 9999 OVC017 23/20 A2984 RMK A02 TSNO
QEN,2020-09-16 08:50,128.7500,37.6667,60.80,64.40,M,230.00,3.00,0.00,M,M,6.21,M,FEW,OVC,M,M,800.00,6000.00,M,M,M,M,M,M,M,M,M,M,KQEN 160850Z AUTO 23003KT 9999 FEW008 OVC060 16/18 / RMK A02 TSNO
QES,2020-09-16 08:50,126.4500,36.9667,80.60,66.20,61.58,M,M,0.00,M,M,6.21,M,OVC,M,M,M,4800.00,M,M,M,M,M,M,M,M,M,M,M,KQES 160850Z AUTO 9999 OVC048 27/19 / RMK A02 TSNO
QEJ,2020-09-16 08:50,127.9500,38.2000,68.00,66.20,93.97,190.00,1.00,0.00,29.78,M,4.97,M,OVC,M,M,M,6000.00,M,M,M,-SHRA,M,M,M,M,M,M,M,KQEJ 160850Z AUTO 19001KT 8000 -SHRA OVC060 20/19 A2978 RMK A02 TSNO
QEI,2020-09-16 08:50,128.0667,37.9500,64.40,64.40,100.00,30.00,1.00,0.00,29.80,M,4.97,M,BKN,OVC,M,M,1400.00,7000.00,M,M,,M,M,M,M,M,M,M,KQEI 160850Z AUTO 03001KT 8000 // BKN014 OVC070 18/18 A2980 RMK A02 TSNO
QEQ,2020-09-16 08:50,127.5500,37.8500,73.40,68.00,83.21,260.00,2.00,0.00,29.79,M,6.21,M,BKN,M,M,M,2600.00,M,M,M,M,M,M,M,M,M,M,M,KQEQ 160850Z AUTO 26002KT 9999 BKN026 23/20 A2979 RMK A02 TSNO
QEW,2020-09-16 08:50,128.1500,36.4000,71.60,66.20,83.09,330.00,1.00,0.00,29.78,M,6.21,M,BKN,OVC,M,M,1800.00,3200.00,M,M,M,M,M,M,M,M,M,M,KQEW 160850Z AUTO 33001KT 9999 BKN018 OVC032 22/19 A2978 RMK A02 TSNO
QEP,2020-09-16 08:50,127.2667,37.4000,69.80,66.20,88.34,100.00,2.00,0.00,29.80,M,6.21,M,OVC,M,M,M,1600.00,M,M,M,M,M,M,M,M,M,M,M,KQEP 160850Z AUTO 10002KT 9999 OVC016 21/19 A2980 RMK A02 TSNO
QFT,2020-09-16 08:50,127.3500,37.6000,69.80,66.20,88.34,220.00,2.00,0.00,29.76,M,M,M,BKN,OVC,M,M,1900.00,3600.00,M,M,,M,M,M,M,M,M,M,KQFT 160850Z AUTO 22002KT / // BKN019 OVC036 21/19 A2976 RMK A02 TSNO
QFU,2020-09-16 08:50,126.9667,37.8000,71.60,66.20,83.09,140.00,3.00,0.00,29.80,M,6.21,M,BKN,OVC,M,M,2300.00,4400.00,M,M,M,M,M,M,M,M,M,M,KQFU 160850Z AUTO 14003KT 9999 BKN023 OVC044 22/19 A2980 RMK A02 TSNO
QEX,2020-09-16 08:50,128.3000,36.1000,73.40,66.20,78.19,170.00,4.00,0.00,29.71,M,6.21,M,FEW,BKN,M,M,1800.00,5000.00,M,M,M,M,M,M,M,M,M,M,KQEX 160850Z AUTO 17004KT 9999 FEW018 BKN050 23/19 A2971 RMK A02 TSNO
QFW,2020-09-16 08:50,127.8833,37.6667,69.80,68.00,94.01,270.00,2.00,0.00,29.80,M,6.21,M,OVC,M,M,M,1700.00,M,M,M,M,M,M,M,M,M,M,M,KQFW 160850Z AUTO 27002KT 9999 OVC017 21/20 A2980 RMK A02 TSNO
QFV,2020-09-16 08:50,127.5000,38.0500,68.00,66.20,93.97,80.00,3.00,0.00,29.81,M,3.73,M,FEW,OVC,M,M,800.00,3200.00,M,M,,M,M,M,M,M,M,M,KQFV 160850Z AUTO 08003KT 6000 // FEW008 OVC032 20/19 A2981 RMK A02 TSNO
RKSY,2020-09-16 08:53,126.9753,37.5241,73.40,66.20,78.19,160.00,4.00,0.00,29.75,1007.70,6.21,M,BKN,BKN,M,M,2000.00,4100.00,M,M,M,M,M,M,M,M,M,M,RKSY 160853Z AUTO 16004KT 9999 BKN020 BKN041 23/19 A2975 RMK AO2 CIG 020V041 BKN020 V SCT SLP077
RKTU,2020-09-16 08:53,127.4991,36.7166,M,M,M,M,M,0.00,M,M,M,M,M,M,M,M,M,M,M,M,M,M,M,M,M,M,M,M,RKTU 160853Z 16SPECI
RKSG,2020-09-16 08:55,127.0311,36.9622,68.00,66.20,93.97,160.00,3.00,0.00,29.79,1008.90,5.00,M,FEW,OVC,M,M,400.00,2600.00,M,M,M,M,M,M,M,M,M,M,RKSG 160855Z 16003KT 5SM FEW004 OVC026 20/19 A2979 RMK AO2A SLP089 60000 RVRNO $
RKJK,2020-09-16 08:56,126.6220,35.8994,72.00,71.10,96.99,260.00,4.00,0.01,29.77,1008.50,2.50,M,BKN,M,M,M,300.00,M,M,M,-DZ BR,M,M,M,M,M,M,M,RKJK 160856Z 26004KT 2 1/2SM -DZ BR BKN003 22/22 A2977 RMK AO2A DZE13DZB22 SLP085 P0001 60005 T02220217 $
RKSO,2020-09-16 08:58,127.0296,37.0906,69.40,68.70,97.63,130.00,3.00,0.00,29.77,M,7.00,M,FEW,BKN,M,M,800.00,3900.00,M,M,M,M,M,M,M,M,M,M,RKSO 160858Z 13003KT 7SM FEW008 BKN039 21/20 A2977 RMK AO2A 60018 T02080204 58002 $
RKSY,2020-09-16 08:58,126.9753,37.5241,72.90,66.00,78.97,150.00,3.00,0.00,29.75,1007.70,6.21,M,BKN,BKN,M,M,2000.00,4100.00,M,M,M,M,M,M,M,M,M,M,RKSY 160858Z AUTO 15003KT 9999 BKN020 BKN041 23/19 A2975 RMK AO2 CIG 020V041 BKN020 V SCT SLP077 60000 T02270189 50000
RKPS,2020-09-16 09:00,128.0704,35.0885,73.40,69.80,88.51,50.00,3.00,0.00,29.80,1009.20,6.21,M,SCT,BKN,M,M,1000.00,2000.00,M,M,M,M,M,M,M,M,M,M,RKPS 160900Z 05003KT 9999 SCT010 BKN020 23/21 Q1009 RMK CIG020 SLP092 8/600 9/700
RKJB,2020-09-16 09:00,126.3800,34.9800,75.20,73.40,94.14,270.00,4.00,0.00,29.77,M,6.21,M,FEW,BKN,M,M,1400.00,3000.00,M,M,M,M,M,M,M,M,M,M,RKJB 160900Z 27004KT 210V320 9999 FEW014 BKN030 24/23 Q1008 NOSIG
RKJJ,2020-09-16 09:00,126.8089,35.1264,77.00,71.60,83.44,190.00,2.00,0.00,29.77,1008.30,6.21,M,BKN,M,M,M,4000.00,M,M,M,M,M,M,M,M,M,M,M,RKJJ 160900Z 19002KT 9999 BKN040 25/22 Q1008 RMK CIG040 SLP083 8/500 9/700
RKPC,2020-09-16 09:00,126.4930,33.5113,77.00,75.20,94.19,270.00,8.00,0.00,29.77,M,6.21,M,SCT,BKN,M,M,1000.00,3000.00,M,M,M,M,M,M,M,M,M,M,RKPC 160900Z 27008KT 240V310 9999 SCT010 BKN030 25/24 Q1008 NOSIG
RKNY,2020-09-16 09:00,128.6692,38.0613,69.80,68.00,94.01,330.00,4.00,0.00,29.74,M,3.73,M,BKN,OVC,M,M,3000.00,8000.00,M,M,-RA,M,M,M,M,M,M,M,RKNY 160900Z 33004KT 6000 -RA BKN030 OVC080 21/20 Q1007 NOSIG
RKSM,2020-09-16 09:00,127.1139,37.4458,73.40,68.00,83.21,190.00,7.00,0.00,29.78,M,6.21,M,SCT,BKN,M,M,2500.00,4000.00,M,M,M,M,M,M,M,M,M,M,RKSM 160900Z 19007KT 9999 SCT025 BKN040 23/20 A2978
QFB,2020-09-16 09:00,128.7167,35.6500,73.40,68.00,83.21,330.00,2.00,0.00,29.84,M,6.21,M,BKN,OVC,M,M,1600.00,3000.00,M,M,M,M,M,M,M,M,M,M,KQFB 160900Z AUTO 33002KT 9999 BKN016 OVC030 23/20 A2984 RMK A02 TSNO
RKSS,2020-09-16 09:00,126.7906,37.5583,71.60,68.00,88.43,210.00,6.00,0.00,29.77,M,6.21,M,FEW,SCT,BKN,M,1500.00,3000.00,10000.00,M,M,M,M,M,M,M,M,M,RKSS 160900Z 21006KT 180V240 9999 FEW015 SCT030 BKN100 22/20 Q1008 NOSIG
RKTH,2020-09-16 09:00,129.4205,35.9879,75.20,75.20,100.00,160.00,1.00,0.00,29.77,1008.50,4.97,M,FEW,BKN,BKN,M,1000.00,4000.00,8000.00,M,M,M,M,M,M,M,M,M,RKTH 160900Z 16001KT 8000 FEW010 BKN040 BKN080 24/24 Q1008 RMK CIG040 SLP085 8/510 9/520
RKTN,2020-09-16 09:00,128.6589,35.8941,75.20,66.20,73.61,60.00,2.00,0.00,29.77,M,6.21,M,BKN,OVC,M,M,2000.00,2500.00,M,M,M,M,M,M,M,M,M,M,RKTN 160900Z 06002KT 9999 BKN020 OVC025 24/19 Q1008
RKTU,2020-09-16 09:00,127.4991,36.7166,68.00,68.00,100.00,20.00,4.00,0.00,29.80,M,4.97,M,BKN,OVC,M,M,1000.00,2500.00,M,M,-DZ,M,M,M,M,M,M,M,RKTU 160900Z 02004KT 8000 -DZ BKN010 OVC025 20/20 Q1009
QEN,2020-09-16 09:00,128.7500,37.6667,60.80,64.40,M,250.00,4.00,0.00,M,M,6.21,M,FEW,BKN,M,M,300.00,5500.00,M,M,M,M,M,M,M,M,M,M,KQEN 160900Z AUTO 25004KT 9999 FEW003 BKN055 16/18 / RMK A02 TSNO
QES,2020-09-16 09:00,126.4500,36.9667,80.60,66.20,61.58,M,M,0.00,M,M,6.21,M,FEW,OVC,M,M,600.00,4700.00,M,M,M,M,M,M,M,M,M,M,KQES 160900Z AUTO 9999 FEW006 OVC047 27/19 / RMK A02 TSNO
QEJ,2020-09-16 09:00,127.9500,38.2000,68.00,66.20,93.97,110.00,1.00,0.00,29.78,M,3.73,M,FEW,BKN,M,M,1100.00,6000.00,M,M,-RA,M,M,M,M,M,M,M,KQEJ 160900Z AUTO 11001KT 6000 -RA FEW011 BKN060 20/19 A2978 RMK A02 TSNO
QEI,2020-09-16 09:00,128.0667,37.9500,64.40,64.40,100.00,90.00,1.00,0.00,29.79,M,6.21,M,SCT,OVC,M,M,1400.00,2100.00,M,M,M,M,M,M,M,M,M,M,KQEI 160900Z AUTO 09001KT 9999 SCT014 OVC021 18/18 A2979 RMK A02 TSNO
QEQ,2020-09-16 09:00,127.5500,37.8500,73.40,69.80,88.51,220.00,3.00,0.00,29.80,M,6.21,M,BKN,M,M,M,1900.00,M,M,M,M,M,M,M,M,M,M,M,KQEQ 160900Z AUTO 22003KT 9999 BKN019 23/21 A2980 RMK A02 TSNO
QEW,2020-09-16 09:00,128.1500,36.4000,71.60,68.00,88.43,0.00,0.00,0.00,29.77,M,6.21,M,SCT,OVC,M,M,1800.00,3200.00,M,M,M,M,M,M,M,M,M,M,KQEW 160900Z AUTO 00000KT 9999 SCT018 OVC032 22/20 A2977 RMK A02 TSNO
QEP,2020-09-16 09:00,127.2667,37.4000,69.80,66.20,88.34,130.00,3.00,0.00,29.80,M,6.21,M,OVC,M,M,M,1100.00,M,M,M,M,M,M,M,M,M,M,M,KQEP 160900Z AUTO 13003KT 9999 OVC011 21/19 A2980 RMK A02 TSNO
RKPK,2020-09-16 09:00,128.9382,35.1795,75.20,68.00,78.34,170.00,5.00,0.00,29.77,M,6.21,M,FEW,SCT,BKN,M,1500.00,2000.00,2500.00,M,M,M,M,M,M,M,M,M,RKPK 160900Z 17005KT 9999 FEW015 SCT020 BKN025 24/20 Q1008
QFT,2020-09-16 09:00,127.3500,37.6000,71.60,68.00,88.43,290.00,1.00,0.00,29.77,M,M,M,BKN,OVC,M,M,1900.00,3700.00,M,M,,M,M,M,M,M,M,M,KQFT 160900Z AUTO 29001KT / // BKN019 OVC037 22/20 A2977 RMK A02 TSNO
QFU,2020-09-16 09:00,126.9667,37.8000,71.60,66.20,83.09,160.00,3.00,0.00,29.81,M,6.21,M,BKN,OVC,M,M,2500.00,4300.00,M,M,M,M,M,M,M,M,M,M,KQFU 160900Z AUTO 16003KT 9999 BKN025 OVC043 22/19 A2981 RMK A02 TSNO
QEX,2020-09-16 09:00,128.3000,36.1000,73.40,66.20,78.19,170.00,2.00,0.00,29.70,M,6.21,M,BKN,BKN,M,M,1800.00,5000.00,M,M,M,M,M,M,M,M,M,M,KQEX 160900Z AUTO 17002KT 9999 BKN018 BKN050 23/19 A2970 RMK A02 TSNO
QFW,2020-09-16 09:00,127.8833,37.6667,69.80,68.00,94.01,300.00,2.00,0.00,29.80,M,6.21,M,OVC,M,M,M,1700.00,M,M,M,M,M,M,M,M,M,M,M,KQFW 160900Z AUTO 30002KT 9999 OVC017 21/20 A2980 RMK A02 TSNO
QFV,2020-09-16 09:00,127.5000,38.0500,68.00,66.20,93.97,110.00,1.00,0.00,29.81,M,4.97,M,OVC,M,M,M,3100.00,M,M,M,,M,M,M,M,M,M,M,KQFV 160900Z AUTO 11001KT 8000 // OVC031 20/19 A2981 RMK A02 TSNO
RKSI,2020-09-16 09:00,126.4500,37.4667,71.60,64.40,78.04,180.00,11.00,0.00,29.77,M,6.21,M,SCT,BKN,M,M,1000.00,2500.00,M,M,M,M,M,M,M,M,M,M,RKSI 160900Z 18011KT 9999 SCT010 BKN025 22/18 Q1008 NOSIG
RKTF,2020-09-16 09:07,127.3720,36.3720,69.80,68.00,94.01,310.00,1.00,0.00,29.80,M,4.97,M,SCT,BKN,M,M,1000.00,2000.00,M,M,-RA BR,M,M,M,M,M,M,M,RKTF 160907Z 31001KT 8000 -RA BR SCT010 BKN020 21/20 A2980 RMK CIG020
QFB,2020-09-16 09:10,128.7167,35.6500,73.40,68.00,83.21,0.00,0.00,0.00,29.84,M,6.21,M,BKN,OVC,M,M,1400.00,2900.00,M,M,M,M,M,M,M,M,M,M,KQFB 160910Z AUTO 00000KT 9999 BKN014 OVC029 23/20 A2984 RMK A02 TSNO
QEN,2020-09-16 09:10,128.7500,37.6667,60.80,64.40,M,240.00,4.00,0.00,M,M,6.21,M,FEW,BKN,M,M,300.00,5000.00,M,M,M,M,M,M,M,M,M,M,KQEN 160910Z AUTO 24004KT 9999 FEW003 BKN050 16/18 / RMK A02 TSNO
QES,2020-09-16 09:10,126.4500,36.9667,80.60,66.20,61.58,M,M,0.00,M,M,6.21,M,OVC,M,M,M,4600.00,M,M,M,M,M,M,M,M,M,M,M,KQES 160910Z AUTO 9999 OVC046 27/19 / RMK A02 TSNO
QEJ,2020-09-16 09:10,127.9500,38.2000,68.00,66.20,93.97,200.00,1.00,0.00,29.78,M,3.73,M,FEW,BKN,M,M,1100.00,7000.00,M,M,-RA,M,M,M,M,M,M,M,KQEJ 160910Z AUTO 20001KT 6000 -RA FEW011 BKN070 20/19 A2978 RMK A02 TSNO
QEI,2020-09-16 09:10,128.0667,37.9500,66.20,66.20,100.00,80.00,1.00,0.00,29.79,M,6.21,M,SCT,SCT,BKN,OVC,2100.00,2400.00,3500.00,4900.00,M,M,M,M,M,M,M,M,KQEI 160910Z AUTO 08001KT 9999 SCT021 SCT024 BKN035 OVC049 19/19 A2979 RMK A02 TSNO
QEQ,2020-09-16 09:10,127.5500,37.8500,73.40,69.80,88.51,220.00,4.00,0.00,29.80,M,6.21,M,BKN,M,M,M,1900.00,M,M,M,M,M,M,M,M,M,M,M,KQEQ 160910Z AUTO 22004KT 9999 BKN019 23/21 A2980 RMK A02 TSNO
QEW,2020-09-16 09:10,128.1500,36.4000,71.60,66.20,83.09,320.00,1.00,0.00,29.77,M,6.21,M,FEW,OVC,M,M,1700.00,3200.00,M,M,M,M,M,M,M,M,M,M,KQEW 160910Z AUTO 32001KT 9999 FEW017 OVC032 22/19 A2977 RMK A02 TSNO
QEP,2020-09-16 09:10,127.2667,37.4000,69.80,66.20,88.34,120.00,4.00,0.00,29.80,M,6.21,M,OVC,M,M,M,1100.00,M,M,M,M,M,M,M,M,M,M,M,KQEP 160910Z AUTO 12004KT 9999 OVC011 21/19 A2980 RMK A02 TSNO
QFT,2020-09-16 09:10,127.3500,37.6000,69.80,66.20,88.34,180.00,2.00,0.00,29.77,M,M,M,BKN,OVC,M,M,1900.00,3700.00,M,M,,M,M,M,M,M,M,M,KQFT 160910Z AUTO 18002KT / // BKN019 OVC037 21/19 A2977 RMK A02 TSNO
QFU,2020-09-16 09:10,126.9667,37.8000,71.60,68.00,88.43,160.00,3.00,0.00,29.81,M,6.21,M,SCT,OVC,M,M,2600.00,4400.00,M,M,M,M,M,M,M,M,M,M,KQFU 160910Z AUTO 16003KT 9999 SCT026 OVC044 22/20 A2981 RMK A02 TSNO
QEX,2020-09-16 09:10,128.3000,36.1000,73.40,66.20,78.19,150.00,2.00,0.00,29.70,M,6.21,M,BKN,BKN,M,M,1800.00,5000.00,M,M,M,M,M,M,M,M,M,M,KQEX 160910Z AUTO 15002KT 9999 BKN018 BKN050 23/19 A2970 RMK A02 TSNO
QFW,2020-09-16 09:10,127.8833,37.6667,69.80,68.00,94.01,320.00,2.00,0.00,29.79,M,6.21,M,OVC,M,M,M,1500.00,M,M,M,M,M,M,M,M,M,M,M,KQFW 160910Z AUTO 32002KT 9999 OVC015 21/20 A2979 RMK A02 TSNO
QFV,2020-09-16 09:10,127.5000,38.0500,68.00,66.20,93.97,350.00,2.00,0.00,29.81,M,3.73,M,FEW,OVC,M,M,1500.00,3100.00,M,M,,M,M,M,M,M,M,M,KQFV 160910Z AUTO 35002KT 6000 // FEW015 OVC031 20/19 A2981 RMK A02 TSNO
QFB,2020-09-16 09:20,128.7167,35.6500,73.40,68.00,83.21,350.00,1.00,0.00,29.83,M,6.21,M,OVC,M,M,M,1400.00,M,M,M,M,M,M,M,M,M,M,M,KQFB 160920Z AUTO 35001KT 9999 OVC014 23/20 A2983 RMK A02 TSNO
QEN,2020-09-16 09:20,128.7500,37.6667,60.80,64.40,M,240.00,4.00,0.00,M,M,5.59,M,SCT,BKN,BKN,M,300.00,5000.00,7000.00,M,M,M,M,M,M,M,M,M,KQEN 160920Z AUTO 24004KT 9000 SCT003 BKN050 BKN070 16/18 / RMK A02 TSNO
QES,2020-09-16 09:20,126.4500,36.9667,80.60,66.20,61.58,M,M,0.00,M,M,6.21,M,FEW,OVC,M,M,2100.00,4600.00,M,M,M,M,M,M,M,M,M,M,KQES 160920Z AUTO 9999 FEW021 OVC046 27/19 / RMK A02 TSNO
QEJ,2020-09-16 09:20,127.9500,38.2000,68.00,66.20,93.97,160.00,1.00,0.00,29.77,M,3.73,M,FEW,BKN,BKN,M,1100.00,6500.00,12000.00,M,M,M,M,M,M,M,M,M,KQEJ 160920Z AUTO 16001KT 6000 FEW011 BKN065 BKN120 20/19 A2977 RMK A02 TSNO
QEI,2020-09-16 09:20,128.0667,37.9500,64.40,64.40,100.00,350.00,1.00,0.00,29.79,M,6.21,M,SCT,OVC,M,M,2100.00,2700.00,M,M,M,M,M,M,M,M,M,M,KQEI 160920Z AUTO 35001KT 9999 SCT021 OVC027 18/18 A2979 RMK A02 TSNO
QEQ,2020-09-16 09:20,127.5500,37.8500,71.60,69.80,94.06,220.00,4.00,0.00,29.81,M,6.21,M,BKN,BKN,M,M,1900.00,2900.00,M,M,M,M,M,M,M,M,M,M,KQEQ 160920Z AUTO 22004KT 9999 BKN019 BKN029 22/21 A2981 RMK A02 TSNO
QEW,2020-09-16 09:20,128.1500,36.4000,69.80,66.20,88.34,280.00,1.00,0.00,29.79,M,6.21,M,FEW,OVC,M,M,1700.00,3200.00,M,M,M,M,M,M,M,M,M,M,KQEW 160920Z AUTO 28001KT 9999 FEW017 OVC032 21/19 A2979 RMK A02 TSNO
QEP,2020-09-16 09:20,127.2667,37.4000,69.80,66.20,88.34,120.00,4.00,0.00,29.81,M,6.21,M,OVC,M,M,M,1100.00,M,M,M,M,M,M,M,M,M,M,M,KQEP 160920Z AUTO 12004KT 9999 OVC011 21/19 A2981 RMK A02 TSNO
QFT,2020-09-16 09:20,127.3500,37.6000,69.80,66.20,88.34,150.00,1.00,0.00,29.77,M,M,M,SCT,OVC,M,M,1900.00,3500.00,M,M,,M,M,M,M,M,M,M,KQFT 160920Z AUTO 15001KT / // SCT019 OVC035 21/19 A2977 RMK A02 TSNO
QFU,2020-09-16 09:20,126.9667,37.8000,71.60,68.00,88.43,190.00,2.00,0.00,29.81,M,4.97,M,FEW,OVC,M,M,2800.00,4500.00,M,M,HZ,M,M,M,M,M,M,M,KQFU 160920Z AUTO 19002KT 8000 HZ FEW028 OVC045 22/20 A2981 RMK A02 TSNO
QEX,2020-09-16 09:20,128.3000,36.1000,73.40,66.20,78.19,170.00,3.00,0.00,29.71,M,6.21,M,BKN,OVC,M,M,1800.00,4700.00,M,M,M,M,M,M,M,M,M,M,KQEX 160920Z AUTO 17003KT 9999 BKN018 OVC047 23/19 A2971 RMK A02 TSNO
QFW,2020-09-16 09:20,127.8833,37.6667,69.80,68.00,94.01,290.00,1.00,0.00,29.80,M,6.21,M,OVC,M,M,M,1500.00,M,M,M,M,M,M,M,M,M,M,M,KQFW 160920Z AUTO 29001KT 9999 OVC015 21/20 A2980 RMK A02 TSNO
QFV,2020-09-16 09:20,127.5000,38.0500,68.00,66.20,93.97,30.00,1.00,0.00,29.82,M,3.73,M,FEW,OVC,M,M,2200.00,3200.00,M,M,,M,M,M,M,M,M,M,KQFV 160920Z AUTO 03001KT 6000 // FEW022 OVC032 20/19 A2982 RMK A02 TSNO
RKTE,2020-09-16 09:22,127.5001,36.5682,69.80,69.80,100.00,340.00,1.00,0.00,29.76,M,3.73,M,BKN,OVC,M,M,1200.00,2500.00,M,M,-RA BR,M,M,M,M,M,M,M,RKTE 160922Z 34001KT 6000 -RA BR BKN012 OVC025 21/21 A2976 RMK CIG012
RKJK,2020-09-16 09:26,126.6220,35.8994,71.60,71.60,100.00,240.00,5.00,0.00,29.77,1008.50,3.00,M,BKN,OVC,M,M,400.00,900.00,M,M,BR,M,M,M,M,M,M,M,RKJK 160926Z 24005KT 3SM BR BKN004 OVC009 22/22 A2977 RMK AO2A DZE0859 SLP085 $
QFB,2020-09-16 09:30,128.7167,35.6500,73.40,68.00,83.21,290.00,2.00,0.00,29.85,M,6.21,M,OVC,M,M,M,1400.00,M,M,M,M,M,M,M,M,M,M,M,KQFB 160930Z AUTO 29002KT 9999 OVC014 23/20 A2985 RMK A02 TSNO
QEN,2020-09-16 09:30,128.7500,37.6667,60.80,64.40,M,270.00,5.00,0.00,M,M,6.21,M,BKN,OVC,M,M,300.00,4900.00,M,M,M,M,M,M,M,M,M,M,KQEN 160930Z AUTO 27005KT 9999 BKN003 OVC049 16/18 / RMK A02 TSNO
QES,2020-09-16 09:30,126.4500,36.9667,80.60,66.20,61.58,M,M,0.00,M,M,6.21,M,SCT,OVC,M,M,2000.00,4600.00,M,M,M,M,M,M,M,M,M,M,KQES 160930Z AUTO 9999 SCT020 OVC046 27/19 / RMK A02 TSNO
QEJ,2020-09-16 09:30,127.9500,38.2000,68.00,66.20,93.97,0.00,0.00,0.00,29.78,M,2.98,M,FEW,SCT,BKN,M,1200.00,1900.00,7000.00,M,M,M,M,M,M,M,M,M,KQEJ 160930Z AUTO 00000KT 4800 FEW012 SCT019 BKN070 20/19 A2978 RMK A02 TSNO
QEI,2020-09-16 09:30,128.0667,37.9500,66.20,66.20,100.00,220.00,1.00,0.00,29.79,M,6.21,M,FEW,OVC,M,M,2100.00,2600.00,M,M,M,M,M,M,M,M,M,M,KQEI 160930Z AUTO 22001KT 9999 FEW021 OVC026 19/19 A2979 RMK A02 TSNO
QEQ,2020-09-16 09:30,127.5500,37.8500,71.60,69.80,94.06,220.00,4.00,0.00,29.81,M,6.21,M,FEW,FEW,SCT,M,2000.00,2800.00,4300.00,M,M,M,M,M,M,M,M,M,KQEQ 160930Z AUTO 22004KT 9999 FEW020 FEW028 SCT043 22/21 A2981 RMK A02 TSNO
QEW,2020-09-16 09:30,128.1500,36.4000,69.80,68.00,94.01,280.00,1.00,0.00,29.79,M,6.21,M,OVC,M,M,M,2200.00,M,M,M,M,M,M,M,M,M,M,M,KQEW 160930Z AUTO 28001KT 9999 OVC022 21/20 A2979 RMK A02 TSNO
QEP,2020-09-16 09:30,127.2667,37.4000,69.80,66.20,88.34,130.00,3.00,0.00,29.81,M,6.21,M,OVC,M,M,M,1500.00,M,M,M,M,M,M,M,M,M,M,M,KQEP 160930Z AUTO 13003KT 9999 OVC015 21/19 A2981 RMK A02 TSNO
QFT,2020-09-16 09:30,127.3500,37.6000,69.80,66.20,88.34,180.00,2.00,0.00,29.78,M,M,M,FEW,OVC,M,M,1900.00,3500.00,M,M,,M,M,M,M,M,M,M,KQFT 160930Z AUTO 18002KT / // FEW019 OVC035 21/19 A2978 RMK A02 TSNO
QFU,2020-09-16 09:30,126.9667,37.8000,71.60,68.00,88.43,160.00,3.00,0.00,29.83,M,4.97,M,OVC,M,M,M,4500.00,M,M,M,HZ,M,M,M,M,M,M,M,KQFU 160930Z AUTO 16003KT 8000 HZ OVC045 22/20 A2983 RMK A02 TSNO
QEX,2020-09-16 09:30,128.3000,36.1000,73.40,66.20,78.19,170.00,2.00,0.00,29.72,M,6.21,M,SCT,SCT,BKN,M,1800.00,2400.00,4700.00,M,M,M,M,M,M,M,M,M,KQEX 160930Z AUTO 17002KT 9999 SCT018 SCT024 BKN047 23/19 A2972 RMK A02 TSNO
QFW,2020-09-16 09:30,127.8833,37.6667,69.80,68.00,94.01,260.00,2.00,0.00,29.80,M,6.21,M,OVC,M,M,M,1500.00,M,M,M,M,M,M,M,M,M,M,M,KQFW 160930Z AUTO 26002KT 9999 OVC015 21/20 A2980 RMK A02 TSNO
QFV,2020-09-16 09:30,127.5000,38.0500,68.00,66.20,93.97,100.00,1.00,0.00,29.82,M,3.73,M,FEW,OVC,M,M,2500.00,3300.00,M,M,,M,M,M,M,M,M,M,KQFV 160930Z AUTO 10001KT 6000 // FEW025 OVC033 20/19 A2982 RMK A02 TSNO
RKSI,2020-09-16 09:30,126.4500,37.4667,71.60,64.40,78.04,180.00,8.00,0.00,29.77,M,6.21,M,FEW,BKN,M,M,1000.00,2500.00,M,M,M,M,M,M,M,M,M,M,RKSI 160930Z 18008KT 9999 FEW010 BKN025 22/18 Q1008 NOSIG
RKSY,2020-09-16 09:33,126.9753,37.5241,73.40,66.20,78.19,150.00,3.00,0.00,29.76,1008.10,6.21,M,SCT,OVC,M,M,2100.00,3800.00,M,M,M,M,M,M,M,M,M,M,RKSY 160933Z AUTO 15003KT 9999 SCT021 OVC038 23/19 A2976 RMK AO2 SLP081
RKNN,2020-09-16 09:35,128.9436,37.7536,71.60,68.00,88.43,360.00,1.00,0.00,29.76,M,6.21,M,BKN,BKN,M,M,5000.00,12000.00,M,M,-RA,M,M,M,M,M,M,M,RKNN 160935Z 36001KT 9999 -RA BKN050 BKN120 22/20 A2976 RMK CIG050
QFB,2020-09-16 09:40,128.7167,35.6500,71.60,68.00,88.43,280.00,2.00,0.00,29.86,M,6.21,M,OVC,M,M,M,1400.00,M,M,M,M,M,M,M,M,M,M,M,KQFB 160940Z AUTO 28002KT 9999 OVC014 22/20 A2986 RMK A02 TSNO
QEN,2020-09-16 09:40,128.7500,37.6667,60.80,64.40,M,250.00,3.00,0.00,M,M,6.21,M,BKN,BKN,OVC,M,300.00,1500.00,4800.00,M,M,M,M,M,M,M,M,M,KQEN 160940Z AUTO 25003KT 9999 BKN003 BKN015 OVC048 16/18 / RMK A02 TSNO
QES,2020-09-16 09:40,126.4500,36.9667,80.60,66.20,61.58,M,M,0.00,M,M,6.21,M,BKN,BKN,M,M,1900.00,4500.00,M,M,M,M,M,M,M,M,M,M,KQES 160940Z AUTO 9999 BKN019 BKN045 27/19 / RMK A02 TSNO
QEJ,2020-09-16 09:40,127.9500,38.2000,68.00,66.20,93.97,240.00,1.00,0.00,29.78,M,6.21,M,SCT,BKN,M,M,1900.00,6500.00,M,M,M,M,M,M,M,M,M,M,KQEJ 160940Z AUTO 24001KT 9999 SCT019 BKN065 20/19 A2978 RMK A02 TSNO
QEI,2020-09-16 09:40,128.0667,37.9500,64.40,66.20,M,290.00,2.00,0.00,29.79,M,6.21,M,OVC,M,M,M,2500.00,M,M,M,M,M,M,M,M,M,M,M,KQEI 160940Z AUTO 29002KT 9999 OVC025 18/19 A2979 RMK A02 TSNO
QEQ,2020-09-16 09:40,127.5500,37.8500,71.60,69.80,94.06,230.00,3.00,0.00,29.81,M,6.21,M,FEW,SCT,BKN,M,2800.00,3300.00,4300.00,M,M,M,M,M,M,M,M,M,KQEQ 160940Z AUTO 23003KT 9999 FEW028 SCT033 BKN043 22/21 A2981 RMK A02 TSNO
QEW,2020-09-16 09:40,128.1500,36.4000,69.80,66.20,88.34,280.00,2.00,0.00,29.79,M,6.21,M,OVC,M,M,M,1400.00,M,M,M,M,M,M,M,M,M,M,M,KQEW 160940Z AUTO 28002KT 9999 OVC014 21/19 A2979 RMK A02 TSNO
QEP,2020-09-16 09:40,127.2667,37.4000,69.80,66.20,88.34,130.00,4.00,0.00,29.81,M,6.21,M,OVC,M,M,M,1500.00,M,M,M,M,M,M,M,M,M,M,M,KQEP 160940Z AUTO 13004KT 9999 OVC015 21/19 A2981 RMK A02 TSNO
QFT,2020-09-16 09:40,127.3500,37.6000,69.80,68.00,94.01,180.00,1.00,0.00,29.78,M,M,M,FEW,SCT,OVC,M,1700.00,1900.00,3500.00,M,,M,M,M,M,M,M,M,KQFT 160940Z AUTO 18001KT / // FEW017 SCT019 OVC035 21/20 A2978 RMK A02 TSNO
QFU,2020-09-16 09:40,126.9667,37.8000,71.60,68.00,88.43,170.00,2.00,0.00,29.82,M,4.97,M,FEW,OVC,M,M,2800.00,4500.00,M,M,M,M,M,M,M,M,M,M,KQFU 160940Z AUTO 17002KT 8000 FEW028 OVC045 22/20 A2982 RMK A02 TSNO
QEX,2020-09-16 09:40,128.3000,36.1000,73.40,66.20,78.19,180.00,6.00,0.00,29.72,M,6.21,M,FEW,SCT,BKN,M,1700.00,2400.00,4100.00,M,M,M,M,M,M,M,M,M,KQEX 160940Z AUTO 18006KT 9999 FEW017 SCT024 BKN041 23/19 A2972 RMK A02 TSNO
QFW,2020-09-16 09:40,127.8833,37.6667,69.80,68.00,94.01,250.00,1.00,0.00,29.80,M,6.21,M,OVC,M,M,M,2000.00,M,M,M,M,M,M,M,M,M,M,M,KQFW 160940Z AUTO 25001KT 9999 OVC020 21/20 A2980 RMK A02 TSNO
QFV,2020-09-16 09:40,127.5000,38.0500,68.00,66.20,93.97,70.00,1.00,0.00,29.82,M,3.73,M,FEW,OVC,M,M,500.00,3300.00,M,M,,M,M,M,M,M,M,M,KQFV 160940Z AUTO 07001KT 6000 // FEW005 OVC033 20/19 A2982 RMK A02 TSNO
RKJJ,2020-09-16 09:42,126.8089,35.1264,75.20,71.60,88.59,210.00,4.00,0.00,29.78,M,6.21,M,SCT,OVC,M,M,2500.00,4000.00,M,M,-RA,M,M,M,M,M,M,M,RKJJ 160942Z 21004KT 9999 -RA SCT025 OVC040 24/22 A2978 RMK CIG040
RKTY,2020-09-16 09:45,128.3548,36.6319,69.80,68.00,94.01,0.00,0.00,0.00,29.80,M,4.97,M,SCT,OVC,M,M,1000.00,2000.00,M,M,-RA BR,M,M,M,M,M,M,M,RKTY 160945Z 00000KT 8000 -RA BR SCT010 OVC020 21/20 A2980 RMK CIG020 WR26
RKTE,2020-09-16 09:46,127.5001,36.5682,69.80,69.80,100.00,320.00,1.00,0.00,29.77,M,2.98,M,BKN,OVC,M,M,1000.00,2000.00,M,M,BR,M,M,M,M,M,M,M,RKTE 160946Z 32001KT 4800 BR BKN010 OVC020 21/21 A2977 RMK CIG010
RKJK,2020-09-16 09:46,126.6220,35.8994,71.60,69.80,94.06,260.00,3.00,0.00,29.77,1008.50,7.00,M,BKN,OVC,M,M,500.00,1100.00,M,M,BR,M,M,M,M,M,M,M,RKJK 160946Z 26003KT 7SM BR BKN005 OVC011 22/21 A2977 RMK AO2A DZE0859 SLP085 $
RKJJ,2020-09-16 09:49,126.8089,35.1264,M,M,M,M,M,0.00,M,M,M,M,M,M,M,M,M,M,M,M,M,M,M,M,M,M,M,M,RKJJ 160949Z 16SPECI
QFB,2020-09-16 09:50,128.7167,35.6500,73.40,68.00,83.21,290.00,2.00,0.00,29.87,M,6.21,M,OVC,M,M,M,1600.00,M,M,M,M,M,M,M,M,M,M,M,KQFB 160950Z AUTO 29002KT 9999 OVC016 23/20 A2987 RMK A02 TSNO
QEN,2020-09-16 09:50,128.7500,37.6667,60.80,64.40,M,250.00,2.00,0.00,M,M,6.21,M,OVC,M,M,M,300.00,M,M,M,M,M,M,M,M,M,M,M,KQEN 160950Z AUTO 25002KT 9999 OVC003 16/18 / RMK A02 TSNO
QES,2020-09-16 09:50,126.4500,36.9667,80.60,66.20,61.58,M,M,0.00,M,M,6.21,M,BKN,M,M,M,1800.00,M,M,M,M,M,M,M,M,M,M,M,KQES 160950Z AUTO 9999 BKN018 27/19 / RMK A02 TSNO
QEJ,2020-09-16 09:50,127.9500,38.2000,68.00,66.20,93.97,160.00,1.00,0.00,29.79,M,6.21,M,BKN,BKN,OVC,M,1900.00,3000.00,6500.00,M,M,M,M,M,M,M,M,M,KQEJ 160950Z AUTO 16001KT 9999 BKN019 BKN030 OVC065 20/19 A2979 RMK A02 TSNO
QEI,2020-09-16 09:50,128.0667,37.9500,64.40,64.40,100.00,60.00,1.00,0.00,29.79,M,6.21,M,OVC,M,M,M,2500.00,M,M,M,M,M,M,M,M,M,M,M,KQEI 160950Z AUTO 06001KT 9999 OVC025 18/18 A2979 RMK A02 TSNO
QEQ,2020-09-16 09:50,127.5500,37.8500,71.60,69.80,94.06,210.00,4.00,0.00,29.81,M,6.21,M,BKN,M,M,M,3000.00,M,M,M,M,M,M,M,M,M,M,M,KQEQ 160950Z AUTO 21004KT 9999 BKN030 22/21 A2981 RMK A02 TSNO
QEW,2020-09-16 09:50,128.1500,36.4000,69.80,68.00,94.01,280.00,1.00,0.00,29.79,M,6.21,M,OVC,M,M,M,1400.00,M,M,M,M,M,M,M,M,M,M,M,KQEW 160950Z AUTO 28001KT 9999 OVC014 21/20 A2979 RMK A02 TSNO
QEP,2020-09-16 09:50,127.2667,37.4000,69.80,66.20,88.34,120.00,1.00,0.00,29.81,M,6.21,M,OVC,M,M,M,1500.00,M,M,M,M,M,M,M,M,M,M,M,KQEP 160950Z AUTO 12001KT 9999 OVC015 21/19 A2981 RMK A02 TSNO
QFT,2020-09-16 09:50,127.3500,37.6000,69.80,66.20,88.34,150.00,1.00,0.00,29.78,M,M,M,BKN,OVC,M,M,1600.00,3500.00,M,M,,M,M,M,M,M,M,M,KQFT 160950Z AUTO 15001KT / // BKN016 OVC035 21/19 A2978 RMK A02 TSNO
QFU,2020-09-16 09:50,126.9667,37.8000,71.60,68.00,88.43,130.00,1.00,0.00,29.82,M,3.73,M,SCT,OVC,M,M,1500.00,4600.00,M,M,M,M,M,M,M,M,M,M,KQFU 160950Z AUTO 13001KT 6000 SCT015 OVC046 22/20 A2982 RMK A02 TSNO
QEX,2020-09-16 09:50,128.3000,36.1000,73.40,66.20,78.19,170.00,3.00,0.00,29.72,M,6.21,M,FEW,BKN,M,M,1700.00,4100.00,M,M,M,M,M,M,M,M,M,M,KQEX 160950Z AUTO 17003KT 9999 FEW017 BKN041 23/19 A2972 RMK A02 TSNO
QFW,2020-09-16 09:50,127.8833,37.6667,69.80,68.00,94.01,200.00,1.00,0.00,29.81,M,6.21,M,OVC,M,M,M,1800.00,M,M,M,M,M,M,M,M,M,M,M,KQFW 160950Z AUTO 20001KT 9999 OVC018 21/20 A2981 RMK A02 TSNO
QFV,2020-09-16 09:50,127.5000,38.0500,68.00,66.20,93.97,10.00,1.00,0.00,29.83,M,3.73,M,FEW,FEW,OVC,M,500.00,1300.00,2900.00,M,,M,M,M,M,M,M,M,KQFV 160950Z AUTO 01001KT 6000 // FEW005 FEW013 OVC029 20/19 A2983 RMK A02 TSNO
RKJK,2020-09-16 09:56,126.6220,35.8994,72.00,70.30,94.39,0.00,0.00,T,29.76,1008.20,7.00,M,BKN,OVC,M,M,600.00,1200.00,M,M,BR,M,M,M,M,M,M,M,RKJK 160956Z 00000KT 7SM BR BKN006 OVC012 22/21 A2976 RMK AO2A DZE0859 SLP082 P0000 T02220213 $
RKSO,2020-09-16 09:56,127.0296,37.0906,69.80,68.00,94.01,0.00,0.00,0.00,29.77,1008.40,7.00,M,FEW,BKN,M,M,900.00,3200.00,M,M,M,M,M,M,M,M,M,M,RKSO 160956Z 00000KT 7SM FEW009 BKN032 21/20 A2977 RMK AO2A SLP084
RKTF,2020-09-16 09:56,127.3720,36.3720,69.80,68.00,94.01,310.00,1.00,0.00,29.80,M,4.97,M,SCT,BKN,M,M,1000.00,2000.00,M,M,-RA BR,M,M,M,M,M,M,M,RKTF 160956Z 31001KT 8000 -RA BR SCT010 BKN020 21/20 A2980 RMK CIG020
RKSG,2020-09-16 09:57,127.0311,36.9622,68.00,66.20,93.97,150.00,3.00,0.00,29.79,1008.80,5.00,M,BKN,OVC,M,M,2300.00,2700.00,M,M,BR,M,M,M,M,M,M,M,RKSG 160957Z 15003KT 5SM BR BKN023 OVC027 20/19 A2979 RMK AO2A SLP088 RVRNO $
RKSY,2020-09-16 09:58,126.9753,37.5241,72.70,66.00,79.50,0.00,0.00,0.00,29.77,1008.40,6.21,M,FEW,OVC,M,M,1900.00,3500.00,M,M,M,M,M,M,M,M,M,M,RKSY 160958Z AUTO 00000KT 9999 FEW019 OVC035 23/19 A2977 RMK AO2 SLP084 T02260189
RKPS,2020-09-16 10:00,128.0704,35.0885,73.40,69.80,88.51,350.00,1.00,0.00,29.80,1009.60,4.97,M,SCT,BKN,M,M,1000.00,2000.00,M,M,M,M,M,M,M,M,M,M,RKPS 161000Z 35001KT 8000 SCT010 BKN020 23/21 Q1009 RMK CIG020 SLP096 8/600 9/700
RKJB,2020-09-16 10:00,126.3800,34.9800,73.40,73.40,100.00,250.00,4.00,0.00,29.80,M,6.21,M,SCT,OVC,M,M,1000.00,2500.00,M,M,M,M,M,M,M,M,M,M,RKJB 161000Z 25004KT 200V290 9999 SCT010 OVC025 23/23 Q1009 NOSIG
RKJJ,2020-09-16 10:00,126.8089,35.1264,75.20,71.60,88.59,240.00,3.00,0.00,29.77,1008.70,6.21,M,SCT,OVC,M,M,2000.00,4000.00,M,M,-RA,M,M,M,M,M,M,M,RKJJ 161000Z 24003KT 9999 -RA SCT020 OVC040 24/22 Q1008 RMK CIG040 SLP087 8/7// 9/8//
RKPC,2020-09-16 10:00,126.4930,33.5113,75.20,75.20,100.00,310.00,5.00,0.00,29.80,M,6.21,M,SCT,BKN,M,M,1000.00,3000.00,M,M,M,M,M,M,M,M,M,M,RKPC 161000Z 31005KT 9999 SCT010 BKN030 24/24 Q1009 NOSIG
RKNY,2020-09-16 10:00,128.6692,38.0613,66.20,64.40,93.92,190.00,3.00,0.00,29.74,M,1.06,M,NCD,M,M,M,M,M,M,M,BR,M,M,M,M,M,M,M,RKNY 161000Z AUTO 19003KT 150V240 1700 BR NCD 19/18 Q1007
RKSM,2020-09-16 10:00,127.1139,37.4458,71.60,66.20,83.09,200.00,5.00,0.00,29.79,M,6.21,M,SCT,BKN,M,M,2500.00,4000.00,M,M,M,M,M,M,M,M,M,M,RKSM 161000Z 20005KT 9999 SCT025 BKN040 22/19 A2979
QFB,2020-09-16 10:00,128.7167,35.6500,73.40,68.00,83.21,0.00,0.00,0.00,29.86,M,6.21,M,OVC,M,M,M,1700.00,M,M,M,M,M,M,M,M,M,M,M,KQFB 161000Z AUTO 00000KT 9999 OVC017 23/20 A2986 RMK A02 TSNO
RKSS,2020-09-16 10:00,126.7906,37.5583,71.60,68.00,88.43,190.00,3.00,0.00,29.77,M,6.21,M,FEW,BKN,M,M,1500.00,3000.00,M,M,M,M,M,M,M,M,M,M,RKSS 161000Z 19003KT 160V220 9999 FEW015 BKN030 22/20 Q1008 NOSIG
RKTH,2020-09-16 10:00,129.4205,35.9879,73.40,73.40,100.00,150.00,4.00,0.00,29.88,1008.80,4.97,M,SCT,BKN,M,M,3000.00,6000.00,M,M,M,M,M,M,M,M,M,M,RKTH 161000Z 15004KT 8000 SCT030 BKN060 23/23 Q1012 RMK CIG060 SLP088 8/500 9/700
RKTN,2020-09-16 10:00,128.6589,35.8941,75.20,66.20,73.61,10.00,2.00,0.00,29.80,M,6.21,M,BKN,BKN,M,M,2000.00,2500.00,M,M,M,M,M,M,M,M,M,M,RKTN 161000Z 01002KT 9999 BKN020 BKN025 24/19 Q1009
RKTU,2020-09-16 10:00,127.4991,36.7166,68.00,68.00,100.00,20.00,1.00,0.00,29.80,M,4.97,M,BKN,OVC,M,M,1000.00,2500.00,M,M,-DZ,M,M,M,M,M,M,M,RKTU 161000Z 02001KT 8000 -DZ BKN010 OVC025 20/20 Q1009
QEN,2020-09-16 10:00,128.7500,37.6667,60.80,64.40,M,260.00,2.00,0.00,M,M,6.21,M,BKN,OVC,M,M,400.00,5500.00,M,M,M,M,M,M,M,M,M,M,KQEN 161000Z AUTO 26002KT 9999 BKN004 OVC055 16/18 / RMK A02 TSNO
QES,2020-09-16 10:00,126.4500,36.9667,80.60,66.20,61.58,M,M,0.00,M,M,6.21,M,BKN,M,M,M,1500.00,M,M,M,M,M,M,M,M,M,M,M,KQES 161000Z AUTO 9999 BKN015 27/19 / RMK A02 TSNO
QEJ,2020-09-16 10:00,127.9500,38.2000,66.20,66.20,100.00,0.00,0.00,0.00,29.79,M,4.97,M,OVC,M,M,M,2000.00,M,M,M,M,M,M,M,M,M,M,M,KQEJ 161000Z AUTO 00000KT 8000 OVC020 19/19 A2979 RMK A02 TSNO
QEI,2020-09-16 10:00,128.0667,37.9500,64.40,64.40,100.00,200.00,3.00,0.00,29.80,M,6.21,M,BKN,OVC,M,M,2500.00,4700.00,M,M,M,M,M,M,M,M,M,M,KQEI 161000Z AUTO 20003KT 9999 BKN025 OVC047 18/18 A2980 RMK A02 TSNO
QEQ,2020-09-16 10:00,127.5500,37.8500,71.60,69.80,94.06,230.00,4.00,0.00,29.81,M,6.21,M,FEW,BKN,M,M,2200.00,2900.00,M,M,M,M,M,M,M,M,M,M,KQEQ 161000Z AUTO 23004KT 9999 FEW022 BKN029 22/21 A2981 RMK A02 TSNO
QEW,2020-09-16 10:00,128.1500,36.4000,69.80,68.00,94.01,290.00,1.00,0.00,29.80,M,6.21,M,OVC,M,M,M,1400.00,M,M,M,M,M,M,M,M,M,M,M,KQEW 161000Z AUTO 29001KT 9999 OVC014 21/20 A2980 RMK A02 TSNO
QEP,2020-09-16 10:00,127.2667,37.4000,69.80,66.20,88.34,110.00,2.00,0.00,29.81,M,6.21,M,OVC,M,M,M,1100.00,M,M,M,M,M,M,M,M,M,M,M,KQEP 161000Z AUTO 11002KT 9999 OVC011 21/19 A2981 RMK A02 TSNO
RKPK,2020-09-16 10:00,128.9382,35.1795,75.20,68.00,78.34,190.00,5.00,0.00,29.80,M,6.21,M,FEW,BKN,BKN,M,2000.00,2500.00,4000.00,M,M,M,M,M,M,M,M,M,RKPK 161000Z 19005KT 9999 FEW020 BKN025 BKN040 24/20 Q1009
QFT,2020-09-16 10:00,127.3500,37.6000,69.80,66.20,88.34,130.00,1.00,0.00,29.78,M,M,M,BKN,OVC,M,M,1600.00,3600.00,M,M,,M,M,M,M,M,M,M,KQFT 161000Z AUTO 13001KT / // BKN016 OVC036 21/19 A2978 RMK A02 TSNO
QFU,2020-09-16 10:00,126.9667,37.8000,71.60,68.00,88.43,200.00,2.00,0.00,29.82,M,4.97,M,SCT,BKN,OVC,M,1400.00,3800.00,4700.00,M,HZ,M,M,M,M,M,M,M,KQFU 161000Z AUTO 20002KT 8000 HZ SCT014 BKN038 OVC047 22/20 A2982 RMK A02 TSNO
QEX,2020-09-16 10:00,128.3000,36.1000,73.40,66.20,78.19,160.00,2.00,0.00,29.72,M,6.21,M,FEW,BKN,OVC,M,2400.00,4100.00,5500.00,M,M,M,M,M,M,M,M,M,KQEX 161000Z AUTO 16002KT 9999 FEW024 BKN041 OVC055 23/19 A2972 RMK A02 TSNO
QFW,2020-09-16 10:00,127.8833,37.6667,69.80,68.00,94.01,260.00,2.00,0.00,29.81,M,6.21,M,OVC,M,M,M,1800.00,M,M,M,M,M,M,M,M,M,M,M,KQFW 161000Z AUTO 26002KT 9999 OVC018 21/20 A2981 RMK A02 TSNO
QFV,2020-09-16 10:00,127.5000,38.0500,66.20,66.20,100.00,140.00,1.00,0.00,29.84,M,3.73,M,FEW,FEW,BKN,M,500.00,800.00,2800.00,M,,M,M,M,M,M,M,M,KQFV 161000Z AUTO 14001KT 6000 // FEW005 FEW008 BKN028 19/19 A2984 RMK A02 TSNO
RKSI,2020-09-16 10:00,126.4500,37.4667,71.60,64.40,78.04,190.00,6.00,0.00,29.77,M,6.21,M,SCT,BKN,M,M,1000.00,2500.00,M,M,M,M,M,M,M,M,M,M,RKSI 161000Z 19006KT 160V240 9999 SCT010 BKN025 22/18 Q1008 NOSIG
RKNN,2020-09-16 10:06,128.9436,37.7536,71.60,69.80,94.06,60.00,1.00,0.00,29.77,M,6.21,M,BKN,BKN,M,M,6000.00,15000.00,M,M,-RA,M,M,M,M,M,M,M,RKNN 161006Z 06001KT 9999 -RA BKN060 BKN150 22/21 A2977 RMK CIG060
RKTY,2020-09-16 10:07,128.3548,36.6319,69.80,68.00,94.01,360.00,1.00,0.00,29.81,M,4.97,M,SCT,OVC,M,M,1000.00,2000.00,M,M,BR,M,M,M,M,M,M,M,RKTY 161007Z 36001KT 8000 BR SCT010 OVC020 21/20 A2981 RMK CIG020 WR26
QFB,2020-09-16 10:10,128.7167,35.6500,73.40,68.00,83.21,70.00,1.00,0.00,29.86,M,6.21,M,OVC,M,M,M,1800.00,M,M,M,M,M,M,M,M,M,M,M,KQFB 161010Z AUTO 07001KT 9999 OVC018 23/20 A2986 RMK A02 TSNO
QEN,2020-09-16 10:10,128.7500,37.6667,60.80,64.40,M,250.00,3.00,0.00,M,M,6.21,M,BKN,OVC,M,M,400.00,5500.00,M,M,M,M,M,M,M,M,M,M,KQEN 161010Z AUTO 25003KT 9999 BKN004 OVC055 16/18 / RMK A02 TSNO
QES,2020-09-16 10:10,126.4500,36.9667,80.60,66.20,61.58,M,M,0.00,M,M,6.21,M,OVC,M,M,M,1400.00,M,M,M,M,M,M,M,M,M,M,M,KQES 161010Z AUTO 9999 OVC014 27/19 / RMK A02 TSNO
QEJ,2020-09-16 10:10,127.9500,38.2000,68.00,66.20,93.97,0.00,0.00,0.00,29.81,M,5.59,M,OVC,M,M,M,2200.00,M,M,M,M,M,M,M,M,M,M,M,KQEJ 161010Z AUTO 00000KT 9000 OVC022 20/19 A2981 RMK A02 TSNO
QEI,2020-09-16 10:10,128.0667,37.9500,64.40,64.40,100.00,0.00,0.00,0.00,29.81,M,6.21,M,BKN,OVC,M,M,2400.00,4300.00,M,M,M,M,M,M,M,M,M,M,KQEI 161010Z AUTO 00000KT 9999 BKN024 OVC043 18/18 A2981 RMK A02 TSNO
QEQ,2020-09-16 10:10,127.5500,37.8500,71.60,71.60,100.00,220.00,2.00,0.00,29.81,M,6.21,M,FEW,BKN,M,M,2100.00,2700.00,M,M,M,M,M,M,M,M,M,M,KQEQ 161010Z AUTO 22002KT 9999 FEW021 BKN027 22/22 A2981 RMK A02 TSNO
QEW,2020-09-16 10:10,128.1500,36.4000,68.00,68.00,100.00,270.00,1.00,0.00,29.80,M,3.73,M,OVC,M,M,M,1700.00,M,M,M,,M,M,M,M,M,M,M,KQEW 161010Z AUTO 27001KT 6000 // OVC017 20/20 A2980 RMK A02 TSNO
QEP,2020-09-16 10:10,127.2667,37.4000,69.80,66.20,88.34,130.00,2.00,0.00,29.81,M,6.21,M,BKN,M,M,M,1100.00,M,M,M,M,M,M,M,M,M,M,M,KQEP 161010Z AUTO 13002KT 9999 BKN011 21/19 A2981 RMK A02 TSNO
QFT,2020-09-16 10:10,127.3500,37.6000,69.80,66.20,88.34,80.00,1.00,0.00,29.78,M,M,M,OVC,M,M,M,1600.00,M,M,M,,M,M,M,M,M,M,M,KQFT 161010Z AUTO 08001KT / // OVC016 21/19 A2978 RMK A02 TSNO
QFU,2020-09-16 10:10,126.9667,37.8000,71.60,68.00,88.43,220.00,1.00,0.00,29.82,M,3.73,M,SCT,SCT,BKN,M,1400.00,3800.00,4700.00,M,M,M,M,M,M,M,M,M,KQFU 161010Z AUTO 22001KT 6000 SCT014 SCT038 BKN047 22/20 A2982 RMK A02 TSNO
QEX,2020-09-16 10:10,128.3000,36.1000,73.40,66.20,78.19,180.00,3.00,0.00,29.73,M,6.21,M,BKN,OVC,M,M,4100.00,5500.00,M,M,M,M,M,M,M,M,M,M,KQEX 161010Z AUTO 18003KT 9999 BKN041 OVC055 23/19 A2973 RMK A02 TSNO
QFW,2020-09-16 10:10,127.8833,37.6667,69.80,69.80,100.00,290.00,2.00,0.00,29.81,M,6.21,M,OVC,M,M,M,1700.00,M,M,M,M,M,M,M,M,M,M,M,KQFW 161010Z AUTO 29002KT 9999 OVC017 21/21 A2981 RMK A02 TSNO
QFV,2020-09-16 10:10,127.5000,38.0500,66.20,66.20,100.00,60.00,1.00,0.00,29.84,M,3.73,M,FEW,BKN,M,M,700.00,2900.00,M,M,,M,M,M,M,M,M,M,KQFV 161010Z AUTO 06001KT 6000 // FEW007 BKN029 19/19 A2984 RMK A02 TSNO
RKSO,2020-09-16 10:16,127.0296,37.0906,69.80,68.00,94.01,0.00,0.00,0.00,29.77,1008.40,7.00,M,BKN,OVC,M,M,2500.00,3000.00,M,M,M,M,M,M,M,M,M,M,RKSO 161016Z 00000KT 7SM R27/5500FT BKN025 OVC030 21/20 A2977 RMK AO2A RAB10E11RAB14 CIG 025V030 CIG 006 RWY09 SLP084 $
QFB,2020-09-16 10:20,128.7167,35.6500,73.40,68.00,83.21,110.00,1.00,0.00,29.86,M,6.21,M,OVC,M,M,M,1900.00,M,M,M,M,M,M,M,M,M,M,M,KQFB 161020Z AUTO 11001KT 9999 OVC019 23/20 A2986 RMK A02 TSNO
QEN,2020-09-16 10:20,128.7500,37.6667,60.80,64.40,M,240.00,3.00,0.00,M,M,6.21,M,OVC,M,M,M,400.00,M,M,M,M,M,M,M,M,M,M,M,KQEN 161020Z AUTO 24003KT 9999 OVC004 16/18 / RMK A02 TSNO
QES,2020-09-16 10:20,126.4500,36.9667,80.60,66.20,61.58,M,M,0.00,M,M,6.21,M,OVC,M,M,M,1300.00,M,M,M,M,M,M,M,M,M,M,M,KQES 161020Z AUTO 9999 OVC013 27/19 / RMK A02 TSNO
QEJ,2020-09-16 10:20,127.9500,38.2000,66.20,66.20,100.00,130.00,1.00,0.00,29.80,M,3.73,M,OVC,M,M,M,2100.00,M,M,M,M,M,M,M,M,M,M,M,KQEJ 161020Z AUTO 13001KT 6000 OVC021 19/19 A2980 RMK A02 TSNO
QEI,2020-09-16 10:20,128.0667,37.9500,64.40,64.40,100.00,220.00,1.00,0.00,29.81,M,6.21,M,BKN,BKN,OVC,M,2300.00,3200.00,4300.00,M,M,M,M,M,M,M,M,M,KQEI 161020Z AUTO 22001KT 9999 BKN023 BKN032 OVC043 18/18 A2981 RMK A02 TSNO
QEQ,2020-09-16 10:20,127.5500,37.8500,69.80,71.60,M,220.00,3.00,0.00,29.81,M,6.21,M,FEW,BKN,M,M,2000.00,2800.00,M,M,M,M,M,M,M,M,M,M,KQEQ 161020Z AUTO 22003KT 9999 FEW020 BKN028 21/22 A2981 RMK A02 TSNO
QEW,2020-09-16 10:20,128.1500,36.4000,68.00,68.00,100.00,290.00,1.00,0.00,29.80,M,3.73,M,OVC,M,M,M,1700.00,M,M,M,,M,M,M,M,M,M,M,KQEW 161020Z AUTO 29001KT 6000 // OVC017 20/20 A2980 RMK A02 TSNO
QEP,2020-09-16 10:20,127.2667,37.4000,69.80,66.20,88.34,130.00,2.00,0.00,29.81,M,6.21,M,SCT,BKN,M,M,1000.00,2200.00,M,M,M,M,M,M,M,M,M,M,KQEP 161020Z AUTO 13002KT 9999 SCT010 BKN022 21/19 A2981 RMK A02 TSNO
QFT,2020-09-16 10:20,127.3500,37.6000,69.80,66.20,88.34,0.00,0.00,0.00,29.78,M,M,M,OVC,M,M,M,1600.00,M,M,M,,M,M,M,M,M,M,M,KQFT 161020Z AUTO 00000KT / // OVC016 21/19 A2978 RMK A02 TSNO
QFU,2020-09-16 10:20,126.9667,37.8000,71.60,68.00,88.43,200.00,1.00,0.00,29.83,M,4.97,M,FEW,FEW,BKN,M,1300.00,3800.00,4600.00,M,HZ,M,M,M,M,M,M,M,KQFU 161020Z AUTO 20001KT 8000 HZ FEW013 FEW038 BKN046 22/20 A2983 RMK A02 TSNO
QEX,2020-09-16 10:20,128.3000,36.1000,73.40,68.00,83.21,170.00,1.00,0.00,29.72,M,6.21,M,FEW,BKN,OVC,M,2400.00,4100.00,5500.00,M,M,M,M,M,M,M,M,M,KQEX 161020Z AUTO 17001KT 9999 FEW024 BKN041 OVC055 23/20 A2972 RMK A02 TSNO
QFW,2020-09-16 10:20,127.8833,37.6667,69.80,69.80,100.00,240.00,1.00,0.00,29.82,M,6.21,M,OVC,M,M,M,1600.00,M,M,M,M,M,M,M,M,M,M,M,KQFW 161020Z AUTO 24001KT 9999 OVC016 21/21 A2982 RMK A02 TSNO
QFV,2020-09-16 10:20,127.5000,38.0500,66.20,64.40,93.92,360.00,1.00,0.00,29.84,M,3.73,M,FEW,BKN,BKN,M,700.00,3600.00,6000.00,M,,M,M,M,M,M,M,M,KQFV 161020Z AUTO 36001KT 6000 // FEW007 BKN036 BKN060 19/18 A2984 RMK A02 TSNO
RKTB,2020-09-16 10:22,126.0500,37.0167,68.00,66.20,93.97,210.00,4.00,0.00,29.86,M,6.21,M,BKN,M,M,M,1200.00,M,M,M,M,M,M,M,M,M,M,M,RKTB 161022Z 21004KT 9999 BKN012 20/19 A2986 RMK CIG012
RKNN,2020-09-16 10:23,128.9436,37.7536,71.60,68.00,88.43,40.00,1.00,0.00,29.78,M,6.21,M,SCT,BKN,M,M,6000.00,15000.00,M,M,M,M,M,M,M,M,M,M,RKNN 161023Z 04001KT 9999 SCT060 BKN150 22/20 A2978 RMK CIG150
RKNF,2020-09-16 10:27,128.6667,37.7500,M,M,M,250.00,10.00,0.00,29.90,M,M,M,M,M,M,M,M,M,M,M,M,M,M,M,M,M,M,M,RKNF 161027Z 25010KT 000 FG VV000 13/13 A2990 RMK CIG000
QFB,2020-09-16 10:30,128.7167,35.6500,73.40,68.00,83.21,140.00,1.00,0.00,29.87,M,6.21,M,OVC,M,M,M,1900.00,M,M,M,M,M,M,M,M,M,M,M,KQFB 161030Z AUTO 14001KT 9999 OVC019 23/20 A2987 RMK A02 TSNO
QEN,2020-09-16 10:30,128.7500,37.6667,60.80,64.40,M,250.00,4.00,0.00,M,M,6.21,M,BKN,BKN,OVC,M,400.00,1500.00,7000.00,M,M,M,M,M,M,M,M,M,KQEN 161030Z AUTO 25004KT 9999 BKN004 BKN015 OVC070 16/18 / RMK A02 TSNO
QES,2020-09-16 10:30,126.4500,36.9667,80.60,66.20,61.58,M,M,0.00,M,M,6.21,M,SCT,OVC,M,M,1300.00,2200.00,M,M,M,M,M,M,M,M,M,M,KQES 161030Z AUTO 9999 SCT013 OVC022 27/19 / RMK A02 TSNO
QEJ,2020-09-16 10:30,127.9500,38.2000,66.20,66.20,100.00,0.00,0.00,0.00,29.80,M,3.73,M,OVC,M,M,M,1700.00,M,M,M,M,M,M,M,M,M,M,M,KQEJ 161030Z AUTO 00000KT 6000 OVC017 19/19 A2980 RMK A02 TSNO
QEI,2020-09-16 10:30,128.0667,37.9500,64.40,64.40,100.00,130.00,1.00,0.00,29.81,M,5.59,M,FEW,BKN,OVC,M,2300.00,3200.00,4300.00,M,,M,M,M,M,M,M,M,KQEI 161030Z AUTO 13001KT 9000 // FEW023 BKN032 OVC043 18/18 A2981 RMK A02 TSNO
QEQ,2020-09-16 10:30,127.5500,37.8500,69.80,71.60,M,210.00,3.00,0.00,29.81,M,6.21,M,FEW,BKN,M,M,1900.00,2900.00,M,M,M,M,M,M,M,M,M,M,KQEQ 161030Z AUTO 21003KT 9999 FEW019 BKN029 21/22 A2981 RMK A02 TSNO
QEW,2020-09-16 10:30,128.1500,36.4000,68.00,68.00,100.00,300.00,1.00,0.00,29.79,M,2.98,M,OVC,M,M,M,1700.00,M,M,M,,M,M,M,M,M,M,M,KQEW 161030Z AUTO 30001KT 4800 // OVC017 20/20 A2979 RMK A02 TSNO
QEP,2020-09-16 10:30,127.2667,37.4000,69.80,66.20,88.34,120.00,3.00,0.00,29.82,M,6.21,M,FEW,BKN,M,M,1000.00,2000.00,M,M,M,M,M,M,M,M,M,M,KQEP 161030Z AUTO 12003KT 9999 FEW010 BKN020 21/19 A2982 RMK A02 TSNO
QFT,2020-09-16 10:30,127.3500,37.6000,69.80,66.20,88.34,0.00,0.00,0.00,29.78,M,M,M,OVC,M,M,M,1600.00,M,M,M,,M,M,M,M,M,M,M,KQFT 161030Z AUTO 00000KT / // OVC016 21/19 A2978 RMK A02 TSNO
QFU,2020-09-16 10:30,126.9667,37.8000,71.60,66.20,83.09,130.00,3.00,0.00,29.83,M,6.21,M,BKN,M,M,M,3600.00,M,M,M,M,M,M,M,M,M,M,M,KQFU 161030Z AUTO 13003KT 9999 BKN036 22/19 A2983 RMK A02 TSNO
QEX,2020-09-16 10:30,128.3000,36.1000,73.40,66.20,78.19,150.00,2.00,0.00,29.72,M,6.21,M,FEW,BKN,M,M,2300.00,4100.00,M,M,M,M,M,M,M,M,M,M,KQEX 161030Z AUTO 15002KT 9999 FEW023 BKN041 23/19 A2972 RMK A02 TSNO
QFW,2020-09-16 10:30,127.8833,37.6667,69.80,69.80,100.00,270.00,2.00,0.00,29.81,M,6.21,M,OVC,M,M,M,1000.00,M,M,M,M,M,M,M,M,M,M,M,KQFW 161030Z AUTO 27002KT 9999 OVC010 21/21 A2981 RMK A02 TSNO
QFV,2020-09-16 10:30,127.5000,38.0500,66.20,64.40,93.92,120.00,1.00,0.00,29.83,M,5.59,M,BKN,M,M,M,2800.00,M,M,M,,M,M,M,M,M,M,M,KQFV 161030Z AUTO 12001KT 9000 // BKN028 19/18 A2983 RMK A02 TSNO
RKSI,2020-09-16 10:30,126.4500,37.4667,71.60,64.40,78.04,200.00,6.00,0.00,29.77,M,6.21,M,SCT,BKN,M,M,1000.00,2500.00,M,M,M,M,M,M,M,M,M,M,RKSI 161030Z 20006KT 9999 SCT010 BKN025 22/18 Q1008 NOSIG
RKJJ,2020-09-16 10:33,126.8089,35.1264,73.40,73.40,100.00,200.00,2.00,0.00,29.80,M,6.21,M,FEW,BKN,M,M,2000.00,4000.00,M,M,M,M,M,M,M,M,M,M,RKJJ 161033Z 20002KT 9999 FEW020 BKN040 23/23 A2980 RMK CIG040
RKTH,2020-09-16 10:33,129.4205,35.9879,73.40,73.40,100.00,180.00,4.00,0.00,29.80,M,4.97,M,SCT,BKN,M,M,3000.00,6000.00,M,M,BR,M,M,M,M,M,M,M,RKTH 161033Z 18004KT 8000 BR SCT030 BKN060 23/23 A2980 RMK CIG060
RKSO,2020-09-16 10:37,127.0296,37.0906,68.00,68.00,100.00,0.00,0.00,0.00,29.78,1008.70,7.00,M,FEW,OVC,M,M,900.00,2500.00,M,M,M,M,M,M,M,M,M,M,RKSO 161037Z 00000KT 7SM FEW009 OVC025 20/20 A2978 RMK SLP087
QFB,2020-09-16 10:40,128.7167,35.6500,71.60,68.00,88.43,120.00,2.00,0.00,29.87,M,6.21,M,BKN,OVC,M,M,2100.00,3300.00,M,M,M,M,M,M,M,M,M,M,KQFB 161040Z AUTO 12002KT 9999 BKN021 OVC033 22/20 A2987 RMK A02 TSNO
QEN,2020-09-16 10:40,128.7500,37.6667,60.80,64.40,M,240.00,5.00,0.00,M,M,6.21,M,BKN,BKN,OVC,M,300.00,1500.00,7000.00,M,M,M,M,M,M,M,M,M,KQEN 161040Z AUTO 24005KT 9999 BKN003 BKN015 OVC070 16/18 / RMK A02 TSNO
QES,2020-09-16 10:40,126.4500,36.9667,80.60,66.20,61.58,M,M,0.00,M,M,6.21,M,OVC,M,M,M,1200.00,M,M,M,M,M,M,M,M,M,M,M,KQES 161040Z AUTO 9999 OVC012 27/19 / RMK A02 TSNO
QEJ,2020-09-16 10:40,127.9500,38.2000,66.20,66.20,100.00,0.00,0.00,0.00,29.80,M,4.97,M,OVC,M,M,M,1500.00,M,M,M,M,M,M,M,M,M,M,M,KQEJ 161040Z AUTO 00000KT 8000 OVC015 19/19 A2980 RMK A02 TSNO
QEI,2020-09-16 10:40,128.0667,37.9500,64.40,64.40,100.00,260.00,2.00,0.00,29.80,M,6.21,M,FEW,FEW,BKN,M,300.00,2200.00,3300.00,M,M,M,M,M,M,M,M,M,KQEI 161040Z AUTO 26002KT 9999 FEW003 FEW022 BKN033 18/18 A2980 RMK A02 TSNO
QEQ,2020-09-16 10:40,127.5500,37.8500,69.80,71.60,M,210.00,3.00,0.00,29.81,M,6.21,M,FEW,SCT,M,M,1900.00,2900.00,M,M,M,M,M,M,M,M,M,M,KQEQ 161040Z AUTO 21003KT 9999 FEW019 SCT029 21/22 A2981 RMK A02 TSNO
QEW,2020-09-16 10:40,128.1500,36.4000,68.00,68.00,100.00,310.00,1.00,0.00,29.80,M,2.49,M,OVC,M,M,M,1700.00,M,M,M,,M,M,M,M,M,M,M,KQEW 161040Z AUTO 31001KT 4000 // OVC017 20/20 A2980 RMK A02 TSNO
QEP,2020-09-16 10:40,127.2667,37.4000,69.80,66.20,88.34,130.00,2.00,0.00,29.82,M,6.21,M,FEW,OVC,M,M,1100.00,2000.00,M,M,M,M,M,M,M,M,M,M,KQEP 161040Z AUTO 13002KT 9999 FEW011 OVC020 21/19 A2982 RMK A02 TSNO
QFT,2020-09-16 10:40,127.3500,37.6000,69.80,66.20,88.34,240.00,1.00,0.00,29.78,M,M,M,OVC,M,M,M,1600.00,M,M,M,,M,M,M,M,M,M,M,KQFT 161040Z AUTO 24001KT / // OVC016 21/19 A2978 RMK A02 TSNO
QFU,2020-09-16 10:40,126.9667,37.8000,71.60,66.20,83.09,120.00,2.00,0.00,29.82,M,6.21,M,BKN,M,M,M,3600.00,M,M,M,M,M,M,M,M,M,M,M,KQFU 161040Z AUTO 12002KT 9999 BKN036 22/19 A2982 RMK A02 TSNO
QEX,2020-09-16 10:40,128.3000,36.1000,73.40,68.00,83.21,150.00,4.00,0.00,29.72,M,6.21,M,FEW,BKN,M,M,2300.00,5500.00,M,M,M,M,M,M,M,M,M,M,KQEX 161040Z AUTO 15004KT 9999 FEW023 BKN055 23/20 A2972 RMK A02 TSNO
QFW,2020-09-16 10:40,127.8833,37.6667,69.80,69.80,100.00,250.00,1.00,0.00,29.81,M,6.21,M,OVC,M,M,M,1000.00,M,M,M,M,M,M,M,M,M,M,M,KQFW 161040Z AUTO 25001KT 9999 OVC010 21/21 A2981 RMK A02 TSNO
QFV,2020-09-16 10:40,127.5000,38.0500,66.20,64.40,93.92,90.00,2.00,0.00,29.84,M,4.97,M,BKN,M,M,M,2200.00,M,M,M,,M,M,M,M,M,M,M,KQFV 161040Z AUTO 09002KT 8000 // BKN022 19/18 A2984 RMK A02 TSNO
RKSO,2020-09-16 10:43,127.0296,37.0906,68.00,68.00,100.00,0.00,0.00,0.00,29.78,1008.70,7.00,M,SCT,OVC,M,M,900.00,2500.00,M,M,M,M,M,M,M,M,M,M,RKSO 161043Z 00000KT 7SM SCT009 OVC025 20/20 A2978 RMK SLP087
RKTF,2020-09-16 10:43,127.3720,36.3720,68.00,68.00,100.00,230.00,1.00,0.00,29.81,M,2.98,M,BKN,BKN,M,M,1000.00,2000.00,M,M,-RA BR,M,M,M,M,M,M,M,RKTF 161043Z 23001KT 4800 -RA BR BKN010 BKN020 20/20 A2981 RMK CIG010
RKJJ,2020-09-16 10:45,126.8089,35.1264,M,M,M,M,M,0.00,M,M,M,M,M,M,M,M,M,M,M,M,M,M,M,M,M,M,M,M,RKJJ 161045Z 16SPECI
RKTH,2020-09-16 10:45,129.4205,35.9879,M,M,M,M,M,0.00,M,M,M,M,M,M,M,M,M,M,M,M,M,M,M,M,M,M,M,M,RKTH 161045Z 16SPECI
RKSO,2020-09-16 10:47,127.0296,37.0906,69.80,68.00,94.01,0.00,0.00,0.00,29.78,1008.70,7.00,M,BKN,OVC,M,M,900.00,2600.00,M,M,M,M,M,M,M,M,M,M,RKSO 161047Z 00000KT 7SM BKN009 OVC026 21/20 A2978 RMK CIG 009V025 BKN V FEW SLP087 $
QFB,2020-09-16 10:50,128.7167,35.6500,71.60,68.00,88.43,130.00,2.00,0.00,29.87,M,6.21,M,OVC,M,M,M,2100.00,M,M,M,M,M,M,M,M,M,M,M,KQFB 161050Z AUTO 13002KT 9999 OVC021 22/20 A2987 RMK A02 TSNO
QEN,2020-09-16 10:50,128.7500,37.6667,60.80,64.40,M,260.00,4.00,0.00,M,M,5.59,M,BKN,BKN,BKN,M,300.00,1500.00,7000.00,M,M,M,M,M,M,M,M,M,KQEN 161050Z AUTO 26004KT 9000 BKN003 BKN015 BKN070 16/18 / RMK A02 TSNO
QES,2020-09-16 10:50,126.4500,36.9667,80.60,66.20,61.58,M,M,0.00,M,M,6.21,M,OVC,M,M,M,1100.00,M,M,M,M,M,M,M,M,M,M,M,KQES 161050Z AUTO 9999 OVC011 27/19 / RMK A02 TSNO
QEJ,2020-09-16 10:50,127.9500,38.2000,66.20,66.20,100.00,10.00,1.00,0.00,29.80,M,3.73,M,SCT,OVC,M,M,1400.00,3000.00,M,M,M,M,M,M,M,M,M,M,KQEJ 161050Z AUTO 01001KT 6000 SCT014 OVC030 19/19 A2980 RMK A02 TSNO
QEI,2020-09-16 10:50,128.0667,37.9500,64.40,64.40,100.00,90.00,2.00,0.00,29.81,M,6.21,M,FEW,FEW,BKN,M,300.00,1900.00,3300.00,M,M,M,M,M,M,M,M,M,KQEI 161050Z AUTO 09002KT 9999 FEW003 FEW019 BKN033 18/18 A2981 RMK A02 TSNO
QEQ,2020-09-16 10:50,127.5500,37.8500,69.80,71.60,M,220.00,3.00,0.00,29.82,M,6.21,M,FEW,SCT,M,M,2300.00,2800.00,M,M,M,M,M,M,M,M,M,M,KQEQ 161050Z AUTO 22003KT 9999 FEW023 SCT028 21/22 A2982 RMK A02 TSNO
QEW,2020-09-16 10:50,128.1500,36.4000,68.00,68.00,100.00,0.00,0.00,0.00,29.80,M,2.98,M,OVC,M,M,M,1200.00,M,M,M,,M,M,M,M,M,M,M,KQEW 161050Z AUTO 00000KT 4800 // OVC012 20/20 A2980 RMK A02 TSNO
QEP,2020-09-16 10:50,127.2667,37.4000,69.80,66.20,88.34,130.00,2.00,0.00,29.82,M,6.21,M,OVC,M,M,M,2000.00,M,M,M,M,M,M,M,M,M,M,M,KQEP 161050Z AUTO 13002KT 9999 OVC020 21/19 A2982 RMK A02 TSNO
QFT,2020-09-16 10:50,127.3500,37.6000,69.80,66.20,88.34,180.00,1.00,0.00,29.78,M,M,M,BKN,OVC,M,M,1500.00,3900.00,M,M,,M,M,M,M,M,M,M,KQFT 161050Z AUTO 18001KT / // BKN015 OVC039 21/19 A2978 RMK A02 TSNO
QFU,2020-09-16 10:50,126.9667,37.8000,71.60,66.20,83.09,210.00,2.00,0.00,29.83,M,6.21,M,FEW,BKN,M,M,2500.00,3600.00,M,M,M,M,M,M,M,M,M,M,KQFU 161050Z AUTO 21002KT 9999 FEW025 BKN036 22/19 A2983 RMK A02 TSNO
QEX,2020-09-16 10:50,128.3000,36.1000,73.40,68.00,83.21,180.00,4.00,0.00,29.72,M,6.21,M,FEW,FEW,BKN,M,2000.00,2300.00,7000.00,M,M,M,M,M,M,M,M,M,KQEX 161050Z AUTO 18004KT 9999 FEW020 FEW023 BKN070 23/20 A2972 RMK A02 TSNO
QFW,2020-09-16 10:50,127.8833,37.6667,69.80,69.80,100.00,280.00,1.00,0.00,29.82,M,6.21,M,OVC,M,M,M,1000.00,M,M,M,M,M,M,M,M,M,M,M,KQFW 161050Z AUTO 28001KT 9999 OVC010 21/21 A2982 RMK A02 TSNO
QFV,2020-09-16 10:50,127.5000,38.0500,66.20,64.40,93.92,130.00,1.00,0.00,29.84,M,3.73,M,BKN,M,M,M,2200.00,M,M,M,,M,M,M,M,M,M,M,KQFV 161050Z AUTO 13001KT 6000 // BKN022 19/18 A2984 RMK A02 TSNO
RKJK,2020-09-16 10:56,126.6220,35.8994,72.50,70.70,94.08,230.00,5.00,0.00,29.79,1009.20,10.00,M,BKN,OVC,M,M,600.00,1800.00,M,M,M,M,M,M,M,M,M,M,RKJK 161056Z 23005KT 10SM BKN006 OVC018 23/22 A2979 RMK AO2A SLP092 T02250215 $
RKSG,2020-09-16 10:57,127.0311,36.9622,69.80,66.20,88.34,150.00,1.00,0.00,29.80,1009.00,4.00,M,BKN,BKN,M,M,1900.00,2200.00,M,M,BR,M,M,M,M,M,M,M,RKSG 161057Z 15001KT 4SM BR BKN019 BKN022 21/19 A2980 RMK AO2A SLP090 RVRNO $
RKSO,2020-09-16 10:58,127.0296,37.0906,68.90,68.70,99.32,60.00,3.00,T,29.78,1008.70,7.00,M,BKN,OVC,M,M,900.00,2400.00,M,M,M,M,M,M,M,M,M,M,RKSO 161058Z 06003KT 7SM BKN009 OVC024 21/20 A2978 RMK AO2A CIG 005 RWY09 SLP087 P0000 T02050204 $
RKSY,2020-09-16 10:58,126.9753,37.5241,72.30,66.00,80.59,0.00,0.00,0.00,29.77,1008.40,6.21,M,FEW,OVC,M,M,2000.00,3600.00,M,M,M,M,M,M,M,M,M,M,RKSY 161058Z AUTO 00000KT 9999 FEW020 OVC036 22/19 A2977 RMK AO2 SLP084 T02240189
RKPS,2020-09-16 11:00,128.0704,35.0885,73.40,71.60,94.10,80.00,2.00,0.00,29.83,1010.00,6.21,M,SCT,BKN,M,M,1000.00,2000.00,M,M,M,M,M,M,M,M,M,M,RKPS 161100Z 08002KT 9999 SCT010 BKN020 23/22 Q1010 RMK CIG020 SLP100 8/600 9/700
RKJB,2020-09-16 11:00,126.3800,34.9800,73.40,73.40,100.00,250.00,4.00,0.00,29.80,M,6.21,M,SCT,OVC,M,M,1000.00,2500.00,M,M,M,M,M,M,M,M,M,M,RKJB 161100Z 25004KT 200V290 9999 SCT010 OVC025 23/23 Q1009 NOSIG
RKJJ,2020-09-16 11:00,126.8089,35.1264,73.40,73.40,100.00,230.00,3.00,0.00,29.80,1009.50,6.21,M,FEW,BKN,M,M,2000.00,3000.00,M,M,M,M,M,M,M,M,M,M,RKJJ 161100Z 23003KT 9999 FEW020 BKN030 23/23 Q1009 RMK CIG030 SLP095 8/500 9/700
RKPC,2020-09-16 11:00,126.4930,33.5113,75.20,75.20,100.00,280.00,3.00,0.00,29.83,M,6.21,M,SCT,BKN,M,M,800.00,3000.00,M,M,M,M,M,M,M,M,M,M,RKPC 161100Z 28003KT 9999 SCT008 BKN030 24/24 Q1010 NOSIG
RKNY,2020-09-16 11:00,128.6692,38.0613,66.20,66.20,100.00,200.00,5.00,0.00,29.77,M,1.06,M,NCD,M,M,M,M,M,M,M,BR,M,M,M,M,M,M,M,RKNY 161100Z AUTO 20005KT 1700 BR NCD 19/19 Q1008
RKSM,2020-09-16 11:00,127.1139,37.4458,71.60,66.20,83.09,210.00,4.00,0.00,29.80,M,6.21,M,FEW,BKN,M,M,2500.00,3500.00,M,M,M,M,M,M,M,M,M,M,RKSM 161100Z 21004KT 9999 FEW025 BKN035 22/19 A2980
QFB,2020-09-16 11:00,128.7167,35.6500,71.60,68.00,88.43,120.00,2.00,0.00,29.88,M,4.97,M,OVC,M,M,M,2000.00,M,M,M,M,M,M,M,M,M,M,M,KQFB 161100Z AUTO 12002KT 8000 OVC020 22/20 A2988 RMK A02 TSNO
RKSS,2020-09-16 11:00,126.7906,37.5583,69.80,68.00,94.01,200.00,4.00,0.00,29.80,M,6.21,M,FEW,BKN,M,M,1500.00,3000.00,M,M,M,M,M,M,M,M,M,M,RKSS 161100Z 20004KT 150V230 9999 FEW015 BKN030 21/20 Q1009 NOSIG
RKTH,2020-09-16 11:00,129.4205,35.9879,73.40,73.40,100.00,190.00,5.00,0.00,29.80,1009.10,4.97,15.00,BKN,BKN,M,M,3000.00,8000.00,M,M,M,M,M,M,M,M,M,M,RKTH 161100Z 19005G15KT 8000 BKN030 BKN080 23/23 Q1009 RMK CIG030 SLP091 8/510 9/610
RKTN,2020-09-16 11:00,128.6589,35.8941,73.40,68.00,83.21,40.00,3.00,0.00,29.80,M,6.21,M,BKN,BKN,M,M,2000.00,3000.00,M,M,M,M,M,M,M,M,M,M,RKTN 161100Z 04003KT 9999 BKN020 BKN030 23/20 Q1009
RKTU,2020-09-16 11:00,127.4991,36.7166,68.00,68.00,100.00,30.00,2.00,0.00,29.80,M,3.73,M,BKN,OVC,M,M,1500.00,2500.00,M,M,-DZ,M,M,M,M,M,M,M,RKTU 161100Z 03002KT 6000 -DZ BKN015 OVC025 20/20 Q1009
QEN,2020-09-16 11:00,128.7500,37.6667,60.80,64.40,M,250.00,5.00,0.00,M,M,4.97,M,BKN,BKN,M,M,300.00,7000.00,M,M,M,M,M,M,M,M,M,M,KQEN 161100Z AUTO 25005KT 8000 BKN003 BKN070 16/18 / RMK A02 TSNO
QES,2020-09-16 11:00,126.4500,36.9667,80.60,66.20,61.58,M,M,0.00,M,M,6.21,M,BKN,OVC,M,M,1100.00,2600.00,M,M,M,M,M,M,M,M,M,M,KQES 161100Z AUTO 9999 BKN011 OVC026 27/19 / RMK A02 TSNO
QEJ,2020-09-16 11:00,127.9500,38.2000,66.20,66.20,100.00,0.00,0.00,0.00,29.80,M,3.73,M,FEW,OVC,M,M,500.00,1400.00,M,M,-DZ,M,M,M,M,M,M,M,KQEJ 161100Z AUTO 00000KT 6000 -DZ FEW005 OVC014 19/19 A2980 RMK A02 TSNO
QEI,2020-09-16 11:00,128.0667,37.9500,64.40,64.40,100.00,0.00,0.00,0.00,29.81,M,6.21,M,FEW,BKN,M,M,300.00,3400.00,M,M,M,M,M,M,M,M,M,M,KQEI 161100Z AUTO 00000KT 9999 FEW003 BKN034 18/18 A2981 RMK A02 TSNO
QEQ,2020-09-16 11:00,127.5500,37.8500,69.80,71.60,M,220.00,3.00,0.00,29.83,M,6.21,M,BKN,BKN,M,M,1700.00,5500.00,M,M,M,M,M,M,M,M,M,M,KQEQ 161100Z AUTO 22003KT 9999 BKN017 BKN055 21/22 A2983 RMK A02 TSNO
QEW,2020-09-16 11:00,128.1500,36.4000,68.00,68.00,100.00,330.00,1.00,0.00,29.81,M,2.98,M,OVC,M,M,M,1100.00,M,M,M,,M,M,M,M,M,M,M,KQEW 161100Z AUTO 33001KT 4800 // OVC011 20/20 A2981 RMK A02 TSNO
QEP,2020-09-16 11:00,127.2667,37.4000,69.80,66.20,88.34,130.00,2.00,0.00,29.83,M,6.21,M,OVC,M,M,M,2000.00,M,M,M,M,M,M,M,M,M,M,M,KQEP 161100Z AUTO 13002KT 9999 OVC020 21/19 A2983 RMK A02 TSNO
RKPK,2020-09-16 11:00,128.9382,35.1795,75.20,68.00,78.34,180.00,4.00,0.00,29.80,M,6.21,M,FEW,BKN,BKN,M,2000.00,2500.00,4000.00,M,M,M,M,M,M,M,M,M,RKPK 161100Z 18004KT 9999 FEW020 BKN025 BKN040 24/20 Q1009
QFT,2020-09-16 11:00,127.3500,37.6000,69.80,66.20,88.34,170.00,1.00,0.00,29.79,M,M,M,SCT,OVC,M,M,1500.00,4000.00,M,M,,M,M,M,M,M,M,M,KQFT 161100Z AUTO 17001KT / // SCT015 OVC040 21/19 A2979 RMK A02 TSNO
QFU,2020-09-16 11:00,126.9667,37.8000,71.60,66.20,83.09,160.00,2.00,0.00,29.84,M,6.21,M,BKN,BKN,M,M,2000.00,4300.00,M,M,M,M,M,M,M,M,M,M,KQFU 161100Z AUTO 16002KT 9999 BKN020 BKN043 22/19 A2984 RMK A02 TSNO
QEX,2020-09-16 11:00,128.3000,36.1000,73.40,68.00,83.21,190.00,5.00,0.00,29.74,M,6.21,M,SCT,SCT,OVC,M,1700.00,4200.00,7000.00,M,M,M,M,M,M,M,M,M,KQEX 161100Z AUTO 19005KT 9999 SCT017 SCT042 OVC070 23/20 A2974 RMK A02 TSNO
QFW,2020-09-16 11:00,127.8833,37.6667,69.80,69.80,100.00,240.00,1.00,0.00,29.82,M,6.21,M,OVC,M,M,M,1000.00,M,M,M,M,M,M,M,M,M,M,M,KQFW 161100Z AUTO 24001KT 9999 OVC010 21/21 A2982 RMK A02 TSNO
QFV,2020-09-16 11:00,127.5000,38.0500,66.20,64.40,93.92,130.00,1.00,0.00,29.84,M,3.73,M,FEW,BKN,M,M,400.00,3400.00,M,M,,M,M,M,M,M,M,M,KQFV 161100Z AUTO 13001KT 6000 // FEW004 BKN034 19/18 A2984 RMK A02 TSNO
RKSI,2020-09-16 11:00,126.4500,37.4667,71.60,64.40,78.04,210.00,6.00,0.00,29.80,M,6.21,M,BKN,M,M,M,2500.00,M,M,M,M,M,M,M,M,M,M,M,RKSI 161100Z 21006KT 9999 BKN025 22/18 Q1009 NOSIG
RKSO,2020-09-16 11:02,127.0296,37.0906,68.00,68.00,100.00,0.00,0.00,0.00,29.79,1009.10,7.00,M,OVC,M,M,M,3000.00,M,M,M,M,M,M,M,M,M,M,M,RKSO 161102Z 00000KT 7SM OVC030 20/20 A2979 RMK SLP091
RKSY,2020-09-16 11:08,126.9753,37.5241,71.60,66.20,83.09,160.00,3.00,0.00,29.78,1008.70,6.21,M,BKN,OVC,M,M,1900.00,3700.00,M,M,M,M,M,M,M,M,M,M,RKSY 161108Z AUTO 16003KT 9999 BKN019 OVC037 22/19 A2978 RMK AO2 CIG 019V037 BKN V SCT SLP087
QFB,2020-09-16 11:10,128.7167,35.6500,71.60,68.00,88.43,140.00,2.00,0.00,29.87,M,4.97,M,OVC,M,M,M,2000.00,M,M,M,M,M,M,M,M,M,M,M,KQFB 161110Z AUTO 14002KT 8000 OVC020 22/20 A2987 RMK A02 TSNO
QEN,2020-09-16 11:10,128.7500,37.6667,60.80,64.40,M,250.00,5.00,0.00,M,M,4.97,M,BKN,M,M,M,300.00,M,M,M,M,M,M,M,M,M,M,M,KQEN 161110Z AUTO 25005KT 8000 BKN003 16/18 / RMK A02 TSNO
QES,2020-09-16 11:10,126.4500,36.9667,80.60,66.20,61.58,M,M,0.00,M,M,6.21,M,BKN,OVC,M,M,1100.00,2400.00,M,M,M,M,M,M,M,M,M,M,KQES 161110Z AUTO 9999 BKN011 OVC024 27/19 / RMK A02 TSNO
QEJ,2020-09-16 11:10,127.9500,38.2000,66.20,66.20,100.00,110.00,1.00,0.00,29.80,M,4.97,M,FEW,OVC,M,M,500.00,1400.00,M,M,-SHRA,M,M,M,M,M,M,M,KQEJ 161110Z AUTO 11001KT 8000 -SHRA FEW005 OVC014 19/19 A2980 RMK A02 TSNO
QEI,2020-09-16 11:10,128.0667,37.9500,64.40,64.40,100.00,120.00,1.00,0.00,29.81,M,6.21,M,FEW,BKN,OVC,M,300.00,2100.00,3300.00,M,M,M,M,M,M,M,M,M,KQEI 161110Z AUTO 12001KT 9999 FEW003 BKN021 OVC033 18/18 A2981 RMK A02 TSNO
QEQ,2020-09-16 11:10,127.5500,37.8500,69.80,71.60,M,220.00,2.00,0.00,29.84,M,6.21,M,BKN,M,M,M,1500.00,M,M,M,M,M,M,M,M,M,M,M,KQEQ 161110Z AUTO 22002KT 9999 BKN015 21/22 A2984 RMK A02 TSNO
QEW,2020-09-16 11:10,128.1500,36.4000,68.00,68.00,100.00,270.00,1.00,0.00,29.81,M,2.98,M,BKN,OVC,M,M,1100.00,2000.00,M,M,,M,M,M,M,M,M,M,KQEW 161110Z AUTO 27001KT 4800 // BKN011 OVC020 20/20 A2981 RMK A02 TSNO
QEP,2020-09-16 11:10,127.2667,37.4000,69.80,66.20,88.34,130.00,2.00,0.00,29.83,M,6.21,M,OVC,M,M,M,2000.00,M,M,M,M,M,M,M,M,M,M,M,KQEP 161110Z AUTO 13002KT 9999 OVC020 21/19 A2983 RMK A02 TSNO
QFT,2020-09-16 11:10,127.3500,37.6000,69.80,66.20,88.34,180.00,1.00,0.00,29.79,M,M,M,FEW,OVC,M,M,1500.00,4000.00,M,M,,M,M,M,M,M,M,M,KQFT 161110Z AUTO 18001KT / // FEW015 OVC040 21/19 A2979 RMK A02 TSNO
QFU,2020-09-16 11:10,126.9667,37.8000,71.60,66.20,83.09,170.00,2.00,0.00,29.84,M,6.21,M,BKN,BKN,M,M,2000.00,6000.00,M,M,M,M,M,M,M,M,M,M,KQFU 161110Z AUTO 17002KT 9999 BKN020 BKN060 22/19 A2984 RMK A02 TSNO
QEX,2020-09-16 11:10,128.3000,36.1000,73.40,68.00,83.21,180.00,5.00,0.00,29.73,M,6.21,11.00,FEW,BKN,OVC,M,1700.00,4200.00,7000.00,M,M,M,M,M,M,M,M,M,KQEX 161110Z AUTO 18005G11KT 9999 FEW017 BKN042 OVC070 23/20 A2973 RMK A02 TSNO
QFW,2020-09-16 11:10,127.8833,37.6667,69.80,69.80,100.00,210.00,1.00,0.00,29.82,M,6.21,M,OVC,M,M,M,1200.00,M,M,M,M,M,M,M,M,M,M,M,KQFW 161110Z AUTO 21001KT 9999 OVC012 21/21 A2982 RMK A02 TSNO
QFV,2020-09-16 11:10,127.5000,38.0500,66.20,64.40,93.92,80.00,1.00,0.00,29.85,M,2.98,M,SCT,BKN,BKN,M,400.00,1300.00,3300.00,M,,M,M,M,M,M,M,M,KQFV 161110Z AUTO 08001KT 4800 // SCT004 BKN013 BKN033 19/18 A2985 RMK A02 TSNO
RKJK,2020-09-16 11:16,126.6220,35.8994,71.60,69.80,94.06,230.00,5.00,0.00,29.80,1009.50,10.00,M,FEW,BKN,M,M,600.00,2000.00,M,M,M,M,M,M,M,M,M,M,RKJK 161116Z 23005KT 10SM FEW006 BKN020 22/21 A2980 RMK AO2A BKN V OVC CIG 019 RWY36 SLP095 $
RKSO,2020-09-16 11:16,127.0296,37.0906,69.80,68.00,94.01,0.00,0.00,0.00,29.79,1009.10,7.00,M,SCT,OVC,M,M,800.00,2000.00,M,M,M,M,M,M,M,M,M,M,RKSO 161116Z 00000KT 7SM SCT008 OVC020 21/20 A2979 RMK CIG 009V021 OVC V BKN SLP091 $
QFB,2020-09-16 11:20,128.7167,35.6500,71.60,68.00,88.43,120.00,1.00,0.00,29.88,M,4.97,M,OVC,M,M,M,2100.00,M,M,M,M,M,M,M,M,M,M,M,KQFB 161120Z AUTO 12001KT 8000 OVC021 22/20 A2988 RMK A02 TSNO
QEN,2020-09-16 11:20,128.7500,37.6667,60.80,64.40,M,250.00,5.00,0.00,M,M,3.73,11.00,BKN,BKN,M,M,300.00,1300.00,M,M,M,M,M,M,M,M,M,M,KQEN 161120Z AUTO 25005G11KT 6000 BKN003 BKN013 16/18 / RMK A02 TSNO
QES,2020-09-16 11:20,126.4500,36.9667,80.60,66.20,61.58,M,M,0.00,M,M,6.21,M,BKN,BKN,M,M,1100.00,2300.00,M,M,M,M,M,M,M,M,M,M,KQES 161120Z AUTO 9999 BKN011 BKN023 27/19 / RMK A02 TSNO
QEJ,2020-09-16 11:20,127.9500,38.2000,66.20,66.20,100.00,0.00,0.00,0.00,29.81,M,4.97,M,FEW,OVC,M,M,500.00,1500.00,M,M,M,M,M,M,M,M,M,M,KQEJ 161120Z AUTO 00000KT 8000 FEW005 OVC015 19/19 A2981 RMK A02 TSNO
QEI,2020-09-16 11:20,128.0667,37.9500,64.40,64.40,100.00,150.00,1.00,0.00,29.82,M,6.21,M,BKN,OVC,M,M,2000.00,3200.00,M,M,M,M,M,M,M,M,M,M,KQEI 161120Z AUTO 15001KT 9999 BKN020 OVC032 18/18 A2982 RMK A02 TSNO
QEQ,2020-09-16 11:20,127.5500,37.8500,69.80,71.60,M,240.00,4.00,0.00,29.85,M,6.21,M,BKN,BKN,M,M,1500.00,4900.00,M,M,M,M,M,M,M,M,M,M,KQEQ 161120Z AUTO 24004KT 9999 BKN015 BKN049 21/22 A2985 RMK A02 TSNO
QEW,2020-09-16 11:20,128.1500,36.4000,68.00,68.00,100.00,270.00,1.00,0.00,29.81,M,2.98,M,BKN,OVC,M,M,1100.00,2000.00,M,M,,M,M,M,M,M,M,M,KQEW 161120Z AUTO 27001KT 4800 // BKN011 OVC020 20/20 A2981 RMK A02 TSNO
QEP,2020-09-16 11:20,127.2667,37.4000,69.80,66.20,88.34,130.00,1.00,0.00,29.83,M,6.21,M,OVC,M,M,M,2000.00,M,M,M,M,M,M,M,M,M,M,M,KQEP 161120Z AUTO 13001KT 9999 OVC020 21/19 A2983 RMK A02 TSNO
QFT,2020-09-16 11:20,127.3500,37.6000,69.80,66.20,88.34,170.00,2.00,0.00,29.80,M,M,M,FEW,OVC,M,M,1500.00,4000.00,M,M,,M,M,M,M,M,M,M,KQFT 161120Z AUTO 17002KT / // FEW015 OVC040 21/19 A2980 RMK A02 TSNO
QFU,2020-09-16 11:20,126.9667,37.8000,71.60,66.20,83.09,220.00,2.00,0.00,29.85,M,6.21,M,BKN,BKN,M,M,2000.00,5000.00,M,M,M,M,M,M,M,M,M,M,KQFU 161120Z AUTO 22002KT 9999 BKN020 BKN050 22/19 A2985 RMK A02 TSNO
QEX,2020-09-16 11:20,128.3000,36.1000,73.40,68.00,83.21,180.00,4.00,0.00,29.74,M,6.21,M,FEW,BKN,M,M,1700.00,4200.00,M,M,M,M,M,M,M,M,M,M,KQEX 161120Z AUTO 18004KT 9999 FEW017 BKN042 23/20 A2974 RMK A02 TSNO
QFW,2020-09-16 11:20,127.8833,37.6667,69.80,69.80,100.00,200.00,1.00,0.00,29.83,M,6.21,M,OVC,M,M,M,1200.00,M,M,M,M,M,M,M,M,M,M,M,KQFW 161120Z AUTO 20001KT 9999 OVC012 21/21 A2983 RMK A02 TSNO
QFV,2020-09-16 11:20,127.5000,38.0500,66.20,64.40,93.92,120.00,1.00,0.00,29.85,M,3.73,M,SCT,BKN,BKN,M,400.00,1300.00,3600.00,M,,M,M,M,M,M,M,M,KQFV 161120Z AUTO 12001KT 6000 // SCT004 BKN013 BKN036 19/18 A2985 RMK A02 TSNO
RKSO,2020-09-16 11:30,127.0296,37.0906,69.80,68.00,94.01,0.00,0.00,0.00,29.81,1009.70,7.00,M,SCT,BKN,OVC,M,1000.00,2000.00,3000.00,M,M,M,M,M,M,M,M,M,RKSO 161130Z 00000KT 7SM SCT010 BKN020 OVC030 21/20 A2981 RMK CIG 010V030 SCT V BKN PRESRR SLP097 $
QFB,2020-09-16 11:30,128.7167,35.6500,71.60,68.00,88.43,120.00,1.00,0.00,29.89,M,4.97,M,OVC,M,M,M,2300.00,M,M,M,M,M,M,M,M,M,M,M,KQFB 161130Z AUTO 12001KT 8000 OVC023 22/20 A2989 RMK A02 TSNO
QEN,2020-09-16 11:30,128.7500,37.6667,60.80,64.40,M,260.00,7.00,0.00,M,M,3.73,M,BKN,OVC,M,M,300.00,1300.00,M,M,M,M,M,M,M,M,M,M,KQEN 161130Z AUTO 26007KT 6000 BKN003 OVC013 16/18 / RMK A02 TSNO
QES,2020-09-16 11:30,126.4500,36.9667,80.60,66.20,61.58,M,M,0.00,M,M,6.21,M,BKN,BKN,BKN,M,1100.00,2200.00,3400.00,M,M,M,M,M,M,M,M,M,KQES 161130Z AUTO 9999 BKN011 BKN022 BKN034 27/19 / RMK A02 TSNO
QEJ,2020-09-16 11:30,127.9500,38.2000,66.20,66.20,100.00,0.00,0.00,0.00,29.81,M,3.73,M,FEW,OVC,M,M,400.00,1700.00,M,M,M,M,M,M,M,M,M,M,KQEJ 161130Z AUTO 00000KT 6000 FEW004 OVC017 19/19 A2981 RMK A02 TSNO
QEI,2020-09-16 11:30,128.0667,37.9500,64.40,64.40,100.00,350.00,1.00,0.00,29.82,M,6.21,M,OVC,M,M,M,1900.00,M,M,M,M,M,M,M,M,M,M,M,KQEI 161130Z AUTO 35001KT 9999 OVC019 18/18 A2982 RMK A02 TSNO
QEQ,2020-09-16 11:30,127.5500,37.8500,69.80,71.60,M,210.00,3.00,0.00,29.85,M,6.21,M,BKN,M,M,M,1500.00,M,M,M,M,M,M,M,M,M,M,M,KQEQ 161130Z AUTO 21003KT 9999 BKN015 21/22 A2985 RMK A02 TSNO
QEW,2020-09-16 11:30,128.1500,36.4000,68.00,68.00,100.00,260.00,2.00,0.00,29.82,M,2.98,M,BKN,BKN,OVC,M,900.00,1700.00,2000.00,M,,M,M,M,M,M,M,M,KQEW 161130Z AUTO 26002KT 4800 // BKN009 BKN017 OVC020 20/20 A2982 RMK A02 TSNO
QEP,2020-09-16 11:30,127.2667,37.4000,69.80,66.20,88.34,120.00,1.00,0.00,29.85,M,6.21,M,OVC,M,M,M,2200.00,M,M,M,M,M,M,M,M,M,M,M,KQEP 161130Z AUTO 12001KT 9999 OVC022 21/19 A2985 RMK A02 TSNO
QFT,2020-09-16 11:30,127.3500,37.6000,69.80,66.20,88.34,170.00,2.00,0.00,29.81,M,M,M,FEW,OVC,M,M,1500.00,4000.00,M,M,,M,M,M,M,M,M,M,KQFT 161130Z AUTO 17002KT / // FEW015 OVC040 21/19 A2981 RMK A02 TSNO
QFU,2020-09-16 11:30,126.9667,37.8000,69.80,66.20,88.34,250.00,2.00,0.00,29.86,M,6.21,M,BKN,BKN,M,M,1900.00,5000.00,M,M,M,M,M,M,M,M,M,M,KQFU 161130Z AUTO 25002KT 9999 BKN019 BKN050 21/19 A2986 RMK A02 TSNO
QEX,2020-09-16 11:30,128.3000,36.1000,73.40,68.00,83.21,190.00,4.00,0.00,29.74,M,6.21,M,BKN,BKN,M,M,4200.00,6000.00,M,M,M,M,M,M,M,M,M,M,KQEX 161130Z AUTO 19004KT 9999 BKN042 BKN060 23/20 A2974 RMK A02 TSNO
QFW,2020-09-16 11:30,127.8833,37.6667,69.80,69.80,100.00,250.00,2.00,0.00,29.83,M,6.21,M,OVC,M,M,M,1500.00,M,M,M,M,M,M,M,M,M,M,M,KQFW 161130Z AUTO 25002KT 9999 OVC015 21/21 A2983 RMK A02 TSNO
QFV,2020-09-16 11:30,127.5000,38.0500,66.20,64.40,93.92,120.00,2.00,0.00,29.86,M,3.73,M,SCT,BKN,BKN,M,400.00,1300.00,3800.00,M,,M,M,M,M,M,M,M,KQFV 161130Z AUTO 12002KT 6000 // SCT004 BKN013 BKN038 19/18 A2986 RMK A02 TSNO
RKSI,2020-09-16 11:30,126.4500,37.4667,71.60,62.60,73.27,220.00,5.00,0.00,29.80,M,6.21,M,FEW,BKN,M,M,1500.00,2500.00,M,M,M,M,M,M,M,M,M,M,RKSI 161130Z 22005KT 9999 FEW015 BKN025 22/17 Q1009 NOSIG
RKTE,2020-09-16 11:33,127.5001,36.5682,69.80,68.00,94.01,220.00,1.00,0.00,29.79,M,2.98,M,BKN,OVC,M,M,1500.00,2500.00,M,M,-RA BR,M,M,M,M,M,M,M,RKTE 161133Z 22001KT 4800 -RA BR BKN015 OVC025 21/20 A2979 RMK CIG015
RKTU,2020-09-16 11:35,127.4991,36.7166,68.00,68.00,100.00,320.00,1.00,0.00,29.83,M,4.97,M,BKN,OVC,M,M,1500.00,2500.00,M,M,M,M,M,M,M,M,M,M,RKTU 161135Z 32001KT 8000 BKN015 OVC025 20/20 Q1010 RMK CIG015 WR24
RKTU,2020-09-16 11:37,127.4991,36.7166,68.00,68.00,100.00,320.00,1.00,0.00,29.83,M,4.97,M,BKN,OVC,M,M,1500.00,2500.00,M,M,BR,M,M,M,M,M,M,M,RKTU 161137Z 32001KT 8000 BR BKN015 OVC025 20/20 A2983 RMK CIG015 WR24
QFB,2020-09-16 11:40,128.7167,35.6500,71.60,69.80,94.06,140.00,2.00,0.00,29.89,M,4.97,M,OVC,M,M,M,3000.00,M,M,M,M,M,M,M,M,M,M,M,KQFB 161140Z AUTO 14002KT 8000 OVC030 22/21 A2989 RMK A02 TSNO
QEN,2020-09-16 11:40,128.7500,37.6667,60.80,64.40,M,250.00,7.00,0.00,M,M,4.97,13.00,BKN,BKN,M,M,200.00,1300.00,M,M,M,M,M,M,M,M,M,M,KQEN 161140Z AUTO 25007G13KT 8000 BKN002 BKN013 16/18 / RMK A02 TSNO
QES,2020-09-16 11:40,126.4500,36.9667,80.60,66.20,61.58,M,M,0.00,M,M,6.21,M,BKN,BKN,BKN,M,1100.00,2200.00,3500.00,M,M,M,M,M,M,M,M,M,KQES 161140Z AUTO 9999 BKN011 BKN022 BKN035 27/19 / RMK A02 TSNO
QEJ,2020-09-16 11:40,127.9500,38.2000,66.20,66.20,100.00,0.00,0.00,0.00,29.81,M,4.97,M,BKN,M,M,M,1700.00,M,M,M,M,M,M,M,M,M,M,M,KQEJ 161140Z AUTO 00000KT 8000 BKN017 19/19 A2981 RMK A02 TSNO
QEI,2020-09-16 11:40,128.0667,37.9500,66.20,66.20,100.00,160.00,1.00,0.00,29.82,M,6.21,M,OVC,M,M,M,1800.00,M,M,M,M,M,M,M,M,M,M,M,KQEI 161140Z AUTO 16001KT 9999 OVC018 19/19 A2982 RMK A02 TSNO
QEQ,2020-09-16 11:40,127.5500,37.8500,69.80,71.60,M,210.00,3.00,0.00,29.85,M,6.21,M,BKN,BKN,M,M,1500.00,5500.00,M,M,M,M,M,M,M,M,M,M,KQEQ 161140Z AUTO 21003KT 9999 BKN015 BKN055 21/22 A2985 RMK A02 TSNO
QEW,2020-09-16 11:40,128.1500,36.4000,68.00,66.20,93.97,280.00,1.00,0.00,29.83,M,3.73,M,OVC,M,M,M,900.00,M,M,M,,M,M,M,M,M,M,M,KQEW 161140Z AUTO 28001KT 6000 // OVC009 20/19 A2983 RMK A02 TSNO
QEP,2020-09-16 11:40,127.2667,37.4000,69.80,66.20,88.34,120.00,2.00,0.00,29.85,M,6.21,M,OVC,M,M,M,2300.00,M,M,M,M,M,M,M,M,M,M,M,KQEP 161140Z AUTO 12002KT 9999 OVC023 21/19 A2985 RMK A02 TSNO
QFT,2020-09-16 11:40,127.3500,37.6000,69.80,66.20,88.34,120.00,1.00,0.00,29.82,M,M,M,FEW,BKN,M,M,1500.00,3900.00,M,M,,M,M,M,M,M,M,M,KQFT 161140Z AUTO 12001KT / // FEW015 BKN039 21/19 A2982 RMK A02 TSNO
QFU,2020-09-16 11:40,126.9667,37.8000,71.60,66.20,83.09,240.00,1.00,0.00,29.86,M,6.21,M,BKN,OVC,M,M,1700.00,5000.00,M,M,M,M,M,M,M,M,M,M,KQFU 161140Z AUTO 24001KT 9999 BKN017 OVC050 22/19 A2986 RMK A02 TSNO
QEX,2020-09-16 11:40,128.3000,36.1000,73.40,68.00,83.21,180.00,3.00,0.00,29.75,M,6.21,M,SCT,BKN,M,M,4400.00,5500.00,M,M,M,M,M,M,M,M,M,M,KQEX 161140Z AUTO 18003KT 9999 SCT044 BKN055 23/20 A2975 RMK A02 TSNO
QFW,2020-09-16 11:40,127.8833,37.6667,69.80,69.80,100.00,190.00,1.00,0.00,29.84,M,6.21,M,OVC,M,M,M,1800.00,M,M,M,M,M,M,M,M,M,M,M,KQFW 161140Z AUTO 19001KT 9999 OVC018 21/21 A2984 RMK A02 TSNO
QFV,2020-09-16 11:40,127.5000,38.0500,66.20,64.40,93.92,110.00,1.00,0.00,29.86,M,3.73,M,BKN,BKN,BKN,M,500.00,2600.00,3800.00,M,,M,M,M,M,M,M,M,KQFV 161140Z AUTO 11001KT 6000 // BKN005 BKN026 BKN038 19/18 A2986 RMK A02 TSNO
RKTU,2020-09-16 11:43,127.4991,36.7166,M,M,M,M,M,0.00,M,M,M,M,M,M,M,M,M,M,M,M,M,M,M,M,M,M,M,M,RKTU 161143Z 16SPECI
RKJK,2020-09-16 11:46,126.6220,35.8994,71.60,69.80,94.06,230.00,5.00,0.00,29.81,1009.90,10.00,M,SCT,M,M,M,600.00,M,M,M,M,M,M,M,M,M,M,M,RKJK 161146Z 23005KT 10SM SCT006 22/21 A2981 RMK AO2A SLP099 $
QFB,2020-09-16 11:50,128.7167,35.6500,71.60,68.00,88.43,0.00,0.00,0.00,29.89,M,5.59,M,FEW,OVC,M,M,3000.00,4500.00,M,M,M,M,M,M,M,M,M,M,KQFB 161150Z AUTO 00000KT 9000 FEW030 OVC045 22/20 A2989 RMK A02 TSNO
QEN,2020-09-16 11:50,128.7500,37.6667,60.80,64.40,M,250.00,6.00,0.00,M,M,6.21,M,SCT,SCT,BKN,M,200.00,1300.00,1400.00,M,M,M,M,M,M,M,M,M,KQEN 161150Z AUTO 25006KT 9999 SCT002 SCT013 BKN014 16/18 / RMK A02 TSNO
QES,2020-09-16 11:50,126.4500,36.9667,80.60,66.20,61.58,M,M,0.00,M,M,6.21,M,BKN,OVC,M,M,1000.00,3400.00,M,M,M,M,M,M,M,M,M,M,KQES 161150Z AUTO 9999 BKN010 OVC034 27/19 / RMK A02 TSNO
QEJ,2020-09-16 11:50,127.9500,38.2000,66.20,66.20,100.00,310.00,1.00,0.00,29.82,M,3.73,M,FEW,BKN,M,M,400.00,2000.00,M,M,M,M,M,M,M,M,M,M,KQEJ 161150Z AUTO 31001KT 6000 FEW004 BKN020 19/19 A2982 RMK A02 TSNO
QEI,2020-09-16 11:50,128.0667,37.9500,66.20,66.20,100.00,220.00,1.00,0.00,29.83,M,6.21,M,OVC,M,M,M,1800.00,M,M,M,M,M,M,M,M,M,M,M,KQEI 161150Z AUTO 22001KT 9999 OVC018 19/19 A2983 RMK A02 TSNO
QEQ,2020-09-16 11:50,127.5500,37.8500,69.80,71.60,M,220.00,4.00,0.00,29.85,M,4.97,M,SCT,M,M,M,1500.00,M,M,M,M,M,M,M,M,M,M,M,KQEQ 161150Z AUTO 22004KT 8000 SCT015 21/22 A2985 RMK A02 TSNO
QEW,2020-09-16 11:50,128.1500,36.4000,68.00,66.20,93.97,290.00,1.00,0.00,29.83,M,3.73,M,OVC,M,M,M,900.00,M,M,M,,M,M,M,M,M,M,M,KQEW 161150Z AUTO 29001KT 6000 // OVC009 20/19 A2983 RMK A02 TSNO
QEP,2020-09-16 11:50,127.2667,37.4000,69.80,66.20,88.34,130.00,3.00,0.00,29.85,M,6.21,M,OVC,M,M,M,2300.00,M,M,M,M,M,M,M,M,M,M,M,KQEP 161150Z AUTO 13003KT 9999 OVC023 21/19 A2985 RMK A02 TSNO
QFT,2020-09-16 11:50,127.3500,37.6000,69.80,66.20,88.34,180.00,1.00,0.00,29.82,M,M,M,SCT,BKN,M,M,1400.00,3900.00,M,M,,M,M,M,M,M,M,M,KQFT 161150Z AUTO 18001KT / // SCT014 BKN039 21/19 A2982 RMK A02 TSNO
QFU,2020-09-16 11:50,126.9667,37.8000,69.80,66.20,88.34,210.00,1.00,0.00,29.86,M,6.21,M,BKN,BKN,M,M,1700.00,4000.00,M,M,M,M,M,M,M,M,M,M,KQFU 161150Z AUTO 21001KT 9999 BKN017 BKN040 21/19 A2986 RMK A02 TSNO
QEX,2020-09-16 11:50,128.3000,36.1000,73.40,68.00,83.21,180.00,2.00,0.00,29.76,M,6.21,M,BKN,M,M,M,4500.00,M,M,M,M,M,M,M,M,M,M,M,KQEX 161150Z AUTO 18002KT 9999 BKN045 23/20 A2976 RMK A02 TSNO
QFW,2020-09-16 11:50,127.8833,37.6667,69.80,69.80,100.00,230.00,2.00,0.00,29.84,M,6.21,M,OVC,M,M,M,1800.00,M,M,M,M,M,M,M,M,M,M,M,KQFW 161150Z AUTO 23002KT 9999 OVC018 21/21 A2984 RMK A02 TSNO
QFV,2020-09-16 11:50,127.5000,38.0500,64.40,64.40,100.00,120.00,2.00,0.00,29.87,M,3.73,M,BKN,BKN,BKN,M,400.00,2600.00,3900.00,M,,M,M,M,M,M,M,M,KQFV 161150Z AUTO 12002KT 6000 // BKN004 BKN026 BKN039 18/18 A2987 RMK A02 TSNO
RKJK,2020-09-16 11:56,126.6220,35.8994,72.00,70.30,94.39,240.00,4.00,0.00,29.81,1009.90,10.00,M,BKN,M,M,M,600.00,M,M,M,M,M,M,M,M,M,M,M,RKJK 161156Z 24004KT 10SM BKN006 22/21 A2981 RMK AO2A BKN V SCT SLP099 60005 T02220213 10225 20220 53013 $
RKSG,2020-09-16 11:56,127.0311,36.9622,68.90,66.00,90.48,30.00,1.00,0.00,29.83,1010.20,4.00,M,OVC,M,M,M,1500.00,M,M,M,BR,M,M,M,M,M,M,M,RKSG 161156Z 03001KT 4SM BR OVC015 21/19 A2983 RMK AO2A SLP102 60000 T02050189 10249 20201 53013 $
RKSO,2020-09-16 11:58,127.0296,37.0906,69.10,68.90,99.32,0.00,0.00,0.00,29.81,1009.70,7.00,M,OVC,M,M,M,2200.00,M,M,M,M,M,M,M,M,M,M,M,RKSO 161158Z 00000KT 7SM OVC022 21/21 A2981 RMK AO2A SLP097 60018 T02060205 10209 20204 53014 $
RKSY,2020-09-16 11:58,126.9753,37.5241,72.30,66.40,81.71,0.00,0.00,0.00,29.81,1009.80,6.21,M,OVC,M,M,M,1700.00,M,M,M,M,M,M,M,M,M,M,M,RKSY 161158Z AUTO 00000KT 9999 OVC017 22/19 A2981 RMK AO2 SLP098 60000 T02240191 10239 20222 52020
RKPS,2020-09-16 12:00,128.0704,35.0885,73.40,69.80,88.51,100.00,2.00,0.00,29.83,1010.70,6.21,M,BKN,BKN,M,M,1000.00,5000.00,M,M,M,M,M,M,M,M,M,M,RKPS 161200Z 10002KT 9999 BKN010 BKN050 23/21 Q1010 RMK CIG010 SLP107 8/600 9/700
RKJB,2020-09-16 12:00,126.3800,34.9800,73.40,73.40,100.00,280.00,3.00,0.00,29.83,M,6.21,M,FEW,BKN,M,M,1000.00,2500.00,M,M,M,M,M,M,M,M,M,M,RKJB 161200Z 28003KT 220V340 9999 FEW010 BKN025 23/23 Q1010 NOSIG
RKJJ,2020-09-16 12:00,126.8089,35.1264,73.40,73.40,100.00,250.00,3.00,0.00,29.83,1010.20,6.21,M,SCT,BKN,M,M,2000.00,3000.00,M,M,M,M,M,M,M,M,M,M,RKJJ 161200Z 25003KT 9999 SCT020 BKN030 23/23 Q1010 RMK CIG030 SLP102 60001 8/500 9/700
RKPC,2020-09-16 12:00,126.4930,33.5113,75.20,73.40,94.14,280.00,5.00,0.00,29.85,M,6.21,M,SCT,BKN,BKN,M,1000.00,3000.00,12000.00,M,M,M,M,M,M,M,M,M,RKPC 161200Z 28005KT 260V320 9999 SCT010 BKN030 BKN120 24/23 Q1011 NOSIG
RKNY,2020-09-16 12:00,128.6692,38.0613,66.20,66.20,100.00,250.00,4.00,0.00,29.77,M,1.06,M,NCD,M,M,M,M,M,M,M,BR,M,M,M,M,M,M,M,RKNY 161200Z AUTO 25004KT 1700 BR NCD 19/19 Q1008
RKSM,2020-09-16 12:00,127.1139,37.4458,71.60,66.20,83.09,250.00,4.00,0.00,29.84,M,6.21,M,BKN,M,M,M,4000.00,M,M,M,M,M,M,M,M,M,M,M,RKSM 161200Z 25004KT 9999 BKN040 22/19 A2984
QFB,2020-09-16 12:00,128.7167,35.6500,71.60,68.00,88.43,140.00,1.00,0.00,29.89,M,5.59,M,BKN,BKN,M,M,4400.00,8000.00,M,M,M,M,M,M,M,M,M,M,KQFB 161200Z AUTO 14001KT 9000 BKN044 BKN080 22/20 A2989 RMK A02 TSNO
RKSS,2020-09-16 12:00,126.7906,37.5583,69.80,68.00,94.01,190.00,4.00,0.00,29.83,M,6.21,M,FEW,BKN,M,M,1500.00,3000.00,M,M,M,M,M,M,M,M,M,M,RKSS 161200Z 19004KT 160V230 9999 FEW015 BKN030 21/20 Q1010 NOSIG
RKTH,2020-09-16 12:00,129.4205,35.9879,71.60,71.60,100.00,160.00,2.00,0.00,29.80,1009.70,5.59,M,SCT,BKN,M,M,3000.00,10000.00,M,M,M,M,M,M,M,M,M,M,RKTH 161200Z 16002KT 9000 SCT030 BKN100 22/22 Q1009 RMK CIG100 SLP097 8/510 9/330
RKTN,2020-09-16 12:00,128.6589,35.8941,73.40,68.00,83.21,360.00,2.00,0.00,29.83,M,6.21,M,BKN,BKN,M,M,2000.00,3000.00,M,M,M,M,M,M,M,M,M,M,RKTN 161200Z 36002KT 9999 BKN020 BKN030 23/20 Q1010
RKTU,2020-09-16 12:00,127.4991,36.7166,68.00,68.00,100.00,330.00,2.00,0.00,29.83,M,4.97,M,BKN,OVC,M,M,1500.00,2500.00,M,M,M,M,M,M,M,M,M,M,RKTU 161200Z 33002KT 8000 BKN015 OVC025 20/20 Q1010
QEN,2020-09-16 12:00,128.7500,37.6667,60.80,64.40,M,250.00,7.00,0.00,M,M,6.21,13.00,SCT,BKN,M,M,200.00,1400.00,M,M,M,M,M,M,M,M,M,M,KQEN 161200Z AUTO 25007G13KT 9999 SCT002 BKN014 16/18 / RMK A02 TSNO
QES,2020-09-16 12:00,126.4500,36.9667,80.60,66.20,61.58,M,M,0.00,M,M,5.59,M,OVC,M,M,M,1000.00,M,M,M,M,M,M,M,M,M,M,M,KQES 161200Z AUTO 9000 OVC010 27/19 / RMK A02 TSNO
QEJ,2020-09-16 12:00,127.9500,38.2000,66.20,66.20,100.00,110.00,1.00,0.00,29.82,M,4.97,M,SCT,BKN,M,M,1800.00,3200.00,M,M,M,M,M,M,M,M,M,M,KQEJ 161200Z AUTO 11001KT 8000 SCT018 BKN032 19/19 A2982 RMK A02 TSNO
QEI,2020-09-16 12:00,128.0667,37.9500,66.20,66.20,100.00,30.00,1.00,0.00,29.83,M,6.21,M,OVC,M,M,M,1700.00,M,M,M,M,M,M,M,M,M,M,M,KQEI 161200Z AUTO 03001KT 9999 OVC017 19/19 A2983 RMK A02 TSNO
QEQ,2020-09-16 12:00,127.5500,37.8500,69.80,71.60,M,230.00,3.00,0.00,29.86,M,6.21,M,FEW,SCT,M,M,2500.00,3000.00,M,M,M,M,M,M,M,M,M,M,KQEQ 161200Z AUTO 23003KT 9999 FEW025 SCT030 21/22 A2986 RMK A02 TSNO
QEW,2020-09-16 12:00,128.1500,36.4000,68.00,66.20,93.97,290.00,1.00,0.00,29.83,M,3.73,M,OVC,M,M,M,1000.00,M,M,M,,M,M,M,M,M,M,M,KQEW 161200Z AUTO 29001KT 6000 // OVC010 20/19 A2983 RMK A02 TSNO
QEP,2020-09-16 12:00,127.2667,37.4000,69.80,66.20,88.34,130.00,3.00,0.00,29.86,M,6.21,M,OVC,M,M,M,2300.00,M,M,M,M,M,M,M,M,M,M,M,KQEP 161200Z AUTO 13003KT 9999 OVC023 21/19 A2986 RMK A02 TSNO
RKPK,2020-09-16 12:00,128.9382,35.1795,73.40,69.80,88.51,180.00,3.00,0.00,29.83,M,6.21,M,FEW,SCT,BKN,M,2000.00,2500.00,4000.00,M,M,M,M,M,M,M,M,M,RKPK 161200Z 18003KT 9999 FEW020 SCT025 BKN040 23/21 Q1010
QFT,2020-09-16 12:00,127.3500,37.6000,69.80,66.20,88.34,170.00,1.00,0.00,29.82,M,M,M,BKN,BKN,M,M,1400.00,3900.00,M,M,,M,M,M,M,M,M,M,KQFT 161200Z AUTO 17001KT / // BKN014 BKN039 21/19 A2982 RMK A02 TSNO
QFU,2020-09-16 12:00,126.9667,37.8000,69.80,66.20,88.34,240.00,2.00,0.00,29.87,M,6.21,M,SCT,BKN,M,M,1700.00,4100.00,M,M,M,M,M,M,M,M,M,M,KQFU 161200Z AUTO 24002KT 9999 SCT017 BKN041 21/19 A2987 RMK A02 TSNO
QEX,2020-09-16 12:00,128.3000,36.1000,73.40,68.00,83.21,180.00,3.00,0.00,29.75,M,6.21,M,FEW,BKN,M,M,1800.00,4600.00,M,M,M,M,M,M,M,M,M,M,KQEX 161200Z AUTO 18003KT 9999 FEW018 BKN046 23/20 A2975 RMK A02 TSNO
QFW,2020-09-16 12:00,127.8833,37.6667,69.80,69.80,100.00,230.00,2.00,0.00,29.85,M,6.21,M,OVC,M,M,M,1800.00,M,M,M,M,M,M,M,M,M,M,M,KQFW 161200Z AUTO 23002KT 9999 OVC018 21/21 A2985 RMK A02 TSNO
QFV,2020-09-16 12:00,127.5000,38.0500,66.20,64.40,93.92,130.00,1.00,0.00,29.87,M,3.73,M,BKN,M,M,M,300.00,M,M,M,,M,M,M,M,M,M,M,KQFV 161200Z AUTO 13001KT 6000 // BKN003 19/18 A2987 RMK A02 TSNO
RKSI,2020-09-16 12:00,126.4500,37.4667,71.60,62.60,73.27,200.00,5.00,0.00,29.80,M,6.21,M,FEW,BKN,M,M,1500.00,2500.00,M,M,M,M,M,M,M,M,M,M,RKSI 161200Z 20005KT 9999 FEW015 BKN025 22/17 Q1009 NOSIG
RKSP,2020-09-16 12:02,124.6667,37.9667,68.00,68.00,100.00,260.00,8.00,0.00,29.84,M,6.21,M,FEW,BKN,M,M,4500.00,6000.00,M,M,M,M,M,M,M,M,M,M,RKSP 161202Z 26008KT 9999 FEW045CB BKN060 20/20 A2984 RMK CIG060
QFB,2020-09-16 12:10,128.7167,35.6500,71.60,68.00,88.43,270.00,1.00,0.00,29.89,M,4.97,M,BKN,BKN,M,M,4400.00,8000.00,M,M,M,M,M,M,M,M,M,M,KQFB 161210Z AUTO 27001KT 8000 BKN044 BKN080 22/20 A2989 RMK A02 TSNO
QEN,2020-09-16 12:10,128.7500,37.6667,60.80,64.40,M,250.00,8.00,0.00,M,M,4.97,14.00,BKN,BKN,M,M,200.00,1400.00,M,M,M,M,M,M,M,M,M,M,KQEN 161210Z AUTO 25008G14KT 8000 BKN002 BKN014 16/18 / RMK A02 TSNO
QES,2020-09-16 12:10,126.4500,36.9667,80.60,66.20,61.58,M,M,0.00,M,M,5.59,M,OVC,M,M,M,1000.00,M,M,M,M,M,M,M,M,M,M,M,KQES 161210Z AUTO 9000 OVC010 27/19 / RMK A02 TSNO
QEJ,2020-09-16 12:10,127.9500,38.2000,66.20,66.20,100.00,130.00,1.00,0.00,29.83,M,2.98,M,BKN,BKN,M,M,1600.00,3200.00,M,M,M,M,M,M,M,M,M,M,KQEJ 161210Z AUTO 13001KT 4800 BKN016 BKN032 19/19 A2983 RMK A02 TSNO
QEI,2020-09-16 12:10,128.0667,37.9500,66.20,66.20,100.00,160.00,1.00,0.00,29.84,M,6.21,M,OVC,M,M,M,1600.00,M,M,M,M,M,M,M,M,M,M,M,KQEI 161210Z AUTO 16001KT 9999 OVC016 19/19 A2984 RMK A02 TSNO
QEQ,2020-09-16 12:10,127.5500,37.8500,69.80,71.60,M,230.00,2.00,0.00,29.86,M,6.21,M,SCT,SCT,M,M,1100.00,2800.00,M,M,M,M,M,M,M,M,M,M,KQEQ 161210Z AUTO 23002KT 9999 SCT011 SCT028 21/22 A2986 RMK A02 TSNO
QEW,2020-09-16 12:10,128.1500,36.4000,68.00,68.00,100.00,280.00,1.00,0.00,29.83,M,3.73,M,OVC,M,M,M,900.00,M,M,M,,M,M,M,M,M,M,M,KQEW 161210Z AUTO 28001KT 6000 // OVC009 20/20 A2983 RMK A02 TSNO
QEP,2020-09-16 12:10,127.2667,37.4000,69.80,66.20,88.34,110.00,2.00,0.00,29.85,M,6.21,M,OVC,M,M,M,2400.00,M,M,M,M,M,M,M,M,M,M,M,KQEP 161210Z AUTO 11002KT 9999 OVC024 21/19 A2985 RMK A02 TSNO
RKPK,2020-09-16 12:10,128.9382,35.1795,73.40,69.80,88.51,180.00,2.00,0.00,29.83,M,6.21,M,FEW,SCT,BKN,M,2000.00,2500.00,4000.00,M,-RA,M,M,M,M,M,M,M,RKPK 161210Z 18002KT 9999 -RA FEW020 SCT025 BKN040 23/21 Q1010 RMK CIG040
QFT,2020-09-16 12:10,127.3500,37.6000,69.80,66.20,88.34,170.00,1.00,0.00,29.82,M,M,M,BKN,BKN,BKN,M,1300.00,2200.00,4000.00,M,,M,M,M,M,M,M,M,KQFT 161210Z AUTO 17001KT / // BKN013 BKN022 BKN040 21/19 A2982 RMK A02 TSNO
QFU,2020-09-16 12:10,126.9667,37.8000,69.80,66.20,88.34,240.00,1.00,0.00,29.88,M,6.21,M,BKN,BKN,BKN,M,1600.00,4100.00,5500.00,M,M,M,M,M,M,M,M,M,KQFU 161210Z AUTO 24001KT 9999 BKN016 BKN041 BKN055 21/19 A2988 RMK A02 TSNO
QEX,2020-09-16 12:10,128.3000,36.1000,71.60,68.00,88.43,200.00,3.00,0.00,29.75,M,6.21,M,BKN,OVC,M,M,4700.00,6500.00,M,M,M,M,M,M,M,M,M,M,KQEX 161210Z AUTO 20003KT 9999 BKN047 OVC065 22/20 A2975 RMK A02 TSNO
QFW,2020-09-16 12:10,127.8833,37.6667,69.80,69.80,100.00,200.00,1.00,0.00,29.85,M,6.21,M,BKN,BKN,BKN,M,1800.00,5500.00,6500.00,M,M,M,M,M,M,M,M,M,KQFW 161210Z AUTO 20001KT 9999 BKN018 BKN055 BKN065 21/21 A2985 RMK A02 TSNO
QFV,2020-09-16 12:10,127.5000,38.0500,64.40,64.40,100.00,50.00,1.00,0.00,29.88,M,3.73,M,OVC,M,M,M,300.00,M,M,M,,M,M,M,M,M,M,M,KQFV 161210Z AUTO 05001KT 6000 // OVC003 18/18 A2988 RMK A02 TSNO
RKSY,2020-09-16 12:13,126.9753,37.5241,71.60,66.20,83.09,0.00,0.00,0.00,29.81,1009.80,6.21,M,SCT,OVC,M,M,1600.00,3600.00,M,M,M,M,M,M,M,M,M,M,RKSY 161213Z AUTO 00000KT 9999 SCT016 OVC036 22/19 A2981 RMK AO2 SLP098
RKSP,2020-09-16 12:14,124.6667,37.9667,68.00,68.00,100.00,260.00,8.00,0.00,29.84,M,6.21,M,SCT,BKN,M,M,4000.00,6000.00,M,M,-RA,M,M,M,M,M,M,M,RKSP 161214Z 26008KT 9999 -RA SCT040CB BKN060 20/20 A2984 RMK CIG060 CB W
RKPK,2020-09-16 12:15,128.9382,35.1795,M,M,M,M,M,0.00,M,M,M,M,M,M,M,M,M,M,M,M,M,M,M,M,M,M,M,M,RKPK 161215Z 16SPECI
RKJK,2020-09-16 12:16,126.6220,35.8994,71.60,69.80,94.06,240.00,4.00,0.00,29.81,1009.90,10.00,M,BKN,BKN,M,M,700.00,1300.00,M,M,M,M,M,M,M,M,M,M,RKJK 161216Z 24004KT 10SM BKN007 BKN013 22/21 A2981 RMK AO2A CIG 006V013 SLP099 $
QFB,2020-09-16 12:20,128.7167,35.6500,71.60,68.00,88.43,250.00,2.00,0.00,29.89,M,6.21,M,SCT,BKN,M,M,4400.00,8000.00,M,M,M,M,M,M,M,M,M,M,KQFB 161220Z AUTO 25002KT 9999 SCT044 BKN080 22/20 A2989 RMK A02 TSNO
QEN,2020-09-16 12:20,128.7500,37.6667,60.80,64.40,M,250.00,8.00,0.00,M,M,3.73,14.00,BKN,BKN,M,M,200.00,1400.00,M,M,M,M,M,M,M,M,M,M,KQEN 161220Z AUTO 25008G14KT 6000 BKN002 BKN014 16/18 / RMK A02 TSNO
QES,2020-09-16 12:20,126.4500,36.9667,80.60,66.20,61.58,M,M,0.00,M,M,4.97,M,BKN,BKN,M,M,1000.00,3300.00,M,M,M,M,M,M,M,M,M,M,KQES 161220Z AUTO 8000 BKN010 BKN033 27/19 / RMK A02 TSNO
QEJ,2020-09-16 12:20,127.9500,38.2000,66.20,66.20,100.00,130.00,1.00,0.00,29.83,M,3.73,M,OVC,M,M,M,1600.00,M,M,M,M,M,M,M,M,M,M,M,KQEJ 161220Z AUTO 13001KT 6000 OVC016 19/19 A2983 RMK A02 TSNO
QEI,2020-09-16 12:20,128.0667,37.9500,66.20,66.20,100.00,30.00,1.00,0.00,29.84,M,6.21,M,OVC,M,M,M,1500.00,M,M,M,M,M,M,M,M,M,M,M,KQEI 161220Z AUTO 03001KT 9999 OVC015 19/19 A2984 RMK A02 TSNO
QEQ,2020-09-16 12:20,127.5500,37.8500,69.80,71.60,M,220.00,1.00,0.00,29.85,M,6.21,M,BKN,M,M,M,1000.00,M,M,M,M,M,M,M,M,M,M,M,KQEQ 161220Z AUTO 22001KT 9999 BKN010 21/22 A2985 RMK A02 TSNO
QEW,2020-09-16 12:20,128.1500,36.4000,68.00,68.00,100.00,270.00,1.00,0.00,29.84,M,3.73,M,BKN,OVC,M,M,900.00,1500.00,M,M,,M,M,M,M,M,M,M,KQEW 161220Z AUTO 27001KT 6000 // BKN009 OVC015 20/20 A2984 RMK A02 TSNO
QEP,2020-09-16 12:20,127.2667,37.4000,69.80,66.20,88.34,130.00,3.00,0.00,29.85,M,6.21,M,OVC,M,M,M,2500.00,M,M,M,M,M,M,M,M,M,M,M,KQEP 161220Z AUTO 13003KT 9999 OVC025 21/19 A2985 RMK A02 TSNO
QFT,2020-09-16 12:20,127.3500,37.6000,69.80,66.20,88.34,120.00,1.00,0.00,29.82,M,M,M,BKN,BKN,M,M,1300.00,4000.00,M,M,,M,M,M,M,M,M,M,KQFT 161220Z AUTO 12001KT / // BKN013 BKN040 21/19 A2982 RMK A02 TSNO
QFU,2020-09-16 12:20,126.9667,37.8000,69.80,66.20,88.34,140.00,1.00,0.00,29.87,M,6.21,M,BKN,BKN,M,M,1500.00,4400.00,M,M,M,M,M,M,M,M,M,M,KQFU 161220Z AUTO 14001KT 9999 BKN015 BKN044 21/19 A2987 RMK A02 TSNO
QEX,2020-09-16 12:20,128.3000,36.1000,71.60,68.00,88.43,190.00,3.00,0.00,29.76,M,6.21,M,BKN,OVC,M,M,4500.00,6500.00,M,M,M,M,M,M,M,M,M,M,KQEX 161220Z AUTO 19003KT 9999 BKN045 OVC065 22/20 A2976 RMK A02 TSNO
QFW,2020-09-16 12:20,127.8833,37.6667,69.80,69.80,100.00,210.00,1.00,0.00,29.85,M,6.21,M,SCT,BKN,M,M,1800.00,6000.00,M,M,M,M,M,M,M,M,M,M,KQFW 161220Z AUTO 21001KT 9999 SCT018 BKN060 21/21 A2985 RMK A02 TSNO
QFV,2020-09-16 12:20,127.5000,38.0500,64.40,64.40,100.00,100.00,1.00,0.00,29.88,M,3.73,M,OVC,M,M,M,300.00,M,M,M,,M,M,M,M,M,M,M,KQFV 161220Z AUTO 10001KT 6000 // OVC003 18/18 A2988 RMK A02 TSNO
RKPK,2020-09-16 12:23,128.9382,35.1795,73.40,69.80,88.51,360.00,1.00,0.00,29.83,M,6.21,M,FEW,SCT,BKN,M,2000.00,2500.00,4000.00,M,M,M,M,M,M,M,M,M,RKPK 161223Z 36001KT 9999 FEW020 SCT025 BKN040 23/21 Q1010 RMK CIG040
RKPK,2020-09-16 12:25,128.9382,35.1795,73.40,69.80,88.51,360.00,1.00,0.00,29.83,M,6.21,M,FEW,SCT,BKN,M,2000.00,2500.00,4000.00,M,M,M,M,M,M,M,M,M,RKPK 161225Z 36001KT 9999 FEW020 SCT025 BKN040 23/21 A2983 RMK CIG040
RKSO,2020-09-16 12:28,127.0296,37.0906,69.80,68.00,94.01,0.00,0.00,0.00,29.82,1010.10,7.00,M,OVC,M,M,M,3400.00,M,M,M,M,M,M,M,M,M,M,M,RKSO 161228Z 00000KT 7SM OVC034 21/20 A2982 RMK AO2A SLP101
QFB,2020-09-16 12:30,128.7167,35.6500,71.60,68.00,88.43,260.00,2.00,0.00,29.90,M,6.21,M,SCT,BKN,M,M,5000.00,8000.00,M,M,M,M,M,M,M,M,M,M,KQFB 161230Z AUTO 26002KT 9999 SCT050 BKN080 22/20 A2990 RMK A02 TSNO
QEN,2020-09-16 12:30,128.7500,37.6667,60.80,64.40,M,260.00,8.00,0.00,M,M,3.73,15.00,BKN,M,M,M,200.00,M,M,M,M,M,M,M,M,M,M,M,KQEN 161230Z AUTO 26008G15KT 6000 BKN002 16/18 / RMK A02 TSNO
QES,2020-09-16 12:30,126.4500,36.9667,80.60,66.20,61.58,M,M,0.00,M,M,4.97,M,SCT,BKN,M,M,1100.00,3300.00,M,M,M,M,M,M,M,M,M,M,KQES 161230Z AUTO 8000 SCT011 BKN033 27/19 / RMK A02 TSNO
QEJ,2020-09-16 12:30,127.9500,38.2000,66.20,66.20,100.00,0.00,0.00,0.00,29.83,M,4.97,M,BKN,M,M,M,1600.00,M,M,M,M,M,M,M,M,M,M,M,KQEJ 161230Z AUTO 00000KT 8000 BKN016 19/19 A2983 RMK A02 TSNO
QEI,2020-09-16 12:30,128.0667,37.9500,66.20,66.20,100.00,40.00,2.00,0.00,29.84,M,6.21,M,OVC,M,M,M,1400.00,M,M,M,M,M,M,M,M,M,M,M,KQEI 161230Z AUTO 04002KT 9999 OVC014 19/19 A2984 RMK A02 TSNO
QEQ,2020-09-16 12:30,127.5500,37.8500,69.80,71.60,M,180.00,1.00,0.00,29.85,M,6.21,M,BKN,M,M,M,1000.00,M,M,M,M,M,M,M,M,M,M,M,KQEQ 161230Z AUTO 18001KT 9999 BKN010 21/22 A2985 RMK A02 TSNO
QEW,2020-09-16 12:30,128.1500,36.4000,68.00,68.00,100.00,270.00,1.00,0.00,29.84,M,3.73,M,BKN,OVC,M,M,800.00,1600.00,M,M,,M,M,M,M,M,M,M,KQEW 161230Z AUTO 27001KT 6000 // BKN008 OVC016 20/20 A2984 RMK A02 TSNO
QEP,2020-09-16 12:30,127.2667,37.4000,69.80,66.20,88.34,130.00,3.00,0.00,29.85,M,6.21,M,OVC,M,M,M,3000.00,M,M,M,M,M,M,M,M,M,M,M,KQEP 161230Z AUTO 13003KT 9999 OVC030 21/19 A2985 RMK A02 TSNO
QFT,2020-09-16 12:30,127.3500,37.6000,69.80,66.20,88.34,0.00,0.00,0.00,29.82,M,M,M,OVC,M,M,M,1300.00,M,M,M,,M,M,M,M,M,M,M,KQFT 161230Z AUTO 00000KT / // OVC013 21/19 A2982 RMK A02 TSNO
QFU,2020-09-16 12:30,126.9667,37.8000,69.80,66.20,88.34,160.00,1.00,0.00,29.87,M,6.21,M,BKN,BKN,M,M,1500.00,3300.00,M,M,M,M,M,M,M,M,M,M,KQFU 161230Z AUTO 16001KT 9999 BKN015 BKN033 21/19 A2987 RMK A02 TSNO
QEX,2020-09-16 12:30,128.3000,36.1000,71.60,68.00,88.43,190.00,3.00,0.00,29.76,M,6.21,M,BKN,OVC,M,M,4400.00,6500.00,M,M,M,M,M,M,M,M,M,M,KQEX 161230Z AUTO 19003KT 9999 BKN044 OVC065 22/20 A2976 RMK A02 TSNO
QFW,2020-09-16 12:30,127.8833,37.6667,68.00,69.80,M,200.00,1.00,0.00,29.85,M,6.21,M,SCT,BKN,M,M,2700.00,5500.00,M,M,M,M,M,M,M,M,M,M,KQFW 161230Z AUTO 20001KT 9999 SCT027 BKN055 20/21 A2985 RMK A02 TSNO
QFV,2020-09-16 12:30,127.5000,38.0500,64.40,64.40,100.00,70.00,1.00,0.00,29.88,M,3.73,M,OVC,M,M,M,400.00,M,M,M,,M,M,M,M,M,M,M,KQFV 161230Z AUTO 07001KT 6000 // OVC004 18/18 A2988 RMK A02 TSNO
RKSI,2020-09-16 12:30,126.4500,37.4667,69.80,62.60,77.90,180.00,6.00,0.00,29.80,M,6.21,M,FEW,BKN,M,M,1500.00,2500.00,M,M,M,M,M,M,M,M,M,M,RKSI 161230Z 18006KT 9999 FEW015 BKN025 21/17 Q1009 NOSIG
RKSO,2020-09-16 12:32,127.0296,37.0906,69.80,68.00,94.01,0.00,0.00,0.00,29.82,1010.10,7.00,M,FEW,OVC,M,M,1000.00,3400.00,M,M,M,M,M,M,M,M,M,M,RKSO 161232Z 00000KT 7SM FEW010 OVC034 21/20 A2982 RMK AO2A SLP101
RKPK,2020-09-16 12:32,128.9382,35.1795,M,M,M,M,M,0.00,M,M,M,M,M,M,M,M,M,M,M,M,M,M,M,M,M,M,M,M,RKPK 161232Z 16SPECI
RKTE,2020-09-16 12:35,127.5001,36.5682,69.80,68.00,94.01,340.00,1.00,0.00,29.80,M,2.98,M,FEW,BKN,OVC,M,500.00,1000.00,2000.00,M,-RA BR,M,M,M,M,M,M,M,RKTE 161235Z 34001KT 4800 -RA BR FEW005 BKN010 OVC020 21/20 A2980 RMK CIG010
RKJK,2020-09-16 12:36,126.6220,35.8994,71.60,69.80,94.06,230.00,3.00,0.00,29.82,1010.20,10.00,M,BKN,OVC,M,M,600.00,1300.00,M,M,M,M,M,M,M,M,M,M,RKJK 161236Z AUTO 23003KT 10SM BKN006 OVC013 22/21 A2982 RMK AO2 SLP102 $
RKPK,2020-09-16 12:36,128.9382,35.1795,73.40,69.80,88.51,360.00,1.00,0.00,29.83,M,6.21,M,FEW,SCT,BKN,M,2000.00,2500.00,4000.00,M,-RA,M,M,M,M,M,M,M,RKPK 161236Z 36001KT 9999 -RA FEW020 SCT025 BKN040 23/21 Q1010 RMK CIG040
RKPK,2020-09-16 12:37,128.9382,35.1795,73.40,69.80,88.51,360.00,1.00,0.00,29.83,M,6.21,M,FEW,SCT,BKN,M,2000.00,2500.00,4000.00,M,-RA,M,M,M,M,M,M,M,RKPK 161237Z 36001KT 9999 -RA FEW020 SCT025 BKN040 23/21 A2983 RMK CIG040
QFB,2020-09-16 12:40,128.7167,35.6500,71.60,68.00,88.43,230.00,2.00,0.00,29.90,M,6.21,M,BKN,BKN,M,M,4900.00,8000.00,M,M,M,M,M,M,M,M,M,M,KQFB 161240Z AUTO 23002KT 9999 BKN049 BKN080 22/20 A2990 RMK A02 TSNO
QEN,2020-09-16 12:40,128.7500,37.6667,60.80,64.40,M,260.00,7.00,0.00,M,M,3.73,16.00,BKN,M,M,M,200.00,M,M,M,M,M,M,M,M,M,M,M,KQEN 161240Z AUTO 26007G16KT 6000 BKN002 16/18 / RMK A02 TSNO
QES,2020-09-16 12:40,126.4500,36.9667,80.60,66.20,61.58,M,M,0.00,M,M,4.97,M,FEW,BKN,M,M,1100.00,2600.00,M,M,M,M,M,M,M,M,M,M,KQES 161240Z AUTO 8000 FEW011 BKN026 27/19 / RMK A02 TSNO
QEJ,2020-09-16 12:40,127.9500,38.2000,66.20,66.20,100.00,170.00,1.00,0.00,29.83,M,6.21,M,BKN,M,M,M,1400.00,M,M,M,M,M,M,M,M,M,M,M,KQEJ 161240Z AUTO 17001KT 9999 BKN014 19/19 A2983 RMK A02 TSNO
QEI,2020-09-16 12:40,128.0667,37.9500,66.20,66.20,100.00,330.00,1.00,0.00,29.84,M,6.21,M,BKN,BKN,M,M,1300.00,3900.00,M,M,M,M,M,M,M,M,M,M,KQEI 161240Z AUTO 33001KT 9999 BKN013 BKN039 19/19 A2984 RMK A02 TSNO
QEQ,2020-09-16 12:40,127.5500,37.8500,69.80,71.60,M,200.00,2.00,0.00,29.85,M,5.59,M,OVC,M,M,M,1000.00,M,M,M,M,M,M,M,M,M,M,M,KQEQ 161240Z AUTO 20002KT 9000 OVC010 21/22 A2985 RMK A02 TSNO
QEW,2020-09-16 12:40,128.1500,36.4000,68.00,68.00,100.00,290.00,1.00,0.00,29.83,M,3.73,M,OVC,M,M,M,800.00,M,M,M,,M,M,M,M,M,M,M,KQEW 161240Z AUTO 29001KT 6000 // OVC008 20/20 A2983 RMK A02 TSNO
QEP,2020-09-16 12:40,127.2667,37.4000,69.80,66.20,88.34,130.00,3.00,0.00,29.86,M,6.21,M,BKN,BKN,M,M,3300.00,5500.00,M,M,M,M,M,M,M,M,M,M,KQEP 161240Z AUTO 13003KT 9999 BKN033 BKN055 21/19 A2986 RMK A02 TSNO
QFT,2020-09-16 12:40,127.3500,37.6000,68.00,66.20,93.97,40.00,1.00,0.00,29.82,M,M,M,BKN,BKN,M,M,1400.00,6500.00,M,M,,M,M,M,M,M,M,M,KQFT 161240Z AUTO 04001KT / // BKN014 BKN065 20/19 A2982 RMK A02 TSNO
QFU,2020-09-16 12:40,126.9667,37.8000,69.80,66.20,88.34,240.00,1.00,0.00,29.86,M,6.21,M,SCT,SCT,M,M,1500.00,3300.00,M,M,M,M,M,M,M,M,M,M,KQFU 161240Z AUTO 24001KT 9999 SCT015 SCT033 21/19 A2986 RMK A02 TSNO
QEX,2020-09-16 12:40,128.3000,36.1000,71.60,68.00,88.43,200.00,3.00,0.00,29.76,M,6.21,M,BKN,BKN,BKN,M,4400.00,4900.00,6500.00,M,M,M,M,M,M,M,M,M,KQEX 161240Z AUTO 20003KT 9999 BKN044 BKN049 BKN065 22/20 A2976 RMK A02 TSNO
QFW,2020-09-16 12:40,127.8833,37.6667,68.00,69.80,M,130.00,2.00,0.00,29.85,M,6.21,M,SCT,BKN,M,M,2700.00,5500.00,M,M,M,M,M,M,M,M,M,M,KQFW 161240Z AUTO 13002KT 9999 SCT027 BKN055 20/21 A2985 RMK A02 TSNO
QFV,2020-09-16 12:40,127.5000,38.0500,64.40,64.40,100.00,130.00,1.00,0.00,29.88,M,3.73,M,OVC,M,M,M,400.00,M,M,M,,M,M,M,M,M,M,M,KQFV 161240Z AUTO 13001KT 6000 // OVC004 18/18 A2988 RMK A02 TSNO
RKSP,2020-09-16 12:44,124.6667,37.9667,68.00,66.20,93.97,280.00,10.00,0.00,29.84,M,6.21,M,BKN,BKN,M,M,3000.00,7000.00,M,M,M,M,M,M,M,M,M,M,RKSP 161244Z 28010KT 9999 BKN030 BKN070 20/19 A2984 RMK CIG030
RKJK,2020-09-16 12:46,126.6220,35.8994,71.60,69.80,94.06,210.00,4.00,0.00,29.82,1010.20,10.00,M,BKN,OVC,M,M,600.00,1500.00,M,M,M,M,M,M,M,M,M,M,RKJK 161246Z AUTO 21004KT 10SM BKN006 OVC015 22/21 A2982 RMK AO2 CIG 006V013 BKN V SCT SLP102 $
RKPK,2020-09-16 12:46,128.9382,35.1795,M,M,M,M,M,0.00,M,M,M,M,M,M,M,M,M,M,M,M,M,M,M,M,M,M,M,M,RKPK 161246Z 16SPECI
RKTN,2020-09-16 12:47,128.6589,35.8941,71.60,68.00,88.43,330.00,2.00,0.00,29.83,M,6.21,M,BKN,BKN,M,M,2000.00,3000.00,M,M,M,M,M,M,M,M,M,M,RKTN 161247Z 33002KT 9999 BKN020 BKN030 22/20 Q1010 RMK CIG020
RKPK,2020-09-16 12:48,128.9382,35.1795,73.40,69.80,88.51,360.00,1.00,0.00,29.83,M,6.21,M,FEW,SCT,BKN,M,2000.00,2500.00,4000.00,M,M,M,M,M,M,M,M,M,RKPK 161248Z 36001KT 9999 FEW020 SCT025 BKN040 23/21 Q1010 RMK CIG040
RKTN,2020-09-16 12:49,128.6589,35.8941,71.60,68.00,88.43,330.00,2.00,0.00,29.84,M,6.21,M,BKN,BKN,M,M,2000.00,3000.00,M,M,M,M,M,M,M,M,M,M,RKTN 161249Z 33002KT 9999 BKN020 BKN030 22/20 A2984 RMK CIG020
RKPK,2020-09-16 12:49,128.9382,35.1795,73.40,69.80,88.51,360.00,1.00,0.00,29.83,M,6.21,M,FEW,SCT,BKN,M,2000.00,2500.00,4000.00,M,M,M,M,M,M,M,M,M,RKPK 161249Z 36001KT 9999 FEW020 SCT025 BKN040 23/21 A2983 RMK CIG040
QFB,2020-09-16 12:50,128.7167,35.6500,71.60,68.00,88.43,120.00,1.00,0.00,29.89,M,6.21,M,FEW,BKN,BKN,M,1300.00,4900.00,8000.00,M,M,M,M,M,M,M,M,M,KQFB 161250Z AUTO 12001KT 9999 FEW013 BKN049 BKN080 22/20 A2989 RMK A02 TSNO
QEN,2020-09-16 12:50,128.7500,37.6667,60.80,64.40,M,260.00,8.00,0.00,M,M,3.73,17.00,BKN,M,M,M,200.00,M,M,M,M,M,M,M,M,M,M,M,KQEN 161250Z AUTO 26008G17KT 6000 BKN002 16/18 / RMK A02 TSNO
QES,2020-09-16 12:50,126.4500,36.9667,80.60,66.20,61.58,M,M,0.00,M,M,4.97,M,FEW,BKN,M,M,1100.00,1900.00,M,M,M,M,M,M,M,M,M,M,KQES 161250Z AUTO 8000 FEW011 BKN019 27/19 / RMK A02 TSNO
QEJ,2020-09-16 12:50,127.9500,38.2000,66.20,66.20,100.00,110.00,1.00,0.00,29.83,M,3.73,M,BKN,BKN,M,M,1200.00,3500.00,M,M,M,M,M,M,M,M,M,M,KQEJ 161250Z AUTO 11001KT 6000 BKN012 BKN035 19/19 A2983 RMK A02 TSNO
QEI,2020-09-16 12:50,128.0667,37.9500,66.20,66.20,100.00,350.00,1.00,0.00,29.85,M,6.21,M,SCT,BKN,M,M,1300.00,3800.00,M,M,M,M,M,M,M,M,M,M,KQEI 161250Z AUTO 35001KT 9999 SCT013 BKN038 19/19 A2985 RMK A02 TSNO
QEQ,2020-09-16 12:50,127.5500,37.8500,69.80,71.60,M,210.00,2.00,0.00,M,M,4.97,M,BKN,M,M,M,1000.00,M,M,M,M,M,M,M,M,M,M,M,KQEQ 161250Z AUTO 21002KT 8000 BKN010 21/22 / RMK A02 TSNO
QEW,2020-09-16 12:50,128.1500,36.4000,68.00,66.20,93.97,280.00,1.00,0.00,29.84,M,3.73,M,OVC,M,M,M,800.00,M,M,M,,M,M,M,M,M,M,M,KQEW 161250Z AUTO 28001KT 6000 // OVC008 20/19 A2984 RMK A02 TSNO
QEP,2020-09-16 12:50,127.2667,37.4000,69.80,66.20,88.34,120.00,2.00,0.00,29.85,M,6.21,M,BKN,M,M,M,3400.00,M,M,M,M,M,M,M,M,M,M,M,KQEP 161250Z AUTO 12002KT 9999 BKN034 21/19 A2985 RMK A02 TSNO
QFT,2020-09-16 12:50,127.3500,37.6000,68.00,66.20,93.97,160.00,2.00,0.00,29.82,M,M,M,BKN,M,M,M,1500.00,M,M,M,,M,M,M,M,M,M,M,KQFT 161250Z AUTO 16002KT / // BKN015 20/19 A2982 RMK A02 TSNO
QFU,2020-09-16 12:50,126.9667,37.8000,69.80,66.20,88.34,230.00,1.00,0.00,29.87,M,5.59,M,SCT,SCT,BKN,M,1500.00,2500.00,3300.00,M,M,M,M,M,M,M,M,M,KQFU 161250Z AUTO 23001KT 9000 SCT015 SCT025 BKN033 21/19 A2987 RMK A02 TSNO
QEX,2020-09-16 12:50,128.3000,36.1000,71.60,68.00,88.43,140.00,2.00,0.00,29.76,M,6.21,M,BKN,M,M,M,4700.00,M,M,M,M,M,M,M,M,M,M,M,KQEX 161250Z AUTO 14002KT 9999 BKN047 22/20 A2976 RMK A02 TSNO
QFW,2020-09-16 12:50,127.8833,37.6667,68.00,69.80,M,250.00,2.00,0.00,29.86,M,6.21,M,FEW,SCT,BKN,M,1300.00,2700.00,5500.00,M,M,M,M,M,M,M,M,M,KQFW 161250Z AUTO 25002KT 9999 FEW013 SCT027 BKN055 20/21 A2986 RMK A02 TSNO
QFV,2020-09-16 12:50,127.5000,38.0500,64.40,64.40,100.00,80.00,2.00,0.00,29.87,M,3.73,M,OVC,M,M,M,300.00,M,M,M,,M,M,M,M,M,M,M,KQFV 161250Z AUTO 08002KT 6000 // OVC003 18/18 A2987 RMK A02 TSNO
RKTN,2020-09-16 12:54,128.6589,35.8941,M,M,M,M,M,0.00,M,M,M,M,M,M,M,M,M,M,M,M,M,M,M,M,M,M,M,M,RKTN 161254Z 16SPECI
RKPK,2020-09-16 12:54,128.9382,35.1795,M,M,M,M,M,0.00,M,M,M,M,M,M,M,M,M,M,M,M,M,M,M,M,M,M,M,M,RKPK 161254Z 16SPECI
RKJK,2020-09-16 12:56,126.6220,35.8994,72.30,70.50,94.07,230.00,3.00,0.00,29.82,1010.20,10.00,M,BKN,OVC,M,M,600.00,1500.00,M,M,M,M,M,M,M,M,M,M,RKJK 161256Z 23003KT 10SM BKN006 OVC015 22/21 A2982 RMK AO2A SLP102 T02240214 $
RKSG,2020-09-16 12:56,127.0311,36.9622,68.90,66.20,91.11,130.00,1.00,0.00,29.84,1010.30,7.00,M,SCT,BKN,M,M,1400.00,1700.00,M,M,M,M,M,M,M,M,M,M,RKSG 161256Z 13001KT 7SM SCT014 BKN017 21/19 A2984 RMK AO2A SLP103 T02050190 $
RKSO,2020-09-16 12:58,127.0296,37.0906,69.10,68.70,98.64,0.00,0.00,0.00,29.82,1010.10,7.00,M,OVC,M,M,M,900.00,M,M,M,M,M,M,M,M,M,M,M,RKSO 161258Z 00000KT 7SM OVC009 21/20 A2982 RMK AO2A OVC V BKN SLP101 T02060204 $
RKSY,2020-09-16 12:58,126.9753,37.5241,70.00,65.30,85.04,0.00,0.00,0.00,29.81,1009.80,6.21,M,FEW,M,M,M,3000.00,M,M,M,M,M,M,M,M,M,M,M,RKSY 161258Z AUTO 00000KT 9999 FEW030 21/19 A2981 RMK AO2 SLP098 T02110185
RKPS,2020-09-16 13:00,128.0704,35.0885,71.60,71.60,100.00,30.00,2.00,0.00,29.83,1010.70,6.21,M,BKN,BKN,M,M,1000.00,5000.00,M,M,M,M,M,M,M,M,M,M,RKPS 161300Z 03002KT 9999 BKN010 BKN050 22/22 Q1010 RMK CIG010 SLP107 8/600 9/700
RKJB,2020-09-16 13:00,126.3800,34.9800,71.60,71.60,100.00,260.00,1.00,0.00,29.83,M,6.21,M,FEW,BKN,M,M,1000.00,2500.00,M,M,M,M,M,M,M,M,M,M,RKJB 161300Z 26001KT 9999 FEW010 BKN025 22/22 Q1010 NOSIG
RKJJ,2020-09-16 13:00,126.8089,35.1264,73.40,71.60,94.10,270.00,3.00,0.00,29.83,1010.30,6.21,M,FEW,BKN,M,M,1500.00,4000.00,M,M,M,M,M,M,M,M,M,M,RKJJ 161300Z 27003KT 9999 FEW015 BKN040 23/22 Q1010 RMK CIG040 SLP103 8/500 9/600
RKPC,2020-09-16 13:00,126.4930,33.5113,73.40,73.40,100.00,280.00,3.00,0.00,29.83,M,6.21,M,SCT,BKN,BKN,M,800.00,3000.00,12000.00,M,M,M,M,M,M,M,M,M,RKPC 161300Z 28003KT 260V320 9999 SCT008 BKN030 BKN120 23/23 Q1010 NOSIG
RKNY,2020-09-16 13:00,128.6692,38.0613,68.00,66.20,93.97,260.00,6.00,0.00,29.77,M,1.06,M,NCD,M,M,M,M,M,M,M,,M,M,M,M,M,M,M,RKNY 161300Z AUTO 26006KT 220V280 1700 // NCD 20/19 Q1008
RKSM,2020-09-16 13:00,127.1139,37.4458,69.80,66.20,88.34,180.00,2.00,0.00,29.84,M,6.21,M,FEW,BKN,M,M,2500.00,4000.00,M,M,M,M,M,M,M,M,M,M,RKSM 161300Z 18002KT 9999 FEW025 BKN040 21/19 A2984
QFB,2020-09-16 13:00,128.7167,35.6500,71.60,68.00,88.43,130.00,2.00,0.00,29.88,M,5.59,M,FEW,SCT,OVC,M,1300.00,4900.00,8000.00,M,M,M,M,M,M,M,M,M,KQFB 161300Z AUTO 13002KT 9000 FEW013 SCT049 OVC080 22/20 A2988 RMK A02 TSNO
RKSS,2020-09-16 13:00,126.7906,37.5583,69.80,68.00,94.01,170.00,4.00,0.00,29.83,M,6.21,M,FEW,BKN,M,M,1500.00,2500.00,M,M,M,M,M,M,M,M,M,M,RKSS 161300Z 17004KT 9999 FEW015 BKN025 21/20 Q1010 NOSIG
RKTH,2020-09-16 13:00,129.4205,35.9879,71.60,71.60,100.00,210.00,2.00,0.00,29.80,1009.80,5.59,M,SCT,BKN,M,M,4000.00,10000.00,M,M,M,M,M,M,M,M,M,M,RKTH 161300Z 21002KT 9000 SCT040 BKN100 22/22 Q1009 RMK CIG100 SLP098 8/510 9/320
RKTN,2020-09-16 13:00,128.6589,35.8941,71.60,68.00,88.43,340.00,3.00,0.00,29.83,M,6.21,M,BKN,BKN,M,M,2000.00,3000.00,M,M,M,M,M,M,M,M,M,M,RKTN 161300Z 34003KT 9999 BKN020 BKN030 22/20 Q1010
RKTU,2020-09-16 13:00,127.4991,36.7166,68.00,68.00,100.00,40.00,1.00,0.00,29.83,M,4.97,M,BKN,OVC,M,M,1000.00,3000.00,M,M,M,M,M,M,M,M,M,M,RKTU 161300Z 04001KT 8000 BKN010 OVC030 20/20 Q1010
QEN,2020-09-16 13:00,128.7500,37.6667,60.80,64.40,M,250.00,9.00,0.00,M,M,3.73,16.00,BKN,BKN,M,M,200.00,2100.00,M,M,M,M,M,M,M,M,M,M,KQEN 161300Z AUTO 25009G16KT 6000 BKN002 BKN021 16/18 / RMK A02 TSNO
QES,2020-09-16 13:00,126.4500,36.9667,80.60,66.20,61.58,M,M,0.00,M,M,3.73,M,BKN,M,M,M,1900.00,M,M,M,M,M,M,M,M,M,M,M,KQES 161300Z AUTO 6000 BKN019 27/19 / RMK A02 TSNO
QEJ,2020-09-16 13:00,127.9500,38.2000,66.20,66.20,100.00,70.00,1.00,0.00,29.83,M,2.98,M,BKN,BKN,M,M,1200.00,3500.00,M,M,M,M,M,M,M,M,M,M,KQEJ 161300Z AUTO 07001KT 4800 BKN012 BKN035 19/19 A2983 RMK A02 TSNO
QEI,2020-09-16 13:00,128.0667,37.9500,66.20,64.40,93.92,360.00,3.00,0.00,29.84,M,6.21,M,BKN,BKN,M,M,1300.00,3700.00,M,M,M,M,M,M,M,M,M,M,KQEI 161300Z AUTO 36003KT 9999 BKN013 BKN037 19/18 A2984 RMK A02 TSNO
QEQ,2020-09-16 13:00,127.5500,37.8500,69.80,71.60,M,210.00,1.00,0.00,M,M,3.73,M,BKN,M,M,M,1000.00,M,M,M,M,M,M,M,M,M,M,M,KQEQ 161300Z AUTO 21001KT 6000 BKN010 21/22 / RMK A02 TSNO
QEW,2020-09-16 13:00,128.1500,36.4000,68.00,66.20,93.97,300.00,1.00,0.00,29.83,M,2.98,M,FEW,OVC,M,M,800.00,1400.00,M,M,,M,M,M,M,M,M,M,KQEW 161300Z AUTO 30001KT 4800 // FEW008 OVC014 20/19 A2983 RMK A02 TSNO
QEP,2020-09-16 13:00,127.2667,37.4000,69.80,66.20,88.34,130.00,2.00,0.00,29.86,M,6.21,M,BKN,M,M,M,3600.00,M,M,M,M,M,M,M,M,M,M,M,KQEP 161300Z AUTO 13002KT 9999 BKN036 21/19 A2986 RMK A02 TSNO
RKPK,2020-09-16 13:00,128.9382,35.1795,73.40,69.80,88.51,360.00,1.00,0.00,29.83,M,5.59,M,FEW,SCT,BKN,M,1500.00,2500.00,4000.00,M,M,M,M,M,M,M,M,M,RKPK 161300Z 36001KT 9000 FEW015 SCT025 BKN040 23/21 Q1010
QFT,2020-09-16 13:00,127.3500,37.6000,68.00,66.20,93.97,200.00,1.00,0.00,29.82,M,M,M,BKN,M,M,M,1600.00,M,M,M,,M,M,M,M,M,M,M,KQFT 161300Z AUTO 20001KT / // BKN016 20/19 A2982 RMK A02 TSNO
QFU,2020-09-16 13:00,126.9667,37.8000,69.80,66.20,88.34,160.00,1.00,0.00,29.87,M,4.97,M,BKN,M,M,M,1500.00,M,M,M,M,M,M,M,M,M,M,M,KQFU 161300Z AUTO 16001KT 8000 BKN015 21/19 A2987 RMK A02 TSNO
QEX,2020-09-16 13:00,128.3000,36.1000,71.60,68.00,88.43,160.00,3.00,0.00,29.75,M,6.21,M,BKN,BKN,M,M,4600.00,6500.00,M,M,M,M,M,M,M,M,M,M,KQEX 161300Z AUTO 16003KT 9999 BKN046 BKN065 22/20 A2975 RMK A02 TSNO
QFW,2020-09-16 13:00,127.8833,37.6667,68.00,69.80,M,0.00,0.00,0.00,29.85,M,6.21,M,SCT,BKN,BKN,M,1800.00,2800.00,5500.00,M,M,M,M,M,M,M,M,M,KQFW 161300Z AUTO 00000KT 9999 SCT018 BKN028 BKN055 20/21 A2985 RMK A02 TSNO
QFV,2020-09-16 13:00,127.5000,38.0500,64.40,64.40,100.00,90.00,1.00,0.00,29.87,M,3.73,M,CLR,M,M,M,M,M,M,M,,M,M,M,M,M,M,M,KQFV 161300Z AUTO 09001KT 6000 // CLR 18/18 A2987 RMK A02 TSNO
RKSI,2020-09-16 13:00,126.4500,37.4667,71.60,64.40,78.04,200.00,4.00,0.00,29.80,M,6.21,M,FEW,BKN,BKN,M,1200.00,2500.00,20000.00,M,M,M,M,M,M,M,M,M,RKSI 161300Z 20004KT 9999 FEW012 BKN025 BKN200 22/18 Q1009 NOSIG
RKPK,2020-09-16 13:09,128.9382,35.1795,73.40,69.80,88.51,140.00,1.00,0.00,29.82,M,3.73,M,FEW,SCT,BKN,M,1500.00,2500.00,5000.00,M,-RA BR,M,M,M,M,M,M,M,RKPK 161309Z 14001KT 6000 -RA BR FEW015 SCT025 BKN050 23/21 A2982 RMK CIG050
QFB,2020-09-16 13:10,128.7167,35.6500,71.60,68.00,88.43,350.00,1.00,0.00,29.88,M,3.73,M,FEW,FEW,BKN,M,1300.00,4900.00,8000.00,M,M,M,M,M,M,M,M,M,KQFB 161310Z AUTO 35001KT 6000 FEW013 FEW049 BKN080 22/20 A2988 RMK A02 TSNO
QEN,2020-09-16 13:10,128.7500,37.6667,60.80,64.40,M,260.00,8.00,0.00,M,M,3.73,17.00,BKN,M,M,M,200.00,M,M,M,M,M,M,M,M,M,M,M,KQEN 161310Z AUTO 26008G17KT 6000 BKN002 16/18 / RMK A02 TSNO
QES,2020-09-16 13:10,126.4500,36.9667,80.60,66.20,61.58,M,M,0.00,M,M,2.98,M,BKN,M,M,M,1900.00,M,M,M,M,M,M,M,M,M,M,M,KQES 161310Z AUTO 4800 BKN019 27/19 / RMK A02 TSNO
QEJ,2020-09-16 13:10,127.9500,38.2000,66.20,66.20,100.00,80.00,1.00,0.00,29.82,M,2.49,M,BKN,BKN,M,M,1100.00,3500.00,M,M,BR,M,M,M,M,M,M,M,KQEJ 161310Z AUTO 08001KT 4000 BR BKN011 BKN035 19/19 A2982 RMK A02 TSNO
QEI,2020-09-16 13:10,128.0667,37.9500,66.20,64.40,93.92,260.00,1.00,0.00,29.83,M,6.21,M,BKN,BKN,M,M,1100.00,3400.00,M,M,M,M,M,M,M,M,M,M,KQEI 161310Z AUTO 26001KT 9999 BKN011 BKN034 19/18 A2983 RMK A02 TSNO
QEQ,2020-09-16 13:10,127.5500,37.8500,69.80,71.60,M,220.00,1.00,0.00,29.85,M,3.73,M,BKN,M,M,M,1000.00,M,M,M,M,M,M,M,M,M,M,M,KQEQ 161310Z AUTO 22001KT 6000 BKN010 21/22 A2985 RMK A02 TSNO
QEW,2020-09-16 13:10,128.1500,36.4000,68.00,68.00,100.00,300.00,1.00,0.00,29.83,M,2.98,M,SCT,OVC,M,M,700.00,2200.00,M,M,,M,M,M,M,M,M,M,KQEW 161310Z AUTO 30001KT 4800 // SCT007 OVC022 20/20 A2983 RMK A02 TSNO
QEP,2020-09-16 13:10,127.2667,37.4000,68.00,66.20,93.97,130.00,2.00,0.00,29.86,M,6.21,M,BKN,OVC,M,M,3600.00,4900.00,M,M,M,M,M,M,M,M,M,M,KQEP 161310Z AUTO 13002KT 9999 BKN036 OVC049 20/19 A2986 RMK A02 TSNO
RKPK,2020-09-16 13:10,128.9382,35.1795,73.40,69.80,88.51,140.00,1.00,0.00,29.80,M,3.73,M,FEW,SCT,BKN,M,1500.00,2500.00,5000.00,M,-RA,M,M,M,M,M,M,M,RKPK 161310Z 14001KT 6000 -RA FEW015 SCT025 BKN050 23/21 Q1009 RMK CIG050
QFT,2020-09-16 13:10,127.3500,37.6000,68.00,66.20,93.97,160.00,1.00,0.00,29.82,M,M,M,OVC,M,M,M,1500.00,M,M,M,,M,M,M,M,M,M,M,KQFT 161310Z AUTO 16001KT / // OVC015 20/19 A2982 RMK A02 TSNO
QFU,2020-09-16 13:10,126.9667,37.8000,69.80,66.20,88.34,130.00,1.00,0.00,29.87,M,5.59,M,BKN,M,M,M,1500.00,M,M,M,M,M,M,M,M,M,M,M,KQFU 161310Z AUTO 13001KT 9000 BKN015 21/19 A2987 RMK A02 TSNO
QEX,2020-09-16 13:10,128.3000,36.1000,71.60,68.00,88.43,190.00,3.00,0.00,29.75,M,6.21,M,FEW,BKN,M,M,1000.00,4600.00,M,M,M,M,M,M,M,M,M,M,KQEX 161310Z AUTO 19003KT 9999 FEW010 BKN046 22/20 A2975 RMK A02 TSNO
QFW,2020-09-16 13:10,127.8833,37.6667,68.00,69.80,M,200.00,1.00,0.00,29.85,M,6.21,M,FEW,BKN,OVC,M,900.00,1800.00,6000.00,M,M,M,M,M,M,M,M,M,KQFW 161310Z AUTO 20001KT 9999 FEW009 BKN018 OVC060 20/21 A2985 RMK A02 TSNO
QFV,2020-09-16 13:10,127.5000,38.0500,64.40,64.40,100.00,140.00,1.00,0.00,29.87,M,3.73,M,CLR,M,M,M,M,M,M,M,,M,M,M,M,M,M,M,KQFV 161310Z AUTO 14001KT 6000 // CLR 18/18 A2987 RMK A02 TSNO
RKSY,2020-09-16 13:13,126.9753,37.5241,69.80,66.20,88.34,0.00,0.00,0.00,29.81,1009.80,6.21,M,FEW,BKN,M,M,1700.00,2800.00,M,M,M,M,M,M,M,M,M,M,RKSY 161313Z AUTO 00000KT 9999 FEW017 BKN028 21/19 A2981 RMK AO2 SLP098
RKPK,2020-09-16 13:15,128.9382,35.1795,M,M,M,M,M,0.00,M,M,M,M,M,M,M,M,M,M,M,M,M,M,M,M,M,M,M,M,RKPK 161315Z 16SPECI
RKSO,2020-09-16 13:18,127.0296,37.0906,69.80,68.00,94.01,90.00,3.00,0.00,29.82,1010.10,7.00,M,BKN,OVC,M,M,800.00,2200.00,M,M,M,M,M,M,M,M,M,M,RKSO 161318Z 09003KT 7SM BKN008 OVC022 21/20 A2982 RMK AO2A SLP101 $
QFB,2020-09-16 13:20,128.7167,35.6500,71.60,68.00,88.43,50.00,1.00,0.00,29.88,M,3.73,M,SCT,M,M,M,8000.00,M,M,M,M,M,M,M,M,M,M,M,KQFB 161320Z AUTO 05001KT 6000 SCT080 22/20 A2988 RMK A02 TSNO
QEN,2020-09-16 13:20,128.7500,37.6667,60.80,64.40,M,260.00,7.00,0.00,M,M,5.59,17.00,BKN,M,M,M,300.00,M,M,M,M,M,M,M,M,M,M,M,KQEN 161320Z AUTO 26007G17KT 9000 BKN003 16/18 / RMK A02 TSNO
QES,2020-09-16 13:20,126.4500,36.9667,80.60,66.20,61.58,M,M,0.00,M,M,2.98,M,FEW,BKN,M,M,400.00,1900.00,M,M,M,M,M,M,M,M,M,M,KQES 161320Z AUTO 4800 FEW004 BKN019 27/19 / RMK A02 TSNO
QEJ,2020-09-16 13:20,127.9500,38.2000,66.20,66.20,100.00,30.00,1.00,0.00,29.82,M,2.98,M,BKN,M,M,M,1000.00,M,M,M,M,M,M,M,M,M,M,M,KQEJ 161320Z AUTO 03001KT 4800 BKN010 19/19 A2982 RMK A02 TSNO
QEI,2020-09-16 13:20,128.0667,37.9500,66.20,66.20,100.00,70.00,1.00,0.00,29.83,M,6.21,M,BKN,BKN,M,M,1100.00,3300.00,M,M,M,M,M,M,M,M,M,M,KQEI 161320Z AUTO 07001KT 9999 BKN011 BKN033 19/19 A2983 RMK A02 TSNO
QEQ,2020-09-16 13:20,127.5500,37.8500,69.80,71.60,M,230.00,2.00,0.00,M,M,3.73,M,BKN,BKN,M,M,900.00,1800.00,M,M,M,M,M,M,M,M,M,M,KQEQ 161320Z AUTO 23002KT 6000 BKN009 BKN018 21/22 / RMK A02 TSNO
QEW,2020-09-16 13:20,128.1500,36.4000,68.00,68.00,100.00,250.00,1.00,0.00,29.83,M,2.98,M,FEW,OVC,M,M,700.00,2200.00,M,M,,M,M,M,M,M,M,M,KQEW 161320Z AUTO 25001KT 4800 // FEW007 OVC022 20/20 A2983 RMK A02 TSNO
QEP,2020-09-16 13:20,127.2667,37.4000,68.00,66.20,93.97,130.00,2.00,0.00,29.86,M,6.21,M,OVC,M,M,M,3600.00,M,M,M,M,M,M,M,M,M,M,M,KQEP 161320Z AUTO 13002KT 9999 OVC036 20/19 A2986 RMK A02 TSNO
QFT,2020-09-16 13:20,127.3500,37.6000,68.00,66.20,93.97,160.00,2.00,0.00,29.82,M,M,M,OVC,M,M,M,1400.00,M,M,M,,M,M,M,M,M,M,M,KQFT 161320Z AUTO 16002KT / // OVC014 20/19 A2982 RMK A02 TSNO
QFU,2020-09-16 13:20,126.9667,37.8000,69.80,66.20,88.34,130.00,1.00,0.00,29.86,M,6.21,M,BKN,M,M,M,1500.00,M,M,M,M,M,M,M,M,M,M,M,KQFU 161320Z AUTO 13001KT 9999 BKN015 21/19 A2986 RMK A02 TSNO
QEX,2020-09-16 13:20,128.3000,36.1000,71.60,68.00,88.43,160.00,1.00,0.00,29.75,M,6.21,M,FEW,SCT,M,M,1000.00,4600.00,M,M,M,M,M,M,M,M,M,M,KQEX 161320Z AUTO 16001KT 9999 FEW010 SCT046 22/20 A2975 RMK A02 TSNO
QFW,2020-09-16 13:20,127.8833,37.6667,68.00,69.80,M,150.00,2.00,0.00,29.85,M,6.21,M,BKN,OVC,M,M,1800.00,6000.00,M,M,M,M,M,M,M,M,M,M,KQFW 161320Z AUTO 15002KT 9999 BKN018 OVC060 20/21 A2985 RMK A02 TSNO
QFV,2020-09-16 13:20,127.5000,38.0500,64.40,64.40,100.00,120.00,2.00,0.00,29.88,M,2.98,M,CLR,M,M,M,M,M,M,M,,M,M,M,M,M,M,M,KQFV 161320Z AUTO 12002KT 4800 // CLR 18/18 A2988 RMK A02 TSNO
RKPK,2020-09-16 13:25,128.9382,35.1795,73.40,69.80,88.51,130.00,1.00,0.00,29.80,M,4.97,M,FEW,SCT,BKN,M,1500.00,2500.00,5000.00,M,M,M,M,M,M,M,M,M,RKPK 161325Z 13001KT 8000 FEW015 SCT025 BKN050 23/21 Q1009 RMK CIG050
RKJK,2020-09-16 13:26,126.6220,35.8994,71.60,69.80,94.06,210.00,3.00,0.00,29.82,1010.20,10.00,M,SCT,SCT,M,M,600.00,1600.00,M,M,M,M,M,M,M,M,M,M,RKJK 161326Z AUTO 21003KT 10SM SCT006 SCT016 22/21 A2982 RMK AO2 SLP102 $
RKPK,2020-09-16 13:26,128.9382,35.1795,73.40,69.80,88.51,130.00,1.00,0.00,29.81,M,4.97,M,FEW,SCT,BKN,M,1500.00,2500.00,5000.00,M,BR,M,M,M,M,M,M,M,RKPK 161326Z 13001KT 8000 BR FEW015 SCT025 BKN050 23/21 A2981 RMK CIG050
QFB,2020-09-16 13:30,128.7167,35.6500,71.60,68.00,88.43,270.00,2.00,0.00,29.89,M,4.97,M,FEW,M,M,M,7500.00,M,M,M,M,M,M,M,M,M,M,M,KQFB 161330Z AUTO 27002KT 8000 FEW075 22/20 A2989 RMK A02 TSNO
QEN,2020-09-16 13:30,128.7500,37.6667,60.80,64.40,M,250.00,7.00,0.00,M,M,3.73,17.00,OVC,M,M,M,300.00,M,M,M,M,M,M,M,M,M,M,M,KQEN 161330Z AUTO 25007G17KT 6000 OVC003 16/18 / RMK A02 TSNO
QES,2020-09-16 13:30,126.4500,36.9667,80.60,66.20,61.58,M,M,0.00,M,M,2.98,M,FEW,BKN,M,M,400.00,2300.00,M,M,M,M,M,M,M,M,M,M,KQES 161330Z AUTO 4800 FEW004 BKN023 27/19 / RMK A02 TSNO
QEJ,2020-09-16 13:30,127.9500,38.2000,66.20,66.20,100.00,140.00,1.00,0.00,29.82,M,2.98,M,FEW,BKN,M,M,200.00,1000.00,M,M,BR,M,M,M,M,M,M,M,KQEJ 161330Z AUTO 14001KT 4800 BR FEW002 BKN010 19/19 A2982 RMK A02 TSNO
QEI,2020-09-16 13:30,128.0667,37.9500,66.20,66.20,100.00,0.00,0.00,0.00,29.84,M,6.21,M,BKN,M,M,M,1100.00,M,M,M,M,M,M,M,M,M,M,M,KQEI 161330Z AUTO 00000KT 9999 BKN011 19/19 A2984 RMK A02 TSNO
QEQ,2020-09-16 13:30,127.5500,37.8500,69.80,71.60,M,190.00,2.00,0.00,M,M,3.73,M,BKN,M,M,M,900.00,M,M,M,M,M,M,M,M,M,M,M,KQEQ 161330Z AUTO 19002KT 6000 BKN009 21/22 / RMK A02 TSNO
QEW,2020-09-16 13:30,128.1500,36.4000,68.00,66.20,93.97,280.00,1.00,0.00,29.83,M,2.98,M,SCT,OVC,M,M,700.00,2400.00,M,M,,M,M,M,M,M,M,M,KQEW 161330Z AUTO 28001KT 4800 // SCT007 OVC024 20/19 A2983 RMK A02 TSNO
QEP,2020-09-16 13:30,127.2667,37.4000,68.00,66.20,93.97,100.00,1.00,0.00,29.85,M,6.21,M,OVC,M,M,M,3700.00,M,M,M,M,M,M,M,M,M,M,M,KQEP 161330Z AUTO 10001KT 9999 OVC037 20/19 A2985 RMK A02 TSNO
QFT,2020-09-16 13:30,127.3500,37.6000,68.00,66.20,93.97,140.00,1.00,0.00,29.81,M,M,M,OVC,M,M,M,1400.00,M,M,M,,M,M,M,M,M,M,M,KQFT 161330Z AUTO 14001KT / // OVC014 20/19 A2981 RMK A02 TSNO
QFU,2020-09-16 13:30,126.9667,37.8000,69.80,66.20,88.34,150.00,2.00,0.00,29.86,M,5.59,M,BKN,M,M,M,1500.00,M,M,M,M,M,M,M,M,M,M,M,KQFU 161330Z AUTO 15002KT 9000 BKN015 21/19 A2986 RMK A02 TSNO
QEX,2020-09-16 13:30,128.3000,36.1000,71.60,68.00,88.43,200.00,2.00,0.00,29.75,M,6.21,M,FEW,SCT,M,M,1000.00,5500.00,M,M,M,M,M,M,M,M,M,M,KQEX 161330Z AUTO 20002KT 9999 FEW010 SCT055 22/20 A2975 RMK A02 TSNO
QFW,2020-09-16 13:30,127.8833,37.6667,68.00,69.80,M,140.00,2.00,0.00,29.85,M,6.21,M,OVC,M,M,M,1800.00,M,M,M,M,M,M,M,M,M,M,M,KQFW 161330Z AUTO 14002KT 9999 OVC018 20/21 A2985 RMK A02 TSNO
QFV,2020-09-16 13:30,127.5000,38.0500,64.40,64.40,100.00,80.00,1.00,0.00,29.87,M,2.49,M,OVC,M,M,M,200.00,M,M,M,,M,M,M,M,M,M,M,KQFV 161330Z AUTO 08001KT 4000 // OVC002 18/18 A2987 RMK A02 TSNO
RKSI,2020-09-16 13:30,126.4500,37.4667,69.80,62.60,77.90,190.00,4.00,0.00,29.80,M,6.21,M,FEW,BKN,M,M,1200.00,3000.00,M,M,M,M,M,M,M,M,M,M,RKSI 161330Z 19004KT 160V230 9999 FEW012 BKN030 21/17 Q1009 NOSIG
RKPK,2020-09-16 13:31,128.9382,35.1795,M,M,M,M,M,0.00,M,M,M,M,M,M,M,M,M,M,M,M,M,M,M,M,M,M,M,M,RKPK 161331Z 16SPECI
RKTY,2020-09-16 13:35,128.3548,36.6319,68.00,66.20,93.97,30.00,2.00,0.00,29.83,M,4.97,M,SCT,OVC,M,M,1000.00,2000.00,M,M,-RA BR,M,M,M,M,M,M,M,RKTY 161335Z 03002KT 8000 -RA BR SCT010 OVC020 20/19 A2983 RMK CIG020 WR26
RKJK,2020-09-16 13:36,126.6220,35.8994,71.60,69.80,94.06,0.00,0.00,0.00,29.81,1009.90,10.00,M,BKN,M,M,M,700.00,M,M,M,M,M,M,M,M,M,M,M,RKJK 161336Z AUTO 00000KT 10SM BKN007 22/21 A2981 RMK AO2 CIG 007V017 SLP099 $
RKSO,2020-09-16 13:38,127.0296,37.0906,68.00,68.00,100.00,110.00,4.00,0.00,29.80,1009.40,7.00,M,SCT,BKN,M,M,800.00,2400.00,M,M,M,M,M,M,M,M,M,M,RKSO 161338Z 11004KT 7SM SCT008 BKN024 20/20 A2980 RMK AO2A CIG 008V025 BKN V OVC SLP094
QFB,2020-09-16 13:40,128.7167,35.6500,69.80,68.00,94.01,250.00,3.00,0.00,29.89,M,3.73,M,FEW,M,M,M,700.00,M,M,M,M,M,M,M,M,M,M,M,KQFB 161340Z AUTO 25003KT 6000 FEW007 21/20 A2989 RMK A02 TSNO
QEN,2020-09-16 13:40,128.7500,37.6667,60.80,64.40,M,250.00,7.00,0.00,M,M,2.98,15.00,OVC,M,M,M,300.00,M,M,M,M,M,M,M,M,M,M,M,KQEN 161340Z AUTO 25007G15KT 4800 OVC003 16/18 / RMK A02 TSNO
QES,2020-09-16 13:40,126.4500,36.9667,80.60,66.20,61.58,M,M,0.00,M,M,2.49,M,FEW,SCT,M,M,400.00,2300.00,M,M,BR,M,M,M,M,M,M,M,KQES 161340Z AUTO 4000 BR FEW004 SCT023 27/19 / RMK A02 TSNO
QEJ,2020-09-16 13:40,127.9500,38.2000,66.20,66.20,100.00,0.00,0.00,0.00,29.83,M,3.73,M,FEW,BKN,M,M,200.00,1000.00,M,M,M,M,M,M,M,M,M,M,KQEJ 161340Z AUTO 00000KT 6000 FEW002 BKN010 19/19 A2983 RMK A02 TSNO
QEI,2020-09-16 13:40,128.0667,37.9500,66.20,64.40,93.92,50.00,2.00,0.00,29.83,M,6.21,M,BKN,M,M,M,1200.00,M,M,M,M,M,M,M,M,M,M,M,KQEI 161340Z AUTO 05002KT 9999 BKN012 19/18 A2983 RMK A02 TSNO
QEQ,2020-09-16 13:40,127.5500,37.8500,69.80,71.60,M,210.00,3.00,0.00,29.85,M,3.73,M,BKN,M,M,M,900.00,M,M,M,M,M,M,M,M,M,M,M,KQEQ 161340Z AUTO 21003KT 6000 BKN009 21/22 A2985 RMK A02 TSNO
QEW,2020-09-16 13:40,128.1500,36.4000,68.00,66.20,93.97,280.00,1.00,0.00,29.83,M,3.73,M,BKN,OVC,M,M,600.00,2400.00,M,M,,M,M,M,M,M,M,M,KQEW 161340Z AUTO 28001KT 6000 // BKN006 OVC024 20/19 A2983 RMK A02 TSNO
QEP,2020-09-16 13:40,127.2667,37.4000,68.00,66.20,93.97,110.00,2.00,0.00,29.85,M,6.21,M,OVC,M,M,M,4700.00,M,M,M,M,M,M,M,M,M,M,M,KQEP 161340Z AUTO 11002KT 9999 OVC047 20/19 A2985 RMK A02 TSNO
QFT,2020-09-16 13:40,127.3500,37.6000,68.00,66.20,93.97,210.00,1.00,0.00,29.82,M,M,M,OVC,M,M,M,1400.00,M,M,M,,M,M,M,M,M,M,M,KQFT 161340Z AUTO 21001KT / // OVC014 20/19 A2982 RMK A02 TSNO
QFU,2020-09-16 13:40,126.9667,37.8000,68.00,66.20,93.97,200.00,1.00,0.00,29.86,M,4.97,M,SCT,M,M,M,1400.00,M,M,M,M,M,M,M,M,M,M,M,KQFU 161340Z AUTO 20001KT 8000 SCT014 20/19 A2986 RMK A02 TSNO
QEX,2020-09-16 13:40,128.3000,36.1000,71.60,68.00,88.43,180.00,2.00,0.00,29.75,M,6.21,M,SCT,M,M,M,5500.00,M,M,M,M,M,M,M,M,M,M,M,KQEX 161340Z AUTO 18002KT 9999 SCT055 22/20 A2975 RMK A02 TSNO
QFW,2020-09-16 13:40,127.8833,37.6667,68.00,69.80,M,130.00,1.00,0.00,29.85,M,6.21,M,OVC,M,M,M,1800.00,M,M,M,M,M,M,M,M,M,M,M,KQFW 161340Z AUTO 13001KT 9999 OVC018 20/21 A2985 RMK A02 TSNO
QFV,2020-09-16 13:40,127.5000,38.0500,64.40,64.40,100.00,130.00,1.00,0.00,29.87,M,2.98,M,OVC,M,M,M,200.00,M,M,M,,M,M,M,M,M,M,M,KQFV 161340Z AUTO 13001KT 4800 // OVC002 18/18 A2987 RMK A02 TSNO
QFB,2020-09-16 13:50,128.7167,35.6500,69.80,68.00,94.01,220.00,1.00,0.00,29.88,M,3.73,M,FEW,BKN,M,M,700.00,1600.00,M,M,M,M,M,M,M,M,M,M,KQFB 161350Z AUTO 22001KT 6000 FEW007 BKN016 21/20 A2988 RMK A02 TSNO
QEN,2020-09-16 13:50,128.7500,37.6667,60.80,64.40,M,250.00,6.00,0.00,M,M,5.59,M,OVC,M,M,M,300.00,M,M,M,M,M,M,M,M,M,M,M,KQEN 161350Z AUTO 25006KT 9000 OVC003 16/18 / RMK A02 TSNO
QES,2020-09-16 13:50,126.4500,36.9667,80.60,66.20,61.58,M,M,0.00,M,M,2.49,M,FEW,M,M,M,2300.00,M,M,M,BR,M,M,M,M,M,M,M,KQES 161350Z AUTO 4000 BR FEW023 27/19 / RMK A02 TSNO
QEJ,2020-09-16 13:50,127.9500,38.2000,66.20,66.20,100.00,110.00,1.00,0.00,29.82,M,3.73,M,SCT,BKN,M,M,300.00,1000.00,M,M,M,M,M,M,M,M,M,M,KQEJ 161350Z AUTO 11001KT 6000 SCT003 BKN010 19/19 A2982 RMK A02 TSNO
QEI,2020-09-16 13:50,128.0667,37.9500,66.20,66.20,100.00,110.00,2.00,0.00,29.83,M,6.21,M,FEW,BKN,M,M,1100.00,1600.00,M,M,M,M,M,M,M,M,M,M,KQEI 161350Z AUTO 11002KT 9999 FEW011 BKN016 19/19 A2983 RMK A02 TSNO
QEQ,2020-09-16 13:50,127.5500,37.8500,69.80,71.60,M,220.00,2.00,0.00,29.85,M,3.73,M,BKN,BKN,M,M,1100.00,3200.00,M,M,M,M,M,M,M,M,M,M,KQEQ 161350Z AUTO 22002KT 6000 BKN011 BKN032 21/22 A2985 RMK A02 TSNO
QEW,2020-09-16 13:50,128.1500,36.4000,68.00,66.20,93.97,310.00,1.00,0.00,29.83,M,3.73,M,BKN,OVC,M,M,600.00,2300.00,M,M,,M,M,M,M,M,M,M,KQEW 161350Z AUTO 31001KT 6000 // BKN006 OVC023 20/19 A2983 RMK A02 TSNO
QEP,2020-09-16 13:50,127.2667,37.4000,68.00,66.20,93.97,110.00,2.00,0.00,29.84,M,6.21,M,BKN,M,M,M,4700.00,M,M,M,M,M,M,M,M,M,M,M,KQEP 161350Z AUTO 11002KT 9999 BKN047 20/19 A2984 RMK A02 TSNO
QFT,2020-09-16 13:50,127.3500,37.6000,68.00,66.20,93.97,170.00,2.00,0.00,29.81,M,M,M,BKN,M,M,M,1400.00,M,M,M,,M,M,M,M,M,M,M,KQFT 161350Z AUTO 17002KT / // BKN014 20/19 A2981 RMK A02 TSNO
QFU,2020-09-16 13:50,126.9667,37.8000,68.00,66.20,93.97,220.00,1.00,0.00,29.86,M,3.73,M,FEW,FEW,M,M,1500.00,1700.00,M,M,M,M,M,M,M,M,M,M,KQFU 161350Z AUTO 22001KT 6000 FEW015 FEW017 20/19 A2986 RMK A02 TSNO
QEX,2020-09-16 13:50,128.3000,36.1000,71.60,68.00,88.43,190.00,2.00,0.00,29.75,M,6.21,M,BKN,M,M,M,5500.00,M,M,M,M,M,M,M,M,M,M,M,KQEX 161350Z AUTO 19002KT 9999 BKN055 22/20 A2975 RMK A02 TSNO
QFW,2020-09-16 13:50,127.8833,37.6667,68.00,68.00,100.00,300.00,1.00,0.00,29.85,M,6.21,M,OVC,M,M,M,1700.00,M,M,M,M,M,M,M,M,M,M,M,KQFW 161350Z AUTO 30001KT 9999 OVC017 20/20 A2985 RMK A02 TSNO
QFV,2020-09-16 13:50,127.5000,38.0500,64.40,64.40,100.00,100.00,2.00,0.00,29.87,M,2.49,M,OVC,M,M,M,200.00,M,M,M,,M,M,M,M,M,M,M,KQFV 161350Z AUTO 10002KT 4000 // OVC002 18/18 A2987 RMK A02 TSNO
RKSY,2020-09-16 13:53,126.9753,37.5241,68.00,66.20,93.97,0.00,0.00,0.00,29.80,1009.40,6.21,M,SCT,M,M,M,2600.00,M,M,M,M,M,M,M,M,M,M,M,RKSY 161353Z AUTO 00000KT 9999 SCT026 20/19 A2980 RMK AO2 SLP094
RKSG,2020-09-16 13:55,127.0311,36.9622,69.40,66.40,90.18,160.00,2.00,0.00,29.83,1009.90,4.00,M,FEW,BKN,OVC,M,1300.00,1900.00,2200.00,M,BR,M,M,M,M,M,M,M,RKSG 161355Z 16002KT 4SM BR FEW013 BKN019 OVC022 21/19 A2983 RMK AO2A SLP099 T02080191 $
RKJK,2020-09-16 13:56,126.6220,35.8994,71.80,69.60,92.78,230.00,3.00,0.00,29.81,1009.90,10.00,M,BKN,OVC,M,M,700.00,1600.00,M,M,M,M,M,M,M,M,M,M,RKJK 161356Z AUTO 23003KT 10SM BKN007 OVC016 22/21 A2981 RMK AO2 SLP099 T02210209 $
RKSO,2020-09-16 13:58,127.0296,37.0906,68.00,67.60,98.63,100.00,3.00,0.00,29.80,1009.40,7.00,M,BKN,M,M,M,2200.00,M,M,M,M,M,M,M,M,M,M,M,RKSO 161358Z 10003KT 7SM BKN022 20/20 A2980 RMK AO2A SLP094 T02000198 $
RKSY,2020-09-16 13:58,126.9753,37.5241,68.50,66.20,92.37,0.00,0.00,0.00,29.80,1009.40,6.21,M,SCT,M,M,M,2600.00,M,M,M,M,M,M,M,M,M,M,M,RKSY 161358Z AUTO 00000KT 9999 SCT026 20/19 A2980 RMK AO2 SLP094 T02030190
RKPS,2020-09-16 14:00,128.0704,35.0885,71.60,69.80,94.06,340.00,1.00,0.00,29.83,1010.50,5.59,M,BKN,M,M,M,1000.00,M,M,M,M,M,M,M,M,M,M,M,RKPS 161400Z 34001KT 9000 BKN010 22/21 Q1010 RMK CIG010 SLP105 8/600 9/700
RKJB,2020-09-16 14:00,126.3800,34.9800,71.60,71.60,100.00,0.00,0.00,0.00,29.83,M,5.59,M,///,M,M,M,600.00,M,M,M,M,M,M,M,M,M,M,M,RKJB 161400Z AUTO 00000KT 9000 ///006/// 22/22 Q1010
RKJJ,2020-09-16 14:00,126.8089,35.1264,71.60,71.60,100.00,250.00,2.00,0.00,29.83,1010.30,6.21,M,SCT,BKN,M,M,2000.00,3000.00,M,M,M,M,M,M,M,M,M,M,RKJJ 161400Z 25002KT 9999 SCT020 BKN030 22/22 Q1010 RMK CIG030 SLP103 8/500 9/500
RKPC,2020-09-16 14:00,126.4930,33.5113,73.40,73.40,100.00,270.00,4.00,0.00,29.85,M,6.21,M,SCT,BKN,BKN,M,1500.00,3000.00,16000.00,M,M,M,M,M,M,M,M,M,RKPC 161400Z 27004KT 9999 SCT015 BKN030 BKN160 23/23 Q1011 NOSIG
RKNY,2020-09-16 14:00,128.6692,38.0613,66.20,64.40,93.92,220.00,4.00,0.00,29.77,M,1.06,M,NCD,M,M,M,M,M,M,M,,M,M,M,M,M,M,M,RKNY 161400Z AUTO 22004KT 1700 // NCD 19/18 Q1008
RKSM,2020-09-16 14:00,127.1139,37.4458,68.00,66.20,93.97,190.00,2.00,0.00,29.82,M,6.21,M,FEW,BKN,M,M,1500.00,3000.00,M,M,M,M,M,M,M,M,M,M,RKSM 161400Z 19002KT 9999 FEW015 BKN030 20/19 A2982
QFB,2020-09-16 14:00,128.7167,35.6500,71.60,68.00,88.43,250.00,1.00,0.00,29.88,M,4.97,M,FEW,BKN,M,M,700.00,1600.00,M,M,M,M,M,M,M,M,M,M,KQFB 161400Z AUTO 25001KT 8000 FEW007 BKN016 22/20 A2988 RMK A02 TSNO
RKSS,2020-09-16 14:00,126.7906,37.5583,68.00,66.20,93.97,140.00,5.00,0.00,29.80,M,6.21,M,FEW,BKN,M,M,1500.00,2500.00,M,M,M,M,M,M,M,M,M,M,RKSS 161400Z 14005KT 9999 FEW015 BKN025 20/19 Q1009 NOSIG
RKTH,2020-09-16 14:00,129.4205,35.9879,71.60,71.60,100.00,240.00,6.00,0.00,29.80,1009.50,5.59,M,FEW,FEW,M,M,4000.00,10000.00,M,M,M,M,M,M,M,M,M,M,RKTH 161400Z 24006KT 9000 FEW040 FEW100 22/22 Q1009 RMK SLP095 8/510 9/110
RKTN,2020-09-16 14:00,128.6589,35.8941,69.80,66.20,88.34,320.00,2.00,0.00,29.83,M,6.21,M,BKN,BKN,M,M,1800.00,2500.00,M,M,M,M,M,M,M,M,M,M,RKTN 161400Z 32002KT 9999 BKN018 BKN025 21/19 Q1010
RKTU,2020-09-16 14:00,127.4991,36.7166,68.00,68.00,100.00,70.00,1.00,0.00,29.83,M,4.97,M,BKN,OVC,M,M,1000.00,3000.00,M,M,M,M,M,M,M,M,M,M,RKTU 161400Z 07001KT 8000 BKN010 OVC030 20/20 Q1010
QEN,2020-09-16 14:00,128.7500,37.6667,60.80,64.40,M,250.00,6.00,0.00,M,M,6.21,13.00,OVC,M,M,M,300.00,M,M,M,M,M,M,M,M,M,M,M,KQEN 161400Z AUTO 25006G13KT 9999 OVC003 16/18 / RMK A02 TSNO
QES,2020-09-16 14:00,126.4500,36.9667,80.60,66.20,61.58,M,M,0.00,M,M,1.99,M,FEW,SCT,M,M,300.00,2500.00,M,M,BR,M,M,M,M,M,M,M,KQES 161400Z AUTO 3200 BR FEW003 SCT025 27/19 / RMK A02 TSNO
QEJ,2020-09-16 14:00,127.9500,38.2000,66.20,66.20,100.00,0.00,0.00,0.00,29.82,M,4.97,M,FEW,BKN,BKN,M,300.00,1100.00,3400.00,M,M,M,M,M,M,M,M,M,KQEJ 161400Z AUTO 00000KT 8000 FEW003 BKN011 BKN034 19/19 A2982 RMK A02 TSNO
QEI,2020-09-16 14:00,128.0667,37.9500,66.20,66.20,100.00,110.00,1.00,0.00,29.83,M,6.21,M,OVC,M,M,M,1100.00,M,M,M,M,M,M,M,M,M,M,M,KQEI 161400Z AUTO 11001KT 9999 OVC011 19/19 A2983 RMK A02 TSNO
QEQ,2020-09-16 14:00,127.5500,37.8500,69.80,71.60,M,230.00,2.00,0.00,29.85,M,3.73,M,BKN,M,M,M,1000.00,M,M,M,M,M,M,M,M,M,M,M,KQEQ 161400Z AUTO 23002KT 6000 BKN010 21/22 A2985 RMK A02 TSNO
QEW,2020-09-16 14:00,128.1500,36.4000,68.00,66.20,93.97,300.00,1.00,0.00,29.83,M,3.73,M,BKN,OVC,M,M,600.00,2100.00,M,M,,M,M,M,M,M,M,M,KQEW 161400Z AUTO 30001KT 6000 // BKN006 OVC021 20/19 A2983 RMK A02 TSNO
QEP,2020-09-16 14:00,127.2667,37.4000,68.00,66.20,93.97,140.00,1.00,0.00,29.84,M,6.21,M,SCT,M,M,M,4700.00,M,M,M,M,M,M,M,M,M,M,M,KQEP 161400Z AUTO 14001KT 9999 SCT047 20/19 A2984 RMK A02 TSNO
RKPK,2020-09-16 14:00,128.9382,35.1795,73.40,69.80,88.51,360.00,1.00,0.00,29.80,M,4.97,M,FEW,SCT,BKN,M,500.00,2500.00,5000.00,M,M,M,M,M,M,M,M,M,RKPK 161400Z 36001KT 8000 FEW005 SCT025 BKN050 23/21 Q1009
QFT,2020-09-16 14:00,127.3500,37.6000,68.00,66.20,93.97,180.00,2.00,0.00,29.81,M,M,M,SCT,BKN,M,M,1400.00,2200.00,M,M,,M,M,M,M,M,M,M,KQFT 161400Z AUTO 18002KT / // SCT014 BKN022 20/19 A2981 RMK A02 TSNO
QFU,2020-09-16 14:00,126.9667,37.8000,68.00,66.20,93.97,220.00,1.00,0.00,29.86,M,3.73,M,FEW,FEW,M,M,1700.00,2000.00,M,M,M,M,M,M,M,M,M,M,KQFU 161400Z AUTO 22001KT 6000 FEW017 FEW020 20/19 A2986 RMK A02 TSNO
QEX,2020-09-16 14:00,128.3000,36.1000,71.60,68.00,88.43,200.00,2.00,0.00,29.75,M,6.21,M,BKN,M,M,M,5000.00,M,M,M,M,M,M,M,M,M,M,M,KQEX 161400Z AUTO 20002KT 9999 BKN050 22/20 A2975 RMK A02 TSNO
QFW,2020-09-16 14:00,127.8833,37.6667,68.00,68.00,100.00,0.00,0.00,0.00,29.85,M,6.21,M,OVC,M,M,M,1700.00,M,M,M,M,M,M,M,M,M,M,M,KQFW 161400Z AUTO 00000KT 9999 OVC017 20/20 A2985 RMK A02 TSNO
QFV,2020-09-16 14:00,127.5000,38.0500,64.40,64.40,100.00,90.00,3.00,0.00,29.87,M,1.99,M,OVC,M,M,M,200.00,M,M,M,,M,M,M,M,M,M,M,KQFV 161400Z AUTO 09003KT 3200 // OVC002 18/18 A2987 RMK A02 TSNO
RKSI,2020-09-16 14:00,126.4500,37.4667,69.80,62.60,77.90,210.00,4.00,0.00,29.80,M,6.21,M,FEW,BKN,M,M,1200.00,3000.00,M,M,M,M,M,M,M,M,M,M,RKSI 161400Z 21004KT 170V240 9999 FEW012 BKN030 21/17 Q1009 NOSIG
RKSY,2020-09-16 14:03,126.9753,37.5241,68.00,66.20,93.97,0.00,0.00,0.00,29.80,1009.40,6.21,M,SCT,BKN,M,M,1700.00,2600.00,M,M,M,M,M,M,M,M,M,M,RKSY 161403Z AUTO 00000KT 9999 SCT017 BKN026 20/19 A2980 RMK AO2 BKN V SCT SLP094
RKJK,2020-09-16 14:06,126.6220,35.8994,71.60,69.80,94.06,240.00,3.00,0.00,29.81,1009.90,10.00,M,SCT,OVC,M,M,800.00,1600.00,M,M,M,M,M,M,M,M,M,M,RKJK 161406Z AUTO 24003KT 10SM SCT008 OVC016 22/21 A2981 RMK AO2 CIG 007V016 CIG 009 RWY36 SLP099 $
QFB,2020-09-16 14:10,128.7167,35.6500,69.80,68.00,94.01,0.00,0.00,0.00,29.87,M,3.73,M,SCT,BKN,M,M,700.00,1600.00,M,M,M,M,M,M,M,M,M,M,KQFB 161410Z AUTO 00000KT 6000 SCT007 BKN016 21/20 A2987 RMK A02 TSNO
QEN,2020-09-16 14:10,128.7500,37.6667,60.80,64.40,M,250.00,7.00,0.00,M,M,6.21,14.00,OVC,M,M,M,300.00,M,M,M,M,M,M,M,M,M,M,M,KQEN 161410Z AUTO 25007G14KT 9999 OVC003 16/18 / RMK A02 TSNO
QES,2020-09-16 14:10,126.4500,36.9667,80.60,66.20,61.58,M,M,0.00,M,M,1.99,M,SCT,BKN,M,M,300.00,2500.00,M,M,BR,M,M,M,M,M,M,M,KQES 161410Z AUTO 3200 BR SCT003 BKN025 27/19 / RMK A02 TSNO
QEJ,2020-09-16 14:10,127.9500,38.2000,66.20,64.40,93.92,170.00,1.00,0.00,29.81,M,3.73,M,BKN,BKN,BKN,M,300.00,1100.00,3400.00,M,M,M,M,M,M,M,M,M,KQEJ 161410Z AUTO 17001KT 6000 BKN003 BKN011 BKN034 19/18 A2981 RMK A02 TSNO
QEI,2020-09-16 14:10,128.0667,37.9500,66.20,66.20,100.00,100.00,1.00,0.00,29.83,M,6.21,M,OVC,M,M,M,1100.00,M,M,M,M,M,M,M,M,M,M,M,KQEI 161410Z AUTO 10001KT 9999 OVC011 19/19 A2983 RMK A02 TSNO
QEQ,2020-09-16 14:10,127.5500,37.8500,69.80,71.60,M,220.00,2.00,0.00,29.85,M,3.73,M,BKN,M,M,M,1100.00,M,M,M,M,M,M,M,M,M,M,M,KQEQ 161410Z AUTO 22002KT 6000 BKN011 21/22 A2985 RMK A02 TSNO
QEW,2020-09-16 14:10,128.1500,36.4000,68.00,68.00,100.00,190.00,1.00,0.00,29.83,M,3.73,M,BKN,OVC,M,M,800.00,2100.00,M,M,,M,M,M,M,M,M,M,KQEW 161410Z AUTO 19001KT 6000 // BKN008 OVC021 20/20 A2983 RMK A02 TSNO
QEP,2020-09-16 14:10,127.2667,37.4000,68.00,66.20,93.97,130.00,2.00,0.00,29.84,M,6.21,M,FEW,M,M,M,4600.00,M,M,M,M,M,M,M,M,M,M,M,KQEP 161410Z AUTO 13002KT 9999 FEW046 20/19 A2984 RMK A02 TSNO
QFT,2020-09-16 14:10,127.3500,37.6000,68.00,66.20,93.97,160.00,1.00,0.00,29.80,M,M,M,FEW,BKN,M,M,1300.00,2100.00,M,M,,M,M,M,M,M,M,M,KQFT 161410Z AUTO 16001KT / // FEW013 BKN021 20/19 A2980 RMK A02 TSNO
QFU,2020-09-16 14:10,126.9667,37.8000,68.00,66.20,93.97,150.00,1.00,0.00,29.86,M,3.73,M,FEW,FEW,SCT,M,1600.00,1700.00,3200.00,M,M,M,M,M,M,M,M,M,KQFU 161410Z AUTO 15001KT 6000 FEW016 FEW017 SCT032 20/19 A2986 RMK A02 TSNO
QEX,2020-09-16 14:10,128.3000,36.1000,71.60,68.00,88.43,210.00,2.00,0.00,29.75,M,6.21,M,BKN,M,M,M,5000.00,M,M,M,M,M,M,M,M,M,M,M,KQEX 161410Z AUTO 21002KT 9999 BKN050 22/20 A2975 RMK A02 TSNO
QFW,2020-09-16 14:10,127.8833,37.6667,68.00,68.00,100.00,80.00,1.00,0.00,29.84,M,6.21,M,OVC,M,M,M,1700.00,M,M,M,M,M,M,M,M,M,M,M,KQFW 161410Z AUTO 08001KT 9999 OVC017 20/20 A2984 RMK A02 TSNO
QFV,2020-09-16 14:10,127.5000,38.0500,64.40,62.60,93.88,100.00,3.00,0.00,29.87,M,1.99,M,OVC,M,M,M,200.00,M,M,M,,M,M,M,M,M,M,M,KQFV 161410Z AUTO 10003KT 3200 // OVC002 18/17 A2987 RMK A02 TSNO
RKJK,2020-09-16 14:16,126.6220,35.8994,71.60,69.80,94.06,0.00,0.00,0.00,29.80,1009.50,10.00,M,SCT,OVC,M,M,800.00,1400.00,M,M,M,M,M,M,M,M,M,M,RKJK 161416Z AUTO 00000KT 10SM SCT008 OVC014 22/21 A2980 RMK AO2 SLP095 $
QFB,2020-09-16 14:20,128.7167,35.6500,69.80,68.00,94.01,270.00,1.00,0.00,29.87,M,3.73,M,BKN,BKN,M,M,700.00,1600.00,M,M,M,M,M,M,M,M,M,M,KQFB 161420Z AUTO 27001KT 6000 BKN007 BKN016 21/20 A2987 RMK A02 TSNO
QEN,2020-09-16 14:20,128.7500,37.6667,60.80,64.40,M,250.00,7.00,0.00,M,M,6.21,16.00,OVC,M,M,M,300.00,M,M,M,M,M,M,M,M,M,M,M,KQEN 161420Z AUTO 25007G16KT 9999 OVC003 16/18 / RMK A02 TSNO
QES,2020-09-16 14:20,126.4500,36.9667,80.60,66.20,61.58,M,M,0.00,M,M,2.98,M,SCT,BKN,M,M,300.00,2600.00,M,M,M,M,M,M,M,M,M,M,KQES 161420Z AUTO 4800 SCT003 BKN026 27/19 / RMK A02 TSNO
QEJ,2020-09-16 14:20,127.9500,38.2000,66.20,64.40,93.92,0.00,0.00,0.00,29.82,M,3.73,M,FEW,SCT,SCT,BKN,300.00,1000.00,1100.00,3400.00,M,M,M,M,M,M,M,M,KQEJ 161420Z AUTO 00000KT 6000 FEW003 SCT010 SCT011 BKN034 19/18 A2982 RMK A02 TSNO
QEI,2020-09-16 14:20,128.0667,37.9500,66.20,64.40,93.92,90.00,1.00,0.00,29.83,M,6.21,M,OVC,M,M,M,1100.00,M,M,M,M,M,M,M,M,M,M,M,KQEI 161420Z AUTO 09001KT 9999 OVC011 19/18 A2983 RMK A02 TSNO
QEQ,2020-09-16 14:20,127.5500,37.8500,69.80,71.60,M,220.00,2.00,0.00,29.85,M,3.73,M,BKN,M,M,M,1100.00,M,M,M,M,M,M,M,M,M,M,M,KQEQ 161420Z AUTO 22002KT 6000 BKN011 21/22 A2985 RMK A02 TSNO
QEW,2020-09-16 14:20,128.1500,36.4000,68.00,66.20,93.97,0.00,0.00,0.00,29.82,M,2.98,M,BKN,OVC,M,M,1300.00,2100.00,M,M,,M,M,M,M,M,M,M,KQEW 161420Z AUTO 00000KT 4800 // BKN013 OVC021 20/19 A2982 RMK A02 TSNO
QEP,2020-09-16 14:20,127.2667,37.4000,68.00,66.20,93.97,120.00,1.00,0.00,29.84,M,6.21,M,CLR,M,M,M,M,M,M,M,M,M,M,M,M,M,M,M,KQEP 161420Z AUTO 12001KT 9999 CLR 20/19 A2984 RMK A02 TSNO
QFT,2020-09-16 14:20,127.3500,37.6000,68.00,66.20,93.97,150.00,1.00,0.00,29.80,M,M,M,BKN,M,M,M,2100.00,M,M,M,,M,M,M,M,M,M,M,KQFT 161420Z AUTO 15001KT / // BKN021 20/19 A2980 RMK A02 TSNO
QFU,2020-09-16 14:20,126.9667,37.8000,68.00,66.20,93.97,220.00,2.00,0.00,29.86,M,2.98,M,SCT,M,M,M,1500.00,M,M,M,M,M,M,M,M,M,M,M,KQFU 161420Z AUTO 22002KT 4800 SCT015 20/19 A2986 RMK A02 TSNO
QEX,2020-09-16 14:20,128.3000,36.1000,71.60,68.00,88.43,210.00,1.00,0.00,29.74,M,6.21,M,BKN,M,M,M,4900.00,M,M,M,M,M,M,M,M,M,M,M,KQEX 161420Z AUTO 21001KT 9999 BKN049 22/20 A2974 RMK A02 TSNO
QFW,2020-09-16 14:20,127.8833,37.6667,68.00,68.00,100.00,280.00,1.00,0.00,29.84,M,6.21,M,OVC,M,M,M,1800.00,M,M,M,M,M,M,M,M,M,M,M,KQFW 161420Z AUTO 28001KT 9999 OVC018 20/20 A2984 RMK A02 TSNO
QFV,2020-09-16 14:20,127.5000,38.0500,64.40,64.40,100.00,110.00,2.00,0.00,29.86,M,1.24,M,OVC,M,M,M,200.00,M,M,M,,M,M,M,M,M,M,M,KQFV 161420Z AUTO 11002KT 2000 // OVC002 18/18 A2986 RMK A02 TSNO
RKNR,2020-09-16 14:27,128.9000,37.1000,62.60,62.60,100.00,210.00,2.00,0.00,29.87,M,1.49,M,FEW,BKN,M,M,1000.00,2000.00,M,M,-RA BR,M,M,M,M,M,M,M,RKNR 161427Z 21002KT 2400 -RA BR FEW010 BKN020 17/17 A2987 RMK CIG020
QFB,2020-09-16 14:30,128.7167,35.6500,69.80,68.00,94.01,280.00,1.00,0.00,29.87,M,3.73,M,BKN,M,M,M,800.00,M,M,M,M,M,M,M,M,M,M,M,KQFB 161430Z AUTO 28001KT 6000 BKN008 21/20 A2987 RMK A02 TSNO
QEN,2020-09-16 14:30,128.7500,37.6667,60.80,64.40,M,250.00,8.00,0.00,M,M,6.21,15.00,OVC,M,M,M,400.00,M,M,M,M,M,M,M,M,M,M,M,KQEN 161430Z AUTO 25008G15KT 9999 OVC004 16/18 / RMK A02 TSNO
QES,2020-09-16 14:30,126.4500,36.9667,80.60,66.20,61.58,M,M,0.00,M,M,2.98,M,FEW,BKN,BKN,M,300.00,1800.00,2800.00,M,M,M,M,M,M,M,M,M,KQES 161430Z AUTO 4800 FEW003 BKN018 BKN028 27/19 / RMK A02 TSNO
QEJ,2020-09-16 14:30,127.9500,38.2000,64.40,64.40,100.00,0.00,0.00,0.00,29.81,M,2.98,M,BKN,M,M,M,300.00,M,M,M,BR,M,M,M,M,M,M,M,KQEJ 161430Z AUTO 00000KT 4800 BR BKN003 18/18 A2981 RMK A02 TSNO
QEI,2020-09-16 14:30,128.0667,37.9500,66.20,64.40,93.92,80.00,1.00,0.00,29.82,M,6.21,M,BKN,OVC,M,M,1100.00,3600.00,M,M,M,M,M,M,M,M,M,M,KQEI 161430Z AUTO 08001KT 9999 BKN011 OVC036 19/18 A2982 RMK A02 TSNO
QEQ,2020-09-16 14:30,127.5500,37.8500,69.80,71.60,M,230.00,2.00,0.00,M,M,2.98,M,BKN,BKN,M,M,1200.00,3200.00,M,M,M,M,M,M,M,M,M,M,KQEQ 161430Z AUTO 23002KT 4800 BKN012 BKN032 21/22 / RMK A02 TSNO
QEW,2020-09-16 14:30,128.1500,36.4000,68.00,66.20,93.97,120.00,1.00,0.00,29.82,M,3.73,M,OVC,M,M,M,1300.00,M,M,M,,M,M,M,M,M,M,M,KQEW 161430Z AUTO 12001KT 6000 // OVC013 20/19 A2982 RMK A02 TSNO
QEP,2020-09-16 14:30,127.2667,37.4000,68.00,66.20,93.97,120.00,1.00,0.00,29.84,M,6.21,M,CLR,M,M,M,M,M,M,M,M,M,M,M,M,M,M,M,KQEP 161430Z AUTO 12001KT 9999 CLR 20/19 A2984 RMK A02 TSNO
QFT,2020-09-16 14:30,127.3500,37.6000,68.00,66.20,93.97,0.00,0.00,0.00,29.81,M,M,M,BKN,M,M,M,2100.00,M,M,M,,M,M,M,M,M,M,M,KQFT 161430Z AUTO 00000KT / // BKN021 20/19 A2981 RMK A02 TSNO
QFU,2020-09-16 14:30,126.9667,37.8000,68.00,66.20,93.97,270.00,1.00,0.00,29.86,M,2.98,M,SCT,SCT,M,M,1500.00,2700.00,M,M,M,M,M,M,M,M,M,M,KQFU 161430Z AUTO 27001KT 4800 SCT015 SCT027 20/19 A2986 RMK A02 TSNO
QEX,2020-09-16 14:30,128.3000,36.1000,71.60,68.00,88.43,260.00,2.00,0.00,29.74,M,6.21,M,FEW,BKN,M,M,1300.00,4700.00,M,M,M,M,M,M,M,M,M,M,KQEX 161430Z AUTO 26002KT 9999 FEW013 BKN047 22/20 A2974 RMK A02 TSNO
QFW,2020-09-16 14:30,127.8833,37.6667,68.00,68.00,100.00,240.00,1.00,0.00,29.84,M,6.21,M,OVC,M,M,M,1800.00,M,M,M,M,M,M,M,M,M,M,M,KQFW 161430Z AUTO 24001KT 9999 OVC018 20/20 A2984 RMK A02 TSNO
QFV,2020-09-16 14:30,127.5000,38.0500,64.40,64.40,100.00,0.00,0.00,0.00,29.86,M,1.99,M,OVC,M,M,M,200.00,M,M,M,,M,M,M,M,M,M,M,KQFV 161430Z AUTO 00000KT 3200 // OVC002 18/18 A2986 RMK A02 TSNO
RKSI,2020-09-16 14:30,126.4500,37.4667,69.80,64.40,82.98,210.00,3.00,0.00,29.80,M,6.21,M,FEW,BKN,M,M,1200.00,3000.00,M,M,M,M,M,M,M,M,M,M,RKSI 161430Z 21003KT 140V250 9999 FEW012 BKN030 21/18 Q1009 NOSIG
QFB,2020-09-16 14:40,128.7167,35.6500,69.80,68.00,94.01,290.00,1.00,0.00,29.87,M,2.98,M,BKN,M,M,M,1100.00,M,M,M,M,M,M,M,M,M,M,M,KQFB 161440Z AUTO 29001KT 4800 BKN011 21/20 A2987 RMK A02 TSNO
QEN,2020-09-16 14:40,128.7500,37.6667,60.80,64.40,M,240.00,8.00,0.00,M,M,6.21,15.00,OVC,M,M,M,400.00,M,M,M,M,M,M,M,M,M,M,M,KQEN 161440Z AUTO 24008G15KT 9999 OVC004 16/18 / RMK A02 TSNO
QES,2020-09-16 14:40,126.4500,36.9667,80.60,66.20,61.58,M,M,0.00,M,M,3.73,M,BKN,BKN,M,M,1800.00,3000.00,M,M,M,M,M,M,M,M,M,M,KQES 161440Z AUTO 6000 BKN018 BKN030 27/19 / RMK A02 TSNO
QEJ,2020-09-16 14:40,127.9500,38.2000,64.40,64.40,100.00,0.00,0.00,0.00,29.81,M,2.49,M,BKN,M,M,M,200.00,M,M,M,BR,M,M,M,M,M,M,M,KQEJ 161440Z AUTO 00000KT 4000 BR BKN002 18/18 A2981 RMK A02 TSNO
QEI,2020-09-16 14:40,128.0667,37.9500,66.20,64.40,93.92,50.00,1.00,0.00,29.82,M,6.21,M,SCT,BKN,BKN,M,1300.00,2600.00,3600.00,M,M,M,M,M,M,M,M,M,KQEI 161440Z AUTO 05001KT 9999 SCT013 BKN026 BKN036 19/18 A2982 RMK A02 TSNO
QEQ,2020-09-16 14:40,127.5500,37.8500,69.80,71.60,M,230.00,1.00,0.00,M,M,2.98,M,BKN,BKN,M,M,1100.00,3100.00,M,M,M,M,M,M,M,M,M,M,KQEQ 161440Z AUTO 23001KT 4800 BKN011 BKN031 21/22 / RMK A02 TSNO
QEW,2020-09-16 14:40,128.1500,36.4000,68.00,66.20,93.97,120.00,1.00,0.00,29.81,M,3.73,M,OVC,M,M,M,1300.00,M,M,M,,M,M,M,M,M,M,M,KQEW 161440Z AUTO 12001KT 6000 // OVC013 20/19 A2981 RMK A02 TSNO
QEP,2020-09-16 14:40,127.2667,37.4000,66.20,64.40,93.92,360.00,1.00,0.00,29.84,M,6.21,M,FEW,M,M,M,1700.00,M,M,M,M,M,M,M,M,M,M,M,KQEP 161440Z AUTO 36001KT 9999 FEW017 19/18 A2984 RMK A02 TSNO
QFT,2020-09-16 14:40,127.3500,37.6000,68.00,66.20,93.97,140.00,1.00,0.00,29.80,M,M,M,BKN,M,M,M,2200.00,M,M,M,,M,M,M,M,M,M,M,KQFT 161440Z AUTO 14001KT / // BKN022 20/19 A2980 RMK A02 TSNO
QFU,2020-09-16 14:40,126.9667,37.8000,68.00,66.20,93.97,190.00,1.00,0.00,29.86,M,2.98,M,SCT,M,M,M,1500.00,M,M,M,M,M,M,M,M,M,M,M,KQFU 161440Z AUTO 19001KT 4800 SCT015 20/19 A2986 RMK A02 TSNO
QEX,2020-09-16 14:40,128.3000,36.1000,71.60,68.00,88.43,300.00,1.00,0.00,29.74,M,6.21,M,FEW,BKN,M,M,1200.00,4400.00,M,M,M,M,M,M,M,M,M,M,KQEX 161440Z AUTO 30001KT 9999 FEW012 BKN044 22/20 A2974 RMK A02 TSNO
QFW,2020-09-16 14:40,127.8833,37.6667,68.00,68.00,100.00,0.00,0.00,0.00,29.83,M,6.21,M,OVC,M,M,M,1800.00,M,M,M,M,M,M,M,M,M,M,M,KQFW 161440Z AUTO 00000KT 9999 OVC018 20/20 A2983 RMK A02 TSNO
QFV,2020-09-16 14:40,127.5000,38.0500,64.40,64.40,100.00,120.00,2.00,0.00,29.86,M,2.49,M,OVC,M,M,M,200.00,M,M,M,,M,M,M,M,M,M,M,KQFV 161440Z AUTO 12002KT 4000 // OVC002 18/18 A2986 RMK A02 TSNO
RKSG,2020-09-16 14:46,127.0311,36.9622,68.00,66.20,93.97,150.00,2.00,0.00,29.82,1009.80,2.50,M,SCT,BKN,M,M,1100.00,1400.00,M,M,BR,M,M,M,M,M,M,M,RKSG 161446Z 15002KT 2 1/2SM BR SCT011 BKN014 20/19 A2982 RMK AO2A SLP098 $
RKJK,2020-09-16 14:49,126.6220,35.8994,71.60,69.80,94.06,220.00,3.00,0.00,29.81,1009.90,10.00,M,FEW,OVC,M,M,700.00,1400.00,M,M,M,M,M,M,M,M,M,M,RKJK 161449Z AUTO 22003KT 10SM FEW007 OVC014 22/21 A2981 RMK AO2 SLP099 $
QFB,2020-09-16 14:50,128.7167,35.6500,69.80,68.00,94.01,300.00,2.00,0.00,29.87,M,2.49,M,BKN,M,M,M,1400.00,M,M,M,BR,M,M,M,M,M,M,M,KQFB 161450Z AUTO 30002KT 4000 BR BKN014 21/20 A2987 RMK A02 TSNO
QEN,2020-09-16 14:50,128.7500,37.6667,60.80,64.40,M,240.00,8.00,0.00,M,M,6.21,14.00,OVC,M,M,M,500.00,M,M,M,M,M,M,M,M,M,M,M,KQEN 161450Z AUTO 24008G14KT 9999 OVC005 16/18 / RMK A02 TSNO
QES,2020-09-16 14:50,126.4500,36.9667,80.60,66.20,61.58,M,M,0.00,M,M,6.21,M,BKN,M,M,M,1800.00,M,M,M,M,M,M,M,M,M,M,M,KQES 161450Z AUTO 9999 BKN018 27/19 / RMK A02 TSNO
QEJ,2020-09-16 14:50,127.9500,38.2000,64.40,64.40,100.00,160.00,1.00,0.00,29.80,M,1.74,M,BKN,BKN,M,M,200.00,1100.00,M,M,BR,M,M,M,M,M,M,M,KQEJ 161450Z AUTO 16001KT 2800 BR BKN002 BKN011 18/18 A2980 RMK A02 TSNO
QEI,2020-09-16 14:50,128.0667,37.9500,66.20,64.40,93.92,130.00,1.00,0.00,29.81,M,6.21,M,FEW,BKN,M,M,1200.00,3400.00,M,M,M,M,M,M,M,M,M,M,KQEI 161450Z AUTO 13001KT 9999 FEW012 BKN034 19/18 A2981 RMK A02 TSNO
QEQ,2020-09-16 14:50,127.5500,37.8500,69.80,71.60,M,200.00,1.00,0.00,M,M,2.98,M,SCT,BKN,M,M,1000.00,3100.00,M,M,BR,M,M,M,M,M,M,M,KQEQ 161450Z AUTO 20001KT 4800 BR SCT010 BKN031 21/22 / RMK A02 TSNO
QEW,2020-09-16 14:50,128.1500,36.4000,68.00,68.00,100.00,100.00,1.00,0.00,29.81,M,3.73,M,OVC,M,M,M,1300.00,M,M,M,,M,M,M,M,M,M,M,KQEW 161450Z AUTO 10001KT 6000 // OVC013 20/20 A2981 RMK A02 TSNO
QEP,2020-09-16 14:50,127.2667,37.4000,66.20,66.20,100.00,120.00,1.00,0.00,29.84,M,6.21,M,SCT,M,M,M,1600.00,M,M,M,M,M,M,M,M,M,M,M,KQEP 161450Z AUTO 12001KT 9999 SCT016 19/19 A2984 RMK A02 TSNO
QFT,2020-09-16 14:50,127.3500,37.6000,68.00,66.20,93.97,170.00,1.00,0.00,29.81,M,M,M,BKN,M,M,M,2000.00,M,M,M,,M,M,M,M,M,M,M,KQFT 161450Z AUTO 17001KT / // BKN020 20/19 A2981 RMK A02 TSNO
QFU,2020-09-16 14:50,126.9667,37.8000,68.00,66.20,93.97,280.00,1.00,0.00,29.86,M,2.98,M,BKN,BKN,M,M,1500.00,2600.00,M,M,M,M,M,M,M,M,M,M,KQFU 161450Z AUTO 28001KT 4800 BKN015 BKN026 20/19 A2986 RMK A02 TSNO
QEX,2020-09-16 14:50,128.3000,36.1000,71.60,68.00,88.43,310.00,2.00,0.00,29.74,M,6.21,M,FEW,OVC,M,M,1200.00,4300.00,M,M,M,M,M,M,M,M,M,M,KQEX 161450Z AUTO 31002KT 9999 FEW012 OVC043 22/20 A2974 RMK A02 TSNO
QFW,2020-09-16 14:50,127.8833,37.6667,68.00,68.00,100.00,190.00,1.00,0.00,29.83,M,6.21,M,OVC,M,M,M,1900.00,M,M,M,M,M,M,M,M,M,M,M,KQFW 161450Z AUTO 19001KT 9999 OVC019 20/20 A2983 RMK A02 TSNO
QFV,2020-09-16 14:50,127.5000,38.0500,64.40,62.60,93.88,160.00,1.00,0.00,29.86,M,1.99,M,OVC,M,M,M,200.00,M,M,M,,M,M,M,M,M,M,M,KQFV 161450Z AUTO 16001KT 3200 // OVC002 18/17 A2986 RMK A02 TSNO
RKJK,2020-09-16 14:56,126.6220,35.8994,72.10,70.00,93.11,220.00,3.00,0.00,29.81,1009.90,10.00,M,FEW,OVC,M,M,700.00,1600.00,M,M,M,M,M,M,M,M,M,M,RKJK 161456Z AUTO 22003KT 10SM FEW007 OVC016 22/21 A2981 RMK AO2 SLP099 T02230211 402440205 58001 $
RKSG,2020-09-16 14:56,127.0311,36.9622,68.70,66.00,91.10,160.00,2.00,0.00,29.82,1009.80,2.50,M,SCT,BKN,M,M,1100.00,2200.00,M,M,BR,M,M,M,M,M,M,M,RKSG 161456Z 16002KT 2 1/2SM BR SCT011 BKN022 20/19 A2982 RMK AO2A SLP098 T02040189 58005 $
RKSO,2020-09-16 14:58,127.0296,37.0906,67.80,67.50,98.97,0.00,0.00,0.00,29.80,1009.40,7.00,M,OVC,M,M,M,2000.00,M,M,M,M,M,M,M,M,M,M,M,RKSO 161458Z 00000KT 7SM OVC020 20/20 A2980 RMK AO2A SLP094 T01990197 402480198 58005 $
RKSY,2020-09-16 14:58,126.9753,37.5241,69.40,66.90,91.76,0.00,0.00,0.00,29.80,1009.40,6.21,M,SCT,BKN,M,M,1400.00,2600.00,M,M,M,M,M,M,M,M,M,M,RKSY 161458Z AUTO 00000KT 9999 SCT014 BKN026 21/19 A2980 RMK AO2 SLP094 T02080194 58003
RKPS,2020-09-16 15:00,128.0704,35.0885,71.60,69.80,94.06,20.00,1.00,0.00,29.83,1010.20,5.59,M,BKN,BKN,M,M,1000.00,1500.00,M,M,M,M,M,M,M,M,M,M,RKPS 161500Z 02001KT 9000 BKN010 BKN015 22/21 Q1010 RMK CIG010 SLP102 70006 8/600 9/700
RKJB,2020-09-16 15:00,126.3800,34.9800,71.60,69.80,94.06,350.00,3.00,0.00,29.83,M,4.97,M,NCD,M,M,M,M,M,M,M,M,M,M,M,M,M,M,M,RKJB 161500Z AUTO 35003KT 8000 NCD 22/21 Q1010
RKJJ,2020-09-16 15:00,126.8089,35.1264,71.60,71.60,100.00,300.00,3.00,0.00,29.83,1010.10,6.21,M,SCT,BKN,M,M,1500.00,3000.00,M,M,M,M,M,M,M,M,M,M,RKJJ 161500Z 30003KT 9999 SCT015 BKN030 22/22 Q1010 RMK CIG030 SLP101 70011 8/500 9/500
RKPC,2020-09-16 15:00,126.4930,33.5113,73.40,71.60,94.10,240.00,5.00,0.00,29.85,M,6.21,M,FEW,BKN,BKN,M,1500.00,3000.00,16000.00,M,M,M,M,M,M,M,M,M,RKPC 161500Z 24005KT 9999 FEW015 BKN030 BKN160 23/22 Q1011 NOSIG
RKNY,2020-09-16 15:00,128.6692,38.0613,68.00,64.40,88.26,160.00,1.00,0.00,29.74,M,1.12,M,NCD,M,M,M,M,M,M,M,,M,M,M,M,M,M,M,RKNY 161500Z AUTO 16001KT 1800 // NCD 20/18 Q1007
RKSM,2020-09-16 15:00,127.1139,37.4458,68.00,66.20,93.97,180.00,1.00,0.00,29.82,M,4.97,M,SCT,BKN,M,M,1500.00,3000.00,M,M,BR,M,M,M,M,M,M,M,RKSM 161500Z 18001KT 8000 BR SCT015 BKN030 20/19 A2982
QFB,2020-09-16 15:00,128.7167,35.6500,69.80,68.00,94.01,290.00,1.00,0.00,29.87,M,2.49,M,BKN,M,M,M,1100.00,M,M,M,BR,M,M,M,M,M,M,M,KQFB 161500Z AUTO 29001KT 4000 BR BKN011 21/20 A2987 RMK A02 TSNO
RKSS,2020-09-16 15:00,126.7906,37.5583,68.00,66.20,93.97,190.00,3.00,0.00,29.80,M,3.73,M,FEW,BKN,M,M,1500.00,2500.00,M,M,M,M,M,M,M,M,M,M,RKSS 161500Z 19003KT 6000 FEW015 BKN025 20/19 Q1009 NOSIG
RKTH,2020-09-16 15:00,129.4205,35.9879,71.60,71.60,100.00,210.00,5.00,0.00,29.80,1009.00,5.59,M,FEW,FEW,M,M,4000.00,10000.00,M,M,M,M,M,M,M,M,M,M,RKTH 161500Z 21005KT 9000 FEW040 FEW100 22/22 Q1009 RMK SLP090 70002 8/510 9/110
RKTN,2020-09-16 15:00,128.6589,35.8941,68.00,66.20,93.97,340.00,1.00,0.00,29.80,M,6.21,M,BKN,BKN,M,M,1700.00,2500.00,M,M,M,M,M,M,M,M,M,M,RKTN 161500Z 34001KT 9999 BKN017 BKN025 20/19 Q1009
RKTU,2020-09-16 15:00,127.4991,36.7166,68.00,68.00,100.00,10.00,2.00,0.00,29.83,M,3.73,M,FEW,BKN,OVC,M,600.00,1000.00,3000.00,M,M,M,M,M,M,M,M,M,RKTU 161500Z 01002KT 6000 FEW006 BKN010 OVC030 20/20 Q1010
QEN,2020-09-16 15:00,128.7500,37.6667,60.80,64.40,M,240.00,6.00,0.00,M,M,6.21,12.00,OVC,M,M,M,500.00,M,M,M,M,M,M,M,M,M,M,M,KQEN 161500Z AUTO 24006G12KT 9999 OVC005 16/18 / RMK A02 TSNO
QES,2020-09-16 15:00,126.4500,36.9667,80.60,66.20,61.58,M,M,0.00,M,M,3.73,M,BKN,BKN,M,M,1800.00,3300.00,M,M,M,M,M,M,M,M,M,M,KQES 161500Z AUTO 6000 BKN018 BKN033 27/19 / RMK A02 TSNO
QEJ,2020-09-16 15:00,127.9500,38.2000,64.40,64.40,100.00,150.00,1.00,0.00,29.81,M,3.73,M,SCT,BKN,BKN,M,100.00,1100.00,1200.00,M,M,M,M,M,M,M,M,M,KQEJ 161500Z AUTO 15001KT 6000 SCT001 BKN011 BKN012 18/18 A2981 RMK A02 TSNO
QEI,2020-09-16 15:00,128.0667,37.9500,66.20,64.40,93.92,120.00,2.00,0.00,29.81,M,5.59,M,FEW,BKN,M,M,2300.00,2800.00,M,M,,M,M,M,M,M,M,M,KQEI 161500Z AUTO 12002KT 9000 // FEW023 BKN028 19/18 A2981 RMK A02 TSNO
QEQ,2020-09-16 15:00,127.5500,37.8500,69.80,71.60,M,210.00,2.00,0.00,M,M,1.99,M,FEW,SCT,M,M,1000.00,3100.00,M,M,BR,M,M,M,M,M,M,M,KQEQ 161500Z AUTO 21002KT 3200 BR FEW010 SCT031 21/22 / RMK A02 TSNO
QEW,2020-09-16 15:00,128.1500,36.4000,68.00,66.20,93.97,180.00,1.00,0.00,29.81,M,2.98,M,OVC,M,M,M,1300.00,M,M,M,,M,M,M,M,M,M,M,KQEW 161500Z AUTO 18001KT 4800 // OVC013 20/19 A2981 RMK A02 TSNO
QEP,2020-09-16 15:00,127.2667,37.4000,68.00,66.20,93.97,150.00,1.00,0.00,29.84,M,6.21,M,BKN,M,M,M,1200.00,M,M,M,M,M,M,M,M,M,M,M,KQEP 161500Z AUTO 15001KT 9999 BKN012 20/19 A2984 RMK A02 TSNO
RKPK,2020-09-16 15:00,128.9382,35.1795,73.40,69.80,88.51,360.00,1.00,0.00,29.80,M,2.98,M,FEW,SCT,BKN,M,1500.00,2500.00,5000.00,M,BR,M,M,M,M,M,M,M,RKPK 161500Z 36001KT 4800 BR FEW015 SCT025 BKN050 23/21 Q1009
QFT,2020-09-16 15:00,127.3500,37.6000,68.00,66.20,93.97,180.00,1.00,0.00,29.80,M,M,M,BKN,M,M,M,2000.00,M,M,M,,M,M,M,M,M,M,M,KQFT 161500Z AUTO 18001KT / // BKN020 20/19 A2980 RMK A02 TSNO
QFU,2020-09-16 15:00,126.9667,37.8000,68.00,66.20,93.97,140.00,1.00,0.00,29.86,M,2.98,M,BKN,M,M,M,1400.00,M,M,M,M,M,M,M,M,M,M,M,KQFU 161500Z AUTO 14001KT 4800 BKN014 20/19 A2986 RMK A02 TSNO
QEX,2020-09-16 15:00,128.3000,36.1000,69.80,68.00,94.01,340.00,2.00,0.00,29.74,M,6.21,M,FEW,BKN,M,M,1200.00,4000.00,M,M,M,M,M,M,M,M,M,M,KQEX 161500Z AUTO 34002KT 9999 FEW012 BKN040 21/20 A2974 RMK A02 TSNO
QFW,2020-09-16 15:00,127.8833,37.6667,68.00,69.80,M,240.00,2.00,0.00,29.83,M,6.21,M,OVC,M,M,M,1900.00,M,M,M,M,M,M,M,M,M,M,M,KQFW 161500Z AUTO 24002KT 9999 OVC019 20/21 A2983 RMK A02 TSNO
QFV,2020-09-16 15:00,127.5000,38.0500,64.40,62.60,93.88,150.00,1.00,0.00,29.87,M,1.99,M,OVC,M,M,M,200.00,M,M,M,,M,M,M,M,M,M,M,KQFV 161500Z AUTO 15001KT 3200 // OVC002 18/17 A2987 RMK A02 TSNO
RKSI,2020-09-16 15:00,126.4500,37.4667,69.80,64.40,82.98,210.00,2.00,0.00,29.80,M,6.21,M,FEW,BKN,M,M,1200.00,3000.00,M,M,M,M,M,M,M,M,M,M,RKSI 161500Z 21002KT 9999 FEW012 BKN030 21/18 Q1009 NOSIG
RKSY,2020-09-16 15:03,126.9753,37.5241,69.80,66.20,88.34,0.00,0.00,0.00,29.80,1009.40,6.21,M,BKN,BKN,M,M,1400.00,2600.00,M,M,M,M,M,M,M,M,M,M,RKSY 161503Z AUTO 00000KT 9999 BKN014 BKN026 21/19 A2980 RMK AO2 CIG 014V026 BKN014 V SCT SLP094
QFB,2020-09-16 15:10,128.7167,35.6500,69.80,68.00,94.01,40.00,1.00,0.00,29.87,M,1.99,M,BKN,M,M,M,1100.00,M,M,M,BR,M,M,M,M,M,M,M,KQFB 161510Z AUTO 04001KT 3200 BR BKN011 21/20 A2987 RMK A02 TSNO
QEN,2020-09-16 15:10,128.7500,37.6667,60.80,64.40,M,240.00,7.00,0.00,M,M,6.21,14.00,BKN,M,M,M,500.00,M,M,M,M,M,M,M,M,M,M,M,KQEN 161510Z AUTO 24007G14KT 9999 BKN005 16/18 / RMK A02 TSNO
QES,2020-09-16 15:10,126.4500,36.9667,80.60,66.20,61.58,M,M,0.00,M,M,3.73,M,BKN,BKN,M,M,1100.00,3300.00,M,M,M,M,M,M,M,M,M,M,KQES 161510Z AUTO 6000 BKN011 BKN033 27/19 / RMK A02 TSNO
QEJ,2020-09-16 15:10,127.9500,38.2000,64.40,64.40,100.00,170.00,1.00,0.00,29.81,M,5.59,M,BKN,BKN,M,M,100.00,1100.00,M,M,M,M,M,M,M,M,M,M,KQEJ 161510Z AUTO 17001KT 9000 BKN001 BKN011 18/18 A2981 RMK A02 TSNO
QEI,2020-09-16 15:10,128.0667,37.9500,66.20,64.40,93.92,100.00,1.00,0.00,29.82,M,6.21,M,BKN,M,M,M,2700.00,M,M,M,M,M,M,M,M,M,M,M,KQEI 161510Z AUTO 10001KT 9999 BKN027 19/18 A2982 RMK A02 TSNO
QEQ,2020-09-16 15:10,127.5500,37.8500,69.80,71.60,M,190.00,1.00,0.00,M,M,1.99,M,FEW,M,M,M,2000.00,M,M,M,BR,M,M,M,M,M,M,M,KQEQ 161510Z AUTO 19001KT 3200 BR FEW020 21/22 / RMK A02 TSNO
QEW,2020-09-16 15:10,128.1500,36.4000,68.00,68.00,100.00,240.00,1.00,0.00,29.81,M,2.98,M,OVC,M,M,M,1300.00,M,M,M,,M,M,M,M,M,M,M,KQEW 161510Z AUTO 24001KT 4800 // OVC013 20/20 A2981 RMK A02 TSNO
QEP,2020-09-16 15:10,127.2667,37.4000,68.00,66.20,93.97,0.00,0.00,0.00,29.84,M,6.21,M,OVC,M,M,M,1200.00,M,M,M,M,M,M,M,M,M,M,M,KQEP 161510Z AUTO 00000KT 9999 OVC012 20/19 A2984 RMK A02 TSNO
QFT,2020-09-16 15:10,127.3500,37.6000,68.00,66.20,93.97,210.00,1.00,0.00,29.80,M,M,M,BKN,M,M,M,2000.00,M,M,M,,M,M,M,M,M,M,M,KQFT 161510Z AUTO 21001KT / // BKN020 20/19 A2980 RMK A02 TSNO
QFU,2020-09-16 15:10,126.9667,37.8000,68.00,66.20,93.97,0.00,0.00,0.00,29.86,M,2.98,M,BKN,M,M,M,1400.00,M,M,M,M,M,M,M,M,M,M,M,KQFU 161510Z AUTO 00000KT 4800 BKN014 20/19 A2986 RMK A02 TSNO
QEX,2020-09-16 15:10,128.3000,36.1000,69.80,68.00,94.01,350.00,1.00,0.00,29.74,M,5.59,M,SCT,BKN,M,M,1100.00,3900.00,M,M,,M,M,M,M,M,M,M,KQEX 161510Z AUTO 35001KT 9000 // SCT011 BKN039 21/20 A2974 RMK A02 TSNO
QFW,2020-09-16 15:10,127.8833,37.6667,68.00,69.80,M,290.00,1.00,0.00,29.83,M,6.21,M,OVC,M,M,M,1900.00,M,M,M,M,M,M,M,M,M,M,M,KQFW 161510Z AUTO 29001KT 9999 OVC019 20/21 A2983 RMK A02 TSNO
QFV,2020-09-16 15:10,127.5000,38.0500,64.40,62.60,93.88,120.00,2.00,0.00,29.86,M,0.99,M,OVC,M,M,M,200.00,M,M,M,,M,M,M,M,M,M,M,KQFV 161510Z AUTO 12002KT 1600 // OVC002 18/17 A2986 RMK A02 TSNO
RKPK,2020-09-16 15:15,128.9382,35.1795,71.60,69.80,94.06,340.00,1.00,0.00,29.80,M,1.99,M,FEW,SCT,BKN,M,500.00,2000.00,5000.00,M,BR,M,M,M,M,M,M,M,RKPK 161515Z 34001KT 3200 BR FEW005 SCT020 BKN050 22/21 Q1009 RMK CIG050
RKPK,2020-09-16 15:17,128.9382,35.1795,71.60,69.80,94.06,340.00,1.00,0.00,29.80,M,1.99,M,FEW,SCT,BKN,M,500.00,2000.00,5000.00,M,BR,M,M,M,M,M,M,M,RKPK 161517Z 34001KT 3200 BR FEW005 SCT020 BKN050 22/21 A2980 RMK CIG050
RKPK,2020-09-16 15:18,128.9382,35.1795,71.60,69.80,94.06,340.00,1.00,0.00,29.80,M,1.99,M,FEW,SCT,BKN,M,500.00,2000.00,5000.00,M,BR,M,M,M,M,M,M,M,RKPK 161518Z 34001KT 3200 BR FEW005 SCT020 BKN050 22/21 A2980 RMK CIG050
RKNN,2020-09-16 15:20,128.9436,37.7536,73.40,64.40,73.44,250.00,12.00,0.00,29.77,M,6.21,M,FEW,M,M,M,8000.00,M,M,M,M,M,M,M,M,M,M,M,RKNN 161520Z 25012KT 9999 FEW080 23/18 A2977
QFB,2020-09-16 15:20,128.7167,35.6500,69.80,68.00,94.01,0.00,0.00,0.00,29.87,M,1.99,M,SCT,BKN,M,M,500.00,1100.00,M,M,BR,M,M,M,M,M,M,M,KQFB 161520Z AUTO 00000KT 3200 BR SCT005 BKN011 21/20 A2987 RMK A02 TSNO
QEN,2020-09-16 15:20,128.7500,37.6667,60.80,64.40,M,250.00,6.00,0.00,M,M,6.21,14.00,BKN,M,M,M,500.00,M,M,M,M,M,M,M,M,M,M,M,KQEN 161520Z AUTO 25006G14KT 9999 BKN005 16/18 / RMK A02 TSNO
QES,2020-09-16 15:20,126.4500,36.9667,80.60,66.20,61.58,M,M,0.00,M,M,4.97,M,SCT,BKN,BKN,M,900.00,2300.00,3300.00,M,M,M,M,M,M,M,M,M,KQES 161520Z AUTO 8000 SCT009 BKN023 BKN033 27/19 / RMK A02 TSNO
QEJ,2020-09-16 15:20,127.9500,38.2000,64.40,64.40,100.00,170.00,1.00,0.00,29.81,M,6.21,M,BKN,BKN,BKN,M,300.00,900.00,1000.00,M,M,M,M,M,M,M,M,M,KQEJ 161520Z AUTO 17001KT 9999 BKN003 BKN009 BKN010 18/18 A2981 RMK A02 TSNO
QEI,2020-09-16 15:20,128.0667,37.9500,66.20,64.40,93.92,150.00,2.00,0.00,29.82,M,5.59,M,BKN,M,M,M,2700.00,M,M,M,,M,M,M,M,M,M,M,KQEI 161520Z AUTO 15002KT 9000 // BKN027 19/18 A2982 RMK A02 TSNO
QEQ,2020-09-16 15:20,127.5500,37.8500,69.80,71.60,M,230.00,2.00,0.00,M,M,1.99,M,FEW,FEW,M,M,1800.00,3500.00,M,M,BR,M,M,M,M,M,M,M,KQEQ 161520Z AUTO 23002KT 3200 BR FEW018 FEW035 21/22 / RMK A02 TSNO
QEW,2020-09-16 15:20,128.1500,36.4000,68.00,68.00,100.00,0.00,0.00,0.00,29.81,M,2.49,M,OVC,M,M,M,1300.00,M,M,M,,M,M,M,M,M,M,M,KQEW 161520Z AUTO 00000KT 4000 // OVC013 20/20 A2981 RMK A02 TSNO
QEP,2020-09-16 15:20,127.2667,37.4000,68.00,66.20,93.97,140.00,1.00,0.00,29.84,M,6.21,M,OVC,M,M,M,1200.00,M,M,M,M,M,M,M,M,M,M,M,KQEP 161520Z AUTO 14001KT 9999 OVC012 20/19 A2984 RMK A02 TSNO
QFT,2020-09-16 15:20,127.3500,37.6000,68.00,66.20,93.97,170.00,1.00,0.00,29.80,M,M,M,OVC,M,M,M,2200.00,M,M,M,,M,M,M,M,M,M,M,KQFT 161520Z AUTO 17001KT / // OVC022 20/19 A2980 RMK A02 TSNO
QFU,2020-09-16 15:20,126.9667,37.8000,68.00,64.40,88.26,160.00,1.00,0.00,29.86,M,2.98,M,FEW,BKN,M,M,1300.00,2000.00,M,M,M,M,M,M,M,M,M,M,KQFU 161520Z AUTO 16001KT 4800 FEW013 BKN020 20/18 A2986 RMK A02 TSNO
QEX,2020-09-16 15:20,128.3000,36.1000,69.80,68.00,94.01,360.00,1.00,0.00,29.74,M,4.97,M,FEW,BKN,M,M,1200.00,3400.00,M,M,,M,M,M,M,M,M,M,KQEX 161520Z AUTO 36001KT 8000 // FEW012 BKN034 21/20 A2974 RMK A02 TSNO
QFW,2020-09-16 15:20,127.8833,37.6667,68.00,69.80,M,260.00,1.00,0.00,29.83,M,6.21,M,OVC,M,M,M,1900.00,M,M,M,M,M,M,M,M,M,M,M,KQFW 161520Z AUTO 26001KT 9999 OVC019 20/21 A2983 RMK A02 TSNO
QFV,2020-09-16 15:20,127.5000,38.0500,64.40,62.60,93.88,110.00,1.00,0.00,29.86,M,0.99,M,OVC,M,M,M,200.00,M,M,M,,M,M,M,M,M,M,M,KQFV 161520Z AUTO 11001KT 1600 // OVC002 18/17 A2986 RMK A02 TSNO
RKPK,2020-09-16 15:24,128.9382,35.1795,M,M,M,M,M,0.00,M,M,M,M,M,M,M,M,M,M,M,M,M,M,M,M,M,M,M,M,RKPK 161524Z 16SPECI
QFB,2020-09-16 15:30,128.7167,35.6500,69.80,68.00,94.01,0.00,0.00,0.00,29.87,M,2.98,M,BKN,BKN,M,M,300.00,1200.00,M,M,M,M,M,M,M,M,M,M,KQFB 161530Z AUTO 00000KT 4800 BKN003 BKN012 21/20 A2987 RMK A02 TSNO
QEN,2020-09-16 15:30,128.7500,37.6667,60.80,64.40,M,250.00,6.00,0.00,M,M,6.21,M,BKN,M,M,M,500.00,M,M,M,M,M,M,M,M,M,M,M,KQEN 161530Z AUTO 25006KT 9999 BKN005 16/18 / RMK A02 TSNO
QES,2020-09-16 15:30,126.4500,36.9667,80.60,66.20,61.58,M,M,0.00,M,M,4.97,M,FEW,BKN,M,M,900.00,2300.00,M,M,M,M,M,M,M,M,M,M,KQES 161530Z AUTO 8000 FEW009 BKN023 27/19 / RMK A02 TSNO
QEJ,2020-09-16 15:30,127.9500,38.2000,64.40,64.40,100.00,180.00,2.00,0.00,29.81,M,6.21,M,SCT,OVC,M,M,300.00,900.00,M,M,M,M,M,M,M,M,M,M,KQEJ 161530Z AUTO 18002KT 9999 SCT003 OVC009 18/18 A2981 RMK A02 TSNO
QEI,2020-09-16 15:30,128.0667,37.9500,66.20,64.40,93.92,130.00,3.00,0.00,29.81,M,6.21,M,BKN,M,M,M,2900.00,M,M,M,M,M,M,M,M,M,M,M,KQEI 161530Z AUTO 13003KT 9999 BKN029 19/18 A2981 RMK A02 TSNO
QEQ,2020-09-16 15:30,127.5500,37.8500,69.80,71.60,M,230.00,2.00,0.00,M,M,1.99,M,FEW,FEW,M,M,1700.00,3400.00,M,M,BR,M,M,M,M,M,M,M,KQEQ 161530Z AUTO 23002KT 3200 BR FEW017 FEW034 21/22 / RMK A02 TSNO
QEW,2020-09-16 15:30,128.1500,36.4000,68.00,68.00,100.00,190.00,1.00,0.00,29.81,M,2.98,M,OVC,M,M,M,1500.00,M,M,M,,M,M,M,M,M,M,M,KQEW 161530Z AUTO 19001KT 4800 // OVC015 20/20 A2981 RMK A02 TSNO
QEP,2020-09-16 15:30,127.2667,37.4000,68.00,66.20,93.97,240.00,1.00,0.00,29.84,M,6.21,M,OVC,M,M,M,1300.00,M,M,M,M,M,M,M,M,M,M,M,KQEP 161530Z AUTO 24001KT 9999 OVC013 20/19 A2984 RMK A02 TSNO
QFT,2020-09-16 15:30,127.3500,37.6000,68.00,66.20,93.97,170.00,1.00,0.00,29.81,M,M,M,OVC,M,M,M,2500.00,M,M,M,,M,M,M,M,M,M,M,KQFT 161530Z AUTO 17001KT / // OVC025 20/19 A2981 RMK A02 TSNO
QFU,2020-09-16 15:30,126.9667,37.8000,66.20,64.40,93.92,180.00,1.00,0.00,29.86,M,2.49,M,FEW,BKN,M,M,1400.00,1700.00,M,M,BR,M,M,M,M,M,M,M,KQFU 161530Z AUTO 18001KT 4000 BR FEW014 BKN017 19/18 A2986 RMK A02 TSNO
QEX,2020-09-16 15:30,128.3000,36.1000,69.80,68.00,94.01,360.00,2.00,0.00,29.74,M,3.73,M,FEW,SCT,BKN,M,1300.00,1500.00,3200.00,M,,M,M,M,M,M,M,M,KQEX 161530Z AUTO 36002KT 6000 // FEW013 SCT015 BKN032 21/20 A2974 RMK A02 TSNO
QFW,2020-09-16 15:30,127.8833,37.6667,68.00,69.80,M,210.00,1.00,0.00,29.83,M,6.21,M,OVC,M,M,M,1900.00,M,M,M,M,M,M,M,M,M,M,M,KQFW 161530Z AUTO 21001KT 9999 OVC019 20/21 A2983 RMK A02 TSNO
QFV,2020-09-16 15:30,127.5000,38.0500,64.40,62.60,93.88,110.00,1.00,0.00,29.86,M,1.24,M,OVC,M,M,M,200.00,M,M,M,,M,M,M,M,M,M,M,KQFV 161530Z AUTO 11001KT 2000 // OVC002 18/17 A2986 RMK A02 TSNO
RKSI,2020-09-16 15:30,126.4500,37.4667,69.80,62.60,77.90,220.00,4.00,0.00,29.80,M,6.21,M,FEW,BKN,M,M,1200.00,3000.00,M,M,M,M,M,M,M,M,M,M,RKSI 161530Z 22004KT 170V240 9999 FEW012 BKN030 21/17 Q1009 NOSIG
RKSG,2020-09-16 15:32,127.0311,36.9622,68.00,66.20,93.97,160.00,2.00,0.00,29.82,1009.80,3.00,M,FEW,SCT,BKN,M,1000.00,1500.00,1900.00,M,BR,M,M,M,M,M,M,M,RKSG 161532Z 16002KT 3SM BR FEW010 SCT015 BKN019 20/19 A2982 RMK AO2A SLP098 $
RKSY,2020-09-16 15:38,126.9753,37.5241,69.80,66.20,88.34,0.00,0.00,0.00,29.80,1009.40,6.21,M,SCT,BKN,OVC,M,1400.00,2800.00,3500.00,M,M,M,M,M,M,M,M,M,RKSY 161538Z AUTO 00000KT 9999 SCT014 BKN028 OVC035 21/19 A2980 RMK AO2 CIG 014V033 SLP094
QFB,2020-09-16 15:40,128.7167,35.6500,69.80,68.00,94.01,270.00,1.00,0.00,29.87,M,3.73,M,OVC,M,M,M,300.00,M,M,M,M,M,M,M,M,M,M,M,KQFB 161540Z AUTO 27001KT 6000 OVC003 21/20 A2987 RMK A02 TSNO
QEN,2020-09-16 15:40,128.7500,37.6667,60.80,64.40,M,250.00,6.00,0.00,M,M,6.21,12.00,BKN,M,M,M,500.00,M,M,M,M,M,M,M,M,M,M,M,KQEN 161540Z AUTO 25006G12KT 9999 BKN005 16/18 / RMK A02 TSNO
QES,2020-09-16 15:40,126.4500,36.9667,80.60,66.20,61.58,M,M,0.00,M,M,6.21,M,FEW,BKN,M,M,900.00,2200.00,M,M,M,M,M,M,M,M,M,M,KQES 161540Z AUTO 9999 FEW009 BKN022 27/19 / RMK A02 TSNO
QEJ,2020-09-16 15:40,127.9500,38.2000,64.40,64.40,100.00,130.00,1.00,0.00,29.81,M,5.59,M,FEW,OVC,M,M,300.00,800.00,M,M,M,M,M,M,M,M,M,M,KQEJ 161540Z AUTO 13001KT 9000 FEW003 OVC008 18/18 A2981 RMK A02 TSNO
QEI,2020-09-16 15:40,128.0667,37.9500,66.20,64.40,93.92,140.00,2.00,0.00,29.81,M,6.21,M,FEW,BKN,M,M,1400.00,2500.00,M,M,M,M,M,M,M,M,M,M,KQEI 161540Z AUTO 14002KT 9999 FEW014 BKN025 19/18 A2981 RMK A02 TSNO
QEQ,2020-09-16 15:40,127.5500,37.8500,68.00,69.80,M,200.00,1.00,0.00,29.85,M,1.74,M,FEW,M,M,M,1500.00,M,M,M,BR,M,M,M,M,M,M,M,KQEQ 161540Z AUTO 20001KT 2800 BR FEW015 20/21 A2985 RMK A02 TSNO
QEW,2020-09-16 15:40,128.1500,36.4000,68.00,68.00,100.00,0.00,0.00,0.00,29.81,M,2.98,M,OVC,M,M,M,1500.00,M,M,M,,M,M,M,M,M,M,M,KQEW 161540Z AUTO 00000KT 4800 // OVC015 20/20 A2981 RMK A02 TSNO
QEP,2020-09-16 15:40,127.2667,37.4000,68.00,66.20,93.97,330.00,1.00,0.00,29.84,M,6.21,M,OVC,M,M,M,900.00,M,M,M,M,M,M,M,M,M,M,M,KQEP 161540Z AUTO 33001KT 9999 OVC009 20/19 A2984 RMK A02 TSNO
QFT,2020-09-16 15:40,127.3500,37.6000,68.00,66.20,93.97,170.00,1.00,0.00,29.80,M,M,M,FEW,BKN,M,M,2100.00,2500.00,M,M,,M,M,M,M,M,M,M,KQFT 161540Z AUTO 17001KT / // FEW021 BKN025 20/19 A2980 RMK A02 TSNO
QFU,2020-09-16 15:40,126.9667,37.8000,66.20,64.40,93.92,150.00,1.00,0.00,29.86,M,2.49,M,BKN,M,M,M,1400.00,M,M,M,BR,M,M,M,M,M,M,M,KQFU 161540Z AUTO 15001KT 4000 BR BKN014 19/18 A2986 RMK A02 TSNO
QEX,2020-09-16 15:40,128.3000,36.1000,69.80,68.00,94.01,10.00,1.00,0.00,29.74,M,3.73,M,FEW,BKN,M,M,1500.00,2800.00,M,M,,M,M,M,M,M,M,M,KQEX 161540Z AUTO 01001KT 6000 // FEW015 BKN028 21/20 A2974 RMK A02 TSNO
QFW,2020-09-16 15:40,127.8833,37.6667,68.00,69.80,M,150.00,2.00,0.00,29.83,M,6.21,M,OVC,M,M,M,1900.00,M,M,M,M,M,M,M,M,M,M,M,KQFW 161540Z AUTO 15002KT 9999 OVC019 20/21 A2983 RMK A02 TSNO
QFV,2020-09-16 15:40,127.5000,38.0500,64.40,62.60,93.88,110.00,1.00,0.00,29.86,M,1.49,M,OVC,M,M,M,200.00,M,M,M,,M,M,M,M,M,M,M,KQFV 161540Z AUTO 11001KT 2400 // OVC002 18/17 A2986 RMK A02 TSNO
RKSY,2020-09-16 15:43,126.9753,37.5241,69.80,66.20,88.34,0.00,0.00,0.00,29.80,1009.40,6.21,M,FEW,BKN,BKN,OVC,1400.00,2200.00,3000.00,3500.00,M,M,M,M,M,M,M,M,RKSY 161543Z AUTO 00000KT 9999 FEW014 BKN022 BKN030 OVC035 21/19 A2980 RMK AO2 CIG 014V033 BKN022 V SCT SLP094
QFB,2020-09-16 15:50,128.7167,35.6500,69.80,68.00,94.01,300.00,1.00,0.00,29.87,M,2.98,M,OVC,M,M,M,300.00,M,M,M,M,M,M,M,M,M,M,M,KQFB 161550Z AUTO 30001KT 4800 OVC003 21/20 A2987 RMK A02 TSNO
QEN,2020-09-16 15:50,128.7500,37.6667,60.80,64.40,M,260.00,7.00,0.00,M,M,6.21,14.00,BKN,M,M,M,500.00,M,M,M,M,M,M,M,M,M,M,M,KQEN 161550Z AUTO 26007G14KT 9999 BKN005 16/18 / RMK A02 TSNO
QES,2020-09-16 15:50,126.4500,36.9667,80.60,66.20,61.58,M,M,0.00,M,M,6.21,M,BKN,M,M,M,1900.00,M,M,M,M,M,M,M,M,M,M,M,KQES 161550Z AUTO 9999 BKN019 27/19 / RMK A02 TSNO
QEJ,2020-09-16 15:50,127.9500,38.2000,64.40,64.40,100.00,170.00,1.00,0.00,29.81,M,6.21,M,OVC,M,M,M,800.00,M,M,M,M,M,M,M,M,M,M,M,KQEJ 161550Z AUTO 17001KT 9999 OVC008 18/18 A2981 RMK A02 TSNO
QEI,2020-09-16 15:50,128.0667,37.9500,66.20,64.40,93.92,130.00,3.00,0.00,29.81,M,6.21,M,BKN,M,M,M,2100.00,M,M,M,M,M,M,M,M,M,M,M,KQEI 161550Z AUTO 13003KT 9999 BKN021 19/18 A2981 RMK A02 TSNO
QEQ,2020-09-16 15:50,127.5500,37.8500,68.00,69.80,M,190.00,1.00,0.00,29.84,M,1.24,M,FEW,M,M,M,500.00,M,M,M,BR,M,M,M,M,M,M,M,KQEQ 161550Z AUTO 19001KT 2000 BR FEW005 20/21 A2984 RMK A02 TSNO
QEW,2020-09-16 15:50,128.1500,36.4000,68.00,66.20,93.97,200.00,1.00,0.00,29.81,M,2.98,M,OVC,M,M,M,1400.00,M,M,M,,M,M,M,M,M,M,M,KQEW 161550Z AUTO 20001KT 4800 // OVC014 20/19 A2981 RMK A02 TSNO
QEP,2020-09-16 15:50,127.2667,37.4000,68.00,66.20,93.97,350.00,1.00,0.00,29.84,M,6.21,M,OVC,M,M,M,800.00,M,M,M,M,M,M,M,M,M,M,M,KQEP 161550Z AUTO 35001KT 9999 OVC008 20/19 A2984 RMK A02 TSNO
QFT,2020-09-16 15:50,127.3500,37.6000,68.00,66.20,93.97,320.00,1.00,0.00,29.81,M,M,M,BKN,BKN,M,M,2000.00,2700.00,M,M,,M,M,M,M,M,M,M,KQFT 161550Z AUTO 32001KT / // BKN020 BKN027 20/19 A2981 RMK A02 TSNO
QFU,2020-09-16 15:50,126.9667,37.8000,66.20,64.40,93.92,170.00,1.00,0.00,29.85,M,2.49,M,BKN,M,M,M,1300.00,M,M,M,BR,M,M,M,M,M,M,M,KQFU 161550Z AUTO 17001KT 4000 BR BKN013 19/18 A2985 RMK A02 TSNO
QEX,2020-09-16 15:50,128.3000,36.1000,69.80,68.00,94.01,20.00,2.00,0.00,29.74,M,3.73,M,FEW,BKN,M,M,1500.00,2800.00,M,M,,M,M,M,M,M,M,M,KQEX 161550Z AUTO 02002KT 6000 // FEW015 BKN028 21/20 A2974 RMK A02 TSNO
QFW,2020-09-16 15:50,127.8833,37.6667,68.00,69.80,M,190.00,1.00,0.00,29.83,M,6.21,M,OVC,M,M,M,1900.00,M,M,M,M,M,M,M,M,M,M,M,KQFW 161550Z AUTO 19001KT 9999 OVC019 20/21 A2983 RMK A02 TSNO
QFV,2020-09-16 15:50,127.5000,38.0500,64.40,62.60,93.88,290.00,2.00,0.00,29.86,M,1.74,M,OVC,M,M,M,200.00,M,M,M,,M,M,M,M,M,M,M,KQFV 161550Z AUTO 29002KT 2800 // OVC002 18/17 A2986 RMK A02 TSNO
RKJK,2020-09-16 15:56,126.6220,35.8994,71.80,69.60,92.78,230.00,4.00,0.00,29.81,1009.90,10.00,M,FEW,SCT,OVC,M,700.00,1500.00,2000.00,M,M,M,M,M,M,M,M,M,RKJK 161556Z AUTO 23004KT 10SM FEW007 SCT015 OVC020 22/21 A2981 RMK AO2 CIG 018 RWY36 SLP099 T02210209 $
RKSG,2020-09-16 15:56,127.0311,36.9622,68.90,66.20,91.11,160.00,3.00,0.00,29.82,1009.80,2.50,M,SCT,BKN,BKN,M,1300.00,1900.00,2400.00,M,BR,M,M,M,M,M,M,M,RKSG 161556Z 16003KT 2 1/2SM BR SCT013 BKN019 BKN024 21/19 A2982 RMK AO2A TWR VIS 2 SLP098 T02050190 $
RKSO,2020-09-16 15:58,127.0296,37.0906,68.00,68.00,100.00,0.00,0.00,0.00,29.80,1009.40,7.00,M,SCT,BKN,OVC,M,400.00,1600.00,2700.00,M,M,M,M,M,M,M,M,M,RKSO 161558Z 00000KT 7SM SCT004 BKN016 OVC027 20/20 A2980 RMK AO2A CIG 004V019 SLP094 $
RKSY,2020-09-16 15:58,126.9753,37.5241,69.80,66.20,88.34,0.00,0.00,0.00,29.80,1009.40,6.21,M,BKN,BKN,BKN,M,2300.00,2900.00,3500.00,M,M,M,M,M,M,M,M,M,RKSY 161558Z AUTO 00000KT 9999 BKN023 BKN029 BKN035 21/19 A2980 RMK AO2 SLP094
RKJB,2020-09-16 16:00,126.3800,34.9800,71.60,69.80,94.06,140.00,2.00,0.00,29.83,M,3.11,M,///,M,M,M,1100.00,M,M,M,BR,M,M,M,M,M,M,M,RKJB 161600Z AUTO 14002KT 5000 BR ///011/// 22/21 Q1010
RKPC,2020-09-16 16:00,126.4930,33.5113,71.60,71.60,100.00,240.00,4.00,0.00,29.83,M,6.21,M,FEW,SCT,SCT,M,1500.00,3000.00,16000.00,M,M,M,M,M,M,M,M,M,RKPC 161600Z 24004KT 9999 FEW015 SCT030 SCT160 22/22 Q1010 NOSIG
RKNY,2020-09-16 16:00,128.6692,38.0613,68.00,62.60,82.86,310.00,5.00,0.00,29.74,M,1.06,M,NCD,M,M,M,M,M,M,M,,M,M,M,M,M,M,M,RKNY 161600Z AUTO 31005KT 1700 // NCD 20/17 Q1007
QFB,2020-09-16 16:00,128.7167,35.6500,69.80,68.00,94.01,310.00,2.00,0.00,29.87,M,2.98,M,OVC,M,M,M,300.00,M,M,M,M,M,M,M,M,M,M,M,KQFB 161600Z AUTO 31002KT 4800 OVC003 21/20 A2987 RMK A02 TSNO
RKSS,2020-09-16 16:00,126.7906,37.5583,66.20,66.20,100.00,180.00,2.00,0.00,29.80,M,2.80,M,FEW,BKN,M,M,1500.00,3000.00,M,M,BR,M,M,M,M,M,M,M,RKSS 161600Z 18002KT 4500 BR FEW015 BKN030 19/19 Q1009 NOSIG
RKTN,2020-09-16 16:00,128.6589,35.8941,69.80,66.20,88.34,30.00,1.00,0.00,29.80,M,6.21,M,BKN,BKN,M,M,1500.00,2000.00,M,M,M,M,M,M,M,M,M,M,RKTN 161600Z 03001KT 9999 BKN015 BKN020 21/19 Q1009
RKTU,2020-09-16 16:00,127.4991,36.7166,68.00,68.00,100.00,50.00,1.00,0.00,29.80,M,3.73,M,FEW,BKN,BKN,M,600.00,1000.00,3000.00,M,M,M,M,M,M,M,M,M,RKTU 161600Z 05001KT 6000 FEW006 BKN010 BKN030 20/20 Q1009
QEN,2020-09-16 16:00,128.7500,37.6667,60.80,64.40,M,250.00,7.00,0.00,M,M,6.21,14.00,BKN,M,M,M,500.00,M,M,M,M,M,M,M,M,M,M,M,KQEN 161600Z AUTO 25007G14KT 9999 BKN005 16/18 / RMK A02 TSNO
QES,2020-09-16 16:00,126.4500,36.9667,80.60,66.20,61.58,M,M,0.00,M,M,6.21,M,BKN,M,M,M,1800.00,M,M,M,M,M,M,M,M,M,M,M,KQES 161600Z AUTO 9999 BKN018 27/19 / RMK A02 TSNO
QEJ,2020-09-16 16:00,127.9500,38.2000,64.40,64.40,100.00,110.00,2.00,0.00,29.81,M,6.21,M,BKN,M,M,M,400.00,M,M,M,M,M,M,M,M,M,M,M,KQEJ 161600Z AUTO 11002KT 9999 BKN004 18/18 A2981 RMK A02 TSNO
QEI,2020-09-16 16:00,128.0667,37.9500,66.20,64.40,93.92,110.00,2.00,0.00,29.82,M,6.21,M,FEW,BKN,M,M,1200.00,2100.00,M,M,M,M,M,M,M,M,M,M,KQEI 161600Z AUTO 11002KT 9999 FEW012 BKN021 19/18 A2982 RMK A02 TSNO
QEQ,2020-09-16 16:00,127.5500,37.8500,66.20,69.80,M,160.00,2.00,0.00,29.84,M,1.24,M,FEW,M,M,M,1900.00,M,M,M,BR,M,M,M,M,M,M,M,KQEQ 161600Z AUTO 16002KT 2000 BR FEW019 19/21 A2984 RMK A02 TSNO
QEW,2020-09-16 16:00,128.1500,36.4000,68.00,66.20,93.97,180.00,1.00,0.00,29.81,M,3.73,M,BKN,M,M,M,1400.00,M,M,M,,M,M,M,M,M,M,M,KQEW 161600Z AUTO 18001KT 6000 // BKN014 20/19 A2981 RMK A02 TSNO
QEP,2020-09-16 16:00,127.2667,37.4000,68.00,66.20,93.97,30.00,1.00,0.00,29.84,M,6.21,M,OVC,M,M,M,800.00,M,M,M,M,M,M,M,M,M,M,M,KQEP 161600Z AUTO 03001KT 9999 OVC008 20/19 A2984 RMK A02 TSNO
RKPK,2020-09-16 16:00,128.9382,35.1795,73.40,69.80,88.51,330.00,3.00,0.00,29.77,M,1.99,M,FEW,SCT,BKN,M,500.00,1500.00,5000.00,M,BR,M,M,M,M,M,M,M,RKPK 161600Z 33003KT 3200 BR FEW005 SCT015 BKN050 23/21 Q1008
QFT,2020-09-16 16:00,127.3500,37.6000,68.00,66.20,93.97,180.00,1.00,0.00,29.80,M,M,M,BKN,BKN,M,M,2000.00,3400.00,M,M,,M,M,M,M,M,M,M,KQFT 161600Z AUTO 18001KT / // BKN020 BKN034 20/19 A2980 RMK A02 TSNO
QFU,2020-09-16 16:00,126.9667,37.8000,66.20,64.40,93.92,0.00,0.00,0.00,29.86,M,2.49,M,BKN,M,M,M,1200.00,M,M,M,BR,M,M,M,M,M,M,M,KQFU 161600Z AUTO 00000KT 4000 BR BKN012 19/18 A2986 RMK A02 TSNO
QEX,2020-09-16 16:00,128.3000,36.1000,69.80,68.00,94.01,10.00,2.00,0.00,29.74,M,3.73,M,OVC,M,M,M,2800.00,M,M,M,,M,M,M,M,M,M,M,KQEX 161600Z AUTO 01002KT 6000 // OVC028 21/20 A2974 RMK A02 TSNO
QFW,2020-09-16 16:00,127.8833,37.6667,68.00,69.80,M,270.00,2.00,0.00,29.83,M,6.21,M,OVC,M,M,M,2000.00,M,M,M,M,M,M,M,M,M,M,M,KQFW 161600Z AUTO 27002KT 9999 OVC020 20/21 A2983 RMK A02 TSNO
QFV,2020-09-16 16:00,127.5000,38.0500,64.40,62.60,93.88,0.00,0.00,0.00,29.86,M,2.49,M,OVC,M,M,M,200.00,M,M,M,,M,M,M,M,M,M,M,KQFV 161600Z AUTO 00000KT 4000 // OVC002 18/17 A2986 RMK A02 TSNO
RKSI,2020-09-16 16:00,126.4500,37.4667,69.80,62.60,77.90,230.00,3.00,0.00,29.80,M,6.21,M,FEW,BKN,M,M,1200.00,2500.00,M,M,M,M,M,M,M,M,M,M,RKSI 161600Z 23003KT 9999 FEW012 BKN025 21/17 Q1009 NOSIG
RKJK,2020-09-16 16:06,126.6220,35.8994,71.60,69.80,94.06,230.00,4.00,0.00,29.82,1010.20,10.00,M,FEW,SCT,BKN,M,700.00,1500.00,2100.00,M,M,M,M,M,M,M,M,M,RKJK 161606Z AUTO 23004KT 10SM FEW007 SCT015 BKN021 22/21 A2982 RMK AO2 CIG 015V021 CIG 018 RWY36 SLP102 $
QFB,2020-09-16 16:10,128.7167,35.6500,69.80,68.00,94.01,320.00,2.00,0.00,29.86,M,2.98,M,OVC,M,M,M,400.00,M,M,M,M,M,M,M,M,M,M,M,KQFB 161610Z AUTO 32002KT 4800 OVC004 21/20 A2986 RMK A02 TSNO
QEN,2020-09-16 16:10,128.7500,37.6667,60.80,64.40,M,250.00,7.00,0.00,M,M,6.21,15.00,BKN,M,M,M,500.00,M,M,M,M,M,M,M,M,M,M,M,KQEN 161610Z AUTO 25007G15KT 9999 BKN005 16/18 / RMK A02 TSNO
QES,2020-09-16 16:10,126.4500,36.9667,80.60,66.20,61.58,M,M,0.00,M,M,6.21,M,BKN,M,M,M,1700.00,M,M,M,M,M,M,M,M,M,M,M,KQES 161610Z AUTO 9999 BKN017 27/19 / RMK A02 TSNO
QEJ,2020-09-16 16:10,127.9500,38.2000,64.40,64.40,100.00,160.00,1.00,0.00,29.81,M,4.97,M,BKN,M,M,M,400.00,M,M,M,M,M,M,M,M,M,M,M,KQEJ 161610Z AUTO 16001KT 8000 BKN004 18/18 A2981 RMK A02 TSNO
QEI,2020-09-16 16:10,128.0667,37.9500,66.20,64.40,93.92,140.00,2.00,0.00,29.82,M,6.21,M,SCT,BKN,M,M,1100.00,2700.00,M,M,M,M,M,M,M,M,M,M,KQEI 161610Z AUTO 14002KT 9999 SCT011 BKN027 19/18 A2982 RMK A02 TSNO
QEQ,2020-09-16 16:10,127.5500,37.8500,66.20,69.80,M,170.00,1.00,0.00,29.85,M,0.75,M,FEW,M,M,M,2000.00,M,M,M,BR,M,M,M,M,M,M,M,KQEQ 161610Z AUTO 17001KT 1200 BR FEW020 19/21 A2985 RMK A02 TSNO
QEW,2020-09-16 16:10,128.1500,36.4000,68.00,66.20,93.97,220.00,1.00,0.00,29.81,M,3.73,M,BKN,M,M,M,1400.00,M,M,M,,M,M,M,M,M,M,M,KQEW 161610Z AUTO 22001KT 6000 // BKN014 20/19 A2981 RMK A02 TSNO
QEP,2020-09-16 16:10,127.2667,37.4000,68.00,66.20,93.97,360.00,1.00,0.00,29.85,M,6.21,M,OVC,M,M,M,900.00,M,M,M,M,M,M,M,M,M,M,M,KQEP 161610Z AUTO 36001KT 9999 OVC009 20/19 A2985 RMK A02 TSNO
QFT,2020-09-16 16:10,127.3500,37.6000,68.00,66.20,93.97,170.00,1.00,0.00,29.81,M,M,M,FEW,BKN,M,M,700.00,1800.00,M,M,,M,M,M,M,M,M,M,KQFT 161610Z AUTO 17001KT / // FEW007 BKN018 20/19 A2981 RMK A02 TSNO
QFU,2020-09-16 16:10,126.9667,37.8000,66.20,64.40,93.92,210.00,1.00,0.00,29.86,M,2.49,M,SCT,SCT,M,M,1200.00,1600.00,M,M,BR,M,M,M,M,M,M,M,KQFU 161610Z AUTO 21001KT 4000 BR SCT012 SCT016 19/18 A2986 RMK A02 TSNO
QEX,2020-09-16 16:10,128.3000,36.1000,69.80,68.00,94.01,30.00,2.00,0.00,29.74,M,3.73,M,BKN,M,M,M,2900.00,M,M,M,,M,M,M,M,M,M,M,KQEX 161610Z AUTO 03002KT 6000 // BKN029 21/20 A2974 RMK A02 TSNO
QFW,2020-09-16 16:10,127.8833,37.6667,68.00,69.80,M,250.00,2.00,0.00,29.83,M,6.21,M,OVC,M,M,M,2200.00,M,M,M,M,M,M,M,M,M,M,M,KQFW 161610Z AUTO 25002KT 9999 OVC022 20/21 A2983 RMK A02 TSNO
QFV,2020-09-16 16:10,127.5000,38.0500,64.40,62.60,93.88,280.00,1.00,0.00,29.86,M,2.49,M,OVC,M,M,M,200.00,M,M,M,,M,M,M,M,M,M,M,KQFV 161610Z AUTO 28001KT 4000 // OVC002 18/17 A2986 RMK A02 TSNO
RKJK,2020-09-16 16:16,126.6220,35.8994,71.60,69.80,94.06,240.00,4.00,0.00,29.82,1010.20,10.00,M,FEW,SCT,BKN,M,900.00,1500.00,1900.00,M,M,M,M,M,M,M,M,M,RKJK 161616Z AUTO 24004KT 10SM FEW009 SCT015 BKN019 22/21 A2982 RMK AO2 CIG 017V021 SLP102 $
RKSO,2020-09-16 16:18,127.0296,37.0906,68.00,68.00,100.00,0.00,0.00,0.00,29.81,1009.70,7.00,M,BKN,OVC,M,M,300.00,1200.00,M,M,M,M,M,M,M,M,M,M,RKSO 161618Z 00000KT 7SM BKN003 OVC012 20/20 A2981 RMK AO2A SLP097
QFB,2020-09-16 16:20,128.7167,35.6500,69.80,68.00,94.01,340.00,1.00,0.00,29.86,M,2.49,M,OVC,M,M,M,500.00,M,M,M,BR,M,M,M,M,M,M,M,KQFB 161620Z AUTO 34001KT 4000 BR OVC005 21/20 A2986 RMK A02 TSNO
QEN,2020-09-16 16:20,128.7500,37.6667,60.80,64.40,M,250.00,6.00,0.00,M,M,6.21,16.00,SCT,M,M,M,500.00,M,M,M,M,M,M,M,M,M,M,M,KQEN 161620Z AUTO 25006G16KT 9999 SCT005 16/18 / RMK A02 TSNO
QES,2020-09-16 16:20,126.4500,36.9667,80.60,66.20,61.58,M,M,0.00,M,M,6.21,M,BKN,M,M,M,2200.00,M,M,M,M,M,M,M,M,M,M,M,KQES 161620Z AUTO 9999 BKN022 27/19 / RMK A02 TSNO
QEJ,2020-09-16 16:20,127.9500,38.2000,64.40,64.40,100.00,150.00,1.00,0.00,29.81,M,4.97,M,BKN,M,M,M,400.00,M,M,M,M,M,M,M,M,M,M,M,KQEJ 161620Z AUTO 15001KT 8000 BKN004 18/18 A2981 RMK A02 TSNO
QEI,2020-09-16 16:20,128.0667,37.9500,66.20,64.40,93.92,140.00,2.00,0.00,29.82,M,6.21,M,SCT,BKN,M,M,1100.00,3000.00,M,M,M,M,M,M,M,M,M,M,KQEI 161620Z AUTO 14002KT 9999 SCT011 BKN030 19/18 A2982 RMK A02 TSNO
QEQ,2020-09-16 16:20,127.5500,37.8500,66.20,69.80,M,180.00,1.00,0.00,29.85,M,0.75,M,CLR,M,M,M,M,M,M,M,BR,M,M,M,M,M,M,M,KQEQ 161620Z AUTO 18001KT 1200 BR CLR 19/21 A2985 RMK A02 TSNO
QEW,2020-09-16 16:20,128.1500,36.4000,68.00,66.20,93.97,0.00,0.00,0.00,29.81,M,2.98,M,BKN,M,M,M,1400.00,M,M,M,,M,M,M,M,M,M,M,KQEW 161620Z AUTO 00000KT 4800 // BKN014 20/19 A2981 RMK A02 TSNO
QEP,2020-09-16 16:20,127.2667,37.4000,68.00,66.20,93.97,0.00,0.00,0.00,29.85,M,6.21,M,OVC,M,M,M,1400.00,M,M,M,M,M,M,M,M,M,M,M,KQEP 161620Z AUTO 00000KT 9999 OVC014 20/19 A2985 RMK A02 TSNO
QFT,2020-09-16 16:20,127.3500,37.6000,68.00,66.20,93.97,160.00,1.00,0.00,29.81,M,M,M,SCT,BKN,M,M,700.00,1500.00,M,M,,M,M,M,M,M,M,M,KQFT 161620Z AUTO 16001KT / // SCT007 BKN015 20/19 A2981 RMK A02 TSNO
QFU,2020-09-16 16:20,126.9667,37.8000,66.20,64.40,93.92,0.00,0.00,0.00,29.86,M,2.49,M,FEW,FEW,M,M,1200.00,1600.00,M,M,BR,M,M,M,M,M,M,M,KQFU 161620Z AUTO 00000KT 4000 BR FEW012 FEW016 19/18 A2986 RMK A02 TSNO
QEX,2020-09-16 16:20,128.3000,36.1000,69.80,68.00,94.01,40.00,3.00,0.00,29.73,M,2.98,M,BKN,M,M,M,3400.00,M,M,M,,M,M,M,M,M,M,M,KQEX 161620Z AUTO 04003KT 4800 // BKN034 21/20 A2973 RMK A02 TSNO
QFW,2020-09-16 16:20,127.8833,37.6667,68.00,69.80,M,230.00,1.00,0.00,29.84,M,6.21,M,OVC,M,M,M,2300.00,M,M,M,M,M,M,M,M,M,M,M,KQFW 161620Z AUTO 23001KT 9999 OVC023 20/21 A2984 RMK A02 TSNO
QFV,2020-09-16 16:20,127.5000,38.0500,64.40,62.60,93.88,340.00,1.00,0.00,29.86,M,2.49,M,OVC,M,M,M,300.00,M,M,M,,M,M,M,M,M,M,M,KQFV 161620Z AUTO 34001KT 4000 // OVC003 18/17 A2986 RMK A02 TSNO
RKSY,2020-09-16 16:23,126.9753,37.5241,69.80,66.20,88.34,0.00,0.00,0.00,29.80,1009.40,6.21,M,BKN,BKN,BKN,M,1400.00,2000.00,3700.00,M,M,M,M,M,M,M,M,M,RKSY 161623Z AUTO 00000KT 9999 BKN014 BKN020 BKN037 21/19 A2980 RMK AO2 CIG 014V022 BKN014 V SCT SLP094
RKJK,2020-09-16 16:27,126.6220,35.8994,71.60,69.80,94.06,230.00,4.00,0.00,29.81,1009.90,10.00,M,FEW,SCT,BKN,BKN,700.00,1200.00,1800.00,2800.00,M,M,M,M,M,M,M,M,RKJK 161627Z AUTO 23004KT 10SM FEW007 SCT012 BKN018 BKN028 22/21 A2981 RMK AO2 CIG 015V019 SLP099 $
QFB,2020-09-16 16:30,128.7167,35.6500,69.80,68.00,94.01,290.00,1.00,0.00,29.86,M,2.49,M,OVC,M,M,M,700.00,M,M,M,BR,M,M,M,M,M,M,M,KQFB 161630Z AUTO 29001KT 4000 BR OVC007 21/20 A2986 RMK A02 TSNO
QEN,2020-09-16 16:30,128.7500,37.6667,60.80,64.40,M,250.00,7.00,0.00,M,M,6.21,15.00,FEW,BKN,M,M,400.00,1500.00,M,M,M,M,M,M,M,M,M,M,KQEN 161630Z AUTO 25007G15KT 9999 FEW004 BKN015 16/18 / RMK A02 TSNO
QES,2020-09-16 16:30,126.4500,36.9667,80.60,66.20,61.58,M,M,0.00,M,M,6.21,M,BKN,M,M,M,2200.00,M,M,M,M,M,M,M,M,M,M,M,KQES 161630Z AUTO 9999 BKN022 27/19 / RMK A02 TSNO
QEJ,2020-09-16 16:30,127.9500,38.2000,64.40,64.40,100.00,190.00,2.00,0.00,29.81,M,4.97,M,BKN,M,M,M,700.00,M,M,M,M,M,M,M,M,M,M,M,KQEJ 161630Z AUTO 19002KT 8000 BKN007 18/18 A2981 RMK A02 TSNO
QEI,2020-09-16 16:30,128.0667,37.9500,64.40,64.40,100.00,130.00,1.00,0.00,29.82,M,5.59,M,BKN,M,M,M,1000.00,M,M,M,,M,M,M,M,M,M,M,KQEI 161630Z AUTO 13001KT 9000 // BKN010 18/18 A2982 RMK A02 TSNO
QEQ,2020-09-16 16:30,127.5500,37.8500,66.20,68.00,M,10.00,1.00,0.00,29.85,M,0.75,M,FEW,M,M,M,2100.00,M,M,M,BR,M,M,M,M,M,M,M,KQEQ 161630Z AUTO 01001KT 1200 BR FEW021 19/20 A2985 RMK A02 TSNO
QEW,2020-09-16 16:30,128.1500,36.4000,68.00,66.20,93.97,0.00,0.00,0.00,29.81,M,2.49,M,BKN,M,M,M,1400.00,M,M,M,,M,M,M,M,M,M,M,KQEW 161630Z AUTO 00000KT 4000 // BKN014 20/19 A2981 RMK A02 TSNO
QEP,2020-09-16 16:30,127.2667,37.4000,68.00,66.20,93.97,70.00,1.00,0.00,29.84,M,6.21,M,OVC,M,M,M,1500.00,M,M,M,M,M,M,M,M,M,M,M,KQEP 161630Z AUTO 07001KT 9999 OVC015 20/19 A2984 RMK A02 TSNO
QFT,2020-09-16 16:30,127.3500,37.6000,68.00,66.20,93.97,0.00,0.00,0.00,29.81,M,M,M,BKN,M,M,M,600.00,M,M,M,,M,M,M,M,M,M,M,KQFT 161630Z AUTO 00000KT / // BKN006 20/19 A2981 RMK A02 TSNO
QFU,2020-09-16 16:30,126.9667,37.8000,66.20,64.40,93.92,130.00,2.00,0.00,29.86,M,2.49,M,FEW,M,M,M,1500.00,M,M,M,BR,M,M,M,M,M,M,M,KQFU 161630Z AUTO 13002KT 4000 BR FEW015 19/18 A2986 RMK A02 TSNO
QEX,2020-09-16 16:30,128.3000,36.1000,69.80,68.00,94.01,30.00,3.00,0.00,29.74,M,2.98,M,FEW,M,M,M,3900.00,M,M,M,,M,M,M,M,M,M,M,KQEX 161630Z AUTO 03003KT 4800 // FEW039 21/20 A2974 RMK A02 TSNO
QFW,2020-09-16 16:30,127.8833,37.6667,68.00,69.80,M,120.00,1.00,0.00,29.83,M,6.21,M,OVC,M,M,M,2500.00,M,M,M,M,M,M,M,M,M,M,M,KQFW 161630Z AUTO 12001KT 9999 OVC025 20/21 A2983 RMK A02 TSNO
QFV,2020-09-16 16:30,127.5000,38.0500,64.40,62.60,93.88,270.00,1.00,0.00,29.86,M,2.49,M,OVC,M,M,M,300.00,M,M,M,,M,M,M,M,M,M,M,KQFV 161630Z AUTO 27001KT 4000 // OVC003 18/17 A2986 RMK A02 TSNO
RKSI,2020-09-16 16:30,126.4500,37.4667,69.80,62.60,77.90,240.00,6.00,0.00,29.80,M,6.21,M,FEW,BKN,M,M,1200.00,2500.00,M,M,M,M,M,M,M,M,M,M,RKSI 161630Z 24006KT 190V270 9999 FEW012 BKN025 21/17 Q1009 NOSIG
RKJK,2020-09-16 16:37,126.6220,35.8994,71.60,69.80,94.06,240.00,4.00,0.00,29.81,1009.90,10.00,M,FEW,SCT,M,M,700.00,1800.00,M,M,M,M,M,M,M,M,M,M,RKJK 161637Z AUTO 24004KT 10SM FEW007 SCT018 22/21 A2981 RMK AO2 SLP099 $
QFB,2020-09-16 16:40,128.7167,35.6500,69.80,68.00,94.01,320.00,2.00,0.00,29.86,M,2.49,M,OVC,M,M,M,1000.00,M,M,M,BR,M,M,M,M,M,M,M,KQFB 161640Z AUTO 32002KT 4000 BR OVC010 21/20 A2986 RMK A02 TSNO
QEN,2020-09-16 16:40,128.7500,37.6667,60.80,64.40,M,250.00,8.00,0.00,M,M,6.21,14.00,FEW,BKN,M,M,400.00,1600.00,M,M,M,M,M,M,M,M,M,M,KQEN 161640Z AUTO 25008G14KT 9999 FEW004 BKN016 16/18 / RMK A02 TSNO
QES,2020-09-16 16:40,126.4500,36.9667,80.60,66.20,61.58,M,M,0.00,M,M,6.21,M,BKN,M,M,M,2200.00,M,M,M,M,M,M,M,M,M,M,M,KQES 161640Z AUTO 9999 BKN022 27/19 / RMK A02 TSNO
QEJ,2020-09-16 16:40,127.9500,38.2000,64.40,64.40,100.00,130.00,1.00,0.00,29.81,M,4.97,M,BKN,M,M,M,700.00,M,M,M,M,M,M,M,M,M,M,M,KQEJ 161640Z AUTO 13001KT 8000 BKN007 18/18 A2981 RMK A02 TSNO
QEI,2020-09-16 16:40,128.0667,37.9500,64.40,64.40,100.00,150.00,1.00,0.00,29.82,M,4.97,M,BKN,M,M,M,900.00,M,M,M,,M,M,M,M,M,M,M,KQEI 161640Z AUTO 15001KT 8000 // BKN009 18/18 A2982 RMK A02 TSNO
QEQ,2020-09-16 16:40,127.5500,37.8500,66.20,68.00,M,310.00,1.00,0.00,29.85,M,0.75,M,FEW,M,M,M,3100.00,M,M,M,BR,M,M,M,M,M,M,M,KQEQ 161640Z AUTO 31001KT 1200 BR FEW031 19/20 A2985 RMK A02 TSNO
QEW,2020-09-16 16:40,128.1500,36.4000,68.00,66.20,93.97,180.00,1.00,0.00,29.81,M,3.73,M,BKN,M,M,M,1300.00,M,M,M,,M,M,M,M,M,M,M,KQEW 161640Z AUTO 18001KT 6000 // BKN013 20/19 A2981 RMK A02 TSNO
QEP,2020-09-16 16:40,127.2667,37.4000,68.00,66.20,93.97,110.00,1.00,0.00,29.84,M,6.21,M,OVC,M,M,M,1700.00,M,M,M,M,M,M,M,M,M,M,M,KQEP 161640Z AUTO 11001KT 9999 OVC017 20/19 A2984 RMK A02 TSNO
QFT,2020-09-16 16:40,127.3500,37.6000,68.00,66.20,93.97,140.00,1.00,0.00,29.81,M,M,M,OVC,M,M,M,600.00,M,M,M,,M,M,M,M,M,M,M,KQFT 161640Z AUTO 14001KT / // OVC006 20/19 A2981 RMK A02 TSNO
QFU,2020-09-16 16:40,126.9667,37.8000,64.40,64.40,100.00,200.00,1.00,0.00,29.86,M,2.49,M,SCT,M,M,M,1300.00,M,M,M,BR,M,M,M,M,M,M,M,KQFU 161640Z AUTO 20001KT 4000 BR SCT013 18/18 A2986 RMK A02 TSNO
QEX,2020-09-16 16:40,128.3000,36.1000,69.80,68.00,94.01,30.00,3.00,0.00,29.73,M,2.98,M,FEW,M,M,M,3900.00,M,M,M,,M,M,M,M,M,M,M,KQEX 161640Z AUTO 03003KT 4800 // FEW039 21/20 A2973 RMK A02 TSNO
QFW,2020-09-16 16:40,127.8833,37.6667,68.00,69.80,M,190.00,1.00,0.00,29.83,M,6.21,M,OVC,M,M,M,2700.00,M,M,M,M,M,M,M,M,M,M,M,KQFW 161640Z AUTO 19001KT 9999 OVC027 20/21 A2983 RMK A02 TSNO
QFV,2020-09-16 16:40,127.5000,38.0500,62.60,62.60,100.00,80.00,2.00,0.00,29.86,M,2.49,M,OVC,M,M,M,200.00,M,M,M,,M,M,M,M,M,M,M,KQFV 161640Z AUTO 08002KT 4000 // OVC002 17/17 A2986 RMK A02 TSNO
RKJK,2020-09-16 16:47,126.6220,35.8994,71.60,69.80,94.06,240.00,4.00,0.00,29.81,1009.90,10.00,M,BKN,BKN,BKN,M,900.00,1800.00,2200.00,M,M,M,M,M,M,M,M,M,RKJK 161647Z AUTO 24004KT 10SM BKN009 BKN018 BKN022 22/21 A2981 RMK AO2 CIG 009V018 BKN009 V FEW SLP099 $
QFB,2020-09-16 16:50,128.7167,35.6500,69.80,68.00,94.01,280.00,2.00,0.00,29.87,M,2.49,M,FEW,OVC,M,M,500.00,1100.00,M,M,BR,M,M,M,M,M,M,M,KQFB 161650Z AUTO 28002KT 4000 BR FEW005 OVC011 21/20 A2987 RMK A02 TSNO
QEN,2020-09-16 16:50,128.7500,37.6667,60.80,64.40,M,250.00,6.00,0.00,M,M,6.21,12.00,SCT,BKN,M,M,300.00,1600.00,M,M,M,M,M,M,M,M,M,M,KQEN 161650Z AUTO 25006G12KT 9999 SCT003 BKN016 16/18 / RMK A02 TSNO
QES,2020-09-16 16:50,126.4500,36.9667,80.60,66.20,61.58,M,M,0.00,M,M,6.21,M,BKN,M,M,M,2200.00,M,M,M,M,M,M,M,M,M,M,M,KQES 161650Z AUTO 9999 BKN022 27/19 / RMK A02 TSNO
QEJ,2020-09-16 16:50,127.9500,38.2000,64.40,64.40,100.00,180.00,1.00,0.00,29.81,M,3.73,M,FEW,BKN,M,M,200.00,900.00,M,M,M,M,M,M,M,M,M,M,KQEJ 161650Z AUTO 18001KT 6000 FEW002 BKN009 18/18 A2981 RMK A02 TSNO
QEI,2020-09-16 16:50,128.0667,37.9500,64.40,64.40,100.00,140.00,2.00,0.00,29.82,M,4.97,M,SCT,BKN,M,M,900.00,2700.00,M,M,,M,M,M,M,M,M,M,KQEI 161650Z AUTO 14002KT 8000 // SCT009 BKN027 18/18 A2982 RMK A02 TSNO
QEQ,2020-09-16 16:50,127.5500,37.8500,66.20,68.00,M,150.00,1.00,0.00,29.86,M,0.99,M,SCT,BKN,M,M,1600.00,3000.00,M,M,BR,M,M,M,M,M,M,M,KQEQ 161650Z AUTO 15001KT 1600 BR SCT016 BKN030 19/20 A2986 RMK A02 TSNO
QEW,2020-09-16 16:50,128.1500,36.4000,68.00,66.20,93.97,20.00,1.00,0.00,29.81,M,3.73,M,BKN,M,M,M,1300.00,M,M,M,,M,M,M,M,M,M,M,KQEW 161650Z AUTO 02001KT 6000 // BKN013 20/19 A2981 RMK A02 TSNO
QEP,2020-09-16 16:50,127.2667,37.4000,68.00,66.20,93.97,190.00,2.00,0.00,29.85,M,6.21,M,BKN,M,M,M,1700.00,M,M,M,M,M,M,M,M,M,M,M,KQEP 161650Z AUTO 19002KT 9999 BKN017 20/19 A2985 RMK A02 TSNO
QFT,2020-09-16 16:50,127.3500,37.6000,68.00,66.20,93.97,170.00,1.00,0.00,29.81,M,M,M,OVC,M,M,M,600.00,M,M,M,,M,M,M,M,M,M,M,KQFT 161650Z AUTO 17001KT / // OVC006 20/19 A2981 RMK A02 TSNO
QFU,2020-09-16 16:50,126.9667,37.8000,66.20,64.40,93.92,290.00,1.00,0.00,29.86,M,2.49,M,BKN,M,M,M,1200.00,M,M,M,BR,M,M,M,M,M,M,M,KQFU 161650Z AUTO 29001KT 4000 BR BKN012 19/18 A2986 RMK A02 TSNO
QEX,2020-09-16 16:50,128.3000,36.1000,69.80,68.00,94.01,360.00,2.00,0.00,29.74,M,2.98,M,FEW,M,M,M,2200.00,M,M,M,,M,M,M,M,M,M,M,KQEX 161650Z AUTO 36002KT 4800 // FEW022 21/20 A2974 RMK A02 TSNO
QFW,2020-09-16 16:50,127.8833,37.6667,68.00,69.80,M,300.00,1.00,0.00,29.83,M,6.21,M,BKN,M,M,M,3100.00,M,M,M,M,M,M,M,M,M,M,M,KQFW 161650Z AUTO 30001KT 9999 BKN031 20/21 A2983 RMK A02 TSNO
QFV,2020-09-16 16:50,127.5000,38.0500,62.60,62.60,100.00,120.00,1.00,0.00,29.87,M,2.98,M,OVC,M,M,M,200.00,M,M,M,,M,M,M,M,M,M,M,KQFV 161650Z AUTO 12001KT 4800 // OVC002 17/17 A2987 RMK A02 TSNO
RKJK,2020-09-16 16:54,126.6220,35.8994,71.60,69.80,94.06,250.00,4.00,0.00,29.81,1009.90,10.00,M,SCT,SCT,BKN,M,600.00,1000.00,2200.00,M,M,M,M,M,M,M,M,M,RKJK 161654Z AUTO 25004KT 10SM SCT006 SCT010 BKN022 22/21 A2981 RMK AO2 CIG 009V022 SLP099 $
RKJK,2020-09-16 16:56,126.6220,35.8994,71.20,69.40,94.05,250.00,4.00,0.00,29.81,1009.90,10.00,M,SCT,SCT,BKN,M,600.00,1000.00,2200.00,M,M,M,M,M,M,M,M,M,RKJK 161656Z AUTO 25004KT 10SM SCT006 SCT010 BKN022 22/21 A2981 RMK AO2 CIG 009V022 SLP099 T02180208 $
RKSG,2020-09-16 16:58,127.0311,36.9622,68.70,66.20,91.73,150.00,2.00,0.00,29.84,1010.30,M,M,M,M,M,M,M,M,M,M,M,M,M,M,M,M,M,M,RKSG 161658Z 15002KT 2 1/2 BR SCT008 OVC010 20/19 A2984 RMK AO2A TWR VIS 2 SLP103 T02040190 10207 20202 53004 $
RKSO,2020-09-16 16:58,127.0296,37.0906,68.20,67.80,98.63,0.00,0.00,0.00,29.82,1010.10,7.00,M,OVC,M,M,M,500.00,M,M,M,M,M,M,M,M,M,M,M,RKSO 161658Z 00000KT 7SM OVC005 20/20 A2982 RMK AO2A SLP101 T02010199 $
RKSY,2020-09-16 16:58,126.9753,37.5241,69.80,66.70,89.89,0.00,0.00,0.00,29.80,1009.40,6.21,M,OVC,M,M,M,1300.00,M,M,M,M,M,M,M,M,M,M,M,RKSY 161658Z AUTO 00000KT 9999 OVC013 21/19 A2980 RMK AO2 SLP094 T02100193
RKPS,2020-09-16 17:00,128.0704,35.0885,71.60,69.80,94.06,60.00,1.00,0.00,29.83,1010.20,2.98,M,SCT,BKN,M,M,500.00,1000.00,M,M,BR,M,M,M,M,M,M,M,RKPS 161700Z 06001KT 4800 BR SCT005 BKN010 22/21 Q1010 RMK CIG010 SLP102 8/600 9/700
RKJB,2020-09-16 17:00,126.3800,34.9800,71.60,71.60,100.00,160.00,1.00,0.00,29.83,M,3.11,M,///,M,M,M,900.00,M,M,M,BR,M,M,M,M,M,M,M,RKJB 161700Z AUTO 16001KT 5000 BR ///009/// 22/22 Q1010
RKJJ,2020-09-16 17:00,126.8089,35.1264,69.80,69.80,100.00,230.00,1.00,0.00,29.83,1010.40,6.21,M,FEW,BKN,M,M,1500.00,3000.00,M,M,M,M,M,M,M,M,M,M,RKJJ 161700Z 23001KT 9999 FEW015 BKN030 21/21 Q1010 RMK CIG030 SLP104 8/500 9/500
RKPC,2020-09-16 17:00,126.4930,33.5113,71.60,71.60,100.00,240.00,3.00,0.00,29.83,M,6.21,M,FEW,BKN,BKN,M,1500.00,3000.00,18000.00,M,M,M,M,M,M,M,M,M,RKPC 161700Z 24003KT 9999 FEW015 BKN030 BKN180 22/22 Q1010 BECMG -RA
RKNY,2020-09-16 17:00,128.6692,38.0613,71.60,60.80,68.75,280.00,9.00,0.00,29.74,M,1.06,M,NCD,M,M,M,M,M,M,M,,M,M,M,M,M,M,M,RKNY 161700Z AUTO 28009KT 250V310 1700 // NCD 22/16 Q1007
RKSM,2020-09-16 17:00,127.1139,37.4458,68.00,66.20,93.97,0.00,0.00,0.00,29.83,M,4.97,M,SCT,BKN,M,M,1500.00,3000.00,M,M,BR,M,M,M,M,M,M,M,RKSM 161700Z 00000KT 8000 BR SCT015 BKN030 20/19 A2983
QFB,2020-09-16 17:00,128.7167,35.6500,69.80,68.00,94.01,290.00,2.00,0.00,29.87,M,2.98,M,FEW,OVC,M,M,500.00,1100.00,M,M,M,M,M,M,M,M,M,M,KQFB 161700Z AUTO 29002KT 4800 FEW005 OVC011 21/20 A2987 RMK A02 TSNO
RKSS,2020-09-16 17:00,126.7906,37.5583,68.00,68.00,100.00,160.00,4.00,0.00,29.80,M,2.49,M,FEW,BKN,M,M,1000.00,3000.00,M,M,BR,M,M,M,M,M,M,M,RKSS 161700Z 16004KT 4000 BR FEW010 BKN030 20/20 Q1009 NOSIG
RKTH,2020-09-16 17:00,129.4205,35.9879,69.80,69.80,100.00,240.00,5.00,0.00,29.77,1008.80,6.21,M,M,M,M,M,M,M,M,M,M,M,M,M,M,M,M,M,RKTH 161700Z 24005KT CAVOK 21/21 Q1008 RMK SLP088
RKTN,2020-09-16 17:00,128.6589,35.8941,71.60,68.00,88.43,310.00,2.00,0.00,29.80,M,5.59,M,BKN,M,M,M,1500.00,M,M,M,M,M,M,M,M,M,M,M,RKTN 161700Z 31002KT 9000 BKN015 22/20 Q1009
RKTU,2020-09-16 17:00,127.4991,36.7166,68.00,68.00,100.00,290.00,1.00,0.00,29.83,M,3.73,M,FEW,BKN,BKN,M,600.00,1000.00,3000.00,M,M,M,M,M,M,M,M,M,RKTU 161700Z 29001KT 6000 FEW006 BKN010 BKN030 20/20 Q1010
QEN,2020-09-16 17:00,128.7500,37.6667,60.80,64.40,M,250.00,7.00,0.00,M,M,6.21,13.00,BKN,BKN,M,M,300.00,1800.00,M,M,M,M,M,M,M,M,M,M,KQEN 161700Z AUTO 25007G13KT 9999 BKN003 BKN018 16/18 / RMK A02 TSNO
QES,2020-09-16 17:00,126.4500,36.9667,80.60,66.20,61.58,M,M,0.00,M,M,6.21,M,BKN,M,M,M,1900.00,M,M,M,M,M,M,M,M,M,M,M,KQES 161700Z AUTO 9999 BKN019 27/19 / RMK A02 TSNO
QEJ,2020-09-16 17:00,127.9500,38.2000,64.40,64.40,100.00,180.00,1.00,0.00,29.81,M,3.73,M,FEW,BKN,M,M,200.00,1100.00,M,M,M,M,M,M,M,M,M,M,KQEJ 161700Z AUTO 18001KT 6000 FEW002 BKN011 18/18 A2981 RMK A02 TSNO
QEI,2020-09-16 17:00,128.0667,37.9500,64.40,64.40,100.00,140.00,1.00,0.00,29.82,M,5.59,M,FEW,BKN,M,M,900.00,2600.00,M,M,,M,M,M,M,M,M,M,KQEI 161700Z AUTO 14001KT 9000 // FEW009 BKN026 18/18 A2982 RMK A02 TSNO
QEQ,2020-09-16 17:00,127.5500,37.8500,66.20,68.00,M,140.00,2.00,0.00,29.85,M,1.24,M,BKN,BKN,M,M,1500.00,3000.00,M,M,BR,M,M,M,M,M,M,M,KQEQ 161700Z AUTO 14002KT 2000 BR BKN015 BKN030 19/20 A2985 RMK A02 TSNO
QEW,2020-09-16 17:00,128.1500,36.4000,68.00,66.20,93.97,100.00,1.00,0.00,29.81,M,2.98,M,FEW,BKN,M,M,400.00,1300.00,M,M,,M,M,M,M,M,M,M,KQEW 161700Z AUTO 10001KT 4800 // FEW004 BKN013 20/19 A2981 RMK A02 TSNO
QEP,2020-09-16 17:00,127.2667,37.4000,68.00,66.20,93.97,120.00,1.00,0.00,29.85,M,6.21,M,BKN,M,M,M,1800.00,M,M,M,M,M,M,M,M,M,M,M,KQEP 161700Z AUTO 12001KT 9999 BKN018 20/19 A2985 RMK A02 TSNO
RKPK,2020-09-16 17:00,128.9382,35.1795,71.60,69.80,94.06,340.00,4.00,0.00,29.77,M,1.99,M,FEW,SCT,BKN,M,500.00,1000.00,6000.00,M,BR,M,M,M,M,M,M,M,RKPK 161700Z 34004KT 3200 BR FEW005 SCT010 BKN060 22/21 Q1008
QFT,2020-09-16 17:00,127.3500,37.6000,68.00,66.20,93.97,160.00,1.00,0.00,29.81,M,M,M,BKN,M,M,M,800.00,M,M,M,,M,M,M,M,M,M,M,KQFT 161700Z AUTO 16001KT / // BKN008 20/19 A2981 RMK A02 TSNO
QFU,2020-09-16 17:00,126.9667,37.8000,66.20,64.40,93.92,0.00,0.00,0.00,29.87,M,2.98,M,BKN,M,M,M,1200.00,M,M,M,M,M,M,M,M,M,M,M,KQFU 161700Z AUTO 00000KT 4800 BKN012 19/18 A2987 RMK A02 TSNO
QEX,2020-09-16 17:00,128.3000,36.1000,69.80,68.00,94.01,10.00,2.00,0.00,29.74,M,2.98,M,CLR,M,M,M,M,M,M,M,,M,M,M,M,M,M,M,KQEX 161700Z AUTO 01002KT 4800 // CLR 21/20 A2974 RMK A02 TSNO
QFW,2020-09-16 17:00,127.8833,37.6667,68.00,69.80,M,270.00,1.00,0.00,29.84,M,6.21,M,BKN,M,M,M,3200.00,M,M,M,M,M,M,M,M,M,M,M,KQFW 161700Z AUTO 27001KT 9999 BKN032 20/21 A2984 RMK A02 TSNO
QFV,2020-09-16 17:00,127.5000,38.0500,62.60,62.60,100.00,320.00,1.00,0.00,29.86,M,2.98,M,OVC,M,M,M,200.00,M,M,M,,M,M,M,M,M,M,M,KQFV 161700Z AUTO 32001KT 4800 // OVC002 17/17 A2986 RMK A02 TSNO
RKSI,2020-09-16 17:00,126.4500,37.4667,69.80,62.60,77.90,250.00,4.00,0.00,29.80,M,6.21,M,FEW,SCT,BKN,M,1200.00,2500.00,9000.00,M,M,M,M,M,M,M,M,M,RKSI 161700Z 25004KT 160V290 9999 FEW012 SCT025 BKN090 21/17 Q1009 NOSIG
QFB,2020-09-16 17:10,128.7167,35.6500,69.80,68.00,94.01,290.00,1.00,0.00,29.87,M,3.73,M,OVC,M,M,M,500.00,M,M,M,M,M,M,M,M,M,M,M,KQFB 161710Z AUTO 29001KT 6000 OVC005 21/20 A2987 RMK A02 TSNO
QEN,2020-09-16 17:10,128.7500,37.6667,60.80,64.40,M,250.00,8.00,0.00,M,M,6.21,14.00,BKN,M,M,M,300.00,M,M,M,M,M,M,M,M,M,M,M,KQEN 161710Z AUTO 25008G14KT 9999 BKN003 16/18 / RMK A02 TSNO
QES,2020-09-16 17:10,126.4500,36.9667,80.60,66.20,61.58,M,M,0.00,M,M,6.21,M,BKN,M,M,M,1100.00,M,M,M,M,M,M,M,M,M,M,M,KQES 161710Z AUTO 9999 BKN011 27/19 / RMK A02 TSNO
QEJ,2020-09-16 17:10,127.9500,38.2000,64.40,62.60,93.88,140.00,1.00,0.00,29.81,M,3.73,M,FEW,BKN,M,M,200.00,1100.00,M,M,M,M,M,M,M,M,M,M,KQEJ 161710Z AUTO 14001KT 6000 FEW002 BKN011 18/17 A2981 RMK A02 TSNO
QEI,2020-09-16 17:10,128.0667,37.9500,64.40,64.40,100.00,120.00,2.00,0.00,29.82,M,5.59,M,FEW,BKN,M,M,1100.00,2300.00,M,M,,M,M,M,M,M,M,M,KQEI 161710Z AUTO 12002KT 9000 // FEW011 BKN023 18/18 A2982 RMK A02 TSNO
QEQ,2020-09-16 17:10,127.5500,37.8500,66.20,68.00,M,150.00,1.00,0.00,29.85,M,0.99,M,BKN,BKN,M,M,1600.00,9500.00,M,M,BR,M,M,M,M,M,M,M,KQEQ 161710Z AUTO 15001KT 1600 BR BKN016 BKN095 19/20 A2985 RMK A02 TSNO
QEW,2020-09-16 17:10,128.1500,36.4000,68.00,66.20,93.97,160.00,1.00,0.00,29.82,M,2.49,M,FEW,BKN,M,M,400.00,1700.00,M,M,,M,M,M,M,M,M,M,KQEW 161710Z AUTO 16001KT 4000 // FEW004 BKN017 20/19 A2982 RMK A02 TSNO
QEP,2020-09-16 17:10,127.2667,37.4000,66.20,66.20,100.00,110.00,2.00,0.00,29.85,M,5.59,M,BKN,M,M,M,3200.00,M,M,M,M,M,M,M,M,M,M,M,KQEP 161710Z AUTO 11002KT 9000 BKN032 19/19 A2985 RMK A02 TSNO
QFT,2020-09-16 17:10,127.3500,37.6000,68.00,66.20,93.97,180.00,2.00,0.00,29.81,M,M,M,FEW,BKN,M,M,500.00,1400.00,M,M,,M,M,M,M,M,M,M,KQFT 161710Z AUTO 18002KT / // FEW005 BKN014 20/19 A2981 RMK A02 TSNO
QFU,2020-09-16 17:10,126.9667,37.8000,66.20,64.40,93.92,0.00,0.00,0.00,29.87,M,2.98,M,BKN,M,M,M,1100.00,M,M,M,M,M,M,M,M,M,M,M,KQFU 161710Z AUTO 00000KT 4800 BKN011 19/18 A2987 RMK A02 TSNO
QEX,2020-09-16 17:10,128.3000,36.1000,69.80,68.00,94.01,40.00,3.00,0.00,29.74,M,2.49,M,CLR,M,M,M,M,M,M,M,,M,M,M,M,M,M,M,KQEX 161710Z AUTO 04003KT 4000 // CLR 21/20 A2974 RMK A02 TSNO
QFW,2020-09-16 17:10,127.8833,37.6667,68.00,69.80,M,130.00,1.00,0.00,29.84,M,6.21,M,BKN,M,M,M,4000.00,M,M,M,M,M,M,M,M,M,M,M,KQFW 161710Z AUTO 13001KT 9999 BKN040 20/21 A2984 RMK A02 TSNO
QFV,2020-09-16 17:10,127.5000,38.0500,62.60,62.60,100.00,290.00,2.00,0.00,29.87,M,1.99,M,OVC,M,M,M,200.00,M,M,M,,M,M,M,M,M,M,M,KQFV 161710Z AUTO 29002KT 3200 // OVC002 17/17 A2987 RMK A02 TSNO
RKJK,2020-09-16 17:16,126.6220,35.8994,71.60,69.80,94.06,0.00,0.00,0.00,29.81,1009.90,10.00,M,FEW,SCT,M,M,600.00,2100.00,M,M,M,M,M,M,M,M,M,M,RKJK 161716Z AUTO 00000KT 10SM FEW006 SCT021 22/21 A2981 RMK AO2 SLP099 $
RKTY,2020-09-16 17:19,128.3548,36.6319,66.20,66.20,100.00,0.00,0.00,0.00,29.82,M,1.99,M,SCT,BKN,M,M,200.00,1000.00,M,M,BR,M,M,M,M,M,M,M,RKTY 161719Z 00000KT 3200 BR SCT002 BKN010 19/19 A2982 RMK CIG010 WR26
QFB,2020-09-16 17:20,128.7167,35.6500,69.80,68.00,94.01,360.00,1.00,0.00,29.87,M,3.73,M,OVC,M,M,M,500.00,M,M,M,M,M,M,M,M,M,M,M,KQFB 161720Z AUTO 36001KT 6000 OVC005 21/20 A2987 RMK A02 TSNO
QEN,2020-09-16 17:20,128.7500,37.6667,60.80,64.40,M,250.00,7.00,0.00,M,M,6.21,15.00,BKN,M,M,M,300.00,M,M,M,M,M,M,M,M,M,M,M,KQEN 161720Z AUTO 25007G15KT 9999 BKN003 16/18 / RMK A02 TSNO
QES,2020-09-16 17:20,126.4500,36.9667,80.60,66.20,61.58,M,M,0.00,M,M,6.21,M,BKN,M,M,M,1000.00,M,M,M,M,M,M,M,M,M,M,M,KQES 161720Z AUTO 9999 BKN010 27/19 / RMK A02 TSNO
QEJ,2020-09-16 17:20,127.9500,38.2000,64.40,62.60,93.88,140.00,2.00,0.00,29.82,M,3.73,M,FEW,BKN,M,M,200.00,1100.00,M,M,M,M,M,M,M,M,M,M,KQEJ 161720Z AUTO 14002KT 6000 FEW002 BKN011 18/17 A2982 RMK A02 TSNO
QEI,2020-09-16 17:20,128.0667,37.9500,64.40,64.40,100.00,140.00,1.00,0.00,29.82,M,6.21,M,BKN,M,M,M,2200.00,M,M,M,M,M,M,M,M,M,M,M,KQEI 161720Z AUTO 14001KT 9999 BKN022 18/18 A2982 RMK A02 TSNO
QEQ,2020-09-16 17:20,127.5500,37.8500,66.20,68.00,M,160.00,3.00,0.00,29.84,M,1.24,M,BKN,BKN,M,M,1500.00,9500.00,M,M,BR,M,M,M,M,M,M,M,KQEQ 161720Z AUTO 16003KT 2000 BR BKN015 BKN095 19/20 A2984 RMK A02 TSNO
QEW,2020-09-16 17:20,128.1500,36.4000,68.00,68.00,100.00,0.00,0.00,0.00,29.82,M,2.49,M,FEW,BKN,M,M,400.00,1600.00,M,M,,M,M,M,M,M,M,M,KQEW 161720Z AUTO 00000KT 4000 // FEW004 BKN016 20/20 A2982 RMK A02 TSNO
QEP,2020-09-16 17:20,127.2667,37.4000,66.20,66.20,100.00,110.00,1.00,0.00,29.84,M,5.59,M,BKN,M,M,M,3000.00,M,M,M,M,M,M,M,M,M,M,M,KQEP 161720Z AUTO 11001KT 9000 BKN030 19/19 A2984 RMK A02 TSNO
QFT,2020-09-16 17:20,127.3500,37.6000,68.00,66.20,93.97,180.00,1.00,0.00,29.81,M,M,M,BKN,BKN,M,M,400.00,1400.00,M,M,,M,M,M,M,M,M,M,KQFT 161720Z AUTO 18001KT / // BKN004 BKN014 20/19 A2981 RMK A02 TSNO
QFU,2020-09-16 17:20,126.9667,37.8000,66.20,64.40,93.92,120.00,1.00,0.00,29.86,M,2.98,M,BKN,BKN,M,M,1100.00,3500.00,M,M,BR,M,M,M,M,M,M,M,KQFU 161720Z AUTO 12001KT 4800 BR BKN011 BKN035 19/18 A2986 RMK A02 TSNO
QEX,2020-09-16 17:20,128.3000,36.1000,69.80,68.00,94.01,20.00,2.00,0.00,29.74,M,2.49,M,FEW,M,M,M,800.00,M,M,M,,M,M,M,M,M,M,M,KQEX 161720Z AUTO 02002KT 4000 // FEW008 21/20 A2974 RMK A02 TSNO
QFW,2020-09-16 17:20,127.8833,37.6667,66.20,69.80,M,130.00,1.00,0.00,29.84,M,6.21,M,BKN,M,M,M,3800.00,M,M,M,M,M,M,M,M,M,M,M,KQFW 161720Z AUTO 13001KT 9999 BKN038 19/21 A2984 RMK A02 TSNO
QFV,2020-09-16 17:20,127.5000,38.0500,62.60,62.60,100.00,330.00,2.00,0.00,29.86,M,1.99,M,OVC,M,M,M,200.00,M,M,M,,M,M,M,M,M,M,M,KQFV 161720Z AUTO 33002KT 3200 // OVC002 17/17 A2986 RMK A02 TSNO
QFB,2020-09-16 17:30,128.7167,35.6500,69.80,68.00,94.01,0.00,0.00,0.00,29.87,M,3.73,M,BKN,OVC,M,M,500.00,1200.00,M,M,M,M,M,M,M,M,M,M,KQFB 161730Z AUTO 00000KT 6000 BKN005 OVC012 21/20 A2987 RMK A02 TSNO
RKTY,2020-09-16 17:30,128.3548,36.6319,66.20,66.20,100.00,0.00,0.00,0.00,29.82,M,1.49,M,SCT,BKN,M,M,200.00,1000.00,M,M,BR,M,M,M,M,M,M,M,RKTY 161730Z 00000KT 2400 BR SCT002 BKN010 19/19 A2982 RMK CIG010 WR26
QEN,2020-09-16 17:30,128.7500,37.6667,60.80,64.40,M,250.00,6.00,0.00,M,M,6.21,14.00,BKN,M,M,M,300.00,M,M,M,M,M,M,M,M,M,M,M,KQEN 161730Z AUTO 25006G14KT 9999 BKN003 16/18 / RMK A02 TSNO
QES,2020-09-16 17:30,126.4500,36.9667,80.60,66.20,61.58,M,M,0.00,M,M,6.21,M,BKN,BKN,M,M,1000.00,2600.00,M,M,M,M,M,M,M,M,M,M,KQES 161730Z AUTO 9999 BKN010 BKN026 27/19 / RMK A02 TSNO
QEJ,2020-09-16 17:30,127.9500,38.2000,64.40,62.60,93.88,150.00,2.00,0.00,29.81,M,3.73,M,FEW,BKN,M,M,200.00,1100.00,M,M,M,M,M,M,M,M,M,M,KQEJ 161730Z AUTO 15002KT 6000 FEW002 BKN011 18/17 A2981 RMK A02 TSNO
QEI,2020-09-16 17:30,128.0667,37.9500,64.40,64.40,100.00,130.00,3.00,0.00,29.82,M,6.21,M,BKN,M,M,M,2100.00,M,M,M,M,M,M,M,M,M,M,M,KQEI 161730Z AUTO 13003KT 9999 BKN021 18/18 A2982 RMK A02 TSNO
QEQ,2020-09-16 17:30,127.5500,37.8500,66.20,68.00,M,170.00,2.00,0.00,29.84,M,1.49,M,SCT,BKN,M,M,2100.00,9500.00,M,M,BR,M,M,M,M,M,M,M,KQEQ 161730Z AUTO 17002KT 2400 BR SCT021 BKN095 19/20 A2984 RMK A02 TSNO
QEW,2020-09-16 17:30,128.1500,36.4000,68.00,66.20,93.97,0.00,0.00,0.00,29.81,M,1.99,M,FEW,BKN,M,M,400.00,1600.00,M,M,,M,M,M,M,M,M,M,KQEW 161730Z AUTO 00000KT 3200 // FEW004 BKN016 20/19 A2981 RMK A02 TSNO
QEP,2020-09-16 17:30,127.2667,37.4000,66.20,66.20,100.00,180.00,1.00,0.00,29.85,M,6.21,M,BKN,M,M,M,2300.00,M,M,M,M,M,M,M,M,M,M,M,KQEP 161730Z AUTO 18001KT 9999 BKN023 19/19 A2985 RMK A02 TSNO
QFT,2020-09-16 17:30,127.3500,37.6000,68.00,66.20,93.97,170.00,1.00,0.00,29.81,M,M,M,BKN,M,M,M,400.00,M,M,M,,M,M,M,M,M,M,M,KQFT 161730Z AUTO 17001KT / // BKN004 20/19 A2981 RMK A02 TSNO
QFU,2020-09-16 17:30,126.9667,37.8000,66.20,64.40,93.92,130.00,1.00,0.00,29.86,M,2.98,M,SCT,SCT,BKN,M,1000.00,3400.00,9000.00,M,M,M,M,M,M,M,M,M,KQFU 161730Z AUTO 13001KT 4800 SCT010 SCT034 BKN090 19/18 A2986 RMK A02 TSNO
QEX,2020-09-16 17:30,128.3000,36.1000,68.00,68.00,100.00,40.00,3.00,0.00,29.74,M,2.49,M,SCT,M,M,M,700.00,M,M,M,,M,M,M,M,M,M,M,KQEX 161730Z AUTO 04003KT 4000 // SCT007 20/20 A2974 RMK A02 TSNO
QFW,2020-09-16 17:30,127.8833,37.6667,66.20,69.80,M,240.00,2.00,0.00,29.84,M,6.21,M,BKN,M,M,M,3800.00,M,M,M,M,M,M,M,M,M,M,M,KQFW 161730Z AUTO 24002KT 9999 BKN038 19/21 A2984 RMK A02 TSNO
QFV,2020-09-16 17:30,127.5000,38.0500,62.60,62.60,100.00,290.00,1.00,0.00,29.86,M,1.49,M,OVC,M,M,M,200.00,M,M,M,,M,M,M,M,M,M,M,KQFV 161730Z AUTO 29001KT 2400 // OVC002 17/17 A2986 RMK A02 TSNO
RKSI,2020-09-16 17:30,126.4500,37.4667,68.00,62.60,82.86,230.00,4.00,0.00,29.80,M,6.21,M,FEW,BKN,M,M,1500.00,9000.00,M,M,M,M,M,M,M,M,M,M,RKSI 161730Z 23004KT 190V260 9999 FEW015 BKN090 20/17 Q1009 NOSIG
RKSQ,2020-09-16 17:37,125.7000,37.7000,68.00,59.00,72.92,300.00,8.00,0.00,29.85,M,6.21,14.00,SCT,BKN,M,M,1000.00,22000.00,M,M,M,M,M,M,M,M,M,M,RKSQ 161737Z 30008G014KT 9999 SCT010 BKN220 20/15 A2985 RMK CIG220
QFB,2020-09-16 17:40,128.7167,35.6500,69.80,68.00,94.01,350.00,2.00,0.00,29.87,M,3.73,M,BKN,OVC,M,M,600.00,1200.00,M,M,M,M,M,M,M,M,M,M,KQFB 161740Z AUTO 35002KT 6000 BKN006 OVC012 21/20 A2987 RMK A02 TSNO
QEN,2020-09-16 17:40,128.7500,37.6667,60.80,64.40,M,250.00,7.00,0.00,M,M,6.21,12.00,BKN,M,M,M,400.00,M,M,M,M,M,M,M,M,M,M,M,KQEN 161740Z AUTO 25007G12KT 9999 BKN004 16/18 / RMK A02 TSNO
QES,2020-09-16 17:40,126.4500,36.9667,80.60,66.20,61.58,M,M,0.00,M,M,6.21,M,BKN,BKN,M,M,900.00,2600.00,M,M,M,M,M,M,M,M,M,M,KQES 161740Z AUTO 9999 BKN009 BKN026 27/19 / RMK A02 TSNO
QEJ,2020-09-16 17:40,127.9500,38.2000,64.40,62.60,93.88,220.00,1.00,0.00,29.81,M,4.97,M,BKN,BKN,M,M,900.00,3200.00,M,M,M,M,M,M,M,M,M,M,KQEJ 161740Z AUTO 22001KT 8000 BKN009 BKN032 18/17 A2981 RMK A02 TSNO
QEI,2020-09-16 17:40,128.0667,37.9500,64.40,64.40,100.00,130.00,2.00,0.00,29.82,M,6.21,M,SCT,M,M,M,1500.00,M,M,M,M,M,M,M,M,M,M,M,KQEI 161740Z AUTO 13002KT 9999 SCT015 18/18 A2982 RMK A02 TSNO
QEQ,2020-09-16 17:40,127.5500,37.8500,66.20,68.00,M,190.00,2.00,0.00,29.84,M,1.24,M,SCT,BKN,M,M,2000.00,9500.00,M,M,BR,M,M,M,M,M,M,M,KQEQ 161740Z AUTO 19002KT 2000 BR SCT020 BKN095 19/20 A2984 RMK A02 TSNO
QEW,2020-09-16 17:40,128.1500,36.4000,68.00,68.00,100.00,0.00,0.00,0.00,29.82,M,2.98,M,BKN,M,M,M,1600.00,M,M,M,,M,M,M,M,M,M,M,KQEW 161740Z AUTO 00000KT 4800 // BKN016 20/20 A2982 RMK A02 TSNO
QEP,2020-09-16 17:40,127.2667,37.4000,66.20,64.40,93.92,110.00,1.00,0.00,29.84,M,6.21,M,SCT,M,M,M,2300.00,M,M,M,M,M,M,M,M,M,M,M,KQEP 161740Z AUTO 11001KT 9999 SCT023 19/18 A2984 RMK A02 TSNO
QEX,2020-09-16 17:40,128.3000,36.1000,69.80,68.00,94.01,10.00,1.00,0.00,29.74,M,2.98,M,SCT,M,M,M,600.00,M,M,M,,M,M,M,M,M,M,M,KQEX 161740Z AUTO 01001KT 4800 // SCT006 21/20 A2974 RMK A02 TSNO
QFT,2020-09-16 17:40,127.3500,37.6000,68.00,66.20,93.97,180.00,1.00,0.00,29.81,M,M,M,BKN,M,M,M,400.00,M,M,M,,M,M,M,M,M,M,M,KQFT 161740Z AUTO 18001KT / // BKN004 20/19 A2981 RMK A02 TSNO
QFU,2020-09-16 17:40,126.9667,37.8000,64.40,64.40,100.00,170.00,1.00,0.00,29.86,M,2.49,M,FEW,SCT,SCT,BKN,1000.00,1400.00,3400.00,9000.00,BR,M,M,M,M,M,M,M,KQFU 161740Z AUTO 17001KT 4000 BR FEW010 SCT014 SCT034 BKN090 18/18 A2986 RMK A02 TSNO
QFW,2020-09-16 17:40,127.8833,37.6667,M,M,M,190.00,1.00,0.00,M,M,M,M,M,M,M,M,M,M,M,M,M,M,M,M,M,M,M,M,KQFW 161740Z AUTO 19001KT 9999 // SCT004 BKN037 19/21 / RMK A02 TSNO
QFV,2020-09-16 17:40,127.5000,38.0500,62.60,60.80,93.83,330.00,2.00,0.00,29.86,M,1.74,M,OVC,M,M,M,200.00,M,M,M,,M,M,M,M,M,M,M,KQFV 161740Z AUTO 33002KT 2800 // OVC002 17/16 A2986 RMK A02 TSNO
QFB,2020-09-16 17:50,128.7167,35.6500,69.80,68.00,94.01,300.00,1.00,0.00,29.87,M,2.98,M,BKN,OVC,M,M,600.00,1200.00,M,M,M,M,M,M,M,M,M,M,KQFB 161750Z AUTO 30001KT 4800 BKN006 OVC012 21/20 A2987 RMK A02 TSNO
QEN,2020-09-16 17:50,128.7500,37.6667,60.80,64.40,M,250.00,7.00,0.00,M,M,6.21,M,SCT,M,M,M,300.00,M,M,M,M,M,M,M,M,M,M,M,KQEN 161750Z AUTO 25007KT 9999 SCT003 16/18 / RMK A02 TSNO
QES,2020-09-16 17:50,126.4500,36.9667,80.60,66.20,61.58,M,M,0.00,M,M,6.21,M,SCT,SCT,BKN,M,1000.00,2700.00,25000.00,M,M,M,M,M,M,M,M,M,KQES 161750Z AUTO 9999 SCT010 SCT027 BKN250 27/19 / RMK A02 TSNO
QEJ,2020-09-16 17:50,127.9500,38.2000,62.60,62.60,100.00,150.00,2.00,0.00,29.81,M,2.98,M,BKN,M,M,M,800.00,M,M,M,M,M,M,M,M,M,M,M,KQEJ 161750Z AUTO 15002KT 4800 BKN008 17/17 A2981 RMK A02 TSNO
QEI,2020-09-16 17:50,128.0667,37.9500,64.40,62.60,93.88,140.00,3.00,0.00,29.82,M,6.21,M,FEW,SCT,BKN,M,1300.00,1400.00,2500.00,M,M,M,M,M,M,M,M,M,KQEI 161750Z AUTO 14003KT 9999 FEW013 SCT014 BKN025 18/17 A2982 RMK A02 TSNO
QEQ,2020-09-16 17:50,127.5500,37.8500,66.20,68.00,M,180.00,1.00,0.00,29.84,M,1.24,M,BKN,M,M,M,2000.00,M,M,M,BR,M,M,M,M,M,M,M,KQEQ 161750Z AUTO 18001KT 2000 BR BKN020 19/20 A2984 RMK A02 TSNO
QEW,2020-09-16 17:50,128.1500,36.4000,68.00,66.20,93.97,0.00,0.00,0.00,29.81,M,2.98,M,FEW,BKN,M,M,300.00,1700.00,M,M,,M,M,M,M,M,M,M,KQEW 161750Z AUTO 00000KT 4800 // FEW003 BKN017 20/19 A2981 RMK A02 TSNO
QEP,2020-09-16 17:50,127.2667,37.4000,66.20,64.40,93.92,200.00,1.00,0.00,29.85,M,5.59,M,FEW,M,M,M,2200.00,M,M,M,M,M,M,M,M,M,M,M,KQEP 161750Z AUTO 20001KT 9000 FEW022 19/18 A2985 RMK A02 TSNO
QEX,2020-09-16 17:50,128.3000,36.1000,69.80,68.00,94.01,50.00,1.00,0.00,29.74,M,2.98,M,BKN,M,M,M,500.00,M,M,M,,M,M,M,M,M,M,M,KQEX 161750Z AUTO 05001KT 4800 // BKN005 21/20 A2974 RMK A02 TSNO
QFT,2020-09-16 17:50,127.3500,37.6000,68.00,66.20,93.97,170.00,1.00,0.00,29.81,M,M,M,BKN,BKN,M,M,400.00,2700.00,M,M,,M,M,M,M,M,M,M,KQFT 161750Z AUTO 17001KT / // BKN004 BKN027 20/19 A2981 RMK A02 TSNO
QFU,2020-09-16 17:50,126.9667,37.8000,64.40,62.60,93.88,180.00,1.00,0.00,29.85,M,2.49,M,FEW,FEW,SCT,M,1100.00,1400.00,9000.00,M,BR,M,M,M,M,M,M,M,KQFU 161750Z AUTO 18001KT 4000 BR FEW011 FEW014 SCT090 18/17 A2985 RMK A02 TSNO
QFW,2020-09-16 17:50,127.8833,37.6667,M,M,M,240.00,1.00,0.00,M,M,M,M,M,M,M,M,M,M,M,M,M,M,M,M,M,M,M,M,KQFW 161750Z AUTO 24001KT 9999 // BKN004 BKN040 19/21 / RMK A02 TSNO
QFV,2020-09-16 17:50,127.5000,38.0500,62.60,62.60,100.00,10.00,1.00,0.00,29.86,M,1.99,M,OVC,M,M,M,200.00,M,M,M,,M,M,M,M,M,M,M,KQFV 161750Z AUTO 01001KT 3200 // OVC002 17/17 A2986 RMK A02 TSNO
RKJK,2020-09-16 17:56,126.6220,35.8994,70.70,68.50,92.75,270.00,4.00,0.00,29.82,M,10.00,M,FEW,SCT,M,M,1100.00,1900.00,M,M,M,M,M,M,M,M,M,M,RKJK 161756Z AUTO 27004KT 10SM FEW011 SCT019 22/20 A2982 RMK AO2 SLPNO T02150203 10224 20213 53003 $
RKSG,2020-09-16 17:56,127.0311,36.9622,69.10,66.60,91.75,180.00,2.00,0.00,29.83,1010.00,M,M,M,M,M,M,M,M,M,M,M,M,M,M,M,M,M,M,RKSG 161756Z 18002KT 2 1/2 BR SCT006 BKN010 21/19 A2983 RMK AO2A TWR VIS 2 SLP100 T02060192 10207 20202 50002 $
RKSO,2020-09-16 17:58,127.0296,37.0906,67.10,66.70,98.63,110.00,3.00,0.00,29.80,1009.40,6.00,M,OVC,M,M,M,700.00,M,M,M,BR,M,M,M,M,M,M,M,RKSO 161758Z 11003KT 6SM BR OVC007 20/19 A2980 RMK AO2A SLP094 T01950193 10207 20195 53001 $
RKSY,2020-09-16 17:58,126.9753,37.5241,69.80,66.70,89.89,0.00,0.00,0.00,29.80,1009.40,6.21,M,OVC,M,M,M,1200.00,M,M,M,M,M,M,M,M,M,M,M,RKSY 161758Z AUTO 00000KT 9999 OVC012 21/19 A2980 RMK AO2 SLP094 T02100193 10223 20199 55001
RKPS,2020-09-16 18:00,128.0704,35.0885,71.60,69.80,94.06,70.00,1.00,0.00,29.83,1010.20,2.98,M,FEW,BKN,M,M,500.00,1500.00,M,M,BR,M,M,M,M,M,M,M,RKPS 161800Z 07001KT 4800 BR FEW005 BKN015 22/21 Q1010 RMK CIG015 SLP102 8/600 9/600
RKJB,2020-09-16 18:00,126.3800,34.9800,71.60,71.60,100.00,310.00,3.00,0.00,29.83,M,6.21,M,///,M,M,M,1000.00,M,M,M,M,M,M,M,M,M,M,M,RKJB 161800Z AUTO 31003KT 260V350 9999 ///010/// 22/22 Q1010
RKJJ,2020-09-16 18:00,126.8089,35.1264,69.80,69.80,100.00,250.00,3.00,0.00,29.83,1010.60,6.21,M,SCT,BKN,BKN,M,1500.00,3000.00,20000.00,M,M,M,M,M,M,M,M,M,RKJJ 161800Z 25003KT 9999 SCT015 BKN030 BKN200 21/21 Q1010 RMK CIG030 SLP106 8/508 9/502
RKPC,2020-09-16 18:00,126.4930,33.5113,71.60,71.60,100.00,240.00,5.00,0.00,29.83,M,6.21,M,FEW,BKN,BKN,M,1000.00,3000.00,18000.00,M,M,M,M,M,M,M,M,M,RKPC 161800Z 24005KT 9999 FEW010 BKN030 BKN180 22/22 Q1010 BECMG -RA
RKNY,2020-09-16 18:00,128.6692,38.0613,68.00,60.80,77.75,310.00,10.00,0.00,29.74,M,1.06,M,NCD,M,M,M,M,M,M,M,,M,M,M,M,M,M,M,RKNY 161800Z AUTO 31010KT 1700 // NCD 20/16 Q1007
RKSM,2020-09-16 18:00,127.1139,37.4458,68.00,66.20,93.97,190.00,1.00,0.00,29.82,M,4.97,M,SCT,BKN,M,M,1500.00,3000.00,M,M,BR,M,M,M,M,M,M,M,RKSM 161800Z 19001KT 8000 BR SCT015 BKN030 20/19 A2982
QFB,2020-09-16 18:00,128.7167,35.6500,69.80,68.00,94.01,290.00,2.00,0.00,29.87,M,2.98,M,OVC,M,M,M,600.00,M,M,M,M,M,M,M,M,M,M,M,KQFB 161800Z AUTO 29002KT 4800 OVC006 21/20 A2987 RMK A02 TSNO
RKSS,2020-09-16 18:00,126.7906,37.5583,68.00,68.00,100.00,140.00,5.00,0.00,29.80,M,2.17,M,SCT,BKN,M,M,1000.00,3000.00,M,M,BR,M,M,M,M,M,M,M,RKSS 161800Z 14005KT 3500 BR SCT010 BKN030 20/20 Q1009 NOSIG
RKTH,2020-09-16 18:00,129.4205,35.9879,71.60,71.60,100.00,240.00,6.00,0.00,29.77,1008.90,6.21,M,M,M,M,M,M,M,M,M,M,M,M,M,M,M,M,M,RKTH 161800Z 24006KT CAVOK 22/22 Q1008 RMK SLP089 8/005 9/001
RKTN,2020-09-16 18:00,128.6589,35.8941,71.60,68.00,88.43,340.00,3.00,0.00,29.80,M,5.59,M,BKN,M,M,M,1500.00,M,M,M,M,M,M,M,M,M,M,M,RKTN 161800Z 34003KT 9000 BKN015 22/20 Q1009
RKTU,2020-09-16 18:00,127.4991,36.7166,68.00,68.00,100.00,240.00,3.00,0.00,29.83,M,2.98,M,FEW,BKN,BKN,M,500.00,1500.00,3000.00,M,BR,M,M,M,M,M,M,M,RKTU 161800Z 24003KT 4800 BR FEW005 BKN015 BKN030 20/20 Q1010
QEN,2020-09-16 18:00,128.7500,37.6667,60.80,64.40,M,250.00,7.00,0.00,M,M,6.21,15.00,FEW,M,M,M,300.00,M,M,M,M,M,M,M,M,M,M,M,KQEN 161800Z AUTO 25007G15KT 9999 FEW003 16/18 / RMK A02 TSNO
QES,2020-09-16 18:00,126.4500,36.9667,80.60,66.20,61.58,M,M,0.00,M,M,6.21,M,FEW,BKN,M,M,1000.00,24000.00,M,M,M,M,M,M,M,M,M,M,KQES 161800Z AUTO 9999 FEW010 BKN240 27/19 / RMK A02 TSNO
QEJ,2020-09-16 18:00,127.9500,38.2000,62.60,62.60,100.00,200.00,2.00,0.00,29.81,M,3.73,M,BKN,M,M,M,800.00,M,M,M,M,M,M,M,M,M,M,M,KQEJ 161800Z AUTO 20002KT 6000 BKN008 17/17 A2981 RMK A02 TSNO
QEI,2020-09-16 18:00,128.0667,37.9500,64.40,64.40,100.00,140.00,2.00,0.00,29.82,M,6.21,M,FEW,FEW,BKN,M,1200.00,1400.00,2400.00,M,M,M,M,M,M,M,M,M,KQEI 161800Z AUTO 14002KT 9999 FEW012 FEW014 BKN024 18/18 A2982 RMK A02 TSNO
QEQ,2020-09-16 18:00,127.5500,37.8500,66.20,69.80,M,180.00,2.00,0.00,29.84,M,1.49,M,BKN,M,M,M,2000.00,M,M,M,BR,M,M,M,M,M,M,M,KQEQ 161800Z AUTO 18002KT 2400 BR BKN020 19/21 A2984 RMK A02 TSNO
QEW,2020-09-16 18:00,128.1500,36.4000,68.00,66.20,93.97,10.00,2.00,0.00,29.81,M,2.49,M,FEW,BKN,M,M,300.00,1700.00,M,M,,M,M,M,M,M,M,M,KQEW 161800Z AUTO 01002KT 4000 // FEW003 BKN017 20/19 A2981 RMK A02 TSNO
QEP,2020-09-16 18:00,127.2667,37.4000,66.20,64.40,93.92,330.00,1.00,0.00,29.84,M,3.73,M,FEW,SCT,M,M,2300.00,2600.00,M,M,M,M,M,M,M,M,M,M,KQEP 161800Z AUTO 33001KT 6000 FEW023 SCT026 19/18 A2984 RMK A02 TSNO
QEX,2020-09-16 18:00,128.3000,36.1000,69.80,68.00,94.01,200.00,1.00,0.00,29.74,M,2.98,M,BKN,M,M,M,500.00,M,M,M,,M,M,M,M,M,M,M,KQEX 161800Z AUTO 20001KT 4800 // BKN005 21/20 A2974 RMK A02 TSNO
RKPK,2020-09-16 18:00,128.9382,35.1795,73.40,69.80,88.51,320.00,3.00,0.00,29.80,M,1.49,M,BKN,BKN,M,M,1000.00,6000.00,M,M,BR,M,M,M,M,M,M,M,RKPK 161800Z 32003KT 2400 BR BKN010 BKN060 23/21 Q1009
QFT,2020-09-16 18:00,127.3500,37.6000,68.00,66.20,93.97,160.00,1.00,0.00,29.82,M,M,M,SCT,BKN,M,M,500.00,2100.00,M,M,,M,M,M,M,M,M,M,KQFT 161800Z AUTO 16001KT / // SCT005 BKN021 20/19 A2982 RMK A02 TSNO
QFU,2020-09-16 18:00,126.9667,37.8000,64.40,62.60,93.88,170.00,1.00,0.00,29.85,M,1.99,M,SCT,SCT,M,M,1400.00,9000.00,M,M,BR,M,M,M,M,M,M,M,KQFU 161800Z AUTO 17001KT 3200 BR SCT014 SCT090 18/17 A2985 RMK A02 TSNO
QFW,2020-09-16 18:00,127.8833,37.6667,M,M,M,130.00,1.00,0.00,M,M,M,M,M,M,M,M,M,M,M,M,M,M,M,M,M,M,M,M,KQFW 161800Z AUTO 13001KT 9999 // BKN004 BKN038 19/21 / RMK A02 TSNO
QFV,2020-09-16 18:00,127.5000,38.0500,62.60,60.80,93.83,110.00,2.00,0.00,29.86,M,1.49,M,OVC,M,M,M,200.00,M,M,M,,M,M,M,M,M,M,M,KQFV 161800Z AUTO 11002KT 2400 // OVC002 17/16 A2986 RMK A02 TSNO
RKSI,2020-09-16 18:00,126.4500,37.4667,69.80,62.60,77.90,220.00,4.00,0.00,29.80,M,6.21,M,FEW,SCT,BKN,M,1300.00,2500.00,12000.00,M,M,M,M,M,M,M,M,M,RKSI 161800Z 22004KT 130V240 9999 FEW013 SCT025 BKN120 21/17 Q1009 NOSIG
QFB,2020-09-16 18:10,128.7167,35.6500,69.80,68.00,94.01,320.00,1.00,0.00,29.87,M,3.73,M,OVC,M,M,M,600.00,M,M,M,M,M,M,M,M,M,M,M,KQFB 161810Z AUTO 32001KT 6000 OVC006 21/20 A2987 RMK A02 TSNO
QEN,2020-09-16 18:10,128.7500,37.6667,60.80,64.40,M,250.00,7.00,0.00,M,M,6.21,15.00,FEW,M,M,M,300.00,M,M,M,M,M,M,M,M,M,M,M,KQEN 161810Z AUTO 25007G15KT 9999 FEW003 16/18 / RMK A02 TSNO
QES,2020-09-16 18:10,126.4500,36.9667,80.60,66.20,61.58,M,M,0.00,M,M,6.21,M,FEW,BKN,M,M,1000.00,24000.00,M,M,M,M,M,M,M,M,M,M,KQES 161810Z AUTO 9999 FEW010 BKN240 27/19 / RMK A02 TSNO
QEJ,2020-09-16 18:10,127.9500,38.2000,62.60,62.60,100.00,160.00,1.00,0.00,29.82,M,4.97,M,SCT,BKN,BKN,M,200.00,800.00,1000.00,M,M,M,M,M,M,M,M,M,KQEJ 161810Z AUTO 16001KT 8000 SCT002 BKN008 BKN010 17/17 A2982 RMK A02 TSNO
QEI,2020-09-16 18:10,128.0667,37.9500,64.40,62.60,93.88,130.00,2.00,0.00,29.83,M,6.21,M,FEW,BKN,BKN,M,1400.00,2200.00,2500.00,M,M,M,M,M,M,M,M,M,KQEI 161810Z AUTO 13002KT 9999 FEW014 BKN022 BKN025 18/17 A2983 RMK A02 TSNO
QEQ,2020-09-16 18:10,127.5500,37.8500,66.20,69.80,M,170.00,2.00,0.00,29.84,M,1.74,M,BKN,M,M,M,2000.00,M,M,M,BR,M,M,M,M,M,M,M,KQEQ 161810Z AUTO 17002KT 2800 BR BKN020 19/21 A2984 RMK A02 TSNO
QEW,2020-09-16 18:10,128.1500,36.4000,68.00,66.20,93.97,270.00,1.00,0.00,29.81,M,1.99,M,FEW,BKN,M,M,300.00,1500.00,M,M,,M,M,M,M,M,M,M,KQEW 161810Z AUTO 27001KT 3200 // FEW003 BKN015 20/19 A2981 RMK A02 TSNO
QEP,2020-09-16 18:10,127.2667,37.4000,66.20,64.40,93.92,0.00,0.00,0.00,29.84,M,5.59,M,SCT,BKN,M,M,1500.00,2600.00,M,M,M,M,M,M,M,M,M,M,KQEP 161810Z AUTO 00000KT 9000 SCT015 BKN026 19/18 A2984 RMK A02 TSNO
QEX,2020-09-16 18:10,128.3000,36.1000,69.80,68.00,94.01,280.00,1.00,0.00,29.74,M,2.98,M,BKN,M,M,M,500.00,M,M,M,,M,M,M,M,M,M,M,KQEX 161810Z AUTO 28001KT 4800 // BKN005 21/20 A2974 RMK A02 TSNO
QFT,2020-09-16 18:10,127.3500,37.6000,68.00,66.20,93.97,150.00,1.00,0.00,29.81,M,M,M,FEW,BKN,M,M,600.00,2100.00,M,M,,M,M,M,M,M,M,M,KQFT 161810Z AUTO 15001KT / // FEW006 BKN021 20/19 A2981 RMK A02 TSNO
QFU,2020-09-16 18:10,126.9667,37.8000,64.40,62.60,93.88,230.00,1.00,0.00,29.86,M,2.49,M,FEW,M,M,M,1400.00,M,M,M,BR,M,M,M,M,M,M,M,KQFU 161810Z AUTO 23001KT 4000 BR FEW014 18/17 A2986 RMK A02 TSNO
QFW,2020-09-16 18:10,127.8833,37.6667,M,M,M,100.00,1.00,0.00,M,M,M,M,M,M,M,M,M,M,M,M,M,M,M,M,M,M,M,M,KQFW 161810Z AUTO 10001KT 9999 // BKN004 BKN038 19/21 / RMK A02 TSNO
QFV,2020-09-16 18:10,127.5000,38.0500,62.60,62.60,100.00,120.00,1.00,0.00,29.87,M,0.75,M,CLR,M,M,M,M,M,M,M,,M,M,M,M,M,M,M,KQFV 161810Z AUTO 12001KT 1200 // CLR 17/17 A2987 RMK A02 TSNO
RKTI,2020-09-16 18:11,127.8853,37.0300,68.00,68.00,100.00,320.00,1.00,0.00,29.82,M,1.49,M,FEW,BKN,M,M,500.00,1500.00,M,M,BR,M,M,M,M,M,M,M,RKTI 161811Z 32001KT 2400 BR FEW005 BKN015 20/20 A2982 RMK CIG015
RKPM,2020-09-16 18:15,126.1628,33.2939,69.80,69.80,100.00,330.00,10.00,0.00,29.90,M,6.21,M,BKN,M,M,M,12000.00,M,M,M,-RA,M,M,M,M,M,M,M,RKPM 161815Z 33010KT 9999 -RA BKN120 21/21 A2990 RMK CIG120
RKJK,2020-09-16 18:16,126.6220,35.8994,71.60,69.80,94.06,270.00,4.00,0.00,29.82,M,10.00,M,SCT,BKN,M,M,1000.00,1700.00,M,M,M,M,M,M,M,M,M,M,RKJK 161816Z AUTO 27004KT 10SM SCT010 BKN017 22/21 A2982 RMK AO2 BKN V SCT SLPNO $
QFB,2020-09-16 18:20,128.7167,35.6500,69.80,68.00,94.01,340.00,1.00,0.00,29.87,M,3.73,M,OVC,M,M,M,700.00,M,M,M,M,M,M,M,M,M,M,M,KQFB 161820Z AUTO 34001KT 6000 OVC007 21/20 A2987 RMK A02 TSNO
QEN,2020-09-16 18:20,128.7500,37.6667,60.80,64.40,M,250.00,7.00,0.00,M,M,6.21,12.00,FEW,M,M,M,500.00,M,M,M,M,M,M,M,M,M,M,M,KQEN 161820Z AUTO 25007G12KT 9999 FEW005 16/18 / RMK A02 TSNO
QES,2020-09-16 18:20,126.4500,36.9667,80.60,66.20,61.58,M,M,0.00,M,M,6.21,M,BKN,M,M,M,24000.00,M,M,M,M,M,M,M,M,M,M,M,KQES 161820Z AUTO 9999 BKN240 27/19 / RMK A02 TSNO
QEJ,2020-09-16 18:20,127.9500,38.2000,62.60,62.60,100.00,150.00,1.00,0.00,29.82,M,1.99,M,BKN,BKN,M,M,100.00,900.00,M,M,BR,M,M,M,M,M,M,M,KQEJ 161820Z AUTO 15001KT 3200 BR BKN001 BKN009 17/17 A2982 RMK A02 TSNO
QEI,2020-09-16 18:20,128.0667,37.9500,64.40,62.60,93.88,130.00,3.00,0.00,29.83,M,5.59,M,BKN,M,M,M,2200.00,M,M,M,,M,M,M,M,M,M,M,KQEI 161820Z AUTO 13003KT 9000 // BKN022 18/17 A2983 RMK A02 TSNO
QEQ,2020-09-16 18:20,127.5500,37.8500,66.20,69.80,M,160.00,2.00,0.00,29.84,M,1.74,M,SCT,BKN,M,M,2000.00,3100.00,M,M,BR,M,M,M,M,M,M,M,KQEQ 161820Z AUTO 16002KT 2800 BR SCT020 BKN031 19/21 A2984 RMK A02 TSNO
QEW,2020-09-16 18:20,128.1500,36.4000,68.00,66.20,93.97,0.00,0.00,0.00,29.82,M,1.74,M,FEW,SCT,BKN,M,300.00,1500.00,24000.00,M,,M,M,M,M,M,M,M,KQEW 161820Z AUTO 00000KT 2800 // FEW003 SCT015 BKN240 20/19 A2982 RMK A02 TSNO
QEP,2020-09-16 18:20,127.2667,37.4000,66.20,64.40,93.92,130.00,1.00,0.00,29.84,M,4.97,M,BKN,BKN,M,M,1400.00,2700.00,M,M,M,M,M,M,M,M,M,M,KQEP 161820Z AUTO 13001KT 8000 BKN014 BKN027 19/18 A2984 RMK A02 TSNO
QEX,2020-09-16 18:20,128.3000,36.1000,69.80,68.00,94.01,300.00,1.00,0.00,29.75,M,3.73,M,SCT,BKN,M,M,500.00,1600.00,M,M,,M,M,M,M,M,M,M,KQEX 161820Z AUTO 30001KT 6000 // SCT005 BKN016 21/20 A2975 RMK A02 TSNO
QFT,2020-09-16 18:20,127.3500,37.6000,68.00,66.20,93.97,110.00,1.00,0.00,29.80,M,M,M,FEW,BKN,M,M,600.00,2100.00,M,M,,M,M,M,M,M,M,M,KQFT 161820Z AUTO 11001KT / // FEW006 BKN021 20/19 A2980 RMK A02 TSNO
QFU,2020-09-16 18:20,126.9667,37.8000,64.40,62.60,93.88,0.00,0.00,0.00,29.85,M,1.99,M,FEW,M,M,M,1400.00,M,M,M,BR,M,M,M,M,M,M,M,KQFU 161820Z AUTO 00000KT 3200 BR FEW014 18/17 A2985 RMK A02 TSNO
QFW,2020-09-16 18:20,127.8833,37.6667,M,M,M,110.00,1.00,0.00,M,M,M,M,M,M,M,M,M,M,M,M,M,M,M,M,M,M,M,M,KQFW 161820Z AUTO 11001KT 9999 // BKN004 BKN038 19/21 / RMK A02 TSNO
QFV,2020-09-16 18:20,127.5000,38.0500,62.60,62.60,100.00,150.00,1.00,0.00,29.86,M,0.50,M,CLR,M,M,M,M,M,M,M,,M,M,M,M,M,M,M,KQFV 161820Z AUTO 15001KT 0800 // CLR 17/17 A2986 RMK A02 TSNO
RKJK,2020-09-16 18:26,126.6220,35.8994,69.80,68.00,94.01,280.00,3.00,0.00,29.82,M,10.00,M,FEW,SCT,M,M,800.00,1700.00,M,M,M,M,M,M,M,M,M,M,RKJK 161826Z AUTO 28003KT 10SM FEW008 SCT017 21/20 A2982 RMK AO2 SLPNO $
QFB,2020-09-16 18:30,128.7167,35.6500,69.80,68.00,94.01,310.00,1.00,0.00,29.88,M,2.98,M,OVC,M,M,M,700.00,M,M,M,M,M,M,M,M,M,M,M,KQFB 161830Z AUTO 31001KT 4800 OVC007 21/20 A2988 RMK A02 TSNO
QEN,2020-09-16 18:30,128.7500,37.6667,60.80,64.40,M,250.00,7.00,0.00,M,M,6.21,13.00,BKN,M,M,M,500.00,M,M,M,M,M,M,M,M,M,M,M,KQEN 161830Z AUTO 25007G13KT 9999 BKN005 16/18 / RMK A02 TSNO
QES,2020-09-16 18:30,126.4500,36.9667,80.60,66.20,61.58,M,M,0.00,M,M,6.21,M,BKN,M,M,M,24000.00,M,M,M,M,M,M,M,M,M,M,M,KQES 161830Z AUTO 9999 BKN240 27/19 / RMK A02 TSNO
QEJ,2020-09-16 18:30,127.9500,38.2000,62.60,62.60,100.00,0.00,0.00,0.00,29.81,M,3.73,M,BKN,BKN,M,M,100.00,1100.00,M,M,M,M,M,M,M,M,M,M,KQEJ 161830Z AUTO 00000KT 6000 BKN001 BKN011 17/17 A2981 RMK A02 TSNO
QEI,2020-09-16 18:30,128.0667,37.9500,64.40,64.40,100.00,140.00,3.00,0.00,29.83,M,6.21,M,BKN,M,M,M,2000.00,M,M,M,M,M,M,M,M,M,M,M,KQEI 161830Z AUTO 14003KT 9999 BKN020 18/18 A2983 RMK A02 TSNO
QEQ,2020-09-16 18:30,127.5500,37.8500,68.00,69.80,M,150.00,1.00,0.00,29.84,M,1.99,M,FEW,SCT,M,M,2000.00,3100.00,M,M,BR,M,M,M,M,M,M,M,KQEQ 161830Z AUTO 15001KT 3200 BR FEW020 SCT031 20/21 A2984 RMK A02 TSNO
QEW,2020-09-16 18:30,128.1500,36.4000,68.00,66.20,93.97,0.00,0.00,0.00,29.82,M,1.99,M,FEW,BKN,BKN,M,300.00,1500.00,24000.00,M,,M,M,M,M,M,M,M,KQEW 161830Z AUTO 00000KT 3200 // FEW003 BKN015 BKN240 20/19 A2982 RMK A02 TSNO
QEP,2020-09-16 18:30,127.2667,37.4000,66.20,64.40,93.92,130.00,1.00,0.00,29.84,M,4.97,M,BKN,M,M,M,1300.00,M,M,M,M,M,M,M,M,M,M,M,KQEP 161830Z AUTO 13001KT 8000 BKN013 19/18 A2984 RMK A02 TSNO
QEX,2020-09-16 18:30,128.3000,36.1000,69.80,68.00,94.01,20.00,2.00,0.00,29.75,M,2.98,M,FEW,SCT,M,M,800.00,1100.00,M,M,,M,M,M,M,M,M,M,KQEX 161830Z AUTO 02002KT 4800 // FEW008 SCT011 21/20 A2975 RMK A02 TSNO
QFT,2020-09-16 18:30,127.3500,37.6000,66.20,66.20,100.00,90.00,1.00,0.00,29.80,M,M,M,SCT,BKN,BKN,M,600.00,2100.00,3100.00,M,,M,M,M,M,M,M,M,KQFT 161830Z AUTO 09001KT / // SCT006 BKN021 BKN031 19/19 A2980 RMK A02 TSNO
QFU,2020-09-16 18:30,126.9667,37.8000,64.40,62.60,93.88,220.00,1.00,0.00,29.85,M,2.49,M,FEW,M,M,M,1400.00,M,M,M,BR,M,M,M,M,M,M,M,KQFU 161830Z AUTO 22001KT 4000 BR FEW014 18/17 A2985 RMK A02 TSNO
QFW,2020-09-16 18:30,127.8833,37.6667,M,M,M,100.00,1.00,0.00,M,M,M,M,M,M,M,M,M,M,M,M,M,M,M,M,M,M,M,M,KQFW 161830Z AUTO 10001KT 9999 // SCT004 19/21 / RMK A02 TSNO
QFV,2020-09-16 18:30,127.5000,38.0500,62.60,60.80,93.83,110.00,2.00,0.00,29.86,M,0.75,M,CLR,M,M,M,M,M,M,M,,M,M,M,M,M,M,M,KQFV 161830Z AUTO 11002KT 1200 // CLR 17/16 A2986 RMK A02 TSNO
RKSI,2020-09-16 18:30,126.4500,37.4667,69.80,62.60,77.90,220.00,5.00,0.00,29.80,M,6.21,M,FEW,BKN,M,M,1500.00,2500.00,M,M,M,M,M,M,M,M,M,M,RKSI 161830Z 22005KT 9999 FEW015 BKN025 21/17 Q1009 NOSIG
RKTE,2020-09-16 18:31,127.5001,36.5682,68.00,68.00,100.00,350.00,1.00,0.00,29.80,M,2.98,M,SCT,BKN,M,M,500.00,2500.00,M,M,BR,M,M,M,M,M,M,M,RKTE 161831Z 35001KT 4800 BR SCT005 BKN025 20/20 A2980 RMK CIG025
RKTY,2020-09-16 18:35,128.3548,36.6319,66.20,66.20,100.00,0.00,0.00,0.00,29.83,M,0.50,M,SCT,BKN,M,M,0.00,200.00,M,M,FG,M,M,M,M,M,M,M,RKTY 161835Z 00000KT 0800 R28/900 FG SCT000 BKN002 19/19 A2983 RMK CIG002 FG SCT000
QFB,2020-09-16 18:40,128.7167,35.6500,69.80,68.00,94.01,320.00,2.00,0.00,29.88,M,3.73,M,OVC,M,M,M,1000.00,M,M,M,M,M,M,M,M,M,M,M,KQFB 161840Z AUTO 32002KT 6000 OVC010 21/20 A2988 RMK A02 TSNO
RKTY,2020-09-16 18:40,128.3548,36.6319,M,M,M,0.00,0.00,0.00,29.83,M,M,M,M,M,M,M,M,M,M,M,M,M,M,M,M,M,M,M,RKTY 161840Z 00000KT 800 900 FG SCT000 BKN002 19/19 A2983 RMK CIG002 FG SCT000 WR26
QEN,2020-09-16 18:40,128.7500,37.6667,60.80,64.40,M,250.00,7.00,0.00,M,M,6.21,13.00,BKN,M,M,M,500.00,M,M,M,M,M,M,M,M,M,M,M,KQEN 161840Z AUTO 25007G13KT 9999 BKN005 16/18 / RMK A02 TSNO
QES,2020-09-16 18:40,126.4500,36.9667,80.60,66.20,61.58,M,M,0.00,M,M,1.99,M,FEW,BKN,M,M,100.00,24000.00,M,M,BR,M,M,M,M,M,M,M,KQES 161840Z AUTO 3200 BR FEW001 BKN240 27/19 / RMK A02 TSNO
QEJ,2020-09-16 18:40,127.9500,38.2000,62.60,62.60,100.00,140.00,1.00,0.00,29.81,M,1.99,M,SCT,M,M,M,100.00,M,M,M,BR,M,M,M,M,M,M,M,KQEJ 161840Z AUTO 14001KT 3200 BR SCT001 17/17 A2981 RMK A02 TSNO
QEI,2020-09-16 18:40,128.0667,37.9500,64.40,64.40,100.00,140.00,2.00,0.00,29.82,M,6.21,M,BKN,M,M,M,1700.00,M,M,M,M,M,M,M,M,M,M,M,KQEI 161840Z AUTO 14002KT 9999 BKN017 18/18 A2982 RMK A02 TSNO
QEQ,2020-09-16 18:40,127.5500,37.8500,66.20,69.80,M,160.00,1.00,0.00,29.84,M,1.49,M,SCT,BKN,M,M,2600.00,3100.00,M,M,BR,M,M,M,M,M,M,M,KQEQ 161840Z AUTO 16001KT 2400 BR SCT026 BKN031 19/21 A2984 RMK A02 TSNO
QEW,2020-09-16 18:40,128.1500,36.4000,68.00,66.20,93.97,180.00,1.00,0.00,29.83,M,2.49,M,BKN,BKN,M,M,1800.00,24000.00,M,M,,M,M,M,M,M,M,M,KQEW 161840Z AUTO 18001KT 4000 // BKN018 BKN240 20/19 A2983 RMK A02 TSNO
QEP,2020-09-16 18:40,127.2667,37.4000,66.20,64.40,93.92,130.00,2.00,0.00,29.84,M,4.97,M,BKN,M,M,M,1200.00,M,M,M,M,M,M,M,M,M,M,M,KQEP 161840Z AUTO 13002KT 8000 BKN012 19/18 A2984 RMK A02 TSNO
QEX,2020-09-16 18:40,128.3000,36.1000,68.00,68.00,100.00,30.00,2.00,0.00,29.75,M,2.98,M,FEW,FEW,M,M,1100.00,24000.00,M,M,,M,M,M,M,M,M,M,KQEX 161840Z AUTO 03002KT 4800 // FEW011 FEW240 20/20 A2975 RMK A02 TSNO
QFT,2020-09-16 18:40,127.3500,37.6000,66.20,66.20,100.00,170.00,1.00,0.00,29.81,M,M,M,BKN,BKN,BKN,M,600.00,2100.00,3100.00,M,,M,M,M,M,M,M,M,KQFT 161840Z AUTO 17001KT / // BKN006 BKN021 BKN031 19/19 A2981 RMK A02 TSNO
QFU,2020-09-16 18:40,126.9667,37.8000,64.40,62.60,93.88,200.00,1.00,0.00,29.85,M,2.49,M,CLR,M,M,M,M,M,M,M,BR,M,M,M,M,M,M,M,KQFU 161840Z AUTO 20001KT 4000 BR CLR 18/17 A2985 RMK A02 TSNO
QFW,2020-09-16 18:40,127.8833,37.6667,66.20,68.00,M,140.00,1.00,0.00,29.84,M,6.21,M,FEW,M,M,M,500.00,M,M,M,M,M,M,M,M,M,M,M,KQFW 161840Z AUTO 14001KT 9999 FEW005 19/20 A2984 RMK A02 TSNO
QFV,2020-09-16 18:40,127.5000,38.0500,62.60,60.80,93.83,100.00,2.00,0.00,29.86,M,0.50,M,CLR,M,M,M,M,M,M,M,,M,M,M,M,M,M,M,KQFV 161840Z AUTO 10002KT 0800 // CLR 17/16 A2986 RMK A02 TSNO
QFB,2020-09-16 18:50,128.7167,35.6500,69.80,68.00,94.01,280.00,2.00,0.00,29.88,M,2.98,M,OVC,M,M,M,1000.00,M,M,M,M,M,M,M,M,M,M,M,KQFB 161850Z AUTO 28002KT 4800 OVC010 21/20 A2988 RMK A02 TSNO
QEN,2020-09-16 18:50,128.7500,37.6667,60.80,64.40,M,260.00,7.00,0.00,M,M,6.21,13.00,BKN,M,M,M,500.00,M,M,M,M,M,M,M,M,M,M,M,KQEN 161850Z AUTO 26007G13KT 9999 BKN005 16/18 / RMK A02 TSNO
QES,2020-09-16 18:50,126.4500,36.9667,80.60,66.20,61.58,M,M,0.00,M,M,0.99,M,CLR,M,M,M,M,M,M,M,BR,M,M,M,M,M,M,M,KQES 161850Z AUTO 1600 BR CLR 27/19 / RMK A02 TSNO
QEJ,2020-09-16 18:50,127.9500,38.2000,62.60,62.60,100.00,190.00,1.00,0.00,29.81,M,3.73,M,FEW,SCT,M,M,100.00,800.00,M,M,M,M,M,M,M,M,M,M,KQEJ 161850Z AUTO 19001KT 6000 FEW001 SCT008 17/17 A2981 RMK A02 TSNO
QEI,2020-09-16 18:50,128.0667,37.9500,64.40,64.40,100.00,80.00,1.00,0.00,29.82,M,6.21,M,FEW,BKN,M,M,1000.00,1700.00,M,M,M,M,M,M,M,M,M,M,KQEI 161850Z AUTO 08001KT 9999 FEW010 BKN017 18/18 A2982 RMK A02 TSNO
QEQ,2020-09-16 18:50,127.5500,37.8500,66.20,69.80,M,170.00,3.00,0.00,29.84,M,1.49,M,BKN,M,M,M,2600.00,M,M,M,BR,M,M,M,M,M,M,M,KQEQ 161850Z AUTO 17003KT 2400 BR BKN026 19/21 A2984 RMK A02 TSNO
QEW,2020-09-16 18:50,128.1500,36.4000,68.00,66.20,93.97,0.00,0.00,0.00,29.82,M,1.99,M,BKN,M,M,M,1800.00,M,M,M,,M,M,M,M,M,M,M,KQEW 161850Z AUTO 00000KT 3200 // BKN018 20/19 A2982 RMK A02 TSNO
QEP,2020-09-16 18:50,127.2667,37.4000,66.20,64.40,93.92,140.00,2.00,0.00,29.84,M,3.73,M,BKN,M,M,M,1200.00,M,M,M,M,M,M,M,M,M,M,M,KQEP 161850Z AUTO 14002KT 6000 BKN012 19/18 A2984 RMK A02 TSNO
QEX,2020-09-16 18:50,128.3000,36.1000,68.00,68.00,100.00,0.00,0.00,0.00,29.75,M,2.49,M,FEW,FEW,M,M,1100.00,24000.00,M,M,,M,M,M,M,M,M,M,KQEX 161850Z AUTO 00000KT 4000 // FEW011 FEW240 20/20 A2975 RMK A02 TSNO
QFT,2020-09-16 18:50,127.3500,37.6000,66.20,66.20,100.00,120.00,2.00,0.00,29.80,M,M,M,BKN,BKN,M,M,600.00,3100.00,M,M,,M,M,M,M,M,M,M,KQFT 161850Z AUTO 12002KT / // BKN006 BKN031 19/19 A2980 RMK A02 TSNO
QFU,2020-09-16 18:50,126.9667,37.8000,64.40,64.40,100.00,280.00,1.00,0.00,29.86,M,2.49,M,FEW,M,M,M,1500.00,M,M,M,BR,M,M,M,M,M,M,M,KQFU 161850Z AUTO 28001KT 4000 BR FEW015 18/18 A2986 RMK A02 TSNO
QFW,2020-09-16 18:50,127.8833,37.6667,66.20,68.00,M,150.00,1.00,0.00,29.84,M,6.21,M,FEW,M,M,M,500.00,M,M,M,M,M,M,M,M,M,M,M,KQFW 161850Z AUTO 15001KT 9999 FEW005 19/20 A2984 RMK A02 TSNO
QFV,2020-09-16 18:50,127.5000,38.0500,62.60,60.80,93.83,110.00,2.00,0.00,29.86,M,0.25,M,CLR,M,M,M,M,M,M,M,,M,M,M,M,M,M,M,KQFV 161850Z AUTO 11002KT 0400 // CLR 17/16 A2986 RMK A02 TSNO
RKSY,2020-09-16 18:53,126.9753,37.5241,68.00,66.20,93.97,0.00,0.00,0.00,29.79,1009.10,6.21,M,SCT,M,M,M,1300.00,M,M,M,M,M,M,M,M,M,M,M,RKSY 161853Z AUTO 00000KT 9999 SCT013 20/19 A2979 RMK AO2 SLP091
RKTY,2020-09-16 18:54,128.3548,36.6319,M,M,M,0.00,0.00,0.00,29.83,M,M,M,M,M,M,M,M,M,M,M,M,M,M,M,M,M,M,M,RKTY 161854Z 00000KT 800 R28/900 FG SCT000 BKN002 19/19 A2983 RMK CIG002 FG SCT000 WR26
RKSG,2020-09-16 18:55,127.0311,36.9622,69.30,66.40,90.49,150.00,2.00,0.00,29.83,1010.00,M,M,M,M,M,M,M,M,M,M,M,M,M,M,M,M,M,M,RKSG 161855Z 15002KT 2 1/2 BR FEW011 BKN014 21/19 A2983 RMK AO2A TWR VIS 2 SLP100 T02070191 $
RKJK,2020-09-16 18:56,126.6220,35.8994,69.10,67.50,94.65,0.00,0.00,0.00,29.82,M,10.00,M,CLR,M,M,M,M,M,M,M,M,M,M,M,M,M,M,M,RKJK 161856Z AUTO 00000KT 10SM CLR 21/20 A2982 RMK AO2 SLPNO T02060197 $
RKSO,2020-09-16 18:58,127.0296,37.0906,68.40,68.00,98.63,0.00,0.00,0.00,29.81,1009.70,6.00,M,OVC,M,M,M,600.00,M,M,M,BR,M,M,M,M,M,M,M,RKSO 161858Z 00000KT 6SM BR OVC006 20/20 A2981 RMK AO2A SLP097 T02020200 $
RKSY,2020-09-16 18:58,126.9753,37.5241,68.50,66.40,93.01,0.00,0.00,0.00,29.79,1009.10,6.21,M,SCT,M,M,M,1300.00,M,M,M,M,M,M,M,M,M,M,M,RKSY 161858Z AUTO 00000KT 9999 SCT013 20/19 A2979 RMK AO2 SLP091 T02030191
RKTE,2020-09-16 18:59,127.5001,36.5682,68.00,66.20,93.97,90.00,1.00,0.00,29.81,M,2.98,M,SCT,BKN,BKN,M,500.00,1000.00,3000.00,M,BR,M,M,M,M,M,M,M,RKTE 161859Z 09001KT 4800 BR SCT005 BKN010 BKN030 20/19 A2981 RMK CIG010
RKPS,2020-09-16 19:00,128.0704,35.0885,69.80,69.80,100.00,20.00,1.00,0.00,29.83,1010.40,1.99,M,SCT,BKN,M,M,500.00,1500.00,M,M,BR,M,M,M,M,M,M,M,RKPS 161900Z 02001KT 3200 BR SCT005 BKN015 21/21 Q1010 RMK CIG015 SLP104 8/600 9/600
RKJB,2020-09-16 19:00,126.3800,34.9800,71.60,71.60,100.00,360.00,3.00,0.00,29.83,M,6.21,M,NCD,M,M,M,M,M,M,M,M,M,M,M,M,M,M,M,RKJB 161900Z AUTO 36003KT 330V040 9999 NCD 22/22 Q1010
RKJJ,2020-09-16 19:00,126.8089,35.1264,69.80,69.80,100.00,0.00,0.00,0.00,29.83,1010.80,4.97,M,SCT,BKN,M,M,1500.00,3000.00,M,M,M,M,M,M,M,M,M,M,RKJJ 161900Z 00000KT 8000 SCT015 BKN030 21/21 Q1010 RMK CIG030 SLP108 8/500 9/600
RKPC,2020-09-16 19:00,126.4930,33.5113,71.60,71.60,100.00,230.00,6.00,0.00,29.85,M,3.73,M,FEW,BKN,OVC,M,1000.00,2000.00,12000.00,M,-RA,M,M,M,M,M,M,M,RKPC 161900Z 23006KT 6000 -RA FEW010 BKN020 OVC120 22/22 Q1011 NOSIG
RKNY,2020-09-16 19:00,128.6692,38.0613,71.60,59.00,64.48,280.00,14.00,0.00,29.74,M,1.06,M,NCD,M,M,M,M,M,M,M,,M,M,M,M,M,M,M,RKNY 161900Z AUTO 28014KT 1700 // NCD 22/15 Q1007
RKSM,2020-09-16 19:00,127.1139,37.4458,66.20,64.40,93.92,180.00,2.00,0.00,29.82,M,3.73,M,SCT,BKN,M,M,1500.00,20000.00,M,M,BR,M,M,M,M,M,M,M,RKSM 161900Z 18002KT 6000 BR SCT015 BKN200 19/18 A2982
QFB,2020-09-16 19:00,128.7167,35.6500,69.80,68.00,94.01,260.00,1.00,0.00,29.89,M,3.73,M,OVC,M,M,M,1000.00,M,M,M,M,M,M,M,M,M,M,M,KQFB 161900Z AUTO 26001KT 6000 OVC010 21/20 A2989 RMK A02 TSNO
RKSS,2020-09-16 19:00,126.7906,37.5583,68.00,68.00,100.00,130.00,6.00,0.00,29.80,M,2.17,M,SCT,BKN,M,M,1000.00,3000.00,M,M,BR,M,M,M,M,M,M,M,RKSS 161900Z 13006KT 3500 BR SCT010 BKN030 20/20 Q1009 NOSIG
RKTH,2020-09-16 19:00,129.4205,35.9879,71.60,71.60,100.00,240.00,3.00,0.00,29.80,1009.10,6.21,M,M,M,M,M,M,M,M,M,M,M,M,M,M,M,M,M,RKTH 161900Z 24003KT CAVOK 22/22 Q1009 RMK CIG200 SLP091 8/008 9/007
RKTN,2020-09-16 19:00,128.6589,35.8941,69.80,68.00,94.01,350.00,2.00,0.00,29.83,M,5.59,M,BKN,BKN,M,M,1500.00,3000.00,M,M,M,M,M,M,M,M,M,M,RKTN 161900Z 35002KT 9000 BKN015 BKN030 21/20 Q1010
RKTU,2020-09-16 19:00,127.4991,36.7166,68.00,68.00,100.00,210.00,2.00,0.00,29.83,M,3.73,M,BKN,M,M,M,2000.00,M,M,M,M,M,M,M,M,M,M,M,RKTU 161900Z 21002KT 6000 BKN020 20/20 Q1010
QEN,2020-09-16 19:00,128.7500,37.6667,60.80,64.40,M,250.00,6.00,0.00,M,M,6.21,14.00,BKN,M,M,M,500.00,M,M,M,M,M,M,M,M,M,M,M,KQEN 161900Z AUTO 25006G14KT 9999 BKN005 16/18 / RMK A02 TSNO
QES,2020-09-16 19:00,126.4500,36.9667,80.60,66.20,61.58,M,M,0.00,M,M,2.98,M,FEW,SCT,BKN,M,100.00,2200.00,24000.00,M,M,M,M,M,M,M,M,M,KQES 161900Z AUTO 4800 FEW001 SCT022 BKN240 27/19 / RMK A02 TSNO
QEJ,2020-09-16 19:00,127.9500,38.2000,62.60,62.60,100.00,130.00,1.00,0.00,29.81,M,3.73,M,FEW,M,M,M,800.00,M,M,M,M,M,M,M,M,M,M,M,KQEJ 161900Z AUTO 13001KT 6000 FEW008 17/17 A2981 RMK A02 TSNO
QEI,2020-09-16 19:00,128.0667,37.9500,64.40,62.60,93.88,130.00,2.00,0.00,29.82,M,6.21,M,BKN,M,M,M,1000.00,M,M,M,M,M,M,M,M,M,M,M,KQEI 161900Z AUTO 13002KT 9999 BKN010 18/17 A2982 RMK A02 TSNO
QEQ,2020-09-16 19:00,127.5500,37.8500,66.20,69.80,M,160.00,2.00,0.00,29.84,M,1.74,M,SCT,SCT,M,M,2600.00,3500.00,M,M,BR,M,M,M,M,M,M,M,KQEQ 161900Z AUTO 16002KT 2800 BR SCT026 SCT035 19/21 A2984 RMK A02 TSNO
QEW,2020-09-16 19:00,128.1500,36.4000,68.00,66.20,93.97,240.00,2.00,0.00,29.83,M,1.99,M,BKN,BKN,M,M,1800.00,23000.00,M,M,,M,M,M,M,M,M,M,KQEW 161900Z AUTO 24002KT 3200 // BKN018 BKN230 20/19 A2983 RMK A02 TSNO
QEP,2020-09-16 19:00,127.2667,37.4000,66.20,66.20,100.00,120.00,1.00,0.00,29.84,M,4.97,M,BKN,M,M,M,1200.00,M,M,M,M,M,M,M,M,M,M,M,KQEP 161900Z AUTO 12001KT 8000 BKN012 19/19 A2984 RMK A02 TSNO
QEX,2020-09-16 19:00,128.3000,36.1000,68.00,68.00,100.00,70.00,1.00,0.00,29.75,M,2.49,M,FEW,FEW,M,M,500.00,24000.00,M,M,,M,M,M,M,M,M,M,KQEX 161900Z AUTO 07001KT 4000 // FEW005 FEW240 20/20 A2975 RMK A02 TSNO
RKPK,2020-09-16 19:00,128.9382,35.1795,73.40,68.00,83.21,340.00,3.00,0.00,29.80,M,1.99,M,SCT,BKN,BKN,M,1000.00,1500.00,6000.00,M,BR,M,M,M,M,M,M,M,RKPK 161900Z 34003KT 3200 BR SCT010 BKN015 BKN060 23/20 Q1009
QFT,2020-09-16 19:00,127.3500,37.6000,66.20,66.20,100.00,200.00,1.00,0.00,29.80,M,M,M,OVC,M,M,M,600.00,M,M,M,,M,M,M,M,M,M,M,KQFT 161900Z AUTO 20001KT / // OVC006 19/19 A2980 RMK A02 TSNO
QFU,2020-09-16 19:00,126.9667,37.8000,64.40,64.40,100.00,180.00,1.00,0.00,29.85,M,2.49,M,FEW,SCT,M,M,1400.00,3100.00,M,M,BR,M,M,M,M,M,M,M,KQFU 161900Z AUTO 18001KT 4000 BR FEW014 SCT031 18/18 A2985 RMK A02 TSNO
QFW,2020-09-16 19:00,127.8833,37.6667,64.40,68.00,M,150.00,1.00,0.00,29.84,M,6.21,M,SCT,M,M,M,500.00,M,M,M,M,M,M,M,M,M,M,M,KQFW 161900Z AUTO 15001KT 9999 SCT005 18/20 A2984 RMK A02 TSNO
QFV,2020-09-16 19:00,127.5000,38.0500,60.80,60.80,100.00,120.00,1.00,0.00,29.86,M,0.50,M,CLR,M,M,M,M,M,M,M,,M,M,M,M,M,M,M,KQFV 161900Z AUTO 12001KT 0800 // CLR 16/16 A2986 RMK A02 TSNO
RKSI,2020-09-16 19:00,126.4500,37.4667,69.80,62.60,77.90,230.00,4.00,0.00,29.80,M,6.21,M,BKN,M,M,M,2000.00,M,M,M,M,M,M,M,M,M,M,M,RKSI 161900Z 23004KT 9999 BKN020 21/17 Q1009 NOSIG
RKSY,2020-09-16 19:08,126.9753,37.5241,68.00,66.20,93.97,0.00,0.00,0.00,29.79,1009.10,6.21,M,BKN,M,M,M,1300.00,M,M,M,M,M,M,M,M,M,M,M,RKSY 161908Z AUTO 00000KT 9999 BKN013 20/19 A2979 RMK AO2 BKN V SCT SLP091
QFB,2020-09-16 19:10,128.7167,35.6500,69.80,68.00,94.01,10.00,2.00,0.00,29.89,M,3.73,M,BKN,M,M,M,1100.00,M,M,M,M,M,M,M,M,M,M,M,KQFB 161910Z AUTO 01002KT 6000 BKN011 21/20 A2989 RMK A02 TSNO
QEN,2020-09-16 19:10,128.7500,37.6667,60.80,64.40,M,250.00,7.00,0.00,M,M,6.21,13.00,BKN,M,M,M,500.00,M,M,M,M,M,M,M,M,M,M,M,KQEN 161910Z AUTO 25007G13KT 9999 BKN005 16/18 / RMK A02 TSNO
QES,2020-09-16 19:10,126.4500,36.9667,80.60,66.20,61.58,M,M,0.00,M,M,6.21,M,FEW,BKN,M,M,400.00,23000.00,M,M,M,M,M,M,M,M,M,M,KQES 161910Z AUTO 9999 FEW004 BKN230 27/19 / RMK A02 TSNO
QEJ,2020-09-16 19:10,127.9500,38.2000,62.60,62.60,100.00,0.00,0.00,0.00,29.81,M,1.99,M,FEW,M,M,M,200.00,M,M,M,BR,M,M,M,M,M,M,M,KQEJ 161910Z AUTO 00000KT 3200 BR FEW002 17/17 A2981 RMK A02 TSNO
QEI,2020-09-16 19:10,128.0667,37.9500,64.40,62.60,93.88,120.00,1.00,0.00,29.82,M,6.21,M,BKN,M,M,M,1000.00,M,M,M,M,M,M,M,M,M,M,M,KQEI 161910Z AUTO 12001KT 9999 BKN010 18/17 A2982 RMK A02 TSNO
QEQ,2020-09-16 19:10,127.5500,37.8500,68.00,69.80,M,210.00,1.00,0.00,M,M,1.74,M,SCT,BKN,M,M,2300.00,2800.00,M,M,BR,M,M,M,M,M,M,M,KQEQ 161910Z AUTO 21001KT 2800 BR SCT023 BKN028 20/21 / RMK A02 TSNO
QEW,2020-09-16 19:10,128.1500,36.4000,68.00,66.20,93.97,260.00,2.00,0.00,29.82,M,2.98,M,SCT,BKN,M,M,1700.00,22000.00,M,M,,M,M,M,M,M,M,M,KQEW 161910Z AUTO 26002KT 4800 // SCT017 BKN220 20/19 A2982 RMK A02 TSNO
QEP,2020-09-16 19:10,127.2667,37.4000,66.20,66.20,100.00,150.00,1.00,0.00,29.84,M,3.73,M,BKN,M,M,M,1200.00,M,M,M,M,M,M,M,M,M,M,M,KQEP 161910Z AUTO 15001KT 6000 BKN012 19/19 A2984 RMK A02 TSNO
QEX,2020-09-16 19:10,128.3000,36.1000,68.00,68.00,100.00,360.00,1.00,0.00,29.76,M,2.98,M,SCT,BKN,M,M,500.00,24000.00,M,M,,M,M,M,M,M,M,M,KQEX 161910Z AUTO 36001KT 4800 // SCT005 BKN240 20/20 A2976 RMK A02 TSNO
QFT,2020-09-16 19:10,127.3500,37.6000,66.20,66.20,100.00,160.00,1.00,0.00,29.81,M,M,M,BKN,M,M,M,600.00,M,M,M,,M,M,M,M,M,M,M,KQFT 161910Z AUTO 16001KT / // BKN006 19/19 A2981 RMK A02 TSNO
QFU,2020-09-16 19:10,126.9667,37.8000,64.40,64.40,100.00,270.00,1.00,0.00,29.85,M,1.99,M,FEW,FEW,SCT,M,1400.00,3100.00,7500.00,M,BR,M,M,M,M,M,M,M,KQFU 161910Z AUTO 27001KT 3200 BR FEW014 FEW031 SCT075 18/18 A2985 RMK A02 TSNO
QFW,2020-09-16 19:10,127.8833,37.6667,64.40,68.00,M,130.00,2.00,0.00,29.84,M,6.21,M,BKN,M,M,M,500.00,M,M,M,M,M,M,M,M,M,M,M,KQFW 161910Z AUTO 13002KT 9999 BKN005 18/20 A2984 RMK A02 TSNO
QFV,2020-09-16 19:10,127.5000,38.0500,62.60,60.80,93.83,120.00,1.00,0.00,29.86,M,0.75,M,CLR,M,M,M,M,M,M,M,,M,M,M,M,M,M,M,KQFV 161910Z AUTO 12001KT 1200 // CLR 17/16 A2986 RMK A02 TSNO
RKSY,2020-09-16 19:13,126.9753,37.5241,68.00,66.20,93.97,0.00,0.00,0.00,29.80,1009.40,6.21,M,SCT,SCT,M,M,1300.00,2700.00,M,M,M,M,M,M,M,M,M,M,RKSY 161913Z AUTO 00000KT 9999 SCT013 SCT027 20/19 A2980 RMK AO2 SLP094
RKTE,2020-09-16 19:14,127.5001,36.5682,66.20,66.20,100.00,200.00,2.00,0.00,29.81,M,2.98,M,SCT,BKN,BKN,M,500.00,1000.00,3000.00,M,BR,M,M,M,M,M,M,M,RKTE 161914Z 20002KT 4800 BR SCT005 BKN010 BKN030 19/19 A2981 RMK CIG010
QFB,2020-09-16 19:20,128.7167,35.6500,69.80,68.00,94.01,350.00,2.00,0.00,29.89,M,2.98,M,FEW,BKN,M,M,900.00,1600.00,M,M,M,M,M,M,M,M,M,M,KQFB 161920Z AUTO 35002KT 4800 FEW009 BKN016 21/20 A2989 RMK A02 TSNO
QEN,2020-09-16 19:20,128.7500,37.6667,60.80,64.40,M,240.00,7.00,0.00,M,M,6.21,14.00,BKN,M,M,M,400.00,M,M,M,M,M,M,M,M,M,M,M,KQEN 161920Z AUTO 24007G14KT 9999 BKN004 16/18 / RMK A02 TSNO
QES,2020-09-16 19:20,126.4500,36.9667,80.60,66.20,61.58,M,M,0.00,M,M,5.59,M,FEW,FEW,BKN,M,1700.00,3100.00,23000.00,M,M,M,M,M,M,M,M,M,KQES 161920Z AUTO 9000 FEW017 FEW031 BKN230 27/19 / RMK A02 TSNO
QEJ,2020-09-16 19:20,127.9500,38.2000,62.60,62.60,100.00,0.00,0.00,0.00,29.81,M,1.99,M,SCT,M,M,M,200.00,M,M,M,BR,M,M,M,M,M,M,M,KQEJ 161920Z AUTO 00000KT 3200 BR SCT002 17/17 A2981 RMK A02 TSNO
QEI,2020-09-16 19:20,128.0667,37.9500,64.40,62.60,93.88,120.00,3.00,0.00,29.82,M,6.21,M,BKN,M,M,M,1000.00,M,M,M,M,M,M,M,M,M,M,M,KQEI 161920Z AUTO 12003KT 9999 BKN010 18/17 A2982 RMK A02 TSNO
QEQ,2020-09-16 19:20,127.5500,37.8500,68.00,69.80,M,200.00,2.00,0.00,M,M,1.24,M,BKN,M,M,M,2300.00,M,M,M,BR,M,M,M,M,M,M,M,KQEQ 161920Z AUTO 20002KT 2000 BR BKN023 20/21 / RMK A02 TSNO
QEW,2020-09-16 19:20,128.1500,36.4000,68.00,66.20,93.97,220.00,1.00,0.00,29.83,M,2.49,M,FEW,FEW,BKN,M,1800.00,3000.00,22000.00,M,,M,M,M,M,M,M,M,KQEW 161920Z AUTO 22001KT 4000 // FEW018 FEW030 BKN220 20/19 A2983 RMK A02 TSNO
QEP,2020-09-16 19:20,127.2667,37.4000,66.20,64.40,93.92,140.00,2.00,0.00,29.84,M,4.97,M,OVC,M,M,M,1200.00,M,M,M,M,M,M,M,M,M,M,M,KQEP 161920Z AUTO 14002KT 8000 OVC012 19/18 A2984 RMK A02 TSNO
QEX,2020-09-16 19:20,128.3000,36.1000,68.00,68.00,100.00,30.00,2.00,0.00,29.75,M,2.98,M,BKN,M,M,M,500.00,M,M,M,,M,M,M,M,M,M,M,KQEX 161920Z AUTO 03002KT 4800 // BKN005 20/20 A2975 RMK A02 TSNO
QFT,2020-09-16 19:20,127.3500,37.6000,66.20,64.40,93.92,180.00,1.00,0.00,29.81,M,M,M,BKN,M,M,M,600.00,M,M,M,,M,M,M,M,M,M,M,KQFT 161920Z AUTO 18001KT / // BKN006 19/18 A2981 RMK A02 TSNO
QFU,2020-09-16 19:20,126.9667,37.8000,64.40,64.40,100.00,0.00,0.00,0.00,29.85,M,2.49,M,FEW,FEW,SCT,BKN,1300.00,2700.00,3100.00,7500.00,BR,M,M,M,M,M,M,M,KQFU 161920Z AUTO 00000KT 4000 BR FEW013 FEW027 SCT031 BKN075 18/18 A2985 RMK A02 TSNO
QFW,2020-09-16 19:20,127.8833,37.6667,64.40,68.00,M,160.00,1.00,0.00,29.83,M,6.21,M,SCT,BKN,M,M,400.00,3300.00,M,M,M,M,M,M,M,M,M,M,KQFW 161920Z AUTO 16001KT 9999 SCT004 BKN033 18/20 A2983 RMK A02 TSNO
QFV,2020-09-16 19:20,127.5000,38.0500,60.80,60.80,100.00,110.00,2.00,0.00,29.86,M,0.50,M,CLR,M,M,M,M,M,M,M,,M,M,M,M,M,M,M,KQFV 161920Z AUTO 11002KT 0800 // CLR 16/16 A2986 RMK A02 TSNO
RKSY,2020-09-16 19:23,126.9753,37.5241,68.00,66.20,93.97,0.00,0.00,0.00,29.80,1009.40,6.21,M,BKN,BKN,M,M,1300.00,2700.00,M,M,M,M,M,M,M,M,M,M,RKSY 161923Z AUTO 00000KT 9999 BKN013 BKN027 20/19 A2980 RMK AO2 CIG 013V027 BKN013 V SCT SLP094
RKSF,2020-09-16 19:30,126.9667,37.5333,69.80,68.00,94.01,150.00,2.00,0.00,29.82,M,4.97,M,SCT,BKN,M,M,1500.00,2500.00,M,M,BR,M,M,M,M,M,M,M,RKSF 161930Z 15002KT 8000 BR SCT015 BKN025 21/20 A2982 RMK CIG025
QFB,2020-09-16 19:30,128.7167,35.6500,69.80,68.00,94.01,350.00,1.00,0.00,29.89,M,3.73,M,SCT,BKN,M,M,900.00,1800.00,M,M,M,M,M,M,M,M,M,M,KQFB 161930Z AUTO 35001KT 6000 SCT009 BKN018 21/20 A2989 RMK A02 TSNO
QEN,2020-09-16 19:30,128.7500,37.6667,60.80,64.40,M,240.00,8.00,0.00,M,M,6.21,14.00,BKN,BKN,M,M,400.00,23000.00,M,M,M,M,M,M,M,M,M,M,KQEN 161930Z AUTO 24008G14KT 9999 BKN004 BKN230 16/18 / RMK A02 TSNO
QES,2020-09-16 19:30,126.4500,36.9667,80.60,66.20,61.58,M,M,0.00,M,M,6.21,M,FEW,BKN,BKN,M,2300.00,9000.00,24000.00,M,M,M,M,M,M,M,M,M,KQES 161930Z AUTO 9999 FEW023 BKN090 BKN240 27/19 / RMK A02 TSNO
QEJ,2020-09-16 19:30,127.9500,38.2000,62.60,60.80,93.83,0.00,0.00,0.00,29.81,M,2.98,M,SCT,M,M,M,200.00,M,M,M,M,M,M,M,M,M,M,M,KQEJ 161930Z AUTO 00000KT 4800 SCT002 17/16 A2981 RMK A02 TSNO
QEI,2020-09-16 19:30,128.0667,37.9500,62.60,62.60,100.00,140.00,3.00,0.00,29.82,M,5.59,M,SCT,M,M,M,1000.00,M,M,M,,M,M,M,M,M,M,M,KQEI 161930Z AUTO 14003KT 9000 // SCT010 17/17 A2982 RMK A02 TSNO
QEQ,2020-09-16 19:30,127.5500,37.8500,68.00,69.80,M,180.00,3.00,0.00,M,M,1.49,M,BKN,M,M,M,2300.00,M,M,M,BR,M,M,M,M,M,M,M,KQEQ 161930Z AUTO 18003KT 2400 BR BKN023 20/21 / RMK A02 TSNO
QEW,2020-09-16 19:30,128.1500,36.4000,68.00,66.20,93.97,310.00,1.00,0.00,29.83,M,3.73,M,SCT,BKN,M,M,2700.00,22000.00,M,M,,M,M,M,M,M,M,M,KQEW 161930Z AUTO 31001KT 6000 // SCT027 BKN220 20/19 A2983 RMK A02 TSNO
QEP,2020-09-16 19:30,127.2667,37.4000,66.20,64.40,93.92,130.00,1.00,0.00,29.85,M,3.73,M,OVC,M,M,M,1200.00,M,M,M,M,M,M,M,M,M,M,M,KQEP 161930Z AUTO 13001KT 6000 OVC012 19/18 A2985 RMK A02 TSNO
QEX,2020-09-16 19:30,128.3000,36.1000,68.00,68.00,100.00,350.00,1.00,0.00,29.76,M,2.98,M,BKN,M,M,M,500.00,M,M,M,,M,M,M,M,M,M,M,KQEX 161930Z AUTO 35001KT 4800 // BKN005 20/20 A2976 RMK A02 TSNO
QFT,2020-09-16 19:30,127.3500,37.6000,66.20,64.40,93.92,180.00,2.00,0.00,29.81,M,M,M,BKN,M,M,M,600.00,M,M,M,,M,M,M,M,M,M,M,KQFT 161930Z AUTO 18002KT / // BKN006 19/18 A2981 RMK A02 TSNO
QFU,2020-09-16 19:30,126.9667,37.8000,64.40,62.60,93.88,0.00,0.00,0.00,29.86,M,2.49,M,SCT,BKN,M,M,2700.00,7500.00,M,M,BR,M,M,M,M,M,M,M,KQFU 161930Z AUTO 00000KT 4000 BR SCT027 BKN075 18/17 A2986 RMK A02 TSNO
QFW,2020-09-16 19:30,127.8833,37.6667,M,M,M,90.00,1.00,0.00,M,M,M,M,M,M,M,M,M,M,M,M,M,M,M,M,M,M,M,M,KQFW 161930Z AUTO 09001KT 9999 // FEW004 SCT033 18/20 / RMK A02 TSNO
QFV,2020-09-16 19:30,127.5000,38.0500,60.80,60.80,100.00,130.00,2.00,0.00,29.86,M,0.75,M,CLR,M,M,M,M,M,M,M,,M,M,M,M,M,M,M,KQFV 161930Z AUTO 13002KT 1200 // CLR 16/16 A2986 RMK A02 TSNO
RKSI,2020-09-16 19:30,126.4500,37.4667,69.80,62.60,77.90,210.00,5.00,0.00,29.80,M,6.21,M,FEW,BKN,BKN,M,1500.00,3000.00,7000.00,M,M,M,M,M,M,M,M,M,RKSI 161930Z 21005KT 9999 FEW015 BKN030 BKN070 21/17 Q1009 NOSIG
RKSF,2020-09-16 19:32,126.9667,37.5333,69.80,68.00,94.01,150.00,2.00,0.00,29.82,M,4.97,M,SCT,BKN,M,M,1500.00,3000.00,M,M,BR,M,M,M,M,M,M,M,RKSF 161932Z 15002KT 8000 BR SCT015 BKN030 21/20 A2982 RMK CIG030
RKSY,2020-09-16 19:33,126.9753,37.5241,68.00,66.20,93.97,0.00,0.00,0.00,29.80,1009.40,6.21,M,SCT,BKN,BKN,M,1400.00,2100.00,2900.00,M,M,M,M,M,M,M,M,M,RKSY 161933Z AUTO 00000KT 9999 SCT014 BKN021 BKN029 20/19 A2980 RMK AO2 CIG 013V021 SLP094
QFB,2020-09-16 19:40,128.7167,35.6500,69.80,68.00,94.01,280.00,1.00,0.00,29.89,M,3.73,M,FEW,OVC,M,M,1000.00,1800.00,M,M,M,M,M,M,M,M,M,M,KQFB 161940Z AUTO 28001KT 6000 FEW010 OVC018 21/20 A2989 RMK A02 TSNO
QEN,2020-09-16 19:40,128.7500,37.6667,60.80,64.40,M,240.00,8.00,0.00,M,M,6.21,15.00,BKN,BKN,M,M,400.00,23000.00,M,M,M,M,M,M,M,M,M,M,KQEN 161940Z AUTO 24008G15KT 9999 BKN004 BKN230 16/18 / RMK A02 TSNO
QES,2020-09-16 19:40,126.4500,36.9667,80.60,66.20,61.58,M,M,0.00,M,M,6.21,M,SCT,BKN,BKN,BKN,2300.00,3100.00,9000.00,24000.00,M,M,M,M,M,M,M,M,KQES 161940Z AUTO 9999 SCT023 BKN031 BKN090 BKN240 27/19 / RMK A02 TSNO
QEJ,2020-09-16 19:40,127.9500,38.2000,60.80,60.80,100.00,0.00,0.00,0.00,29.81,M,2.98,M,SCT,M,M,M,200.00,M,M,M,M,M,M,M,M,M,M,M,KQEJ 161940Z AUTO 00000KT 4800 SCT002 16/16 A2981 RMK A02 TSNO
QEI,2020-09-16 19:40,128.0667,37.9500,64.40,62.60,93.88,130.00,2.00,0.00,29.82,M,6.21,M,SCT,M,M,M,1000.00,M,M,M,M,M,M,M,M,M,M,M,KQEI 161940Z AUTO 13002KT 9999 SCT010 18/17 A2982 RMK A02 TSNO
QEQ,2020-09-16 19:40,127.5500,37.8500,68.00,69.80,M,170.00,5.00,0.00,M,M,1.49,M,SCT,BKN,M,M,2300.00,2500.00,M,M,BR,M,M,M,M,M,M,M,KQEQ 161940Z AUTO 17005KT 2400 BR SCT023 BKN025 20/21 / RMK A02 TSNO
QEW,2020-09-16 19:40,128.1500,36.4000,68.00,66.20,93.97,110.00,1.00,0.00,29.84,M,1.99,M,FEW,BKN,BKN,M,200.00,2600.00,22000.00,M,,M,M,M,M,M,M,M,KQEW 161940Z AUTO 11001KT 3200 // FEW002 BKN026 BKN220 20/19 A2984 RMK A02 TSNO
QEP,2020-09-16 19:40,127.2667,37.4000,66.20,64.40,93.92,140.00,1.00,0.00,29.85,M,3.73,M,OVC,M,M,M,1200.00,M,M,M,M,M,M,M,M,M,M,M,KQEP 161940Z AUTO 14001KT 6000 OVC012 19/18 A2985 RMK A02 TSNO
QEX,2020-09-16 19:40,128.3000,36.1000,68.00,66.20,93.97,20.00,3.00,0.00,29.76,M,2.98,M,SCT,M,M,M,500.00,M,M,M,,M,M,M,M,M,M,M,KQEX 161940Z AUTO 02003KT 4800 // SCT005 20/19 A2976 RMK A02 TSNO
QFT,2020-09-16 19:40,127.3500,37.6000,66.20,64.40,93.92,180.00,1.00,0.00,29.82,M,M,M,BKN,M,M,M,500.00,M,M,M,,M,M,M,M,M,M,M,KQFT 161940Z AUTO 18001KT / // BKN005 19/18 A2982 RMK A02 TSNO
QFU,2020-09-16 19:40,126.9667,37.8000,64.40,62.60,93.88,0.00,0.00,0.00,29.86,M,2.49,M,FEW,BKN,BKN,M,1500.00,2500.00,7500.00,M,BR,M,M,M,M,M,M,M,KQFU 161940Z AUTO 00000KT 4000 BR FEW015 BKN025 BKN075 18/17 A2986 RMK A02 TSNO
QFW,2020-09-16 19:40,127.8833,37.6667,M,M,M,0.00,0.00,0.00,M,M,M,M,M,M,M,M,M,M,M,M,M,M,M,M,M,M,M,M,KQFW 161940Z AUTO 00000KT 9999 // FEW004 FEW033 18/20 / RMK A02 TSNO
QFV,2020-09-16 19:40,127.5000,38.0500,60.80,60.80,100.00,230.00,1.00,0.00,29.86,M,0.99,M,CLR,M,M,M,M,M,M,M,,M,M,M,M,M,M,M,KQFV 161940Z AUTO 23001KT 1600 // CLR 16/16 A2986 RMK A02 TSNO
RKSO,2020-09-16 19:48,127.0296,37.0906,68.00,68.00,100.00,0.00,0.00,0.00,29.81,1009.70,4.00,M,OVC,M,M,M,300.00,M,M,M,BR,M,M,M,M,M,M,M,RKSO 161948Z 00000KT 4SM BR OVC003 20/20 A2981 RMK AO2A SLP097
QFB,2020-09-16 19:50,128.7167,35.6500,69.80,68.00,94.01,0.00,0.00,0.00,29.89,M,3.73,M,FEW,OVC,M,M,1000.00,1900.00,M,M,M,M,M,M,M,M,M,M,KQFB 161950Z AUTO 00000KT 6000 FEW010 OVC019 21/20 A2989 RMK A02 TSNO
QEN,2020-09-16 19:50,128.7500,37.6667,60.80,64.40,M,240.00,8.00,0.00,M,M,6.21,16.00,BKN,BKN,M,M,400.00,23000.00,M,M,M,M,M,M,M,M,M,M,KQEN 161950Z AUTO 24008G16KT 9999 BKN004 BKN230 16/18 / RMK A02 TSNO
QES,2020-09-16 19:50,126.4500,36.9667,80.60,66.20,61.58,M,M,0.00,M,M,6.21,M,BKN,BKN,BKN,M,2400.00,9000.00,24000.00,M,M,M,M,M,M,M,M,M,KQES 161950Z AUTO 9999 BKN024 BKN090 BKN240 27/19 / RMK A02 TSNO
QEJ,2020-09-16 19:50,127.9500,38.2000,60.80,60.80,100.00,120.00,1.00,0.00,29.82,M,2.98,M,FEW,M,M,M,300.00,M,M,M,M,M,M,M,M,M,M,M,KQEJ 161950Z AUTO 12001KT 4800 FEW003 16/16 A2982 RMK A02 TSNO
QEI,2020-09-16 19:50,128.0667,37.9500,62.60,62.60,100.00,160.00,2.00,0.00,29.83,M,6.21,M,SCT,M,M,M,1300.00,M,M,M,M,M,M,M,M,M,M,M,KQEI 161950Z AUTO 16002KT 9999 SCT013 17/17 A2983 RMK A02 TSNO
QEQ,2020-09-16 19:50,127.5500,37.8500,68.00,69.80,M,180.00,4.00,0.00,M,M,1.74,M,BKN,M,M,M,2200.00,M,M,M,BR,M,M,M,M,M,M,M,KQEQ 161950Z AUTO 18004KT 2800 BR BKN022 20/21 / RMK A02 TSNO
QEW,2020-09-16 19:50,128.1500,36.4000,68.00,66.20,93.97,260.00,1.00,0.00,29.83,M,1.99,M,FEW,BKN,BKN,M,200.00,2000.00,22000.00,M,,M,M,M,M,M,M,M,KQEW 161950Z AUTO 26001KT 3200 // FEW002 BKN020 BKN220 20/19 A2983 RMK A02 TSNO
QEP,2020-09-16 19:50,127.2667,37.4000,66.20,64.40,93.92,170.00,1.00,0.00,29.85,M,3.73,M,BKN,M,M,M,1300.00,M,M,M,M,M,M,M,M,M,M,M,KQEP 161950Z AUTO 17001KT 6000 BKN013 19/18 A2985 RMK A02 TSNO
QEX,2020-09-16 19:50,128.3000,36.1000,68.00,68.00,100.00,350.00,3.00,0.00,29.77,M,1.99,M,FEW,SCT,SCT,M,200.00,500.00,22000.00,M,,M,M,M,M,M,M,M,KQEX 161950Z AUTO 35003KT 3200 // FEW002 SCT005 SCT220 20/20 A2977 RMK A02 TSNO
QFT,2020-09-16 19:50,127.3500,37.6000,66.20,64.40,93.92,150.00,2.00,0.00,29.81,M,M,M,BKN,BKN,BKN,M,500.00,2100.00,7500.00,M,,M,M,M,M,M,M,M,KQFT 161950Z AUTO 15002KT / // BKN005 BKN021 BKN075 19/18 A2981 RMK A02 TSNO
QFU,2020-09-16 19:50,126.9667,37.8000,64.40,62.60,93.88,140.00,2.00,0.00,29.86,M,2.49,M,FEW,BKN,M,M,1500.00,2400.00,M,M,BR,M,M,M,M,M,M,M,KQFU 161950Z AUTO 14002KT 4000 BR FEW015 BKN024 18/17 A2986 RMK A02 TSNO
QFW,2020-09-16 19:50,127.8833,37.6667,64.40,68.00,M,140.00,1.00,0.00,29.84,M,6.21,M,SCT,M,M,M,400.00,M,M,M,M,M,M,M,M,M,M,M,KQFW 161950Z AUTO 14001KT 9999 SCT004 18/20 A2984 RMK A02 TSNO
QFV,2020-09-16 19:50,127.5000,38.0500,60.80,60.80,100.00,140.00,1.00,0.00,29.86,M,1.24,M,OVC,M,M,M,200.00,M,M,M,,M,M,M,M,M,M,M,KQFV 161950Z AUTO 14001KT 2000 // OVC002 16/16 A2986 RMK A02 TSNO
RKSY,2020-09-16 19:53,126.9753,37.5241,68.00,66.20,93.97,0.00,0.00,0.00,29.81,1009.80,6.21,M,BKN,OVC,M,M,1400.00,3000.00,M,M,M,M,M,M,M,M,M,M,RKSY 161953Z AUTO 00000KT 9999 BKN014 OVC030 20/19 A2981 RMK AO2 SLP098
RKJK,2020-09-16 19:56,126.6220,35.8994,68.50,67.30,95.95,0.00,0.00,0.00,29.82,1010.20,8.00,M,CLR,M,M,M,M,M,M,M,M,M,M,M,M,M,M,M,RKJK 161956Z AUTO 00000KT 8SM CLR 20/20 A2982 RMK AO2 SLP102 T02030196 $
RKSG,2020-09-16 19:56,127.0311,36.9622,68.40,65.50,90.46,160.00,2.00,0.00,29.83,1009.90,2.50,M,FEW,SCT,BKN,M,700.00,1500.00,21000.00,M,BR,M,M,M,M,M,M,M,RKSG 161956Z 16002K 2 1/2SM BR FEW007 SCT015 BKN210 20/19 A2983 RMK AO2A TWR VIS 2 SLP099 T02020186 56004 $
RKSO,2020-09-16 19:58,127.0296,37.0906,68.20,67.80,98.63,0.00,0.00,0.00,29.81,1009.70,5.00,M,OVC,M,M,M,300.00,M,M,M,BR,M,M,M,M,M,M,M,RKSO 161958Z 00000KT 5SM BR OVC003 20/20 A2981 RMK AO2A SLP097 T02010199 $
RKSY,2020-09-16 19:58,126.9753,37.5241,68.00,66.20,93.97,0.00,0.00,0.00,29.81,1009.80,6.21,M,BKN,OVC,M,M,1300.00,3000.00,M,M,M,M,M,M,M,M,M,M,RKSY 161958Z AUTO 00000KT 9999 BKN013 OVC030 20/19 A2981 RMK AO2 SLP098
RKPS,2020-09-16 20:00,128.0704,35.0885,69.80,69.80,100.00,40.00,1.00,0.00,29.83,1010.60,1.49,M,BKN,BKN,M,M,500.00,1500.00,M,M,BR,M,M,M,M,M,M,M,RKPS 162000Z 04001KT 2400 BR BKN005 BKN015 21/21 Q1010 RMK CIG005 SLP106 8/600 9/700
RKJB,2020-09-16 20:00,126.3800,34.9800,69.80,69.80,100.00,80.00,4.00,0.00,29.83,M,4.35,M,NCD,M,M,M,M,M,M,M,M,M,M,M,M,M,M,M,RKJB 162000Z AUTO 08004KT 7000 NCD 21/21 Q1010
RKJJ,2020-09-16 20:00,126.8089,35.1264,68.00,68.00,100.00,190.00,2.00,0.00,29.83,1010.90,2.98,M,FEW,BKN,BKN,M,1500.00,3000.00,18000.00,M,BR,M,M,M,M,M,M,M,RKJJ 162000Z 19002KT 4800 BR FEW015 BKN030 BKN180 20/20 Q1010 RMK CIG030 SLP109 8/508 9/502
RKPC,2020-09-16 20:00,126.4930,33.5113,71.60,71.60,100.00,220.00,4.00,0.00,29.85,M,3.73,M,SCT,BKN,OVC,M,900.00,2000.00,12000.00,M,-RA,M,M,M,M,M,M,M,RKPC 162000Z 22004KT 6000 -RA SCT009 BKN020 OVC120 22/22 Q1011 NOSIG
RKNY,2020-09-16 20:00,128.6692,38.0613,69.80,59.00,68.55,280.00,12.00,0.00,29.74,M,1.06,M,NCD,M,M,M,M,M,M,M,,M,M,M,M,M,M,M,RKNY 162000Z AUTO 28012KT 1700 // NCD 21/15 Q1007
RKSM,2020-09-16 20:00,127.1139,37.4458,68.00,66.20,93.97,220.00,2.00,0.00,29.83,M,3.73,M,SCT,BKN,M,M,1500.00,20000.00,M,M,BR,M,M,M,M,M,M,M,RKSM 162000Z 22002KT 6000 BR SCT015 BKN200 20/19 A2983
QFB,2020-09-16 20:00,128.7167,35.6500,69.80,68.00,94.01,270.00,1.00,0.00,29.89,M,3.73,M,FEW,OVC,M,M,1000.00,1900.00,M,M,M,M,M,M,M,M,M,M,KQFB 162000Z AUTO 27001KT 6000 FEW010 OVC019 21/20 A2989 RMK A02 TSNO
RKSS,2020-09-16 20:00,126.7906,37.5583,68.00,68.00,100.00,150.00,5.00,0.00,29.80,M,1.99,M,SCT,BKN,M,M,1000.00,3000.00,M,M,BR,M,M,M,M,M,M,M,RKSS 162000Z 15005KT 3200 BR SCT010 BKN030 20/20 Q1009 NOSIG
RKTH,2020-09-16 20:00,129.4205,35.9879,71.60,71.60,100.00,250.00,7.00,0.00,29.80,1009.50,5.59,M,FEW,BKN,M,M,3000.00,20000.00,M,M,M,M,M,M,M,M,M,M,RKTH 162000Z 25007KT 9000 FEW030 BKN200 22/22 Q1009 RMK CIG200 SLP095 8/508 9/105
RKTN,2020-09-16 20:00,128.6589,35.8941,69.80,68.00,94.01,100.00,1.00,0.00,29.83,M,6.21,M,FEW,SCT,BKN,M,1000.00,4000.00,20000.00,M,M,M,M,M,M,M,M,M,RKTN 162000Z 10001KT 9999 FEW010 SCT040 BKN200 21/20 Q1010
RKTU,2020-09-16 20:00,127.4991,36.7166,68.00,68.00,100.00,190.00,1.00,0.00,29.83,M,2.98,M,BKN,BKN,M,M,1500.00,20000.00,M,M,BR,M,M,M,M,M,M,M,RKTU 162000Z 19001KT 4800 BR BKN015 BKN200 20/20 Q1010
QEN,2020-09-16 20:00,128.7500,37.6667,60.80,64.40,M,250.00,9.00,0.00,M,M,6.21,16.00,BKN,BKN,M,M,400.00,23000.00,M,M,M,M,M,M,M,M,M,M,KQEN 162000Z AUTO 25009G16KT 9999 BKN004 BKN230 16/18 / RMK A02 TSNO
QES,2020-09-16 20:00,126.4500,36.9667,80.60,66.20,61.58,M,M,0.00,M,M,6.21,M,SCT,BKN,M,M,2300.00,24000.00,M,M,M,M,M,M,M,M,M,M,KQES 162000Z AUTO 9999 SCT023 BKN240 27/19 / RMK A02 TSNO
QEJ,2020-09-16 20:00,127.9500,38.2000,60.80,60.80,100.00,180.00,1.00,0.00,29.81,M,2.49,M,CLR,M,M,M,M,M,M,M,BR,M,M,M,M,M,M,M,KQEJ 162000Z AUTO 18001KT 4000 BR CLR 16/16 A2981 RMK A02 TSNO
QEI,2020-09-16 20:00,128.0667,37.9500,64.40,62.60,93.88,140.00,3.00,0.00,29.83,M,6.21,M,SCT,M,M,M,1100.00,M,M,M,M,M,M,M,M,M,M,M,KQEI 162000Z AUTO 14003KT 9999 SCT011 18/17 A2983 RMK A02 TSNO
QEQ,2020-09-16 20:00,127.5500,37.8500,68.00,69.80,M,200.00,3.00,0.00,M,M,1.99,M,BKN,M,M,M,2100.00,M,M,M,BR,M,M,M,M,M,M,M,KQEQ 162000Z AUTO 20003KT 3200 BR BKN021 20/21 / RMK A02 TSNO
QEW,2020-09-16 20:00,128.1500,36.4000,68.00,66.20,93.97,230.00,2.00,0.00,29.84,M,2.49,M,FEW,BKN,BKN,M,200.00,2000.00,23000.00,M,,M,M,M,M,M,M,M,KQEW 162000Z AUTO 23002KT 4000 // FEW002 BKN020 BKN230 20/19 A2984 RMK A02 TSNO
QEP,2020-09-16 20:00,127.2667,37.4000,66.20,64.40,93.92,170.00,1.00,0.00,29.85,M,3.73,M,BKN,M,M,M,1300.00,M,M,M,M,M,M,M,M,M,M,M,KQEP 162000Z AUTO 17001KT 6000 BKN013 19/18 A2985 RMK A02 TSNO
QEX,2020-09-16 20:00,128.3000,36.1000,68.00,68.00,100.00,360.00,1.00,0.00,29.77,M,1.74,M,BKN,M,M,M,200.00,M,M,M,,M,M,M,M,M,M,M,KQEX 162000Z AUTO 36001KT 2800 // BKN002 20/20 A2977 RMK A02 TSNO
RKPK,2020-09-16 20:00,128.9382,35.1795,73.40,68.00,83.21,350.00,2.00,0.00,29.80,M,2.49,M,FEW,BKN,BKN,M,1000.00,2000.00,6000.00,M,BR,M,M,M,M,M,M,M,RKPK 162000Z 35002KT 4000 BR FEW010 BKN020 BKN060 23/20 Q1009
QFT,2020-09-16 20:00,127.3500,37.6000,66.20,64.40,93.92,150.00,2.00,0.00,29.81,M,M,M,BKN,BKN,BKN,M,400.00,2100.00,7500.00,M,,M,M,M,M,M,M,M,KQFT 162000Z AUTO 15002KT / // BKN004 BKN021 BKN075 19/18 A2981 RMK A02 TSNO
QFU,2020-09-16 20:00,126.9667,37.8000,64.40,64.40,100.00,140.00,2.00,0.00,29.86,M,2.49,M,FEW,BKN,M,M,1500.00,2300.00,M,M,BR,M,M,M,M,M,M,M,KQFU 162000Z AUTO 14002KT 4000 BR FEW015 BKN023 18/18 A2986 RMK A02 TSNO
QFW,2020-09-16 20:00,127.8833,37.6667,64.40,68.00,M,150.00,1.00,0.00,29.85,M,6.21,M,BKN,M,M,M,400.00,M,M,M,M,M,M,M,M,M,M,M,KQFW 162000Z AUTO 15001KT 9999 BKN004 18/20 A2985 RMK A02 TSNO
QFV,2020-09-16 20:00,127.5000,38.0500,60.80,60.80,100.00,140.00,1.00,0.00,29.86,M,1.99,M,OVC,M,M,M,200.00,M,M,M,,M,M,M,M,M,M,M,KQFV 162000Z AUTO 14001KT 3200 // OVC002 16/16 A2986 RMK A02 TSNO
RKSI,2020-09-16 20:00,126.4500,37.4667,69.80,62.60,77.90,260.00,6.00,0.00,29.80,M,6.21,M,FEW,BKN,BKN,M,1500.00,2500.00,7000.00,M,-RA,M,M,M,M,M,M,M,RKSI 162000Z 26006KT 220V300 9999 -RA FEW015 BKN025 BKN070 21/17 Q1009 NOSIG
QFB,2020-09-16 20:10,128.7167,35.6500,69.80,68.00,94.01,60.00,1.00,0.00,29.89,M,4.97,M,FEW,BKN,M,M,400.00,1900.00,M,M,M,M,M,M,M,M,M,M,KQFB 162010Z AUTO 06001KT 8000 FEW004 BKN019 21/20 A2989 RMK A02 TSNO
QEN,2020-09-16 20:10,128.7500,37.6667,60.80,64.40,M,240.00,8.00,0.00,M,M,6.21,15.00,BKN,BKN,M,M,300.00,22000.00,M,M,M,M,M,M,M,M,M,M,KQEN 162010Z AUTO 24008G15KT 9999 BKN003 BKN220 16/18 / RMK A02 TSNO
QES,2020-09-16 20:10,126.4500,36.9667,80.60,66.20,61.58,M,M,0.00,M,M,6.21,M,FEW,BKN,M,M,2300.00,23000.00,M,M,M,M,M,M,M,M,M,M,KQES 162010Z AUTO 9999 FEW023 BKN230 27/19 / RMK A02 TSNO
QEJ,2020-09-16 20:10,127.9500,38.2000,60.80,60.80,100.00,240.00,1.00,0.00,29.81,M,3.73,M,CLR,M,M,M,M,M,M,M,M,M,M,M,M,M,M,M,KQEJ 162010Z AUTO 24001KT 6000 CLR 16/16 A2981 RMK A02 TSNO
QEI,2020-09-16 20:10,128.0667,37.9500,62.60,62.60,100.00,120.00,3.00,0.00,29.83,M,6.21,M,FEW,FEW,M,M,800.00,900.00,M,M,M,M,M,M,M,M,M,M,KQEI 162010Z AUTO 12003KT 9999 FEW008 FEW009 17/17 A2983 RMK A02 TSNO
QEQ,2020-09-16 20:10,127.5500,37.8500,68.00,69.80,M,200.00,2.00,0.00,M,M,1.49,M,BKN,M,M,M,1600.00,M,M,M,BR,M,M,M,M,M,M,M,KQEQ 162010Z AUTO 20002KT 2400 BR BKN016 20/21 / RMK A02 TSNO
QEW,2020-09-16 20:10,128.1500,36.4000,68.00,66.20,93.97,240.00,2.00,0.00,29.84,M,6.21,M,BKN,BKN,M,M,2000.00,24000.00,M,M,M,M,M,M,M,M,M,M,KQEW 162010Z AUTO 24002KT 9999 BKN020 BKN240 20/19 A2984 RMK A02 TSNO
QEP,2020-09-16 20:10,127.2667,37.4000,66.20,64.40,93.92,180.00,2.00,0.00,29.85,M,3.73,M,BKN,M,M,M,1300.00,M,M,M,M,M,M,M,M,M,M,M,KQEP 162010Z AUTO 18002KT 6000 BKN013 19/18 A2985 RMK A02 TSNO
QEX,2020-09-16 20:10,128.3000,36.1000,68.00,68.00,100.00,360.00,2.00,0.00,29.77,M,1.99,M,BKN,M,M,M,200.00,M,M,M,,M,M,M,M,M,M,M,KQEX 162010Z AUTO 36002KT 3200 // BKN002 20/20 A2977 RMK A02 TSNO
QFT,2020-09-16 20:10,127.3500,37.6000,66.20,64.40,93.92,170.00,1.00,0.00,29.82,M,M,M,BKN,BKN,BKN,M,400.00,2100.00,7500.00,M,,M,M,M,M,M,M,M,KQFT 162010Z AUTO 17001KT / // BKN004 BKN021 BKN075 19/18 A2982 RMK A02 TSNO
QFU,2020-09-16 20:10,126.9667,37.8000,64.40,64.40,100.00,240.00,1.00,0.00,29.86,M,2.49,M,BKN,M,M,M,2300.00,M,M,M,BR,M,M,M,M,M,M,M,KQFU 162010Z AUTO 24001KT 4000 BR BKN023 18/18 A2986 RMK A02 TSNO
QFW,2020-09-16 20:10,127.8833,37.6667,M,M,M,250.00,1.00,0.00,M,M,M,M,M,M,M,M,M,M,M,M,M,M,M,M,M,M,M,M,KQFW 162010Z AUTO 25001KT 9999 // BKN004 18/20 / RMK A02 TSNO
QFV,2020-09-16 20:10,127.5000,38.0500,60.80,60.80,100.00,110.00,2.00,0.00,29.86,M,2.49,M,OVC,M,M,M,200.00,M,M,M,,M,M,M,M,M,M,M,KQFV 162010Z AUTO 11002KT 4000 // OVC002 16/16 A2986 RMK A02 TSNO
RKJB,2020-09-16 20:14,126.3800,34.9800,69.80,69.80,100.00,80.00,4.00,0.00,29.83,M,3.04,M,NCD,M,M,M,M,M,M,M,BR,M,M,M,M,M,M,M,RKJB 162014Z AUTO 08004KT 4900 BR NCD 21/21 Q1010
QFB,2020-09-16 20:20,128.7167,35.6500,69.80,68.00,94.01,350.00,2.00,0.00,29.89,M,4.97,M,FEW,BKN,M,M,400.00,1800.00,M,M,M,M,M,M,M,M,M,M,KQFB 162020Z AUTO 35002KT 8000 FEW004 BKN018 21/20 A2989 RMK A02 TSNO
RKTU,2020-09-16 20:20,127.4991,36.7166,66.20,66.20,100.00,230.00,1.00,0.00,29.83,M,1.99,M,BKN,BKN,M,M,1000.00,20000.00,M,M,BR,M,M,M,M,M,M,M,RKTU 162020Z 23001KT 3200 BR BKN010 BKN200 19/19 Q1010 RMK CIG010
QEN,2020-09-16 20:20,128.7500,37.6667,60.80,64.40,M,240.00,9.00,0.00,M,M,6.21,18.00,SCT,BKN,M,M,300.00,22000.00,M,M,M,M,M,M,M,M,M,M,KQEN 162020Z AUTO 24009G18KT 9999 SCT003 BKN220 16/18 / RMK A02 TSNO
QES,2020-09-16 20:20,126.4500,36.9667,80.60,66.20,61.58,M,M,0.00,M,M,6.21,M,FEW,BKN,M,M,2100.00,23000.00,M,M,M,M,M,M,M,M,M,M,KQES 162020Z AUTO 9999 FEW021 BKN230 27/19 / RMK A02 TSNO
QEJ,2020-09-16 20:20,127.9500,38.2000,60.80,60.80,100.00,200.00,2.00,0.00,29.82,M,3.73,M,CLR,M,M,M,M,M,M,M,M,M,M,M,M,M,M,M,KQEJ 162020Z AUTO 20002KT 6000 CLR 16/16 A2982 RMK A02 TSNO
QEI,2020-09-16 20:20,128.0667,37.9500,64.40,62.60,93.88,150.00,3.00,0.00,29.83,M,5.59,M,SCT,SCT,M,M,800.00,900.00,M,M,,M,M,M,M,M,M,M,KQEI 162020Z AUTO 15003KT 9000 // SCT008 SCT009 18/17 A2983 RMK A02 TSNO
QEQ,2020-09-16 20:20,127.5500,37.8500,68.00,69.80,M,280.00,4.00,0.00,M,M,1.74,M,BKN,M,M,M,700.00,M,M,M,BR,M,M,M,M,M,M,M,KQEQ 162020Z AUTO 28004KT 2800 BR BKN007 20/21 / RMK A02 TSNO
QEW,2020-09-16 20:20,128.1500,36.4000,69.80,66.20,88.34,210.00,2.00,0.00,29.84,M,6.21,M,BKN,M,M,M,2400.00,M,M,M,M,M,M,M,M,M,M,M,KQEW 162020Z AUTO 21002KT 9999 BKN024 21/19 A2984 RMK A02 TSNO
QEP,2020-09-16 20:20,127.2667,37.4000,66.20,64.40,93.92,140.00,1.00,0.00,29.84,M,3.73,M,BKN,M,M,M,1300.00,M,M,M,M,M,M,M,M,M,M,M,KQEP 162020Z AUTO 14001KT 6000 BKN013 19/18 A2984 RMK A02 TSNO
QEX,2020-09-16 20:20,128.3000,36.1000,68.00,66.20,93.97,20.00,3.00,0.00,29.77,M,1.74,M,BKN,M,M,M,200.00,M,M,M,,M,M,M,M,M,M,M,KQEX 162020Z AUTO 02003KT 2800 // BKN002 20/19 A2977 RMK A02 TSNO
QFT,2020-09-16 20:20,127.3500,37.6000,66.20,64.40,93.92,180.00,1.00,0.00,29.82,M,M,M,BKN,M,M,M,400.00,M,M,M,,M,M,M,M,M,M,M,KQFT 162020Z AUTO 18001KT / // BKN004 19/18 A2982 RMK A02 TSNO
QFU,2020-09-16 20:20,126.9667,37.8000,66.20,64.40,93.92,210.00,1.00,0.00,29.86,M,2.49,M,BKN,M,M,M,2100.00,M,M,M,BR,M,M,M,M,M,M,M,KQFU 162020Z AUTO 21001KT 4000 BR BKN021 19/18 A2986 RMK A02 TSNO
QFW,2020-09-16 20:20,127.8833,37.6667,M,M,M,130.00,1.00,0.00,M,M,M,M,M,M,M,M,M,M,M,M,M,M,M,M,M,M,M,M,KQFW 162020Z AUTO 13001KT 6000 // OVC002 18/20 / RMK A02 TSNO
QFV,2020-09-16 20:20,127.5000,38.0500,60.80,60.80,100.00,130.00,1.00,0.00,29.86,M,2.49,M,OVC,M,M,M,200.00,M,M,M,,M,M,M,M,M,M,M,KQFV 162020Z AUTO 13001KT 4000 // OVC002 16/16 A2986 RMK A02 TSNO
RKTU,2020-09-16 20:22,127.4991,36.7166,66.20,66.20,100.00,230.00,1.00,0.00,29.84,M,1.99,M,BKN,BKN,M,M,1000.00,20000.00,M,M,BR,M,M,M,M,M,M,M,RKTU 162022Z 23001KT 3200 BR BKN010 BKN200 19/19 A2984 RMK CIG010
RKTE,2020-09-16 20:23,127.5001,36.5682,66.20,66.20,100.00,150.00,1.00,0.00,29.80,M,0.99,M,SCT,SCT,BKN,M,500.00,1700.00,20000.00,M,BR,M,M,M,M,M,M,M,RKTE 162023Z 15001KT 1600 BR SCT005 SCT017 BKN200 19/19 A2980 RMK CIG200
RKSO,2020-09-16 20:28,127.0296,37.0906,68.00,68.00,100.00,0.00,0.00,0.00,29.81,1009.70,3.00,M,OVC,M,M,M,400.00,M,M,M,BR,M,M,M,M,M,M,M,RKSO 162028Z 00000KT 3SM BR OVC004 20/20 A2981 RMK AO2A SLP097
RKTU,2020-09-16 20:28,127.4991,36.7166,M,M,M,M,M,0.00,M,M,M,M,M,M,M,M,M,M,M,M,M,M,M,M,M,M,M,M,RKTU 162028Z 16SPECI
RKJB,2020-09-16 20:30,126.3800,34.9800,69.80,69.80,100.00,70.00,3.00,0.00,29.83,M,3.11,M,NCD,M,M,M,M,M,M,M,BR,M,M,M,M,M,M,M,RKJB 162030Z AUTO 07003KT 5000 BR NCD 21/21 Q1010
QFB,2020-09-16 20:30,128.7167,35.6500,69.80,68.00,94.01,280.00,1.00,0.00,29.89,M,3.73,M,FEW,BKN,BKN,M,400.00,1800.00,22000.00,M,M,M,M,M,M,M,M,M,KQFB 162030Z AUTO 28001KT 6000 FEW004 BKN018 BKN220 21/20 A2989 RMK A02 TSNO
QEN,2020-09-16 20:30,128.7500,37.6667,60.80,64.40,M,250.00,8.00,0.00,M,M,6.21,15.00,BKN,BKN,M,M,300.00,22000.00,M,M,M,M,M,M,M,M,M,M,KQEN 162030Z AUTO 25008G15KT 9999 BKN003 BKN220 16/18 / RMK A02 TSNO
QES,2020-09-16 20:30,126.4500,36.9667,80.60,66.20,61.58,M,M,0.00,M,M,4.97,M,SCT,BKN,M,M,2100.00,23000.00,M,M,M,M,M,M,M,M,M,M,KQES 162030Z AUTO 8000 SCT021 BKN230 27/19 / RMK A02 TSNO
QEJ,2020-09-16 20:30,127.9500,38.2000,60.80,60.80,100.00,0.00,0.00,0.00,29.82,M,2.98,M,FEW,M,M,M,7500.00,M,M,M,M,M,M,M,M,M,M,M,KQEJ 162030Z AUTO 00000KT 4800 FEW075 16/16 A2982 RMK A02 TSNO
QEI,2020-09-16 20:30,128.0667,37.9500,62.60,62.60,100.00,130.00,3.00,0.00,29.83,M,6.21,M,SCT,BKN,M,M,800.00,7500.00,M,M,M,M,M,M,M,M,M,M,KQEI 162030Z AUTO 13003KT 9999 SCT008 BKN075 17/17 A2983 RMK A02 TSNO
QEQ,2020-09-16 20:30,127.5500,37.8500,68.00,69.80,M,230.00,3.00,0.00,M,M,1.99,M,BKN,BKN,M,M,500.00,3000.00,M,M,BR,M,M,M,M,M,M,M,KQEQ 162030Z AUTO 23003KT 3200 BR BKN005 BKN030 20/21 / RMK A02 TSNO
QEW,2020-09-16 20:30,128.1500,36.4000,69.80,66.20,88.34,230.00,1.00,0.00,29.83,M,6.21,M,BKN,M,M,M,2400.00,M,M,M,M,M,M,M,M,M,M,M,KQEW 162030Z AUTO 23001KT 9999 BKN024 21/19 A2983 RMK A02 TSNO
QEP,2020-09-16 20:30,127.2667,37.4000,66.20,64.40,93.92,180.00,1.00,0.00,29.85,M,3.73,M,BKN,M,M,M,1300.00,M,M,M,M,M,M,M,M,M,M,M,KQEP 162030Z AUTO 18001KT 6000 BKN013 19/18 A2985 RMK A02 TSNO
QEX,2020-09-16 20:30,128.3000,36.1000,68.00,66.20,93.97,10.00,3.00,0.00,29.77,M,1.24,M,BKN,M,M,M,100.00,M,M,M,,M,M,M,M,M,M,M,KQEX 162030Z AUTO 01003KT 2000 // BKN001 20/19 A2977 RMK A02 TSNO
QFT,2020-09-16 20:30,127.3500,37.6000,66.20,64.40,93.92,130.00,2.00,0.00,29.81,M,M,M,BKN,BKN,M,M,500.00,3500.00,M,M,,M,M,M,M,M,M,M,KQFT 162030Z AUTO 13002KT / // BKN005 BKN035 19/18 A2981 RMK A02 TSNO
QFU,2020-09-16 20:30,126.9667,37.8000,66.20,64.40,93.92,280.00,1.00,0.00,29.85,M,2.49,M,BKN,BKN,M,M,2100.00,4800.00,M,M,BR,M,M,M,M,M,M,M,KQFU 162030Z AUTO 28001KT 4000 BR BKN021 BKN048 19/18 A2985 RMK A02 TSNO
QFW,2020-09-16 20:30,127.8833,37.6667,M,M,M,0.00,0.00,0.00,M,M,M,M,M,M,M,M,M,M,M,M,M,M,M,M,M,M,M,M,KQFW 162030Z AUTO 00000KT 9999 // OVC002 18/20 / RMK A02 TSNO
QFV,2020-09-16 20:30,127.5000,38.0500,60.80,60.80,100.00,210.00,1.00,0.00,29.86,M,2.98,M,OVC,M,M,M,200.00,M,M,M,,M,M,M,M,M,M,M,KQFV 162030Z AUTO 21001KT 4800 // OVC002 16/16 A2986 RMK A02 TSNO
RKSI,2020-09-16 20:30,126.4500,37.4667,69.80,57.20,64.26,320.00,8.00,0.00,29.80,M,6.21,M,FEW,SCT,BKN,M,1500.00,3000.00,7000.00,M,M,M,M,M,M,M,M,M,RKSI 162030Z 32008KT 9999 FEW015 SCT030 BKN070 21/14 Q1009 NOSIG
RKPS,2020-09-16 20:37,128.0704,35.0885,69.80,69.80,100.00,50.00,3.00,0.00,29.85,M,0.50,M,FEW,BKN,BKN,M,0.00,300.00,1500.00,M,FG,M,M,M,M,M,M,M,RKPS 162037Z 05003KT 0800 R06/800 FG FEW000 BKN003 BKN015 21/21 A2985 RMK CIG003 FG FEW000
RKSO,2020-09-16 20:38,127.0296,37.0906,68.00,68.00,100.00,0.00,0.00,0.00,29.81,1009.70,2.50,M,OVC,M,M,M,300.00,M,M,M,BR,M,M,M,M,M,M,M,RKSO 162038Z 00000KT 2 1/2SM BR OVC003 20/20 A2981 RMK AO2A VIS 2 1/2V3 VIS 3000 RWY09 SLP097 $
RKTU,2020-09-16 20:39,127.4991,36.7166,68.00,68.00,100.00,140.00,1.00,0.00,29.83,M,1.49,M,BKN,BKN,M,M,1000.00,20000.00,M,M,BR,M,M,M,M,M,M,M,RKTU 162039Z 14001KT 2400 BR BKN010 BKN200 20/20 Q1010 RMK CIG010
QFB,2020-09-16 20:40,128.7167,35.6500,69.80,68.00,94.01,260.00,1.00,0.00,29.89,M,3.73,M,BKN,BKN,M,M,1800.00,22000.00,M,M,M,M,M,M,M,M,M,M,KQFB 162040Z AUTO 26001KT 6000 BKN018 BKN220 21/20 A2989 RMK A02 TSNO
QEN,2020-09-16 20:40,128.7500,37.6667,60.80,64.40,M,250.00,9.00,0.00,M,M,6.21,15.00,SCT,BKN,M,M,300.00,22000.00,M,M,M,M,M,M,M,M,M,M,KQEN 162040Z AUTO 25009G15KT 9999 SCT003 BKN220 16/18 / RMK A02 TSNO
QES,2020-09-16 20:40,126.4500,36.9667,80.60,66.20,61.58,M,M,0.00,M,M,5.59,M,BKN,BKN,M,M,2100.00,23000.00,M,M,M,M,M,M,M,M,M,M,KQES 162040Z AUTO 9000 BKN021 BKN230 27/19 / RMK A02 TSNO
QEJ,2020-09-16 20:40,127.9500,38.2000,60.80,60.80,100.00,30.00,1.00,0.00,29.82,M,0.50,M,FEW,FEW,M,M,200.00,7500.00,M,M,FG,M,M,M,M,M,M,M,KQEJ 162040Z AUTO 03001KT 0800 FG FEW002 FEW075 16/16 A2982 RMK A02 TSNO
QEI,2020-09-16 20:40,128.0667,37.9500,62.60,62.60,100.00,130.00,3.00,0.00,29.83,M,5.59,M,SCT,BKN,M,M,800.00,7500.00,M,M,,M,M,M,M,M,M,M,KQEI 162040Z AUTO 13003KT 9000 // SCT008 BKN075 17/17 A2983 RMK A02 TSNO
QEQ,2020-09-16 20:40,127.5500,37.8500,68.00,69.80,M,190.00,3.00,0.00,M,M,1.99,M,SCT,BKN,BKN,M,500.00,3000.00,4200.00,M,BR,M,M,M,M,M,M,M,KQEQ 162040Z AUTO 19003KT 3200 BR SCT005 BKN030 BKN042 20/21 / RMK A02 TSNO
QEW,2020-09-16 20:40,128.1500,36.4000,66.20,66.20,100.00,10.00,2.00,0.00,29.83,M,2.49,M,SCT,BKN,M,M,2400.00,22000.00,M,M,,M,M,M,M,M,M,M,KQEW 162040Z AUTO 01002KT 4000 // SCT024 BKN220 19/19 A2983 RMK A02 TSNO
QEP,2020-09-16 20:40,127.2667,37.4000,66.20,64.40,93.92,200.00,1.00,0.00,29.84,M,3.73,M,BKN,M,M,M,1300.00,M,M,M,M,M,M,M,M,M,M,M,KQEP 162040Z AUTO 20001KT 6000 BKN013 19/18 A2984 RMK A02 TSNO
QEX,2020-09-16 20:40,128.3000,36.1000,68.00,66.20,93.97,10.00,2.00,0.00,29.76,M,1.24,M,BKN,M,M,M,100.00,M,M,M,,M,M,M,M,M,M,M,KQEX 162040Z AUTO 01002KT 2000 // BKN001 20/19 A2976 RMK A02 TSNO
QFT,2020-09-16 20:40,127.3500,37.6000,66.20,64.40,93.92,90.00,1.00,0.00,29.81,M,M,M,FEW,BKN,BKN,M,400.00,500.00,2900.00,M,,M,M,M,M,M,M,M,KQFT 162040Z AUTO 09001KT / // FEW004 BKN005 BKN029 19/18 A2981 RMK A02 TSNO
QFU,2020-09-16 20:40,126.9667,37.8000,66.20,64.40,93.92,240.00,1.00,0.00,29.85,M,2.49,M,SCT,SCT,M,M,2100.00,4800.00,M,M,BR,M,M,M,M,M,M,M,KQFU 162040Z AUTO 24001KT 4000 BR SCT021 SCT048 19/18 A2985 RMK A02 TSNO
QFW,2020-09-16 20:40,127.8833,37.6667,M,M,M,60.00,1.00,0.00,M,M,M,M,M,M,M,M,M,M,M,M,M,M,M,M,M,M,M,M,KQFW 162040Z AUTO 06001KT 6000 // OVC002 18/20 / RMK A02 TSNO
QFV,2020-09-16 20:40,127.5000,38.0500,62.60,60.80,93.83,300.00,1.00,0.00,29.86,M,2.98,M,OVC,M,M,M,200.00,M,M,M,,M,M,M,M,M,M,M,KQFV 162040Z AUTO 30001KT 4800 // OVC002 17/16 A2986 RMK A02 TSNO
RKTE,2020-09-16 20:41,127.5001,36.5682,66.20,66.20,100.00,160.00,1.00,0.00,29.81,M,0.25,M,SCT,BKN,BKN,M,0.00,500.00,20000.00,M,FG,M,M,M,M,M,M,M,RKTE 162041Z 16001KT 0400 R34/0700 FG SCT000 BKN005 BKN200 19/19 A2981 RMK CIG005 FG SCT000
RKPS,2020-09-16 20:45,128.0704,35.0885,M,M,M,M,M,0.00,M,M,M,M,M,M,M,M,M,M,M,M,M,M,M,M,M,M,M,M,RKPS 162045Z 16SPECI
RKSW,2020-09-16 20:45,127.0071,37.2394,68.00,68.00,100.00,240.00,1.00,0.00,29.83,M,1.49,M,FEW,OVC,M,M,0.00,300.00,M,M,BR,M,M,M,M,M,M,M,RKSW 162045Z 24001KT 2400 BR FEW000 OVC003 20/20 A2983 RMK CIG003
RKTU,2020-09-16 20:45,127.4991,36.7166,M,M,M,M,M,0.00,M,M,M,M,M,M,M,M,M,M,M,M,M,M,M,M,M,M,M,M,RKTU 162045Z 16SPECI
RKSW,2020-09-16 20:46,127.0071,37.2394,68.00,68.00,100.00,240.00,1.00,0.00,29.83,M,1.49,M,FEW,OVC,M,M,0.00,300.00,M,M,BR,M,M,M,M,M,M,M,RKSW 162046Z 24001KT 2400 BR FEW000 OVC003 20/20 A2983 RMK CIG003
QFB,2020-09-16 20:50,128.7167,35.6500,69.80,68.00,94.01,220.00,2.00,0.00,29.89,M,4.97,M,SCT,BKN,BKN,M,700.00,1800.00,21000.00,M,M,M,M,M,M,M,M,M,KQFB 162050Z AUTO 22002KT 8000 SCT007 BKN018 BKN210 21/20 A2989 RMK A02 TSNO
QEN,2020-09-16 20:50,128.7500,37.6667,60.80,64.40,M,250.00,10.00,0.00,M,M,6.21,17.00,BKN,BKN,M,M,300.00,22000.00,M,M,M,M,M,M,M,M,M,M,KQEN 162050Z AUTO 25010G17KT 9999 BKN003 BKN220 16/18 / RMK A02 TSNO
QES,2020-09-16 20:50,126.4500,36.9667,80.60,66.20,61.58,M,M,0.00,M,M,6.21,M,BKN,BKN,M,M,2200.00,22000.00,M,M,M,M,M,M,M,M,M,M,KQES 162050Z AUTO 9999 BKN022 BKN220 27/19 / RMK A02 TSNO
QEJ,2020-09-16 20:50,127.9500,38.2000,60.80,60.80,100.00,80.00,1.00,0.00,29.82,M,0.99,M,SCT,SCT,BKN,M,200.00,5000.00,7500.00,M,BR,M,M,M,M,M,M,M,KQEJ 162050Z AUTO 08001KT 1600 BR SCT002 SCT050 BKN075 16/16 A2982 RMK A02 TSNO
QEI,2020-09-16 20:50,128.0667,37.9500,62.60,60.80,93.83,140.00,2.00,0.00,29.82,M,4.97,M,FEW,SCT,M,M,800.00,7000.00,M,M,,M,M,M,M,M,M,M,KQEI 162050Z AUTO 14002KT 8000 // FEW008 SCT070 17/16 A2982 RMK A02 TSNO
QEQ,2020-09-16 20:50,127.5500,37.8500,68.00,69.80,M,210.00,2.00,0.00,M,M,1.74,M,FEW,FEW,BKN,M,500.00,3000.00,3600.00,M,BR,M,M,M,M,M,M,M,KQEQ 162050Z AUTO 21002KT 2800 BR FEW005 FEW030 BKN036 20/21 / RMK A02 TSNO
QEW,2020-09-16 20:50,128.1500,36.4000,66.20,66.20,100.00,30.00,1.00,0.00,29.83,M,2.98,M,FEW,FEW,BKN,M,2400.00,3000.00,22000.00,M,,M,M,M,M,M,M,M,KQEW 162050Z AUTO 03001KT 4800 // FEW024 FEW030 BKN220 19/19 A2983 RMK A02 TSNO
QEP,2020-09-16 20:50,127.2667,37.4000,66.20,64.40,93.92,120.00,1.00,0.00,29.84,M,3.73,M,BKN,M,M,M,1300.00,M,M,M,M,M,M,M,M,M,M,M,KQEP 162050Z AUTO 12001KT 6000 BKN013 19/18 A2984 RMK A02 TSNO
QEX,2020-09-16 20:50,128.3000,36.1000,68.00,68.00,100.00,30.00,2.00,0.00,29.76,M,0.50,M,BKN,M,M,M,100.00,M,M,M,,M,M,M,M,M,M,M,KQEX 162050Z AUTO 03002KT 0800 // BKN001 20/20 A2976 RMK A02 TSNO
QFT,2020-09-16 20:50,127.3500,37.6000,66.20,64.40,93.92,160.00,1.00,0.00,29.81,M,M,M,BKN,BKN,BKN,M,400.00,500.00,2900.00,M,,M,M,M,M,M,M,M,KQFT 162050Z AUTO 16001KT / // BKN004 BKN005 BKN029 19/18 A2981 RMK A02 TSNO
QFU,2020-09-16 20:50,126.9667,37.8000,66.20,64.40,93.92,210.00,1.00,0.00,29.85,M,2.49,M,FEW,FEW,SCT,M,3000.00,4800.00,5500.00,M,BR,M,M,M,M,M,M,M,KQFU 162050Z AUTO 21001KT 4000 BR FEW030 FEW048 SCT055 19/18 A2985 RMK A02 TSNO
QFW,2020-09-16 20:50,127.8833,37.6667,M,M,M,340.00,1.00,0.00,M,M,M,M,M,M,M,M,M,M,M,M,M,M,M,M,M,M,M,M,KQFW 162050Z AUTO 34001KT 8000 // BKN002 18/20 / RMK A02 TSNO
QFV,2020-09-16 20:50,127.5000,38.0500,62.60,60.80,93.83,280.00,1.00,0.00,29.86,M,2.49,M,OVC,M,M,M,200.00,M,M,M,,M,M,M,M,M,M,M,KQFV 162050Z AUTO 28001KT 4000 // OVC002 17/16 A2986 RMK A02 TSNO
RKSY,2020-09-16 20:53,126.9753,37.5241,68.00,66.20,93.97,0.00,0.00,0.00,29.79,1009.10,6.21,M,SCT,BKN,M,M,1200.00,2600.00,M,M,M,M,M,M,M,M,M,M,RKSY 162053Z AUTO 00000KT 9999 SCT012 BKN026 20/19 A2979 RMK AO2 CIG 012V026 SLP091
RKJK,2020-09-16 20:56,126.6220,35.8994,68.90,67.60,95.63,0.00,0.00,0.00,29.83,1010.50,8.00,M,FEW,M,M,M,1900.00,M,M,M,M,M,M,M,M,M,M,M,RKJK 162056Z AUTO 00000KT 8SM FEW019 21/20 A2983 RMK AO2 SLP105 T02050198 50003 $
RKSG,2020-09-16 20:58,127.0311,36.9622,M,M,M,180.00,2.00,0.00,29.84,1010.30,M,M,M,M,M,M,M,M,M,M,M,M,M,M,M,M,M,M,RKSG 162058Z 18002KT 2 1/2 BR FEW017 SCT025 BKN200 20/19 A2984 RMK AO2A TWR VIS 2 SLP103 $
RKSO,2020-09-16 20:58,127.0296,37.0906,68.00,67.80,99.31,0.00,0.00,0.00,29.81,1009.70,1.88,M,OVC,M,M,M,200.00,M,M,M,BR,M,M,M,M,M,M,M,RKSO 162058Z 00000KT 1 7/8SM BR OVC002 20/20 A2981 RMK AO2A SLP097 T02000199 53003 $
RKSY,2020-09-16 20:58,126.9753,37.5241,68.00,66.20,93.97,0.00,0.00,0.00,29.80,1009.40,6.21,M,BKN,OVC,M,M,1200.00,2600.00,M,M,M,M,M,M,M,M,M,M,RKSY 162058Z AUTO 00000KT 9999 BKN012 OVC026 20/19 A2980 RMK AO2 CIG 012V026 BKN V SCT SLP094 55001
RKPS,2020-09-16 21:00,128.0704,35.0885,69.80,69.80,100.00,70.00,2.00,0.00,29.83,1010.80,0.75,M,FEW,BKN,BKN,M,0.00,300.00,1500.00,M,BR,M,M,M,M,M,M,M,RKPS 162100Z 07002KT 1200 R06/1200 BR FEW000 BKN003 BKN015 21/21 Q1010 RMK CIG003 FG FEW000 SLP108 8/600 9/700
RKJB,2020-09-16 21:00,126.3800,34.9800,69.80,69.80,100.00,140.00,2.00,0.00,29.85,M,3.73,M,FEW,BKN,OVC,M,1000.00,2500.00,16000.00,M,M,M,M,M,M,M,M,M,RKJB 162100Z 14002KT 6000 FEW010 BKN025 OVC160 21/21 Q1011 BECMG -RA
RKJJ,2020-09-16 21:00,126.8089,35.1264,68.00,68.00,100.00,0.00,0.00,0.00,29.83,1010.70,4.97,M,FEW,OVC,M,M,3000.00,15000.00,M,M,M,M,M,M,M,M,M,M,RKJJ 162100Z 00000KT 8000 FEW030 OVC150 20/20 Q1010 RMK CIG150 SLP107 8/55/ 9/26/
RKPC,2020-09-16 21:00,126.4930,33.5113,71.60,71.60,100.00,190.00,4.00,0.00,29.85,M,3.73,M,FEW,BKN,OVC,M,900.00,2000.00,10000.00,M,-RA,M,M,M,M,M,M,M,RKPC 162100Z 19004KT 6000 -RA FEW009 BKN020 OVC100 22/22 Q1011 NOSIG
RKNY,2020-09-16 21:00,128.6692,38.0613,69.80,59.00,68.55,270.00,11.00,0.00,29.77,M,1.06,M,NCD,M,M,M,M,M,M,M,,M,M,M,M,M,M,M,RKNY 162100Z AUTO 27011KT 1700 // NCD 21/15 Q1008
RKSM,2020-09-16 21:00,127.1139,37.4458,68.00,66.20,93.97,240.00,1.00,0.00,29.82,M,2.98,M,SCT,BKN,M,M,1500.00,20000.00,M,M,BR,M,M,M,M,M,M,M,RKSM 162100Z 24001KT 4800 BR SCT015 BKN200 20/19 A2982
QFB,2020-09-16 21:00,128.7167,35.6500,69.80,68.00,94.01,210.00,1.00,0.00,29.89,M,6.21,M,BKN,BKN,M,M,600.00,1800.00,M,M,M,M,M,M,M,M,M,M,KQFB 162100Z AUTO 21001KT 9999 BKN006 BKN018 21/20 A2989 RMK A02 TSNO
RKSS,2020-09-16 21:00,126.7906,37.5583,68.00,68.00,100.00,160.00,4.00,0.00,29.80,M,2.17,M,FEW,BKN,BKN,M,1500.00,3000.00,20000.00,M,BR,M,M,M,M,M,M,M,RKSS 162100Z 16004KT 3500 BR FEW015 BKN030 BKN200 20/20 Q1009 NOSIG
RKTH,2020-09-16 21:00,129.4205,35.9879,71.60,71.60,100.00,250.00,7.00,0.00,29.80,1009.90,4.97,M,FEW,BKN,M,M,3000.00,20000.00,M,M,M,M,M,M,M,M,M,M,RKTH 162100Z 25007KT 8000 FEW030 BKN200 22/22 Q1009 RMK CIG200 SLP099 8/508 9/105
RKTN,2020-09-16 21:00,128.6589,35.8941,69.80,66.20,88.34,320.00,1.00,0.00,29.83,M,4.97,M,FEW,BKN,M,M,1000.00,20000.00,M,M,M,M,M,M,M,M,M,M,RKTN 162100Z 32001KT 8000 FEW010 BKN200 21/19 Q1010
RKTU,2020-09-16 21:00,127.4991,36.7166,68.00,68.00,100.00,230.00,1.00,0.00,29.83,M,1.99,M,BKN,BKN,M,M,1000.00,20000.00,M,M,BR,M,M,M,M,M,M,M,RKTU 162100Z 23001KT 3200 BR BKN010 BKN200 20/20 Q1010
QEN,2020-09-16 21:00,128.7500,37.6667,60.80,64.40,M,250.00,9.00,0.00,M,M,6.21,17.00,BKN,BKN,M,M,300.00,22000.00,M,M,M,M,M,M,M,M,M,M,KQEN 162100Z AUTO 25009G17KT 9999 BKN003 BKN220 16/18 / RMK A02 TSNO
QES,2020-09-16 21:00,126.4500,36.9667,80.60,66.20,61.58,M,M,0.00,M,M,6.21,M,BKN,BKN,BKN,M,1900.00,20000.00,23000.00,M,M,M,M,M,M,M,M,M,KQES 162100Z AUTO 9999 BKN019 BKN200 BKN230 27/19 / RMK A02 TSNO
QEJ,2020-09-16 21:00,127.9500,38.2000,60.80,60.80,100.00,0.00,0.00,0.00,29.82,M,0.99,M,FEW,BKN,M,M,200.00,4600.00,M,M,BR,M,M,M,M,M,M,M,KQEJ 162100Z AUTO 00000KT 1600 BR FEW002 BKN046 16/16 A2982 RMK A02 TSNO
QEI,2020-09-16 21:00,128.0667,37.9500,62.60,62.60,100.00,110.00,2.00,0.00,29.82,M,4.97,M,FEW,M,M,M,900.00,M,M,M,,M,M,M,M,M,M,M,KQEI 162100Z AUTO 11002KT 8000 // FEW009 17/17 A2982 RMK A02 TSNO
QEQ,2020-09-16 21:00,127.5500,37.8500,68.00,69.80,M,200.00,2.00,0.00,M,M,1.99,M,FEW,BKN,BKN,M,3000.00,3700.00,6000.00,M,BR,M,M,M,M,M,M,M,KQEQ 162100Z AUTO 20002KT 3200 BR FEW030 BKN037 BKN060 20/21 / RMK A02 TSNO
QEW,2020-09-16 21:00,128.1500,36.4000,66.20,66.20,100.00,20.00,1.00,0.00,29.83,M,2.49,M,FEW,BKN,M,M,3000.00,21000.00,M,M,,M,M,M,M,M,M,M,KQEW 162100Z AUTO 02001KT 4000 // FEW030 BKN210 19/19 A2983 RMK A02 TSNO
QEP,2020-09-16 21:00,127.2667,37.4000,66.20,64.40,93.92,130.00,1.00,0.00,29.84,M,3.73,M,BKN,M,M,M,1300.00,M,M,M,M,M,M,M,M,M,M,M,KQEP 162100Z AUTO 13001KT 6000 BKN013 19/18 A2984 RMK A02 TSNO
QEX,2020-09-16 21:00,128.3000,36.1000,68.00,68.00,100.00,330.00,1.00,0.00,29.77,M,0.75,M,OVC,M,M,M,200.00,M,M,M,,M,M,M,M,M,M,M,KQEX 162100Z AUTO 33001KT 1200 // OVC002 20/20 A2977 RMK A02 TSNO
RKPK,2020-09-16 21:00,128.9382,35.1795,71.60,68.00,88.43,330.00,1.00,0.00,29.83,M,3.73,M,FEW,BKN,BKN,M,1000.00,2000.00,6000.00,M,M,M,M,M,M,M,M,M,RKPK 162100Z 33001KT 6000 FEW010 BKN020 BKN060 22/20 Q1010
QFT,2020-09-16 21:00,127.3500,37.6000,66.20,64.40,93.92,180.00,1.00,0.00,29.81,M,M,M,BKN,BKN,M,M,400.00,3100.00,M,M,,M,M,M,M,M,M,M,KQFT 162100Z AUTO 18001KT / // BKN004 BKN031 19/18 A2981 RMK A02 TSNO
QFU,2020-09-16 21:00,126.9667,37.8000,66.20,64.40,93.92,230.00,2.00,0.00,29.85,M,2.49,M,FEW,FEW,M,M,2400.00,5500.00,M,M,BR,M,M,M,M,M,M,M,KQFU 162100Z AUTO 23002KT 4000 BR FEW024 FEW055 19/18 A2985 RMK A02 TSNO
QFW,2020-09-16 21:00,127.8833,37.6667,M,M,M,230.00,2.00,0.00,M,M,M,M,M,M,M,M,M,M,M,M,M,M,M,M,M,M,M,M,KQFW 162100Z AUTO 23002KT 8000 // BKN002 18/20 / RMK A02 TSNO
QFV,2020-09-16 21:00,127.5000,38.0500,62.60,60.80,93.83,100.00,2.00,0.00,29.86,M,1.49,M,BKN,OVC,M,M,200.00,2700.00,M,M,,M,M,M,M,M,M,M,KQFV 162100Z AUTO 10002KT 2400 // BKN002 OVC027 17/16 A2986 RMK A02 TSNO
RKSI,2020-09-16 21:00,126.4500,37.4667,69.80,57.20,64.26,310.00,6.00,0.00,29.80,M,6.21,M,BKN,BKN,M,M,3000.00,7000.00,M,M,M,M,M,M,M,M,M,M,RKSI 162100Z 31006KT 9999 BKN030 BKN070 21/14 Q1009 NOSIG
RKJK,2020-09-16 21:03,126.6220,35.8994,68.00,68.00,100.00,0.00,0.00,0.00,29.83,1010.50,9.00,M,FEW,FEW,M,M,600.00,1900.00,M,M,M,M,M,M,M,M,M,M,RKJK 162103Z AUTO 00000KT 9SM FEW006 FEW019 20/20 A2983 RMK AO2 SLP105 $
QFB,2020-09-16 21:10,128.7167,35.6500,69.80,68.00,94.01,110.00,1.00,0.00,29.90,M,5.59,M,BKN,BKN,M,M,600.00,19000.00,M,M,M,M,M,M,M,M,M,M,KQFB 162110Z AUTO 11001KT 9000 BKN006 BKN190 21/20 A2990 RMK A02 TSNO
QEN,2020-09-16 21:10,128.7500,37.6667,60.80,64.40,M,250.00,9.00,0.00,M,M,6.21,19.00,SCT,BKN,M,M,300.00,22000.00,M,M,M,M,M,M,M,M,M,M,KQEN 162110Z AUTO 25009G19KT 9999 SCT003 BKN220 16/18 / RMK A02 TSNO
QES,2020-09-16 21:10,126.4500,36.9667,80.60,66.20,61.58,M,M,0.00,M,M,6.21,M,BKN,BKN,M,M,1800.00,110000.00,M,M,M,M,M,M,M,M,M,M,KQES 162110Z AUTO 9999 BKN018 BKN1100 27/19 / RMK A02 TSNO
QEJ,2020-09-16 21:10,127.9500,38.2000,60.80,60.80,100.00,220.00,1.00,0.00,29.82,M,2.98,M,FEW,BKN,M,M,300.00,4000.00,M,M,BR,M,M,M,M,M,M,M,KQEJ 162110Z AUTO 22001KT 4800 BR FEW003 BKN040 16/16 A2982 RMK A02 TSNO
QEI,2020-09-16 21:10,128.0667,37.9500,62.60,62.60,100.00,150.00,2.00,0.00,29.83,M,4.97,M,FEW,M,M,M,1000.00,M,M,M,,M,M,M,M,M,M,M,KQEI 162110Z AUTO 15002KT 8000 // FEW010 17/17 A2983 RMK A02 TSNO
QEQ,2020-09-16 21:10,127.5500,37.8500,68.00,69.80,M,200.00,2.00,0.00,M,M,1.74,M,SCT,SCT,M,M,3600.00,5500.00,M,M,BR,M,M,M,M,M,M,M,KQEQ 162110Z AUTO 20002KT 2800 BR SCT036 SCT055 20/21 / RMK A02 TSNO
QEW,2020-09-16 21:10,128.1500,36.4000,66.20,66.20,100.00,0.00,0.00,0.00,29.82,M,2.49,M,FEW,BKN,M,M,3000.00,20000.00,M,M,,M,M,M,M,M,M,M,KQEW 162110Z AUTO 00000KT 4000 // FEW030 BKN200 19/19 A2982 RMK A02 TSNO
QEP,2020-09-16 21:10,127.2667,37.4000,66.20,64.40,93.92,160.00,2.00,0.00,29.85,M,3.73,M,BKN,BKN,M,M,1200.00,21000.00,M,M,M,M,M,M,M,M,M,M,KQEP 162110Z AUTO 16002KT 6000 BKN012 BKN210 19/18 A2985 RMK A02 TSNO
QEX,2020-09-16 21:10,128.3000,36.1000,68.00,68.00,100.00,330.00,1.00,0.00,29.76,M,0.75,M,OVC,M,M,M,200.00,M,M,M,,M,M,M,M,M,M,M,KQEX 162110Z AUTO 33001KT 1200 // OVC002 20/20 A2976 RMK A02 TSNO
RKPK,2020-09-16 21:10,128.9382,35.1795,71.60,68.00,88.43,360.00,1.00,0.00,29.83,M,3.73,M,FEW,SCT,BKN,M,1000.00,2000.00,15000.00,M,M,M,M,M,M,M,M,M,RKPK 162110Z 36001KT 6000 FEW010 SCT020 BKN150 22/20 Q1010 RMK CIG150
QFT,2020-09-16 21:10,127.3500,37.6000,66.20,64.40,93.92,160.00,1.00,0.00,29.81,M,M,M,OVC,M,M,M,500.00,M,M,M,,M,M,M,M,M,M,M,KQFT 162110Z AUTO 16001KT / // OVC005 19/18 A2981 RMK A02 TSNO
QFU,2020-09-16 21:10,126.9667,37.8000,66.20,64.40,93.92,250.00,2.00,0.00,29.86,M,2.49,M,SCT,SCT,M,M,2300.00,23000.00,M,M,BR,M,M,M,M,M,M,M,KQFU 162110Z AUTO 25002KT 4000 BR SCT023 SCT230 19/18 A2986 RMK A02 TSNO
QFW,2020-09-16 21:10,127.8833,37.6667,M,M,M,210.00,2.00,0.00,M,M,M,M,M,M,M,M,M,M,M,M,M,M,M,M,M,M,M,M,KQFW 162110Z AUTO 21002KT 8000 // BKN002 18/20 / RMK A02 TSNO
QFV,2020-09-16 21:10,127.5000,38.0500,62.60,60.80,93.83,140.00,2.00,0.00,29.85,M,2.49,M,BKN,OVC,M,M,200.00,2700.00,M,M,,M,M,M,M,M,M,M,KQFV 162110Z AUTO 14002KT 4000 // BKN002 OVC027 17/16 A2985 RMK A02 TSNO
RKPK,2020-09-16 21:11,128.9382,35.1795,71.60,68.00,88.43,360.00,1.00,0.00,29.83,M,3.73,M,FEW,SCT,BKN,M,1000.00,2000.00,15000.00,M,BR,M,M,M,M,M,M,M,RKPK 162111Z 36001KT 6000 BR FEW010 SCT020 BKN150 22/20 A2983 RMK CIG150
RKPK,2020-09-16 21:16,128.9382,35.1795,M,M,M,M,M,0.00,M,M,M,M,M,M,M,M,M,M,M,M,M,M,M,M,M,M,M,M,RKPK 162116Z 16SPECI
RKNR,2020-09-16 21:17,128.9000,37.1000,59.00,59.00,100.00,260.00,2.00,0.00,29.87,M,2.49,M,FEW,SCT,BKN,M,500.00,2000.00,20000.00,M,BR,M,M,M,M,M,M,M,RKNR 162117Z 26002KT 4000 BR FEW005 SCT020 BKN200 15/15 A2987 RMK CIG200
RKSO,2020-09-16 21:18,127.0296,37.0906,68.00,68.00,100.00,230.00,5.00,0.00,29.82,1010.10,2.50,M,OVC,M,M,M,200.00,M,M,M,BR,M,M,M,M,M,M,M,RKSO 162118Z 23005KT 2 1/2SM BR OVC002 20/20 A2982 RMK AO2A VIS 1 7/8V2 1/2 SLP101 $
QFB,2020-09-16 21:20,128.7167,35.6500,69.80,68.00,94.01,130.00,1.00,0.00,29.90,M,5.59,M,SCT,BKN,M,M,600.00,18000.00,M,M,M,M,M,M,M,M,M,M,KQFB 162120Z AUTO 13001KT 9000 SCT006 BKN180 21/20 A2990 RMK A02 TSNO
QEN,2020-09-16 21:20,128.7500,37.6667,60.80,64.40,M,250.00,8.00,0.00,M,M,6.21,17.00,FEW,BKN,M,M,300.00,22000.00,M,M,M,M,M,M,M,M,M,M,KQEN 162120Z AUTO 25008G17KT 9999 FEW003 BKN220 16/18 / RMK A02 TSNO
QES,2020-09-16 21:20,126.4500,36.9667,80.60,66.20,61.58,M,M,0.00,M,M,6.21,M,BKN,M,M,M,1800.00,M,M,M,M,M,M,M,M,M,M,M,KQES 162120Z AUTO 9999 BKN018 27/19 / RMK A02 TSNO
QEJ,2020-09-16 21:20,127.9500,38.2000,60.80,60.80,100.00,260.00,1.00,0.00,29.82,M,2.98,M,BKN,M,M,M,4200.00,M,M,M,M,M,M,M,M,M,M,M,KQEJ 162120Z AUTO 26001KT 4800 BKN042 16/16 A2982 RMK A02 TSNO
QEI,2020-09-16 21:20,128.0667,37.9500,62.60,62.60,100.00,130.00,3.00,0.00,29.83,M,4.97,M,BKN,M,M,M,1100.00,M,M,M,,M,M,M,M,M,M,M,KQEI 162120Z AUTO 13003KT 8000 // BKN011 17/17 A2983 RMK A02 TSNO
QEQ,2020-09-16 21:20,127.5500,37.8500,68.00,69.80,M,210.00,2.00,0.00,M,M,1.74,M,FEW,FEW,M,M,3800.00,5500.00,M,M,BR,M,M,M,M,M,M,M,KQEQ 162120Z AUTO 21002KT 2800 BR FEW038 FEW055 20/21 / RMK A02 TSNO
QEW,2020-09-16 21:20,128.1500,36.4000,66.20,66.20,100.00,280.00,1.00,0.00,29.83,M,1.99,M,BKN,M,M,M,20000.00,M,M,M,,M,M,M,M,M,M,M,KQEW 162120Z AUTO 28001KT 3200 // BKN200 19/19 A2983 RMK A02 TSNO
QEP,2020-09-16 21:20,127.2667,37.4000,66.20,64.40,93.92,150.00,1.00,0.00,29.85,M,3.73,M,SCT,BKN,M,M,1200.00,20000.00,M,M,M,M,M,M,M,M,M,M,KQEP 162120Z AUTO 15001KT 6000 SCT012 BKN200 19/18 A2985 RMK A02 TSNO
QEX,2020-09-16 21:20,128.3000,36.1000,68.00,68.00,100.00,30.00,2.00,0.00,29.76,M,0.50,M,CLR,M,M,M,M,M,M,M,,M,M,M,M,M,M,M,KQEX 162120Z AUTO 03002KT 0800 // CLR 20/20 A2976 RMK A02 TSNO
QFT,2020-09-16 21:20,127.3500,37.6000,66.20,64.40,93.92,160.00,1.00,0.00,29.82,M,M,M,FEW,OVC,M,M,400.00,600.00,M,M,,M,M,M,M,M,M,M,KQFT 162120Z AUTO 16001KT / // FEW004 OVC006 19/18 A2982 RMK A02 TSNO
QFU,2020-09-16 21:20,126.9667,37.8000,66.20,64.40,93.92,270.00,3.00,0.00,29.86,M,1.99,M,SCT,BKN,M,M,2200.00,4600.00,M,M,BR,M,M,M,M,M,M,M,KQFU 162120Z AUTO 27003KT 3200 BR SCT022 BKN046 19/18 A2986 RMK A02 TSNO
QFW,2020-09-16 21:20,127.8833,37.6667,M,M,M,190.00,1.00,0.00,M,M,M,M,M,M,M,M,M,M,M,M,M,M,M,M,M,M,M,M,KQFW 162120Z AUTO 19001KT 9999 // OVC002 18/20 / RMK A02 TSNO
QFV,2020-09-16 21:20,127.5000,38.0500,62.60,60.80,93.83,100.00,1.00,0.00,29.85,M,2.98,M,OVC,M,M,M,200.00,M,M,M,,M,M,M,M,M,M,M,KQFV 162120Z AUTO 10001KT 4800 // OVC002 17/16 A2985 RMK A02 TSNO
RKSD,2020-09-16 21:22,127.2667,37.3500,64.40,62.60,93.88,190.00,3.00,0.00,29.83,M,2.98,M,SCT,BKN,M,M,1300.00,20000.00,M,M,BR,M,M,M,M,M,M,M,RKSD 162122Z 19003KT 4800 BR SCT013 BKN200 18/17 A2983 RMK CIG200
RKSO,2020-09-16 21:28,127.0296,37.0906,68.00,68.00,100.00,210.00,4.00,0.00,29.82,1010.10,4.00,M,BKN,M,M,M,200.00,M,M,M,BR,M,M,M,M,M,M,M,RKSO 162128Z 21004KT 4SM BR BKN002 20/20 A2982 RMK AO2A BKN V OVC SLP101
RKTF,2020-09-16 21:29,127.3720,36.3720,66.20,66.20,100.00,30.00,1.00,0.00,29.86,M,3.73,M,FEW,BKN,BKN,M,500.00,1500.00,20000.00,M,BR,M,M,M,M,M,M,M,RKTF 162129Z 03001KT 6000 BR FEW005 BKN015 BKN200 19/19 A2986 RMK CIG015
QFB,2020-09-16 21:30,128.7167,35.6500,69.80,68.00,94.01,0.00,0.00,0.00,29.91,M,4.97,M,FEW,SCT,BKN,M,500.00,700.00,18000.00,M,M,M,M,M,M,M,M,M,KQFB 162130Z AUTO 00000KT 8000 FEW005 SCT007 BKN180 21/20 A2991 RMK A02 TSNO
RKSS,2020-09-16 21:30,126.7906,37.5583,68.00,66.20,93.97,280.00,4.00,0.00,29.83,M,3.11,M,FEW,BKN,BKN,M,1000.00,3000.00,20000.00,M,BR,M,M,M,M,M,M,M,RKSS 162130Z 28004KT 250V310 5000 BR FEW010 BKN030 BKN200 20/19 Q1010 NOSIG
QEN,2020-09-16 21:30,128.7500,37.6667,60.80,64.40,M,250.00,9.00,0.00,M,M,6.21,17.00,BKN,M,M,M,21000.00,M,M,M,M,M,M,M,M,M,M,M,KQEN 162130Z AUTO 25009G17KT 9999 BKN210 16/18 / RMK A02 TSNO
QES,2020-09-16 21:30,126.4500,36.9667,80.60,66.20,61.58,M,M,0.00,M,M,6.21,M,BKN,M,M,M,1500.00,M,M,M,M,M,M,M,M,M,M,M,KQES 162130Z AUTO 9999 BKN015 27/19 / RMK A02 TSNO
QEJ,2020-09-16 21:30,127.9500,38.2000,62.60,62.60,100.00,190.00,1.00,0.00,29.82,M,2.98,M,OVC,M,M,M,3900.00,M,M,M,M,M,M,M,M,M,M,M,KQEJ 162130Z AUTO 19001KT 4800 OVC039 17/17 A2982 RMK A02 TSNO
QEI,2020-09-16 21:30,128.0667,37.9500,62.60,62.60,100.00,120.00,5.00,0.00,29.84,M,4.97,M,BKN,M,M,M,1100.00,M,M,M,,M,M,M,M,M,M,M,KQEI 162130Z AUTO 12005KT 8000 // BKN011 17/17 A2984 RMK A02 TSNO
QEQ,2020-09-16 21:30,127.5500,37.8500,68.00,69.80,M,220.00,2.00,0.00,M,M,1.99,M,FEW,FEW,M,M,5500.00,6000.00,M,M,BR,M,M,M,M,M,M,M,KQEQ 162130Z AUTO 22002KT 3200 BR FEW055 FEW060 20/21 / RMK A02 TSNO
QEW,2020-09-16 21:30,128.1500,36.4000,66.20,66.20,100.00,100.00,1.00,0.00,29.84,M,2.49,M,FEW,BKN,M,M,200.00,21000.00,M,M,,M,M,M,M,M,M,M,KQEW 162130Z AUTO 10001KT 4000 // FEW002 BKN210 19/19 A2984 RMK A02 TSNO
QEP,2020-09-16 21:30,127.2667,37.4000,66.20,64.40,93.92,120.00,1.00,0.00,29.85,M,3.73,M,BKN,BKN,M,M,1200.00,20000.00,M,M,M,M,M,M,M,M,M,M,KQEP 162130Z AUTO 12001KT 6000 BKN012 BKN200 19/18 A2985 RMK A02 TSNO
QFT,2020-09-16 21:30,127.3500,37.6000,66.20,64.40,93.92,180.00,2.00,0.00,29.82,M,M,M,OVC,M,M,M,700.00,M,M,M,,M,M,M,M,M,M,M,KQFT 162130Z AUTO 18002KT / // OVC007 19/18 A2982 RMK A02 TSNO
QFU,2020-09-16 21:30,126.9667,37.8000,66.20,64.40,93.92,190.00,1.00,0.00,29.87,M,1.99,M,BKN,BKN,M,M,1200.00,4600.00,M,M,BR,M,M,M,M,M,M,M,KQFU 162130Z AUTO 19001KT 3200 BR BKN012 BKN046 19/18 A2987 RMK A02 TSNO
QEX,2020-09-16 21:30,128.3000,36.1000,68.00,68.00,100.00,360.00,1.00,0.00,29.77,M,0.25,M,CLR,M,M,M,M,M,M,M,,M,M,M,M,M,M,M,KQEX 162130Z AUTO 36001KT 0400 // CLR 20/20 A2977 RMK A02 TSNO
QFW,2020-09-16 21:30,127.8833,37.6667,M,M,M,220.00,2.00,0.00,M,M,M,M,M,M,M,M,M,M,M,M,M,M,M,M,M,M,M,M,KQFW 162130Z AUTO 22002KT 9999 // OVC003 18/20 / RMK A02 TSNO
QFV,2020-09-16 21:30,127.5000,38.0500,62.60,60.80,93.83,40.00,1.00,0.00,29.86,M,2.49,M,OVC,M,M,M,200.00,M,M,M,,M,M,M,M,M,M,M,KQFV 162130Z AUTO 04001KT 4000 // OVC002 17/16 A2986 RMK A02 TSNO
RKSI,2020-09-16 21:30,126.4500,37.4667,69.80,55.40,60.21,310.00,8.00,0.00,29.80,M,6.21,M,SCT,BKN,M,M,3500.00,7000.00,M,M,M,M,M,M,M,M,M,M,RKSI 162130Z 31008KT 9999 SCT035 BKN070 21/13 Q1009 NOSIG
RKSS,2020-09-16 21:34,126.7906,37.5583,M,M,M,M,M,0.00,M,M,M,M,M,M,M,M,M,M,M,M,M,M,M,M,M,M,M,M,RKSS 162134Z 16SPECI
RKNR,2020-09-16 21:37,128.9000,37.1000,59.00,59.00,100.00,140.00,2.00,0.00,29.88,M,2.98,M,FEW,SCT,BKN,M,1000.00,2000.00,20000.00,M,BR,M,M,M,M,M,M,M,RKNR 162137Z 14002KT 4800 BR FEW010 SCT020 BKN200 15/15 A2988 RMK CIG200
RKSO,2020-09-16 21:38,127.0296,37.0906,68.00,68.00,100.00,0.00,0.00,0.00,29.83,1010.40,3.00,M,BKN,M,M,M,300.00,M,M,M,BR,M,M,M,M,M,M,M,RKSO 162138Z 00000KT 3SM BR BKN003 20/20 A2983 RMK AO2A SLP104 $
QFB,2020-09-16 21:40,128.7167,35.6500,69.80,68.00,94.01,300.00,1.00,0.00,29.91,M,4.97,M,FEW,BKN,M,M,500.00,16000.00,M,M,M,M,M,M,M,M,M,M,KQFB 162140Z AUTO 30001KT 8000 FEW005 BKN160 21/20 A2991 RMK A02 TSNO
QEN,2020-09-16 21:40,128.7500,37.6667,60.80,64.40,M,240.00,10.00,0.00,M,M,6.21,16.00,FEW,BKN,M,M,400.00,20000.00,M,M,M,M,M,M,M,M,M,M,KQEN 162140Z AUTO 24010G16KT 9999 FEW004 BKN200 16/18 / RMK A02 TSNO
QES,2020-09-16 21:40,126.4500,36.9667,80.60,66.20,61.58,M,M,0.00,M,M,6.21,M,BKN,M,M,M,1100.00,M,M,M,M,M,M,M,M,M,M,M,KQES 162140Z AUTO 9999 BKN011 27/19 / RMK A02 TSNO
QEJ,2020-09-16 21:40,127.9500,38.2000,62.60,62.60,100.00,30.00,1.00,0.00,29.82,M,2.49,M,BKN,M,M,M,2900.00,M,M,M,BR,M,M,M,M,M,M,M,KQEJ 162140Z AUTO 03001KT 4000 BR BKN029 17/17 A2982 RMK A02 TSNO
QEI,2020-09-16 21:40,128.0667,37.9500,62.60,62.60,100.00,140.00,3.00,0.00,29.84,M,5.59,M,BKN,M,M,M,1100.00,M,M,M,,M,M,M,M,M,M,M,KQEI 162140Z AUTO 14003KT 9000 // BKN011 17/17 A2984 RMK A02 TSNO
QEQ,2020-09-16 21:40,127.5500,37.8500,66.20,68.00,M,210.00,1.00,0.00,29.86,M,2.98,M,SCT,M,M,M,6000.00,M,M,M,M,M,M,M,M,M,M,M,KQEQ 162140Z AUTO 21001KT 4800 SCT060 19/20 A2986 RMK A02 TSNO
QEW,2020-09-16 21:40,128.1500,36.4000,66.20,66.20,100.00,150.00,1.00,0.00,29.85,M,1.99,M,SCT,BKN,M,M,200.00,22000.00,M,M,,M,M,M,M,M,M,M,KQEW 162140Z AUTO 15001KT 3200 // SCT002 BKN220 19/19 A2985 RMK A02 TSNO
QEP,2020-09-16 21:40,127.2667,37.4000,66.20,64.40,93.92,170.00,2.00,0.00,29.86,M,3.73,M,SCT,BKN,M,M,1400.00,20000.00,M,M,M,M,M,M,M,M,M,M,KQEP 162140Z AUTO 17002KT 6000 SCT014 BKN200 19/18 A2986 RMK A02 TSNO
QFT,2020-09-16 21:40,127.3500,37.6000,66.20,64.40,93.92,120.00,1.00,0.00,29.82,M,M,M,OVC,M,M,M,700.00,M,M,M,,M,M,M,M,M,M,M,KQFT 162140Z AUTO 12001KT / // OVC007 19/18 A2982 RMK A02 TSNO
QFU,2020-09-16 21:40,126.9667,37.8000,66.20,64.40,93.92,170.00,1.00,0.00,29.87,M,1.99,M,SCT,BKN,M,M,1200.00,4600.00,M,M,BR,M,M,M,M,M,M,M,KQFU 162140Z AUTO 17001KT 3200 BR SCT012 BKN046 19/18 A2987 RMK A02 TSNO
QEX,2020-09-16 21:40,128.3000,36.1000,68.00,68.00,100.00,190.00,1.00,0.00,29.78,M,0.50,M,OVC,M,M,M,200.00,M,M,M,,M,M,M,M,M,M,M,KQEX 162140Z AUTO 19001KT 0800 // OVC002 20/20 A2978 RMK A02 TSNO
QFW,2020-09-16 21:40,127.8833,37.6667,M,M,M,240.00,1.00,0.00,M,M,M,M,M,M,M,M,M,M,M,M,M,M,M,M,M,M,M,M,KQFW 162140Z AUTO 24001KT 9999 // OVC003 18/20 / RMK A02 TSNO
QFV,2020-09-16 21:40,127.5000,38.0500,62.60,60.80,93.83,90.00,1.00,0.00,29.86,M,2.98,M,OVC,M,M,M,300.00,M,M,M,,M,M,M,M,M,M,M,KQFV 162140Z AUTO 09001KT 4800 // OVC003 17/16 A2986 RMK A02 TSNO
RKNW,2020-09-16 21:47,127.9467,37.3375,66.20,66.20,100.00,210.00,1.00,0.00,29.85,M,2.98,M,BKN,BKN,M,M,700.00,2000.00,M,M,BR,M,M,M,M,M,M,M,RKNW 162147Z 21001KT 4800 BR BKN007 BKN020 19/19 A2985 RMK CIG007
QFB,2020-09-16 21:50,128.7167,35.6500,68.00,68.00,100.00,290.00,2.00,0.00,29.91,M,2.98,M,FEW,BKN,BKN,M,500.00,2300.00,16000.00,M,M,M,M,M,M,M,M,M,KQFB 162150Z AUTO 29002KT 4800 FEW005 BKN023 BKN160 20/20 A2991 RMK A02 TSNO
RKTS,2020-09-16 21:50,128.1572,36.4083,M,M,M,0.00,0.00,0.00,29.90,M,M,M,M,M,M,M,M,M,M,M,M,M,M,M,M,M,M,M,RKTS 162150Z 00000KT 800 FG BKN002 19/19 A2990 RMK CIG002
QEN,2020-09-16 21:50,128.7500,37.6667,60.80,64.40,M,240.00,9.00,0.00,M,M,6.21,17.00,FEW,BKN,M,M,400.00,19000.00,M,M,M,M,M,M,M,M,M,M,KQEN 162150Z AUTO 24009G17KT 9999 FEW004 BKN190 16/18 / RMK A02 TSNO
QES,2020-09-16 21:50,126.4500,36.9667,80.60,66.20,61.58,M,M,0.00,M,M,6.21,M,BKN,M,M,M,1100.00,M,M,M,M,M,M,M,M,M,M,M,KQES 162150Z AUTO 9999 BKN011 27/19 / RMK A02 TSNO
QEJ,2020-09-16 21:50,127.9500,38.2000,62.60,62.60,100.00,20.00,1.00,0.00,29.82,M,1.49,M,FEW,BKN,M,M,200.00,2700.00,M,M,BR,M,M,M,M,M,M,M,KQEJ 162150Z AUTO 02001KT 2400 BR FEW002 BKN027 17/17 A2982 RMK A02 TSNO
QEI,2020-09-16 21:50,128.0667,37.9500,64.40,62.60,93.88,130.00,2.00,0.00,29.84,M,5.59,M,FEW,BKN,M,M,1300.00,3100.00,M,M,,M,M,M,M,M,M,M,KQEI 162150Z AUTO 13002KT 9000 // FEW013 BKN031 18/17 A2984 RMK A02 TSNO
QEQ,2020-09-16 21:50,127.5500,37.8500,66.20,66.20,100.00,210.00,2.00,0.00,29.86,M,6.21,M,BKN,M,M,M,5500.00,M,M,M,M,M,M,M,M,M,M,M,KQEQ 162150Z AUTO 21002KT 9999 BKN055 19/19 A2986 RMK A02 TSNO
QEW,2020-09-16 21:50,128.1500,36.4000,66.20,66.20,100.00,0.00,0.00,0.00,29.85,M,2.49,M,FEW,SCT,SCT,BKN,200.00,300.00,19000.00,22000.00,,M,M,M,M,M,M,M,KQEW 162150Z AUTO 00000KT 4000 // FEW002 SCT003 SCT190 BKN220 19/19 A2985 RMK A02 TSNO
QEP,2020-09-16 21:50,127.2667,37.4000,66.20,64.40,93.92,130.00,4.00,0.00,29.86,M,3.73,M,FEW,M,M,M,1400.00,M,M,M,M,M,M,M,M,M,M,M,KQEP 162150Z AUTO 13004KT 6000 FEW014 19/18 A2986 RMK A02 TSNO
QFT,2020-09-16 21:50,127.3500,37.6000,66.20,64.40,93.92,160.00,1.00,0.00,29.82,M,M,M,OVC,M,M,M,700.00,M,M,M,,M,M,M,M,M,M,M,KQFT 162150Z AUTO 16001KT / // OVC007 19/18 A2982 RMK A02 TSNO
QFU,2020-09-16 21:50,126.9667,37.8000,66.20,64.40,93.92,0.00,0.00,0.00,29.87,M,2.49,M,SCT,SCT,M,M,1100.00,6000.00,M,M,BR,M,M,M,M,M,M,M,KQFU 162150Z AUTO 00000KT 4000 BR SCT011 SCT060 19/18 A2987 RMK A02 TSNO
QEX,2020-09-16 21:50,128.3000,36.1000,68.00,68.00,100.00,330.00,1.00,0.00,29.78,M,0.99,M,OVC,M,M,M,200.00,M,M,M,,M,M,M,M,M,M,M,KQEX 162150Z AUTO 33001KT 1600 // OVC002 20/20 A2978 RMK A02 TSNO
QFW,2020-09-16 21:50,127.8833,37.6667,M,M,M,0.00,0.00,0.00,M,M,M,M,M,M,M,M,M,M,M,M,M,M,M,M,M,M,M,M,KQFW 162150Z AUTO 00000KT 9999 // OVC004 18/20 / RMK A02 TSNO
QFV,2020-09-16 21:50,127.5000,38.0500,62.60,60.80,93.83,120.00,2.00,0.00,29.86,M,3.73,M,BKN,BKN,M,M,300.00,5000.00,M,M,,M,M,M,M,M,M,M,KQFV 162150Z AUTO 12002KT 6000 // BKN003 BKN050 17/16 A2986 RMK A02 TSNO
RKTU,2020-09-16 21:53,127.4991,36.7166,66.20,66.20,100.00,330.00,1.00,0.00,29.85,M,1.49,M,BKN,BKN,M,M,1500.00,20000.00,M,M,BR,M,M,M,M,M,M,M,RKTU 162153Z 33001KT 2400 BR BKN015 BKN200 19/19 Q1011 RMK CIG015 8/608 9/502
RKJK,2020-09-16 21:56,126.6220,35.8994,70.00,68.70,95.65,0.00,0.00,0.00,29.83,1010.50,6.00,M,FEW,M,M,M,600.00,M,M,M,BR,M,M,M,M,M,M,M,RKJK 162156Z AUTO 00000KT 6SM BR FEW006 21/20 A2983 RMK AO2 SLP105 T02110204 $
RKSG,2020-09-16 21:56,127.0311,36.9622,68.50,66.00,91.73,150.00,2.00,0.00,29.85,1010.60,2.50,M,FEW,BKN,OVC,M,600.00,800.00,1200.00,M,BR,M,M,M,M,M,M,M,RKSG 162156Z 15002KT 2 1/2SM BR FEW006 BKN008 OVC012 20/19 2985 RMK AO2A TWR VIS 1 1/2 SLP106 T02030189 $
RKTU,2020-09-16 21:56,127.4991,36.7166,66.20,66.20,100.00,330.00,1.00,0.00,29.86,M,1.49,M,BKN,BKN,M,M,1500.00,20000.00,M,M,BR,M,M,M,M,M,M,M,RKTU 162156Z 33001KT 2400 BR BKN015 BKN200 19/19 A2986 RMK CIG015
RKSO,2020-09-16 21:58,127.0296,37.0906,68.00,68.00,100.00,0.00,0.00,0.00,29.83,1010.40,2.50,M,OVC,M,M,M,20000.00,M,M,M,BR,M,M,M,M,M,M,M,RKSO 162158Z 00000KT 2 1/2SM BR OVC200 20/20 A2983 RMK AO2A SLP104 $
RKSY,2020-09-16 21:58,126.9753,37.5241,69.80,67.30,91.77,0.00,0.00,0.00,29.81,1009.80,6.21,M,BKN,OVC,M,M,1100.00,1700.00,M,M,M,M,M,M,M,M,M,M,RKSY 162158Z AUTO 00000KT 9999 BKN011 OVC017 21/20 A2981 RMK AO2 SLP098 T02100196
RKPS,2020-09-16 22:00,128.0704,35.0885,69.80,69.80,100.00,50.00,3.00,0.00,29.85,1011.40,0.87,M,FEW,BKN,BKN,M,0.00,300.00,1500.00,M,BR,M,M,M,M,M,M,M,RKPS 162200Z 05003KT 1400 R06/1400 BR FEW000 BKN003 BKN015 21/21 Q1011 RMK CIG003 FG FEW000 SLP114 8/600 9/700
RKJB,2020-09-16 22:00,126.3800,34.9800,71.60,69.80,94.06,150.00,3.00,0.00,29.85,M,3.73,M,FEW,BKN,OVC,M,1000.00,2500.00,11000.00,M,M,M,M,M,M,M,M,M,RKJB 162200Z 15003KT 6000 FEW010 BKN025 OVC110 22/21 Q1011 BECMG -RA
RKJJ,2020-09-16 22:00,126.8089,35.1264,68.00,68.00,100.00,180.00,2.00,0.00,29.85,1011.30,2.98,M,FEW,OVC,M,M,3000.00,15000.00,M,M,BR,M,M,M,M,M,M,M,RKJJ 162200Z 18002KT 4800 BR FEW030 OVC150 20/20 Q1011 RMK CIG150 SLP113 8/55/ 9/26/
RKPC,2020-09-16 22:00,126.4930,33.5113,71.60,71.60,100.00,200.00,5.00,0.00,29.85,M,3.73,M,FEW,BKN,OVC,M,1000.00,2500.00,8000.00,M,-RA,M,M,M,M,M,M,M,RKPC 162200Z 20005KT 160V220 6000 -RA FEW010 BKN025 OVC080 22/22 Q1011 NOSIG
RKNY,2020-09-16 22:00,128.6692,38.0613,69.80,59.00,68.55,280.00,9.00,0.00,29.77,M,1.06,M,NCD,M,M,M,M,M,M,M,,M,M,M,M,M,M,M,RKNY 162200Z AUTO 28009KT 1700 // NCD 21/15 Q1008
RKSM,2020-09-16 22:00,127.1139,37.4458,68.00,66.20,93.97,230.00,2.00,0.00,29.84,M,2.98,M,FEW,BKN,BKN,M,1000.00,1500.00,20000.00,M,BR,M,M,M,M,M,M,M,RKSM 162200Z 23002KT 4800 BR FEW010 BKN015 BKN200 20/19 A2984
QFB,2020-09-16 22:00,128.7167,35.6500,68.00,68.00,100.00,290.00,3.00,0.00,29.91,M,3.73,M,FEW,BKN,BKN,M,300.00,2300.00,16000.00,M,M,M,M,M,M,M,M,M,KQFB 162200Z AUTO 29003KT 6000 FEW003 BKN023 BKN160 20/20 A2991 RMK A02 TSNO
RKSS,2020-09-16 22:00,126.7906,37.5583,68.00,64.40,88.26,300.00,4.00,0.00,29.83,M,6.21,M,FEW,BKN,OVC,M,1000.00,3000.00,20000.00,M,M,M,M,M,M,M,M,M,RKSS 162200Z 30004KT 9999 FEW010 BKN030 OVC200 20/18 Q1010 NOSIG
RKTH,2020-09-16 22:00,129.4205,35.9879,71.60,71.60,100.00,240.00,6.00,0.00,29.83,1010.20,3.73,M,FEW,BKN,M,M,3000.00,20000.00,M,M,M,M,M,M,M,M,M,M,RKTH 162200Z 24006KT 6000 FEW030 BKN200 22/22 Q1010 RMK CIG200 SLP102 8/508 9/205
RKTN,2020-09-16 22:00,128.6589,35.8941,69.80,66.20,88.34,110.00,1.00,0.00,29.85,M,2.98,M,SCT,BKN,M,M,1000.00,20000.00,M,M,BR,M,M,M,M,M,M,M,RKTN 162200Z 11001KT 4800 BR SCT010 BKN200 21/19 Q1011
RKTU,2020-09-16 22:00,127.4991,36.7166,M,M,M,M,M,0.00,M,M,M,M,M,M,M,M,M,M,M,M,M,M,M,M,M,M,M,M,RKTU 162200Z 16SPECI
QEN,2020-09-16 22:00,128.7500,37.6667,60.80,64.40,M,240.00,9.00,0.00,M,M,6.21,20.00,FEW,BKN,M,M,400.00,19000.00,M,M,M,M,M,M,M,M,M,M,KQEN 162200Z AUTO 24009G20KT 9999 FEW004 BKN190 16/18 / RMK A02 TSNO
QES,2020-09-16 22:00,126.4500,36.9667,80.60,66.20,61.58,M,M,0.00,M,M,6.21,M,BKN,M,M,M,1100.00,M,M,M,M,M,M,M,M,M,M,M,KQES 162200Z AUTO 9999 BKN011 27/19 / RMK A02 TSNO
QEJ,2020-09-16 22:00,127.9500,38.2000,62.60,62.60,100.00,100.00,1.00,0.00,29.82,M,1.49,M,FEW,SCT,BKN,M,100.00,3500.00,22000.00,M,BR,M,M,M,M,M,M,M,KQEJ 162200Z AUTO 10001KT 2400 BR FEW001 SCT035 BKN220 17/17 A2982 RMK A02 TSNO
QEI,2020-09-16 22:00,128.0667,37.9500,64.40,62.60,93.88,0.00,0.00,0.00,29.84,M,5.59,M,FEW,BKN,M,M,1400.00,3800.00,M,M,,M,M,M,M,M,M,M,KQEI 162200Z AUTO 00000KT 9000 // FEW014 BKN038 18/17 A2984 RMK A02 TSNO
QEQ,2020-09-16 22:00,127.5500,37.8500,66.20,64.40,93.92,190.00,1.00,0.00,29.86,M,6.21,M,BKN,M,M,M,5500.00,M,M,M,M,M,M,M,M,M,M,M,KQEQ 162200Z AUTO 19001KT 9999 BKN055 19/18 A2986 RMK A02 TSNO
QEW,2020-09-16 22:00,128.1500,36.4000,66.20,66.20,100.00,110.00,1.00,0.00,29.85,M,1.99,M,BKN,BKN,M,M,200.00,18000.00,M,M,,M,M,M,M,M,M,M,KQEW 162200Z AUTO 11001KT 3200 // BKN002 BKN180 19/19 A2985 RMK A02 TSNO
QEP,2020-09-16 22:00,127.2667,37.4000,66.20,64.40,93.92,130.00,2.00,0.00,29.86,M,2.98,M,FEW,SCT,M,M,600.00,1400.00,M,M,M,M,M,M,M,M,M,M,KQEP 162200Z AUTO 13002KT 4800 FEW006 SCT014 19/18 A2986 RMK A02 TSNO
RKPK,2020-09-16 22:00,128.9382,35.1795,71.60,68.00,88.43,330.00,4.00,0.00,29.83,M,5.59,M,FEW,BKN,M,M,2000.00,15000.00,M,M,M,M,M,M,M,M,M,M,RKPK 162200Z 33004KT 9000 FEW020 BKN150 22/20 Q1010
QFT,2020-09-16 22:00,127.3500,37.6000,66.20,64.40,93.92,170.00,2.00,0.00,29.82,M,M,M,OVC,M,M,M,700.00,M,M,M,,M,M,M,M,M,M,M,KQFT 162200Z AUTO 17002KT / // OVC007 19/18 A2982 RMK A02 TSNO
QFU,2020-09-16 22:00,126.9667,37.8000,66.20,64.40,93.92,120.00,1.00,0.00,29.87,M,2.49,M,FEW,FEW,M,M,2900.00,7000.00,M,M,BR,M,M,M,M,M,M,M,KQFU 162200Z AUTO 12001KT 4000 BR FEW029 FEW070 19/18 A2987 RMK A02 TSNO
QEX,2020-09-16 22:00,128.3000,36.1000,68.00,68.00,100.00,340.00,1.00,0.00,29.79,M,1.24,M,OVC,M,M,M,200.00,M,M,M,,M,M,M,M,M,M,M,KQEX 162200Z AUTO 34001KT 2000 // OVC002 20/20 A2979 RMK A02 TSNO
QFW,2020-09-16 22:00,127.8833,37.6667,M,M,M,230.00,1.00,0.00,M,M,M,M,M,M,M,M,M,M,M,M,M,M,M,M,M,M,M,M,KQFW 162200Z AUTO 23001KT 9000 // OVC004 18/20 / RMK A02 TSNO
QFV,2020-09-16 22:00,127.5000,38.0500,62.60,60.80,93.83,110.00,1.00,0.00,29.86,M,3.73,M,SCT,BKN,BKN,M,300.00,2700.00,6000.00,M,,M,M,M,M,M,M,M,KQFV 162200Z AUTO 11001KT 6000 // SCT003 BKN027 BKN060 17/16 A2986 RMK A02 TSNO
RKSI,2020-09-16 22:00,126.4500,37.4667,68.00,51.80,56.13,310.00,7.00,0.00,29.83,M,6.21,M,FEW,SCT,BKN,M,4000.00,7000.00,20000.00,M,M,M,M,M,M,M,M,M,RKSI 162200Z 31007KT 9999 FEW040 SCT070 BKN200 20/11 Q1010 NOSIG
QFB,2020-09-16 22:10,128.7167,35.6500,68.00,68.00,100.00,280.00,1.00,0.00,29.92,M,2.98,M,BKN,BKN,M,M,300.00,2300.00,M,M,M,M,M,M,M,M,M,M,KQFB 162210Z AUTO 28001KT 4800 BKN003 BKN023 20/20 A2992 RMK A02 TSNO
QEN,2020-09-16 22:10,128.7500,37.6667,60.80,64.40,M,240.00,8.00,0.00,M,M,6.21,19.00,FEW,OVC,M,M,400.00,19000.00,M,M,M,M,M,M,M,M,M,M,KQEN 162210Z AUTO 24008G19KT 9999 FEW004 OVC190 16/18 / RMK A02 TSNO
QES,2020-09-16 22:10,126.4500,36.9667,80.60,66.20,61.58,M,M,0.00,M,M,6.21,M,BKN,M,M,M,2800.00,M,M,M,M,M,M,M,M,M,M,M,KQES 162210Z AUTO 9999 BKN028 27/19 / RMK A02 TSNO
QEJ,2020-09-16 22:10,127.9500,38.2000,62.60,62.60,100.00,230.00,1.00,0.00,29.82,M,1.99,M,FEW,SCT,SCT,BKN,100.00,2200.00,3500.00,22000.00,BR,M,M,M,M,M,M,M,KQEJ 162210Z AUTO 23001KT 3200 BR FEW001 SCT022 SCT035 BKN220 17/17 A2982 RMK A02 TSNO
QEI,2020-09-16 22:10,128.0667,37.9500,64.40,62.60,93.88,130.00,3.00,0.00,29.83,M,4.97,M,BKN,M,M,M,3800.00,M,M,M,,M,M,M,M,M,M,M,KQEI 162210Z AUTO 13003KT 8000 // BKN038 18/17 A2983 RMK A02 TSNO
QEQ,2020-09-16 22:10,127.5500,37.8500,66.20,66.20,100.00,170.00,1.00,0.00,29.86,M,6.21,M,BKN,M,M,M,5500.00,M,M,M,M,M,M,M,M,M,M,M,KQEQ 162210Z AUTO 17001KT 9999 BKN055 19/19 A2986 RMK A02 TSNO
QEW,2020-09-16 22:10,128.1500,36.4000,66.20,66.20,100.00,120.00,1.00,0.00,29.85,M,1.74,M,BKN,BKN,M,M,200.00,18000.00,M,M,,M,M,M,M,M,M,M,KQEW 162210Z AUTO 12001KT 2800 // BKN002 BKN180 19/19 A2985 RMK A02 TSNO
QEP,2020-09-16 22:10,127.2667,37.4000,66.20,64.40,93.92,160.00,2.00,0.00,29.86,M,3.73,M,SCT,M,M,M,600.00,M,M,M,M,M,M,M,M,M,M,M,KQEP 162210Z AUTO 16002KT 6000 SCT006 19/18 A2986 RMK A02 TSNO
QFT,2020-09-16 22:10,127.3500,37.6000,66.20,64.40,93.92,150.00,1.00,0.00,29.82,M,M,M,OVC,M,M,M,600.00,M,M,M,,M,M,M,M,M,M,M,KQFT 162210Z AUTO 15001KT / // OVC006 19/18 A2982 RMK A02 TSNO
QFU,2020-09-16 22:10,126.9667,37.8000,68.00,64.40,88.26,190.00,1.00,0.00,29.86,M,2.98,M,FEW,FEW,M,M,5500.00,23000.00,M,M,M,M,M,M,M,M,M,M,KQFU 162210Z AUTO 19001KT 4800 FEW055 FEW230 20/18 A2986 RMK A02 TSNO
QEX,2020-09-16 22:10,128.3000,36.1000,68.00,68.00,100.00,350.00,1.00,0.00,29.79,M,0.99,M,OVC,M,M,M,200.00,M,M,M,,M,M,M,M,M,M,M,KQEX 162210Z AUTO 35001KT 1600 // OVC002 20/20 A2979 RMK A02 TSNO
QFW,2020-09-16 22:10,127.8833,37.6667,M,M,M,210.00,1.00,0.00,M,M,M,M,M,M,M,M,M,M,M,M,M,M,M,M,M,M,M,M,KQFW 162210Z AUTO 21001KT 8000 // BKN003 18/20 / RMK A02 TSNO
QFV,2020-09-16 22:10,127.5000,38.0500,62.60,60.80,93.83,340.00,2.00,0.00,29.86,M,3.73,M,SCT,BKN,BKN,M,300.00,2700.00,3500.00,M,,M,M,M,M,M,M,M,KQFV 162210Z AUTO 34002KT 6000 // SCT003 BKN027 BKN035 17/16 A2986 RMK A02 TSNO
RKTI,2020-09-16 22:15,127.8853,37.0300,66.20,66.20,100.00,20.00,3.00,0.00,29.85,M,0.75,M,BKN,BKN,M,M,500.00,1000.00,M,M,BR,M,M,M,M,M,M,M,RKTI 162215Z 02003KT 1200 R36/1600 BR BKN005 BKN010 19/19 A2985 RMK CIG005
RKTN,2020-09-16 22:15,128.6589,35.8941,69.80,68.00,94.01,50.00,1.00,0.00,29.87,M,2.98,M,BKN,BKN,M,M,1000.00,20000.00,M,M,BR,M,M,M,M,M,M,M,RKTN 162215Z 05001KT 4800 BR BKN010 BKN200 21/20 A2987 RMK CIG010
RKTU,2020-09-16 22:16,127.4991,36.7166,68.00,68.00,100.00,190.00,1.00,0.00,29.85,M,1.99,M,BKN,BKN,M,M,1000.00,20000.00,M,M,BR,M,M,M,M,M,M,M,RKTU 162216Z 19001KT 3200 BR BKN010 BKN200 20/20 Q1011 RMK CIG010
RKTU,2020-09-16 22:17,127.4991,36.7166,68.00,68.00,100.00,190.00,1.00,0.00,29.86,M,1.99,M,BKN,BKN,M,M,1000.00,20000.00,M,M,BR,M,M,M,M,M,M,M,RKTU 162217Z 19001KT 3200 BR BKN010 BKN200 20/20 A2986 RMK CIG010
RKPS,2020-09-16 22:20,128.0704,35.0885,69.80,69.80,100.00,340.00,2.00,0.00,29.89,M,0.87,M,FEW,BKN,BKN,M,0.00,300.00,1500.00,M,-RA BR,M,M,M,M,M,M,M,RKPS 162220Z 34002KT 1400 R06/1400 -RA BR FEW000 BKN003 BKN015 21/21 A2989 RMK CIG003 FG FEW000
QFB,2020-09-16 22:20,128.7167,35.6500,68.00,68.00,100.00,290.00,5.00,0.00,29.92,M,2.98,M,BKN,BKN,M,M,300.00,2400.00,M,M,M,M,M,M,M,M,M,M,KQFB 162220Z AUTO 29005KT 4800 BKN003 BKN024 20/20 A2992 RMK A02 TSNO
QEN,2020-09-16 22:20,128.7500,37.6667,60.80,64.40,M,240.00,8.00,0.00,M,M,6.21,17.00,FEW,OVC,M,M,500.00,19000.00,M,M,M,M,M,M,M,M,M,M,KQEN 162220Z AUTO 24008G17KT 9999 FEW005 OVC190 16/18 / RMK A02 TSNO
QES,2020-09-16 22:20,126.4500,36.9667,80.60,66.20,61.58,M,M,0.00,M,M,6.21,M,BKN,M,M,M,2800.00,M,M,M,M,M,M,M,M,M,M,M,KQES 162220Z AUTO 9999 BKN028 27/19 / RMK A02 TSNO
QEJ,2020-09-16 22:20,127.9500,38.2000,62.60,62.60,100.00,0.00,0.00,0.00,29.82,M,2.49,M,FEW,BKN,BKN,M,100.00,2300.00,22000.00,M,BR,M,M,M,M,M,M,M,KQEJ 162220Z AUTO 00000KT 4000 BR FEW001 BKN023 BKN220 17/17 A2982 RMK A02 TSNO
QEI,2020-09-16 22:20,128.0667,37.9500,64.40,62.60,93.88,170.00,1.00,0.00,29.83,M,6.21,M,SCT,M,M,M,3800.00,M,M,M,M,M,M,M,M,M,M,M,KQEI 162220Z AUTO 17001KT 9999 SCT038 18/17 A2983 RMK A02 TSNO
QEQ,2020-09-16 22:20,127.5500,37.8500,66.20,66.20,100.00,200.00,1.00,0.00,29.86,M,6.21,M,FEW,M,M,M,6000.00,M,M,M,M,M,M,M,M,M,M,M,KQEQ 162220Z AUTO 20001KT 9999 FEW060 19/19 A2986 RMK A02 TSNO
QEW,2020-09-16 22:20,128.1500,36.4000,66.20,66.20,100.00,310.00,1.00,0.00,29.86,M,0.99,M,BKN,M,M,M,200.00,M,M,M,,M,M,M,M,M,M,M,KQEW 162220Z AUTO 31001KT 1600 // BKN002 19/19 A2986 RMK A02 TSNO
QEP,2020-09-16 22:20,127.2667,37.4000,66.20,64.40,93.92,130.00,4.00,0.00,29.86,M,3.73,M,BKN,M,M,M,600.00,M,M,M,M,M,M,M,M,M,M,M,KQEP 162220Z AUTO 13004KT 6000 BKN006 19/18 A2986 RMK A02 TSNO
QFT,2020-09-16 22:20,127.3500,37.6000,66.20,64.40,93.92,180.00,2.00,0.00,29.82,M,M,M,OVC,M,M,M,600.00,M,M,M,,M,M,M,M,M,M,M,KQFT 162220Z AUTO 18002KT / // OVC006 19/18 A2982 RMK A02 TSNO
QFU,2020-09-16 22:20,126.9667,37.8000,68.00,64.40,88.26,200.00,2.00,0.00,29.87,M,3.73,M,FEW,M,M,M,6500.00,M,M,M,M,M,M,M,M,M,M,M,KQFU 162220Z AUTO 20002KT 6000 FEW065 20/18 A2987 RMK A02 TSNO
QEX,2020-09-16 22:20,128.3000,36.1000,68.00,68.00,100.00,190.00,1.00,0.00,29.80,M,0.99,M,OVC,M,M,M,200.00,M,M,M,,M,M,M,M,M,M,M,KQEX 162220Z AUTO 19001KT 1600 // OVC002 20/20 A2980 RMK A02 TSNO
QFW,2020-09-16 22:20,127.8833,37.6667,M,M,M,200.00,2.00,0.00,M,M,M,M,M,M,M,M,M,M,M,M,M,M,M,M,M,M,M,M,KQFW 162220Z AUTO 20002KT 9000 // BKN003 18/20 / RMK A02 TSNO
QFV,2020-09-16 22:20,127.5000,38.0500,62.60,60.80,93.83,260.00,1.00,0.00,29.86,M,3.73,M,FEW,FEW,BKN,BKN,300.00,2700.00,3200.00,6000.00,,M,M,M,M,M,M,M,KQFV 162220Z AUTO 26001KT 6000 // FEW003 FEW027 BKN032 BKN060 17/16 A2986 RMK A02 TSNO
RKSG,2020-09-16 22:21,127.0311,36.9622,69.80,66.20,88.34,150.00,2.00,0.00,29.85,1010.80,2.50,M,FEW,SCT,BKN,OVC,700.00,900.00,1600.00,3100.00,BR,M,M,M,M,M,M,M,RKSG 162221Z 15002KT 2 1/2SM BR FEW007 SCT009 BKN016 OVC031 21/19 A2985 RMK AO2A SLP108 $
RKTN,2020-09-16 22:22,128.6589,35.8941,M,M,M,M,M,0.00,M,M,M,M,M,M,M,M,M,M,M,M,M,M,M,M,M,M,M,M,RKTN 162222Z 16SPECI
RKTU,2020-09-16 22:22,127.4991,36.7166,M,M,M,M,M,0.00,M,M,M,M,M,M,M,M,M,M,M,M,M,M,M,M,M,M,M,M,RKTU 162222Z 16SPECI
RKTE,2020-09-16 22:24,127.5001,36.5682,68.00,66.20,93.97,190.00,1.00,0.00,29.82,M,0.87,M,SCT,BKN,M,M,500.00,1000.00,M,M,BR,M,M,M,M,M,M,M,RKTE 162224Z 19001KT 1400 R34/P2000 BR SCT005 BKN010 20/19 A2982 RMK CIG010
RKTI,2020-09-16 22:24,127.8853,37.0300,66.20,66.20,100.00,20.00,3.00,0.00,29.85,M,0.75,M,BKN,BKN,M,M,200.00,1000.00,M,M,BR,M,M,M,M,M,M,M,RKTI 162224Z 02003KT 1200 R36/1600 BR BKN002 BKN010 19/19 A2985 RMK CIG002
RKPS,2020-09-16 22:27,128.0704,35.0885,M,M,M,M,M,0.00,M,M,M,M,M,M,M,M,M,M,M,M,M,M,M,M,M,M,M,M,RKPS 162227Z 16SPECI
RKTS,2020-09-16 22:27,128.1572,36.4083,66.20,66.20,100.00,120.00,1.00,0.00,29.88,M,0.25,M,BKN,M,M,M,200.00,M,M,M,FG,M,M,M,M,M,M,M,RKTS 162227Z 12001KT 0400 FG BKN002 19/19 A2988 RMK CIG002
RKJJ,2020-09-16 22:28,126.8089,35.1264,68.00,68.00,100.00,230.00,2.00,0.00,29.87,M,2.98,M,FEW,FEW,OVC,M,500.00,3000.00,10000.00,M,BR,M,M,M,M,M,M,M,RKJJ 162228Z 23002KT 4800 BR FEW005 FEW030 OVC100 20/20 A2987 RMK CIG100
RKTE,2020-09-16 22:30,127.5001,36.5682,68.00,66.20,93.97,190.00,1.00,0.00,29.82,M,0.99,M,SCT,BKN,M,M,500.00,1000.00,M,M,BR,M,M,M,M,M,M,M,RKTE 162230Z 19001KT 1600 BR SCT005 BKN010 20/19 A2982 RMK CIG010
QFB,2020-09-16 22:30,128.7167,35.6500,68.00,68.00,100.00,290.00,5.00,0.00,29.93,M,2.49,M,OVC,M,M,M,200.00,M,M,M,BR,M,M,M,M,M,M,M,KQFB 162230Z AUTO 29005KT 4000 BR OVC002 20/20 A2993 RMK A02 TSNO
QEN,2020-09-16 22:30,128.7500,37.6667,60.80,64.40,M,240.00,9.00,0.00,M,M,6.21,17.00,FEW,OVC,M,M,500.00,18000.00,M,M,M,M,M,M,M,M,M,M,KQEN 162230Z AUTO 24009G17KT 9999 FEW005 OVC180 16/18 / RMK A02 TSNO
QES,2020-09-16 22:30,126.4500,36.9667,80.60,66.20,61.58,M,M,0.00,M,M,6.21,M,OVC,M,M,M,2800.00,M,M,M,M,M,M,M,M,M,M,M,KQES 162230Z AUTO 9999 OVC028 27/19 / RMK A02 TSNO
QEJ,2020-09-16 22:30,127.9500,38.2000,62.60,62.60,100.00,0.00,0.00,0.00,29.82,M,2.49,M,BKN,M,M,M,2300.00,M,M,M,BR,M,M,M,M,M,M,M,KQEJ 162230Z AUTO 00000KT 4000 BR BKN023 17/17 A2982 RMK A02 TSNO
QEI,2020-09-16 22:30,128.0667,37.9500,64.40,62.60,93.88,150.00,1.00,0.00,29.84,M,6.21,M,FEW,M,M,M,4000.00,M,M,M,M,M,M,M,M,M,M,M,KQEI 162230Z AUTO 15001KT 9999 FEW040 18/17 A2984 RMK A02 TSNO
QEQ,2020-09-16 22:30,127.5500,37.8500,66.20,66.20,100.00,190.00,1.00,0.00,29.86,M,6.21,M,FEW,M,M,M,6000.00,M,M,M,M,M,M,M,M,M,M,M,KQEQ 162230Z AUTO 19001KT 9999 FEW060 19/19 A2986 RMK A02 TSNO
QEW,2020-09-16 22:30,128.1500,36.4000,66.20,66.20,100.00,340.00,1.00,0.00,29.86,M,0.99,M,BKN,M,M,M,200.00,M,M,M,,M,M,M,M,M,M,M,KQEW 162230Z AUTO 34001KT 1600 // BKN002 19/19 A2986 RMK A02 TSNO
QEP,2020-09-16 22:30,127.2667,37.4000,68.00,64.40,88.26,130.00,2.00,0.00,29.87,M,2.98,M,BKN,M,M,M,600.00,M,M,M,M,M,M,M,M,M,M,M,KQEP 162230Z AUTO 13002KT 4800 BKN006 20/18 A2987 RMK A02 TSNO
QFT,2020-09-16 22:30,127.3500,37.6000,66.20,64.40,93.92,150.00,1.00,0.00,29.83,M,M,M,OVC,M,M,M,500.00,M,M,M,,M,M,M,M,M,M,M,KQFT 162230Z AUTO 15001KT / // OVC005 19/18 A2983 RMK A02 TSNO
QFU,2020-09-16 22:30,126.9667,37.8000,68.00,62.60,82.86,190.00,2.00,0.00,29.87,M,6.21,M,FEW,M,M,M,23000.00,M,M,M,M,M,M,M,M,M,M,M,KQFU 162230Z AUTO 19002KT 9999 FEW230 20/17 A2987 RMK A02 TSNO
QEX,2020-09-16 22:30,128.3000,36.1000,68.00,68.00,100.00,30.00,1.00,0.00,29.79,M,1.74,M,BKN,M,M,M,200.00,M,M,M,,M,M,M,M,M,M,M,KQEX 162230Z AUTO 03001KT 2800 // BKN002 20/20 A2979 RMK A02 TSNO
QFW,2020-09-16 22:30,127.8833,37.6667,M,M,M,190.00,1.00,0.00,M,M,M,M,M,M,M,M,M,M,M,M,M,M,M,M,M,M,M,M,KQFW 162230Z AUTO 19001KT 9999 // BKN003 18/20 / RMK A02 TSNO
QFV,2020-09-16 22:30,127.5000,38.0500,62.60,60.80,93.83,230.00,1.00,0.00,29.87,M,2.98,M,FEW,BKN,OVC,M,300.00,2900.00,6000.00,M,,M,M,M,M,M,M,M,KQFV 162230Z AUTO 23001KT 4800 // FEW003 BKN029 OVC060 17/16 A2987 RMK A02 TSNO
RKSI,2020-09-16 22:30,126.4500,37.4667,69.80,51.80,52.77,320.00,6.00,0.00,29.83,M,6.21,M,M,M,M,M,M,M,M,M,M,M,M,M,M,M,M,M,RKSI 162230Z 32006KT CAVOK 21/11 Q1010 NOSIG
RKJJ,2020-09-16 22:31,126.8089,35.1264,68.00,68.00,100.00,240.00,2.00,0.00,29.87,M,1.99,M,FEW,FEW,OVC,M,500.00,3000.00,10000.00,M,-RA BR,M,M,M,M,M,M,M,RKJJ 162231Z 24002KT 3200 -RA BR FEW005 FEW030 OVC100 20/20 A2987 RMK CIG100
RKSD,2020-09-16 22:33,127.2667,37.3500,66.20,64.40,93.92,190.00,5.00,0.00,29.84,M,2.98,M,BKN,BKN,M,M,1000.00,20000.00,M,M,BR,M,M,M,M,M,M,M,RKSD 162233Z 19005KT 4800 BR BKN010 BKN200 19/18 A2984 RMK CIG010
RKPS,2020-09-16 22:34,128.0704,35.0885,69.80,69.80,100.00,20.00,2.00,0.00,29.89,M,1.49,M,BKN,BKN,M,M,500.00,1500.00,M,M,-RA BR,M,M,M,M,M,M,M,RKPS 162234Z 02002KT 2400 -RA BR BKN005 BKN015 21/21 A2989 RMK CIG005
RKSF,2020-09-16 22:35,126.9667,37.5333,69.80,66.20,88.34,260.00,7.00,0.00,29.83,M,6.21,M,SCT,OVC,M,M,1500.00,3000.00,M,M,M,M,M,M,M,M,M,M,RKSF 162235Z 26007KT 9999 SCT015 OVC030 21/19 A2983 RMK CIG030
RKPS,2020-09-16 22:35,128.0704,35.0885,69.80,69.80,100.00,340.00,2.00,0.00,29.89,M,0.87,M,FEW,BKN,BKN,M,0.00,300.00,1500.00,M,-RA BR,M,M,M,M,M,M,M,RKPS 162235Z 34002KT 1400 R06/1400 -RA BR FEW000 BKN003 BKN015 21/21 A2989 RMK CIG003 FG FEW000
RKJJ,2020-09-16 22:35,126.8089,35.1264,M,M,M,M,M,0.00,M,M,M,M,M,M,M,M,M,M,M,M,M,M,M,M,M,M,M,M,RKJJ 162235Z 16SPECI
RKJJ,2020-09-16 22:37,126.8089,35.1264,M,M,M,M,M,0.00,M,M,M,M,M,M,M,M,M,M,M,M,M,M,M,M,M,M,M,M,RKJJ 162237Z 16SPECI
RKSY,2020-09-16 22:38,126.9753,37.5241,69.80,66.20,88.34,0.00,0.00,0.00,29.82,1010.10,6.21,M,SCT,OVC,M,M,1200.00,2800.00,M,M,M,M,M,M,M,M,M,M,RKSY 162238Z AUTO 00000KT 9999 SCT012 OVC028 21/19 A2982 RMK AO2 CIG 011V029 SLP101
RKSO,2020-09-16 22:40,127.0296,37.0906,68.00,68.00,100.00,0.00,0.00,0.00,29.83,1010.40,7.00,M,FEW,SCT,M,M,500.00,1000.00,M,M,M,M,M,M,M,M,M,M,RKSO 162240Z AUTO 00000KT 7SM R27/5500FT FEW005 SCT010 20/20 A2983 RMK AO2 LTG DSNT S SLP104 $
QFB,2020-09-16 22:40,128.7167,35.6500,68.00,68.00,100.00,290.00,4.00,0.00,29.93,M,2.98,M,OVC,M,M,M,200.00,M,M,M,BR,M,M,M,M,M,M,M,KQFB 162240Z AUTO 29004KT 4800 BR OVC002 20/20 A2993 RMK A02 TSNO
QEN,2020-09-16 22:40,128.7500,37.6667,60.80,64.40,M,250.00,8.00,0.00,M,M,6.21,18.00,FEW,OVC,M,M,400.00,18000.00,M,M,M,M,M,M,M,M,M,M,KQEN 162240Z AUTO 25008G18KT 9999 FEW004 OVC180 16/18 / RMK A02 TSNO
QES,2020-09-16 22:40,126.4500,36.9667,80.60,66.20,61.58,M,M,0.00,M,M,6.21,M,OVC,M,M,M,2800.00,M,M,M,M,M,M,M,M,M,M,M,KQES 162240Z AUTO 9999 OVC028 27/19 / RMK A02 TSNO
QEJ,2020-09-16 22:40,127.9500,38.2000,62.60,62.60,100.00,10.00,1.00,0.00,29.82,M,2.49,M,BKN,M,M,M,2400.00,M,M,M,BR,M,M,M,M,M,M,M,KQEJ 162240Z AUTO 01001KT 4000 BR BKN024 17/17 A2982 RMK A02 TSNO
QEI,2020-09-16 22:40,128.0667,37.9500,64.40,62.60,93.88,110.00,1.00,0.00,29.83,M,6.21,M,FEW,M,M,M,2000.00,M,M,M,M,M,M,M,M,M,M,M,KQEI 162240Z AUTO 11001KT 9999 FEW020 18/17 A2983 RMK A02 TSNO
QEQ,2020-09-16 22:40,127.5500,37.8500,66.20,64.40,93.92,220.00,3.00,0.00,29.87,M,6.21,M,FEW,M,M,M,6000.00,M,M,M,M,M,M,M,M,M,M,M,KQEQ 162240Z AUTO 22003KT 9999 FEW060 19/18 A2987 RMK A02 TSNO
QEW,2020-09-16 22:40,128.1500,36.4000,66.20,66.20,100.00,0.00,0.00,0.00,29.86,M,1.24,M,OVC,M,M,M,200.00,M,M,M,,M,M,M,M,M,M,M,KQEW 162240Z AUTO 00000KT 2000 // OVC002 19/19 A2986 RMK A02 TSNO
QEP,2020-09-16 22:40,127.2667,37.4000,68.00,64.40,88.26,0.00,0.00,0.00,29.86,M,2.98,M,SCT,SCT,M,M,600.00,3400.00,M,M,M,M,M,M,M,M,M,M,KQEP 162240Z AUTO 00000KT 4800 SCT006 SCT034 20/18 A2986 RMK A02 TSNO
QFT,2020-09-16 22:40,127.3500,37.6000,66.20,64.40,93.92,150.00,1.00,0.00,29.82,M,M,M,OVC,M,M,M,500.00,M,M,M,,M,M,M,M,M,M,M,KQFT 162240Z AUTO 15001KT / // OVC005 19/18 A2982 RMK A02 TSNO
QFU,2020-09-16 22:40,126.9667,37.8000,68.00,62.60,82.86,170.00,2.00,0.00,29.87,M,6.21,M,SCT,M,M,M,4000.00,M,M,M,M,M,M,M,M,M,M,M,KQFU 162240Z AUTO 17002KT 9999 SCT040 20/17 A2987 RMK A02 TSNO
QEX,2020-09-16 22:40,128.3000,36.1000,68.00,68.00,100.00,40.00,2.00,0.00,29.79,M,1.74,M,BKN,M,M,M,200.00,M,M,M,,M,M,M,M,M,M,M,KQEX 162240Z AUTO 04002KT 2800 // BKN002 20/20 A2979 RMK A02 TSNO
QFW,2020-09-16 22:40,127.8833,37.6667,64.40,68.00,M,0.00,0.00,0.00,29.86,M,6.21,M,SCT,M,M,M,400.00,M,M,M,M,M,M,M,M,M,M,M,KQFW 162240Z AUTO 00000KT 9999 SCT004 18/20 A2986 RMK A02 TSNO
QFV,2020-09-16 22:40,127.5000,38.0500,62.60,60.80,93.83,360.00,1.00,0.00,29.87,M,3.73,M,FEW,BKN,BKN,M,400.00,2800.00,6000.00,M,,M,M,M,M,M,M,M,KQFV 162240Z AUTO 36001KT 6000 // FEW004 BKN028 BKN060 17/16 A2987 RMK A02 TSNO
RKPS,2020-09-16 22:41,128.0704,35.0885,M,M,M,M,M,0.00,M,M,M,M,M,M,M,M,M,M,M,M,M,M,M,M,M,M,M,M,RKPS 162241Z 16SPECI
RKPS,2020-09-16 22:42,128.0704,35.0885,M,M,M,M,M,0.00,M,M,M,M,M,M,M,M,M,M,M,M,M,M,M,M,M,M,M,M,RKPS 162242Z 16SPECI
QFB,2020-09-16 22:50,128.7167,35.6500,68.00,68.00,100.00,320.00,2.00,0.00,29.93,M,2.98,M,OVC,M,M,M,200.00,M,M,M,M,M,M,M,M,M,M,M,KQFB 162250Z AUTO 32002KT 4800 OVC002 20/20 A2993 RMK A02 TSNO
QEN,2020-09-16 22:50,128.7500,37.6667,60.80,64.40,M,250.00,8.00,0.00,M,M,6.21,15.00,FEW,BKN,M,M,400.00,18000.00,M,M,M,M,M,M,M,M,M,M,KQEN 162250Z AUTO 25008G15KT 9999 FEW004 BKN180 16/18 / RMK A02 TSNO
QES,2020-09-16 22:50,126.4500,36.9667,80.60,66.20,61.58,M,M,0.00,M,M,6.21,M,BKN,M,M,M,2800.00,M,M,M,M,M,M,M,M,M,M,M,KQES 162250Z AUTO 9999 BKN028 27/19 / RMK A02 TSNO
QEJ,2020-09-16 22:50,127.9500,38.2000,64.40,62.60,93.88,0.00,0.00,0.00,29.82,M,2.49,M,BKN,BKN,M,M,2500.00,24000.00,M,M,BR,M,M,M,M,M,M,M,KQEJ 162250Z AUTO 00000KT 4000 BR BKN025 BKN240 18/17 A2982 RMK A02 TSNO
QEI,2020-09-16 22:50,128.0667,37.9500,64.40,64.40,100.00,140.00,2.00,0.00,29.83,M,6.21,M,FEW,FEW,M,M,2000.00,4500.00,M,M,M,M,M,M,M,M,M,M,KQEI 162250Z AUTO 14002KT 9999 FEW020 FEW045 18/18 A2983 RMK A02 TSNO
QEQ,2020-09-16 22:50,127.5500,37.8500,66.20,64.40,93.92,240.00,3.00,0.00,29.87,M,6.21,M,SCT,M,M,M,6000.00,M,M,M,M,M,M,M,M,M,M,M,KQEQ 162250Z AUTO 24003KT 9999 SCT060 19/18 A2987 RMK A02 TSNO
QEW,2020-09-16 22:50,128.1500,36.4000,66.20,66.20,100.00,30.00,1.00,0.00,29.85,M,1.49,M,BKN,BKN,M,M,200.00,15000.00,M,M,,M,M,M,M,M,M,M,KQEW 162250Z AUTO 03001KT 2400 // BKN002 BKN150 19/19 A2985 RMK A02 TSNO
QEP,2020-09-16 22:50,127.2667,37.4000,68.00,64.40,88.26,170.00,2.00,0.00,29.86,M,2.98,M,FEW,FEW,M,M,1500.00,1700.00,M,M,M,M,M,M,M,M,M,M,KQEP 162250Z AUTO 17002KT 4800 FEW015 FEW017 20/18 A2986 RMK A02 TSNO
QFT,2020-09-16 22:50,127.3500,37.6000,66.20,64.40,93.92,170.00,1.00,0.00,29.83,M,M,M,FEW,OVC,M,M,400.00,1200.00,M,M,,M,M,M,M,M,M,M,KQFT 162250Z AUTO 17001KT / // FEW004 OVC012 19/18 A2983 RMK A02 TSNO
QFU,2020-09-16 22:50,126.9667,37.8000,68.00,60.80,77.75,150.00,2.00,0.00,29.88,M,6.21,M,BKN,M,M,M,4000.00,M,M,M,M,M,M,M,M,M,M,M,KQFU 162250Z AUTO 15002KT 9999 BKN040 20/16 A2988 RMK A02 TSNO
QEX,2020-09-16 22:50,128.3000,36.1000,68.00,68.00,100.00,30.00,2.00,0.00,29.79,M,1.74,M,BKN,M,M,M,300.00,M,M,M,,M,M,M,M,M,M,M,KQEX 162250Z AUTO 03002KT 2800 // BKN003 20/20 A2979 RMK A02 TSNO
QFW,2020-09-16 22:50,127.8833,37.6667,64.40,68.00,M,280.00,1.00,0.00,29.86,M,6.21,M,FEW,SCT,M,M,400.00,18000.00,M,M,M,M,M,M,M,M,M,M,KQFW 162250Z AUTO 28001KT 9999 FEW004 SCT180 18/20 A2986 RMK A02 TSNO
QFV,2020-09-16 22:50,127.5000,38.0500,62.60,60.80,93.83,110.00,2.00,0.00,29.87,M,3.73,M,FEW,BKN,BKN,M,400.00,2700.00,6000.00,M,,M,M,M,M,M,M,M,KQFV 162250Z AUTO 11002KT 6000 // FEW004 BKN027 BKN060 17/16 A2987 RMK A02 TSNO
RKSO,2020-09-16 22:52,127.0296,37.0906,69.80,68.00,94.01,220.00,4.00,0.00,29.83,1010.40,2.00,M,BKN,M,M,M,500.00,M,M,M,M,M,M,M,M,M,M,M,RKSO 162252Z 22004KT 2SM BKN005 21/20 A2983 RMK AO2A SLP104 $
RKJJ,2020-09-16 22:53,126.8089,35.1264,68.00,68.00,100.00,240.00,2.00,0.00,29.87,M,1.99,M,FEW,FEW,OVC,M,500.00,3000.00,10000.00,M,-RA BR,M,M,M,M,M,M,M,RKJJ 162253Z 24002KT 3200 -RA BR FEW005 FEW030 OVC100 20/20 A2987 RMK CIG100
RKJK,2020-09-16 22:56,126.6220,35.8994,70.90,69.10,94.04,150.00,3.00,0.00,29.84,1010.90,8.00,M,OVC,M,M,M,19000.00,M,M,M,M,M,M,M,M,M,M,M,RKJK 162256Z 15003KT 8SM OVC190 22/21 A2984 RMK AO2A SLP109 T02160206 $
RKSG,2020-09-16 22:58,127.0311,36.9622,69.60,66.40,89.57,160.00,2.00,0.00,29.85,1010.70,2.50,M,FEW,BKN,M,M,500.00,1000.00,M,M,BR,M,M,M,M,M,M,M,RKSG 162258Z 16002KT 2 1/2SM BR FEW005 BKN010 21/19 A2985 RMK AO2A TWR VIS 1 1/2 SLP107 T02090191 10208 20203 402490200 51008 RVRNO $
RKSO,2020-09-16 22:58,127.0296,37.0906,69.10,68.70,98.64,210.00,3.00,0.00,29.83,1010.40,2.00,M,BKN,M,M,M,500.00,M,M,M,M,M,M,M,M,M,M,M,RKSO 162258Z 21003KT 2SM BKN005 21/20 A2983 RMK AO2A SLP104 T02060204 $
RKSY,2020-09-16 22:58,126.9753,37.5241,70.30,64.90,83.01,0.00,0.00,0.00,29.82,1010.10,6.21,M,SCT,SCT,M,M,2900.00,21000.00,M,M,M,M,M,M,M,M,M,M,RKSY 162258Z AUTO 00000KT 9999 SCT029 SCT210 21/18 A2982 RMK AO2 SLP101 T02130183
RKPS,2020-09-16 23:00,128.0704,35.0885,69.80,69.80,100.00,40.00,2.00,0.00,29.88,1012.00,1.49,M,BKN,BKN,M,M,500.00,1500.00,M,M,-RA BR,M,M,M,M,M,M,M,RKPS 162300Z 04002KT 2400 -RA BR BKN005 BKN015 21/21 Q1012 RMK CIG005 SLP120 8/700 9/700
RKJB,2020-09-16 23:00,126.3800,34.9800,71.60,71.60,100.00,130.00,2.00,0.00,29.85,M,3.73,M,SCT,BKN,OVC,M,1000.00,2500.00,9000.00,M,-RA,M,M,M,M,M,M,M,RKJB 162300Z 13002KT 6000 -RA SCT010 BKN025 OVC090 22/22 Q1011 NOSIG
RKJJ,2020-09-16 23:00,126.8089,35.1264,69.80,69.80,100.00,260.00,3.00,0.00,29.88,1012.00,1.99,M,FEW,FEW,OVC,M,500.00,3000.00,10000.00,M,-RA BR,M,M,M,M,M,M,M,RKJJ 162300Z 26003KT 3200 -RA BR FEW005 FEW030 OVC100 21/21 Q1012 RMK CIG100 SLP120 8/72/ 9/26/ RWY CHG TO 04 AT 0757
RKPC,2020-09-16 23:00,126.4930,33.5113,71.60,69.80,94.06,120.00,6.00,0.00,29.85,M,3.73,M,FEW,BKN,OVC,M,1000.00,2500.00,8000.00,M,-RA,M,M,M,M,M,M,M,RKPC 162300Z 12006KT 6000 -RA FEW010 BKN025 OVC080 22/21 Q1011 NOSIG
RKNY,2020-09-16 23:00,128.6692,38.0613,69.80,57.20,64.26,260.00,7.00,0.00,29.77,M,6.21,M,M,M,M,M,M,M,M,M,M,M,M,M,M,M,M,M,RKNY 162300Z 26007KT CAVOK 21/14 Q1008 NOSIG
RKSM,2020-09-16 23:00,127.1139,37.4458,69.80,68.00,94.01,200.00,4.00,0.00,29.84,M,2.98,M,FEW,BKN,BKN,M,1000.00,1500.00,20000.00,M,BR,M,M,M,M,M,M,M,RKSM 162300Z 20004KT 4800 BR FEW010 BKN015 BKN200 21/20 A2984
QFB,2020-09-16 23:00,128.7167,35.6500,68.00,68.00,100.00,310.00,2.00,0.00,29.93,M,2.49,M,OVC,M,M,M,200.00,M,M,M,BR,M,M,M,M,M,M,M,KQFB 162300Z AUTO 31002KT 4000 BR OVC002 20/20 A2993 RMK A02 TSNO
RKSS,2020-09-16 23:00,126.7906,37.5583,69.80,59.00,68.55,250.00,5.00,0.00,29.83,M,6.21,M,BKN,OVC,M,M,3500.00,10000.00,M,M,M,M,M,M,M,M,M,M,RKSS 162300Z 25005KT 220V280 9999 BKN035 OVC100 21/15 Q1010 NOSIG
RKTH,2020-09-16 23:00,129.4205,35.9879,73.40,73.40,100.00,260.00,10.00,0.00,29.83,1010.90,3.73,M,FEW,BKN,M,M,3000.00,12000.00,M,M,M,M,M,M,M,M,M,M,RKTH 162300Z 26010KT 6000 FEW030 BKN120 23/23 Q1010 RMK CIG120 SLP109 8/510 9/250
RKTN,2020-09-16 23:00,128.6589,35.8941,71.60,68.00,88.43,320.00,2.00,0.00,29.85,M,2.98,M,BKN,BKN,BKN,M,1000.00,3000.00,15000.00,M,BR,M,M,M,M,M,M,M,RKTN 162300Z 32002KT 4800 BR BKN010 BKN030 BKN150 22/20 Q1011
RKTU,2020-09-16 23:00,127.4991,36.7166,68.00,68.00,100.00,220.00,1.00,0.00,29.85,M,1.99,M,BKN,BKN,M,M,1000.00,20000.00,M,M,BR,M,M,M,M,M,M,M,RKTU 162300Z 22001KT 3200 BR BKN010 BKN200 20/20 Q1011
QEN,2020-09-16 23:00,128.7500,37.6667,60.80,64.40,M,250.00,8.00,0.00,M,M,6.21,13.00,FEW,BKN,M,M,500.00,18000.00,M,M,M,M,M,M,M,M,M,M,KQEN 162300Z AUTO 25008G13KT 9999 FEW005 BKN180 16/18 / RMK A02 TSNO
QES,2020-09-16 23:00,126.4500,36.9667,80.60,66.20,61.58,M,M,0.00,M,M,6.21,M,BKN,M,M,M,2800.00,M,M,M,M,M,M,M,M,M,M,M,KQES 162300Z AUTO 9999 BKN028 27/19 / RMK A02 TSNO
QEJ,2020-09-16 23:00,127.9500,38.2000,64.40,64.40,100.00,0.00,0.00,0.00,29.82,M,2.49,M,BKN,M,M,M,2600.00,M,M,M,BR,M,M,M,M,M,M,M,KQEJ 162300Z AUTO 00000KT 4000 BR BKN026 18/18 A2982 RMK A02 TSNO
QEI,2020-09-16 23:00,128.0667,37.9500,64.40,64.40,100.00,100.00,1.00,0.00,29.84,M,6.21,M,FEW,BKN,M,M,2000.00,3100.00,M,M,M,M,M,M,M,M,M,M,KQEI 162300Z AUTO 10001KT 9999 FEW020 BKN031 18/18 A2984 RMK A02 TSNO
QEQ,2020-09-16 23:00,127.5500,37.8500,66.20,62.60,88.18,240.00,3.00,0.00,29.87,M,6.21,M,BKN,M,M,M,6000.00,M,M,M,M,M,M,M,M,M,M,M,KQEQ 162300Z AUTO 24003KT 9999 BKN060 19/17 A2987 RMK A02 TSNO
QEW,2020-09-16 23:00,128.1500,36.4000,66.20,66.20,100.00,50.00,1.00,0.00,29.85,M,1.99,M,SCT,BKN,M,M,200.00,14000.00,M,M,,M,M,M,M,M,M,M,KQEW 162300Z AUTO 05001KT 3200 // SCT002 BKN140 19/19 A2985 RMK A02 TSNO
QEP,2020-09-16 23:00,127.2667,37.4000,68.00,66.20,93.97,160.00,2.00,0.00,29.86,M,2.98,M,FEW,M,M,M,1300.00,M,M,M,M,M,M,M,M,M,M,M,KQEP 162300Z AUTO 16002KT 4800 FEW013 20/19 A2986 RMK A02 TSNO
RKPK,2020-09-16 23:00,128.9382,35.1795,73.40,68.00,83.21,310.00,4.00,0.00,29.83,M,5.59,M,FEW,BKN,M,M,2000.00,15000.00,M,M,M,M,M,M,M,M,M,M,RKPK 162300Z 31004KT 9000 FEW020 BKN150 23/20 Q1010
QFT,2020-09-16 23:00,127.3500,37.6000,68.00,64.40,88.26,0.00,0.00,0.00,29.82,M,M,M,FEW,OVC,M,M,400.00,900.00,M,M,,M,M,M,M,M,M,M,KQFT 162300Z AUTO 00000KT / // FEW004 OVC009 20/18 A2982 RMK A02 TSNO
QFU,2020-09-16 23:00,126.9667,37.8000,68.00,60.80,77.75,170.00,2.00,0.00,29.88,M,6.21,M,BKN,M,M,M,4000.00,M,M,M,M,M,M,M,M,M,M,M,KQFU 162300Z AUTO 17002KT 9999 BKN040 20/16 A2988 RMK A02 TSNO
QEX,2020-09-16 23:00,128.3000,36.1000,68.00,68.00,100.00,30.00,2.00,0.00,29.80,M,1.74,M,BKN,M,M,M,200.00,M,M,M,,M,M,M,M,M,M,M,KQEX 162300Z AUTO 03002KT 2800 // BKN002 20/20 A2980 RMK A02 TSNO
QFW,2020-09-16 23:00,127.8833,37.6667,64.40,68.00,M,280.00,2.00,0.00,29.86,M,6.21,M,FEW,FEW,M,M,400.00,18000.00,M,M,M,M,M,M,M,M,M,M,KQFW 162300Z AUTO 28002KT 9999 FEW004 FEW180 18/20 A2986 RMK A02 TSNO
QFV,2020-09-16 23:00,127.5000,38.0500,62.60,60.80,93.83,70.00,1.00,0.00,29.87,M,3.73,M,FEW,BKN,M,M,400.00,2700.00,M,M,,M,M,M,M,M,M,M,KQFV 162300Z AUTO 07001KT 6000 // FEW004 BKN027 17/16 A2987 RMK A02 TSNO
RKSI,2020-09-16 23:00,126.4500,37.4667,69.80,51.80,52.77,310.00,5.00,0.00,29.83,M,6.21,M,M,M,M,M,M,M,M,M,M,M,M,M,M,M,M,M,RKSI 162300Z 31005KT CAVOK 21/11 Q1010 NOSIG
QFB,2020-09-16 23:10,128.7167,35.6500,69.80,68.00,94.01,290.00,1.00,0.00,29.92,M,3.73,M,OVC,M,M,M,300.00,M,M,M,M,M,M,M,M,M,M,M,KQFB 162310Z AUTO 29001KT 6000 OVC003 21/20 A2992 RMK A02 TSNO
QEN,2020-09-16 23:10,128.7500,37.6667,60.80,64.40,M,250.00,8.00,0.00,M,M,6.21,17.00,FEW,SCT,BKN,M,400.00,13000.00,18000.00,M,M,M,M,M,M,M,M,M,KQEN 162310Z AUTO 25008G17KT 9999 FEW004 SCT130 BKN180 16/18 / RMK A02 TSNO
QES,2020-09-16 23:10,126.4500,36.9667,80.60,66.20,61.58,M,M,0.00,M,M,6.21,M,BKN,M,M,M,3100.00,M,M,M,M,M,M,M,M,M,M,M,KQES 162310Z AUTO 9999 BKN031 27/19 / RMK A02 TSNO
QEJ,2020-09-16 23:10,127.9500,38.2000,64.40,64.40,100.00,200.00,1.00,0.00,29.83,M,2.98,M,BKN,M,M,M,2800.00,M,M,M,M,M,M,M,M,M,M,M,KQEJ 162310Z AUTO 20001KT 4800 BKN028 18/18 A2983 RMK A02 TSNO
QEI,2020-09-16 23:10,128.0667,37.9500,66.20,62.60,88.18,120.00,1.00,0.00,29.84,M,6.21,M,BKN,M,M,M,3100.00,M,M,M,M,M,M,M,M,M,M,M,KQEI 162310Z AUTO 12001KT 9999 BKN031 19/17 A2984 RMK A02 TSNO
QEQ,2020-09-16 23:10,127.5500,37.8500,66.20,62.60,88.18,230.00,2.00,0.00,29.87,M,6.21,M,BKN,M,M,M,6000.00,M,M,M,M,M,M,M,M,M,M,M,KQEQ 162310Z AUTO 23002KT 9999 BKN060 19/17 A2987 RMK A02 TSNO
QEW,2020-09-16 23:10,128.1500,36.4000,66.20,66.20,100.00,100.00,1.00,0.00,29.85,M,2.49,M,FEW,BKN,M,M,200.00,15000.00,M,M,,M,M,M,M,M,M,M,KQEW 162310Z AUTO 10001KT 4000 // FEW002 BKN150 19/19 A2985 RMK A02 TSNO
QEP,2020-09-16 23:10,127.2667,37.4000,68.00,66.20,93.97,160.00,2.00,0.00,29.87,M,2.98,M,SCT,M,M,M,1600.00,M,M,M,M,M,M,M,M,M,M,M,KQEP 162310Z AUTO 16002KT 4800 SCT016 20/19 A2987 RMK A02 TSNO
QFT,2020-09-16 23:10,127.3500,37.6000,68.00,66.20,93.97,160.00,1.00,0.00,29.82,M,M,M,OVC,M,M,M,900.00,M,M,M,,M,M,M,M,M,M,M,KQFT 162310Z AUTO 16001KT / // OVC009 20/19 A2982 RMK A02 TSNO
QFU,2020-09-16 23:10,126.9667,37.8000,68.00,60.80,77.75,190.00,1.00,0.00,29.88,M,6.21,M,SCT,SCT,M,M,4100.00,22000.00,M,M,M,M,M,M,M,M,M,M,KQFU 162310Z AUTO 19001KT 9999 SCT041 SCT220 20/16 A2988 RMK A02 TSNO
QEX,2020-09-16 23:10,128.3000,36.1000,68.00,68.00,100.00,190.00,2.00,0.00,29.80,M,1.74,M,BKN,M,M,M,300.00,M,M,M,,M,M,M,M,M,M,M,KQEX 162310Z AUTO 19002KT 2800 // BKN003 20/20 A2980 RMK A02 TSNO
QFW,2020-09-16 23:10,127.8833,37.6667,64.40,68.00,M,230.00,2.00,0.00,29.86,M,6.21,M,FEW,SCT,M,M,1500.00,17000.00,M,M,M,M,M,M,M,M,M,M,KQFW 162310Z AUTO 23002KT 9999 FEW015 SCT170 18/20 A2986 RMK A02 TSNO
QFV,2020-09-16 23:10,127.5000,38.0500,62.60,60.80,93.83,100.00,2.00,0.00,29.87,M,4.97,M,FEW,BKN,M,M,400.00,2200.00,M,M,,M,M,M,M,M,M,M,KQFV 162310Z AUTO 10002KT 8000 // FEW004 BKN022 17/16 A2987 RMK A02 TSNO
RKSW,2020-09-16 23:15,127.0071,37.2394,69.80,68.00,94.01,230.00,1.00,0.00,29.86,M,1.99,M,OVC,M,M,M,300.00,M,M,M,-DZ BR,M,M,M,M,M,M,M,RKSW 162315Z 23001KT 3200 -DZ BR OVC003 21/20 A2986 RMK CIG003
RKJJ,2020-09-16 23:17,126.8089,35.1264,M,M,M,M,M,0.00,M,M,M,M,M,M,M,M,M,M,M,M,M,M,M,M,M,M,M,M,RKJJ 162317Z KT RMK WR24
RKNW,2020-09-16 23:18,127.9467,37.3375,68.00,66.20,93.97,220.00,1.00,0.00,29.85,M,3.73,M,FEW,BKN,BKN,M,1000.00,2000.00,2500.00,M,BR,M,M,M,M,M,M,M,RKNW 162318Z 22001KT 6000 BR FEW010 BKN020 BKN025 20/19 A2985 RMK CIG020
RKSO,2020-09-16 23:18,127.0296,37.0906,69.80,69.80,100.00,200.00,5.00,0.00,29.83,1010.40,7.00,M,SCT,M,M,M,500.00,M,M,M,M,M,M,M,M,M,M,M,RKSO 162318Z AUTO 20005KT 7SM R27/5500FT SCT005 21/21 A2983 RMK AO2 SLP104 $
QFB,2020-09-16 23:20,128.7167,35.6500,69.80,68.00,94.01,20.00,1.00,0.00,29.92,M,5.59,M,BKN,BKN,M,M,600.00,9000.00,M,M,M,M,M,M,M,M,M,M,KQFB 162320Z AUTO 02001KT 9000 BKN006 BKN090 21/20 A2992 RMK A02 TSNO
QEN,2020-09-16 23:20,128.7500,37.6667,60.80,64.40,M,260.00,10.00,0.00,M,M,6.21,16.00,FEW,SCT,BKN,M,400.00,13000.00,18000.00,M,M,M,M,M,M,M,M,M,KQEN 162320Z AUTO 26010G16KT 9999 FEW004 SCT130 BKN180 16/18 / RMK A02 TSNO
QES,2020-09-16 23:20,126.4500,36.9667,80.60,66.20,61.58,M,M,0.00,M,M,6.21,M,BKN,M,M,M,3200.00,M,M,M,M,M,M,M,M,M,M,M,KQES 162320Z AUTO 9999 BKN032 27/19 / RMK A02 TSNO
QEJ,2020-09-16 23:20,127.9500,38.2000,64.40,64.40,100.00,150.00,1.00,0.00,29.83,M,3.73,M,BKN,M,M,M,2800.00,M,M,M,M,M,M,M,M,M,M,M,KQEJ 162320Z AUTO 15001KT 6000 BKN028 18/18 A2983 RMK A02 TSNO
QEI,2020-09-16 23:20,128.0667,37.9500,66.20,62.60,88.18,200.00,2.00,0.00,29.84,M,6.21,M,BKN,M,M,M,3200.00,M,M,M,M,M,M,M,M,M,M,M,KQEI 162320Z AUTO 20002KT 9999 BKN032 19/17 A2984 RMK A02 TSNO
QEQ,2020-09-16 23:20,127.5500,37.8500,66.20,62.60,88.18,270.00,2.00,0.00,29.87,M,6.21,M,BKN,M,M,M,5500.00,M,M,M,M,M,M,M,M,M,M,M,KQEQ 162320Z AUTO 27002KT 9999 BKN055 19/17 A2987 RMK A02 TSNO
QEW,2020-09-16 23:20,128.1500,36.4000,66.20,66.20,100.00,0.00,0.00,0.00,29.86,M,1.99,M,BKN,BKN,M,M,200.00,15000.00,M,M,,M,M,M,M,M,M,M,KQEW 162320Z AUTO 00000KT 3200 // BKN002 BKN150 19/19 A2986 RMK A02 TSNO
QEP,2020-09-16 23:20,127.2667,37.4000,68.00,66.20,93.97,150.00,2.00,0.00,29.86,M,2.98,M,SCT,BKN,M,M,1600.00,3100.00,M,M,M,M,M,M,M,M,M,M,KQEP 162320Z AUTO 15002KT 4800 SCT016 BKN031 20/19 A2986 RMK A02 TSNO
QFT,2020-09-16 23:20,127.3500,37.6000,68.00,66.20,93.97,170.00,1.00,0.00,29.83,M,M,M,BKN,M,M,M,1000.00,M,M,M,,M,M,M,M,M,M,M,KQFT 162320Z AUTO 17001KT / // BKN010 20/19 A2983 RMK A02 TSNO
QFU,2020-09-16 23:20,126.9667,37.8000,68.00,60.80,77.75,180.00,1.00,0.00,29.88,M,6.21,M,FEW,FEW,M,M,4200.00,22000.00,M,M,M,M,M,M,M,M,M,M,KQFU 162320Z AUTO 18001KT 9999 FEW042 FEW220 20/16 A2988 RMK A02 TSNO
QEX,2020-09-16 23:20,128.3000,36.1000,69.80,68.00,94.01,140.00,1.00,0.00,29.79,M,1.99,M,BKN,M,M,M,300.00,M,M,M,,M,M,M,M,M,M,M,KQEX 162320Z AUTO 14001KT 3200 // BKN003 21/20 A2979 RMK A02 TSNO
QFW,2020-09-16 23:20,127.8833,37.6667,66.20,68.00,M,250.00,1.00,0.00,29.86,M,3.73,M,FEW,SCT,M,M,500.00,17000.00,M,M,,M,M,M,M,M,M,M,KQFW 162320Z AUTO 25001KT 6000 // FEW005 SCT170 19/20 A2986 RMK A02 TSNO
QFV,2020-09-16 23:20,127.5000,38.0500,62.60,62.60,100.00,130.00,1.00,0.00,29.87,M,3.73,M,FEW,BKN,M,M,400.00,2200.00,M,M,,M,M,M,M,M,M,M,KQFV 162320Z AUTO 13001KT 6000 // FEW004 BKN022 17/17 A2987 RMK A02 TSNO
RKTN,2020-09-16 23:25,128.6589,35.8941,71.60,68.00,88.43,330.00,3.00,0.00,29.85,M,2.98,M,SCT,SCT,OVC,M,1000.00,3000.00,16000.00,M,BR,M,M,M,M,M,M,M,RKTN 162325Z 33003KT 4800 BR SCT010 SCT030 OVC160 22/20 Q1011 RMK CIG160
RKSV,2020-09-16 23:26,126.3817,37.7786,M,M,M,50.00,2.00,0.00,29.84,M,M,M,M,M,M,M,M,M,M,M,M,M,M,M,M,M,M,M,RKSV 162326Z 05002KT 000 FG VV000 19/19 A2984 RMK CIG000
RKTN,2020-09-16 23:27,128.6589,35.8941,71.60,68.00,88.43,330.00,3.00,0.00,29.87,M,2.98,M,SCT,SCT,OVC,M,1000.00,3000.00,16000.00,M,BR,M,M,M,M,M,M,M,RKTN 162327Z 33003KT 4800 BR SCT010 SCT030 OVC160 22/20 A2987 RMK CIG160
QFB,2020-09-16 23:30,128.7167,35.6500,69.80,68.00,94.01,100.00,1.00,0.00,29.93,M,4.97,M,SCT,BKN,M,M,600.00,9000.00,M,M,M,M,M,M,M,M,M,M,KQFB 162330Z AUTO 10001KT 8000 SCT006 BKN090 21/20 A2993 RMK A02 TSNO
QEN,2020-09-16 23:30,128.7500,37.6667,60.80,64.40,M,250.00,8.00,0.00,M,M,6.21,17.00,FEW,SCT,SCT,M,400.00,13000.00,18000.00,M,M,M,M,M,M,M,M,M,KQEN 162330Z AUTO 25008G17KT 9999 FEW004 SCT130 SCT180 16/18 / RMK A02 TSNO
QES,2020-09-16 23:30,126.4500,36.9667,80.60,66.20,61.58,M,M,0.00,M,M,6.21,M,OVC,M,M,M,3300.00,M,M,M,M,M,M,M,M,M,M,M,KQES 162330Z AUTO 9999 OVC033 27/19 / RMK A02 TSNO
QEJ,2020-09-16 23:30,127.9500,38.2000,66.20,64.40,93.92,160.00,1.00,0.00,29.83,M,6.21,M,BKN,M,M,M,2600.00,M,M,M,M,M,M,M,M,M,M,M,KQEJ 162330Z AUTO 16001KT 9999 BKN026 19/18 A2983 RMK A02 TSNO
QEI,2020-09-16 23:30,128.0667,37.9500,66.20,62.60,88.18,160.00,3.00,0.00,29.84,M,6.21,M,BKN,M,M,M,2900.00,M,M,M,M,M,M,M,M,M,M,M,KQEI 162330Z AUTO 16003KT 9999 BKN029 19/17 A2984 RMK A02 TSNO
QEQ,2020-09-16 23:30,127.5500,37.8500,66.20,62.60,88.18,240.00,3.00,0.00,29.87,M,6.21,M,BKN,M,M,M,5500.00,M,M,M,M,M,M,M,M,M,M,M,KQEQ 162330Z AUTO 24003KT 9999 BKN055 19/17 A2987 RMK A02 TSNO
QEW,2020-09-16 23:30,128.1500,36.4000,68.00,66.20,93.97,280.00,1.00,0.00,29.86,M,1.99,M,BKN,BKN,M,M,200.00,15000.00,M,M,,M,M,M,M,M,M,M,KQEW 162330Z AUTO 28001KT 3200 // BKN002 BKN150 20/19 A2986 RMK A02 TSNO
QEP,2020-09-16 23:30,127.2667,37.4000,68.00,66.20,93.97,150.00,2.00,0.00,29.86,M,2.98,M,FEW,BKN,M,M,700.00,1500.00,M,M,M,M,M,M,M,M,M,M,KQEP 162330Z AUTO 15002KT 4800 FEW007 BKN015 20/19 A2986 RMK A02 TSNO
QFT,2020-09-16 23:30,127.3500,37.6000,68.00,66.20,93.97,180.00,3.00,0.00,29.83,M,M,M,BKN,M,M,M,1300.00,M,M,M,,M,M,M,M,M,M,M,KQFT 162330Z AUTO 18003KT / // BKN013 20/19 A2983 RMK A02 TSNO
QFU,2020-09-16 23:30,126.9667,37.8000,68.00,60.80,77.75,160.00,2.00,0.00,29.88,M,6.21,M,SCT,SCT,M,M,5500.00,23000.00,M,M,M,M,M,M,M,M,M,M,KQFU 162330Z AUTO 16002KT 9999 SCT055 SCT230 20/16 A2988 RMK A02 TSNO
QEX,2020-09-16 23:30,128.3000,36.1000,69.80,68.00,94.01,220.00,1.00,0.00,29.79,M,2.49,M,BKN,BKN,M,M,400.00,13000.00,M,M,,M,M,M,M,M,M,M,KQEX 162330Z AUTO 22001KT 4000 // BKN004 BKN130 21/20 A2979 RMK A02 TSNO
QFW,2020-09-16 23:30,127.8833,37.6667,66.20,68.00,M,210.00,1.00,0.00,29.86,M,3.73,M,FEW,SCT,SCT,M,500.00,2000.00,17000.00,M,,M,M,M,M,M,M,M,KQFW 162330Z AUTO 21001KT 6000 // FEW005 SCT020 SCT170 19/20 A2986 RMK A02 TSNO
QFV,2020-09-16 23:30,127.5000,38.0500,64.40,62.60,93.88,120.00,1.00,0.00,29.87,M,3.73,M,BKN,M,M,M,2200.00,M,M,M,,M,M,M,M,M,M,M,KQFV 162330Z AUTO 12001KT 6000 // BKN022 18/17 A2987 RMK A02 TSNO
RKSI,2020-09-16 23:30,126.4500,37.4667,71.60,51.80,49.64,300.00,4.00,0.00,29.83,M,6.21,M,M,M,M,M,M,M,M,M,M,M,M,M,M,M,M,M,RKSI 162330Z 30004KT CAVOK 22/11 Q1010 NOSIG
RKTU,2020-09-16 23:31,127.4991,36.7166,69.80,69.80,100.00,40.00,1.00,0.00,29.85,M,2.98,M,BKN,BKN,M,M,1000.00,20000.00,M,M,BR,M,M,M,M,M,M,M,RKTU 162331Z 04001KT 4800 BR BKN010 BKN200 21/21 Q1011 RMK CIG010
RKTY,2020-09-16 23:31,128.3548,36.6319,66.20,66.20,100.00,0.00,0.00,0.00,29.87,M,0.50,M,FEW,BKN,M,M,0.00,200.00,M,M,FG,M,M,M,M,M,M,M,RKTY 162331Z 00000KT 0800 R28/1100 FG FEW000 BKN002 19/19 A2987 RMK CIG002 FG FEW000
RKPK,2020-09-16 23:31,128.9382,35.1795,73.40,68.00,83.21,340.00,5.00,0.00,29.85,M,4.97,M,FEW,BKN,M,M,2000.00,12000.00,M,M,-RA,M,M,M,M,M,M,M,RKPK 162331Z 34005KT 8000 -RA FEW020 BKN120 23/20 Q1011 RMK CIG120
RKTU,2020-09-16 23:32,127.4991,36.7166,69.80,69.80,100.00,40.00,1.00,0.00,29.86,M,2.98,M,BKN,BKN,M,M,1000.00,20000.00,M,M,BR,M,M,M,M,M,M,M,RKTU 162332Z 04001KT 4800 BR BKN010 BKN200 21/21 A2986 RMK CIG010
RKPK,2020-09-16 23:32,128.9382,35.1795,73.40,68.00,83.21,340.00,5.00,0.00,29.86,M,4.97,M,FEW,BKN,M,M,2000.00,12000.00,M,M,-RA BR,M,M,M,M,M,M,M,RKPK 162332Z 34005KT 8000 -RA BR FEW020 BKN120 23/20 A2986 RMK CIG120
RKSO,2020-09-16 23:33,127.0296,37.0906,69.80,69.80,100.00,240.00,5.00,0.00,29.83,1010.40,3.00,M,BKN,M,M,M,500.00,M,M,M,M,M,M,M,M,M,M,M,RKSO 162333Z 24005KT 3SM BKN005 21/21 A2983 RMK AO2A SLP104
RKSW,2020-09-16 23:34,127.0071,37.2394,69.80,68.00,94.01,220.00,2.00,0.00,29.86,M,1.99,M,BKN,OVC,M,M,500.00,1000.00,M,M,-DZ BR,M,M,M,M,M,M,M,RKSW 162334Z 22002KT 3200 -DZ BR BKN005 OVC010 21/20 A2986 RMK CIG005
RKTN,2020-09-16 23:34,128.6589,35.8941,M,M,M,M,M,0.00,M,M,M,M,M,M,M,M,M,M,M,M,M,M,M,M,M,M,M,M,RKTN 162334Z 16SPECI
RKTU,2020-09-16 23:37,127.4991,36.7166,M,M,M,M,M,0.00,M,M,M,M,M,M,M,M,M,M,M,M,M,M,M,M,M,M,M,M,RKTU 162337Z 16SPECI
RKPK,2020-09-16 23:37,128.9382,35.1795,M,M,M,M,M,0.00,M,M,M,M,M,M,M,M,M,M,M,M,M,M,M,M,M,M,M,M,RKPK 162337Z 16SPECI
RKSW,2020-09-16 23:39,127.0071,37.2394,69.80,68.00,94.01,230.00,3.00,0.00,29.86,M,1.99,M,BKN,OVC,M,M,1000.00,2000.00,M,M,BR,M,M,M,M,M,M,M,RKSW 162339Z 23003KT 3200 BR BKN010 OVC020 21/20 A2986 RMK CIG010
QFB,2020-09-16 23:40,128.7167,35.6500,69.80,68.00,94.01,70.00,1.00,0.00,29.93,M,5.59,M,FEW,SCT,BKN,M,400.00,600.00,9000.00,M,M,M,M,M,M,M,M,M,KQFB 162340Z AUTO 07001KT 9000 FEW004 SCT006 BKN090 21/20 A2993 RMK A02 TSNO
QEN,2020-09-16 23:40,128.7500,37.6667,60.80,64.40,M,250.00,8.00,0.00,M,M,6.21,16.00,SCT,M,M,M,400.00,M,M,M,M,M,M,M,M,M,M,M,KQEN 162340Z AUTO 25008G16KT 9999 SCT004 16/18 / RMK A02 TSNO
QES,2020-09-16 23:40,126.4500,36.9667,80.60,66.20,61.58,M,M,0.00,M,M,6.21,M,OVC,M,M,M,3300.00,M,M,M,M,M,M,M,M,M,M,M,KQES 162340Z AUTO 9999 OVC033 27/19 / RMK A02 TSNO
QEJ,2020-09-16 23:40,127.9500,38.2000,66.20,64.40,93.92,190.00,2.00,0.00,29.83,M,6.21,M,BKN,M,M,M,2600.00,M,M,M,M,M,M,M,M,M,M,M,KQEJ 162340Z AUTO 19002KT 9999 BKN026 19/18 A2983 RMK A02 TSNO
QEI,2020-09-16 23:40,128.0667,37.9500,66.20,62.60,88.18,230.00,3.00,0.00,29.84,M,6.21,M,BKN,M,M,M,2900.00,M,M,M,M,M,M,M,M,M,M,M,KQEI 162340Z AUTO 23003KT 9999 BKN029 19/17 A2984 RMK A02 TSNO
QEQ,2020-09-16 23:40,127.5500,37.8500,68.00,62.60,82.86,250.00,1.00,0.00,29.87,M,6.21,M,BKN,M,M,M,5500.00,M,M,M,M,M,M,M,M,M,M,M,KQEQ 162340Z AUTO 25001KT 9999 BKN055 20/17 A2987 RMK A02 TSNO
QEW,2020-09-16 23:40,128.1500,36.4000,68.00,66.20,93.97,80.00,1.00,0.00,29.86,M,2.98,M,SCT,BKN,BKN,M,200.00,400.00,15000.00,M,,M,M,M,M,M,M,M,KQEW 162340Z AUTO 08001KT 4800 // SCT002 BKN004 BKN150 20/19 A2986 RMK A02 TSNO
QEP,2020-09-16 23:40,127.2667,37.4000,68.00,66.20,93.97,140.00,2.00,0.00,29.87,M,2.98,M,FEW,SCT,M,M,700.00,1500.00,M,M,M,M,M,M,M,M,M,M,KQEP 162340Z AUTO 14002KT 4800 FEW007 SCT015 20/19 A2987 RMK A02 TSNO
QFT,2020-09-16 23:40,127.3500,37.6000,68.00,66.20,93.97,150.00,2.00,0.00,29.83,M,M,M,BKN,M,M,M,1400.00,M,M,M,,M,M,M,M,M,M,M,KQFT 162340Z AUTO 15002KT / // BKN014 20/19 A2983 RMK A02 TSNO
QFU,2020-09-16 23:40,126.9667,37.8000,68.00,60.80,77.75,170.00,1.00,0.00,29.88,M,6.21,M,SCT,SCT,M,M,5500.00,23000.00,M,M,M,M,M,M,M,M,M,M,KQFU 162340Z AUTO 17001KT 9999 SCT055 SCT230 20/16 A2988 RMK A02 TSNO
QEX,2020-09-16 23:40,128.3000,36.1000,69.80,68.00,94.01,160.00,2.00,0.00,29.79,M,2.49,M,BKN,M,M,M,600.00,M,M,M,,M,M,M,M,M,M,M,KQEX 162340Z AUTO 16002KT 4000 // BKN006 21/20 A2979 RMK A02 TSNO
QFW,2020-09-16 23:40,127.8833,37.6667,66.20,68.00,M,330.00,1.00,0.00,29.87,M,4.97,M,FEW,M,M,M,500.00,M,M,M,,M,M,M,M,M,M,M,KQFW 162340Z AUTO 33001KT 8000 // FEW005 19/20 A2987 RMK A02 TSNO
QFV,2020-09-16 23:40,127.5000,38.0500,62.60,60.80,93.83,100.00,2.00,0.00,29.87,M,3.73,M,BKN,M,M,M,2500.00,M,M,M,,M,M,M,M,M,M,M,KQFV 162340Z AUTO 10002KT 6000 // BKN025 17/16 A2987 RMK A02 TSNO
RKTU,2020-09-16 23:41,127.4991,36.7166,69.80,69.80,100.00,250.00,1.00,0.00,29.85,M,3.73,M,FEW,BKN,BKN,M,1000.00,1500.00,20000.00,M,M,M,M,M,M,M,M,M,RKTU 162341Z 25001KT 6000 FEW010 BKN015 BKN200 21/21 Q1011 RMK CIG015
RKTU,2020-09-16 23:42,127.4991,36.7166,69.80,69.80,100.00,250.00,1.00,0.00,29.86,M,3.73,M,FEW,BKN,BKN,M,1000.00,1500.00,20000.00,M,BR,M,M,M,M,M,M,M,RKTU 162342Z 25001KT 6000 BR FEW010 BKN015 BKN200 21/21 A2986 RMK CIG015
RKTY,2020-09-16 23:44,128.3548,36.6319,66.20,66.20,100.00,0.00,0.00,0.00,29.87,M,0.75,M,FEW,BKN,M,M,0.00,200.00,M,M,BR,M,M,M,M,M,M,M,RKTY 162344Z 00000KT 1200 R28/1100 BR FEW000 BKN002 19/19 A2987 RMK CIG002 FG FEW000
RKTU,2020-09-16 23:49,127.4991,36.7166,M,M,M,M,M,0.00,M,M,M,M,M,M,M,M,M,M,M,M,M,M,M,M,M,M,M,M,RKTU 162349Z 16SPECI
QFB,2020-09-16 23:50,128.7167,35.6500,69.80,68.00,94.01,70.00,1.00,0.00,29.93,M,6.21,M,FEW,SCT,BKN,M,500.00,7000.00,11000.00,M,M,M,M,M,M,M,M,M,KQFB 162350Z AUTO 07001KT 9999 FEW005 SCT070 BKN110 21/20 A2993 RMK A02 TSNO
QEN,2020-09-16 23:50,128.7500,37.6667,60.80,64.40,M,250.00,9.00,0.00,M,M,6.21,15.00,FEW,BKN,M,M,400.00,17000.00,M,M,M,M,M,M,M,M,M,M,KQEN 162350Z AUTO 25009G15KT 9999 FEW004 BKN170 16/18 / RMK A02 TSNO
QES,2020-09-16 23:50,126.4500,36.9667,80.60,66.20,61.58,M,M,0.00,M,M,6.21,M,BKN,M,M,M,3400.00,M,M,M,M,M,M,M,M,M,M,M,KQES 162350Z AUTO 9999 BKN034 27/19 / RMK A02 TSNO
QEJ,2020-09-16 23:50,127.9500,38.2000,66.20,64.40,93.92,220.00,1.00,0.00,29.83,M,6.21,M,BKN,M,M,M,2600.00,M,M,M,M,M,M,M,M,M,M,M,KQEJ 162350Z AUTO 22001KT 9999 BKN026 19/18 A2983 RMK A02 TSNO
QEI,2020-09-16 23:50,128.0667,37.9500,66.20,62.60,88.18,220.00,4.00,0.00,29.84,M,6.21,M,BKN,M,M,M,2900.00,M,M,M,M,M,M,M,M,M,M,M,KQEI 162350Z AUTO 22004KT 9999 BKN029 19/17 A2984 RMK A02 TSNO
QEQ,2020-09-16 23:50,127.5500,37.8500,68.00,62.60,82.86,260.00,2.00,0.00,29.87,M,6.21,M,SCT,BKN,M,M,5500.00,22000.00,M,M,M,M,M,M,M,M,M,M,KQEQ 162350Z AUTO 26002KT 9999 SCT055 BKN220 20/17 A2987 RMK A02 TSNO
QEW,2020-09-16 23:50,128.1500,36.4000,68.00,66.20,93.97,60.00,1.00,0.00,29.86,M,2.98,M,FEW,BKN,BKN,M,200.00,300.00,15000.00,M,,M,M,M,M,M,M,M,KQEW 162350Z AUTO 06001KT 4800 // FEW002 BKN003 BKN150 20/19 A2986 RMK A02 TSNO
QEP,2020-09-16 23:50,127.2667,37.4000,69.80,66.20,88.34,160.00,1.00,0.00,29.86,M,2.98,M,FEW,FEW,SCT,M,700.00,1400.00,6500.00,M,M,M,M,M,M,M,M,M,KQEP 162350Z AUTO 16001KT 4800 FEW007 FEW014 SCT065 21/19 A2986 RMK A02 TSNO
QFT,2020-09-16 23:50,127.3500,37.6000,68.00,66.20,93.97,200.00,1.00,0.00,29.83,M,M,M,BKN,M,M,M,1400.00,M,M,M,,M,M,M,M,M,M,M,KQFT 162350Z AUTO 20001KT / // BKN014 20/19 A2983 RMK A02 TSNO
QFU,2020-09-16 23:50,126.9667,37.8000,68.00,59.00,72.92,160.00,3.00,0.00,29.89,M,6.21,M,SCT,BKN,M,M,5500.00,22000.00,M,M,M,M,M,M,M,M,M,M,KQFU 162350Z AUTO 16003KT 9999 SCT055 BKN220 20/15 A2989 RMK A02 TSNO
QEX,2020-09-16 23:50,128.3000,36.1000,69.80,68.00,94.01,160.00,2.00,0.00,29.79,M,2.49,M,BKN,M,M,M,600.00,M,M,M,,M,M,M,M,M,M,M,KQEX 162350Z AUTO 16002KT 4000 // BKN006 21/20 A2979 RMK A02 TSNO
QFW,2020-09-16 23:50,127.8833,37.6667,66.20,68.00,M,290.00,1.00,0.00,29.87,M,6.21,M,FEW,SCT,M,M,500.00,2100.00,M,M,M,M,M,M,M,M,M,M,KQFW 162350Z AUTO 29001KT 9999 FEW005 SCT021 19/20 A2987 RMK A02 TSNO
QFV,2020-09-16 23:50,127.5000,38.0500,64.40,62.60,93.88,100.00,3.00,0.00,29.88,M,4.97,M,BKN,M,M,M,3400.00,M,M,M,,M,M,M,M,M,M,M,KQFV 162350Z AUTO 10003KT 8000 // BKN034 18/17 A2988 RMK A02 TSNO
RKNW,2020-09-16 23:51,127.9467,37.3375,68.00,66.20,93.97,270.00,1.00,0.00,29.86,M,4.97,M,FEW,SCT,BKN,M,1000.00,3000.00,18000.00,M,BR,M,M,M,M,M,M,M,RKNW 162351Z 27001KT 8000 BR FEW010 SCT030 BKN180 20/19 A2986 RMK CIG180
RKJK,2020-09-16 23:56,126.6220,35.8994,71.20,68.70,91.82,190.00,3.00,0.00,29.85,1011.20,8.00,M,OVC,M,M,M,17000.00,M,M,M,M,M,M,M,M,M,M,M,RKJK 162356Z 19003KT 8SM OVC170 22/20 A2985 RMK AO2A SLP112 70007 T02180204 10218 20200 52006 $
RKSG,2020-09-16 23:56,127.0311,36.9622,69.80,66.20,88.34,0.00,0.00,0.00,29.86,1010.90,2.50,M,FEW,BKN,M,M,500.00,1000.00,M,M,BR,M,M,M,M,M,M,M,RKSG 162356Z 00000KT 2 1/2SM BR FEW005 BKN010 21/19 A2986 RMK AO2A SLP109 RVRNO $
RKSO,2020-09-16 23:58,127.0296,37.0906,69.60,69.30,98.98,210.00,6.00,0.00,29.83,1010.40,3.00,M,BKN,BKN,M,M,600.00,1700.00,M,M,BR,M,M,M,M,M,M,M,RKSO 162358Z 21006KT 3SM BR BKN006 BKN017 21/21 A2983 RMK AO2A SLP104 T02090207 10210 20193 52005 $
RKSY,2020-09-16 23:58,126.9753,37.5241,71.20,53.60,53.76,320.00,3.00,0.00,29.82,1010.10,6.21,M,BKN,M,M,M,3500.00,M,M,M,M,M,M,M,M,M,M,M,RKSY 162358Z AUTO 32003KT 9999 BKN035 22/12 A2982 RMK AO2 SLP101 T02180120 10218 20197 51008
