station,valid,lon,lat,tmpf,dwpf,relh,drct,sknt,p01i,alti,mslp,vsby,gust,skyc1,skyc2,skyc3,skyc4,skyl1,skyl2,skyl3,skyl4,wxcodes,ice_accretion_1hr,ice_accretion_3hr,ice_accretion_6hr,peak_wind_gust,peak_wind_drct,peak_wind_time,feel,metar
RJSC,2020-09-16 00:00,140.3711,38.4119,71.60,68.00,88.43,210.00,3.00,0.00,29.97,M,6.21,M,FEW,BKN,M,M,1000.00,M,M,M,M,M,M,M,M,M,M,M,RJSC 160000Z 21003KT 130V290 9999 FEW010 BKN/// 22/20 Q1015
RJSD,2020-09-16 00:00,138.4139,38.0602,77.00,68.00,73.78,70.00,4.00,0.00,29.94,M,6.21,M,FEW,SCT,M,M,4800.00,20000.00,M,M,M,M,M,M,M,M,M,M,RJSD 160000Z AUTO 07004KT 010V120 9999 FEW048 SCT200 25/20 Q1014
RJSF,2020-09-16 00:00,140.4281,37.2275,68.00,64.40,88.26,330.00,4.00,0.00,30.00,M,6.21,M,FEW,SCT,BKN,M,700.00,800.00,900.00,M,M,M,M,M,M,M,M,M,RJSF 160000Z 33004KT 280V030 9999 FEW007 SCT008 BKN009 20/18 Q1016
RJFR,2020-09-16 00:00,131.0350,33.8456,77.00,69.80,78.48,M,3.00,0.00,29.85,M,6.21,M,FEW,BKN,BKN,M,1300.00,4000.00,10000.00,M,M,M,M,M,M,M,M,M,RJFR 160000Z VRB03KT 9999 FEW013 BKN040 BKN100 25/21 Q1011
RJSR,2020-09-16 00:00,140.3714,40.1919,71.60,66.20,83.09,40.00,3.00,0.00,29.97,M,6.21,M,FEW,SCT,M,M,3000.00,6000.00,M,M,M,M,M,M,M,M,M,M,RJSR 160000Z 04003KT 330V090 9999 FEW030 SCT060 22/19 Q1015
RJSI,2020-09-16 00:00,141.1353,39.4286,69.80,64.40,82.98,M,2.00,0.00,30.00,M,6.21,M,FEW,SCT,M,M,1000.00,2000.00,M,M,M,M,M,M,M,M,M,M,RJSI 160000Z VRB02KT 9999 FEW010 SCT020 21/18 Q1016
RJSM,2020-09-16 00:00,141.3684,40.7032,73.40,64.40,73.44,130.00,5.00,0.00,29.97,M,6.21,M,FEW,SCT,M,M,500.00,10000.00,M,M,M,M,M,M,M,M,M,M,RJSM 160000Z 13005KT 9999 FEW005 SCT100 23/18 Q1015
RJAA,2020-09-16 00:00,140.3856,35.7653,75.20,69.80,83.32,40.00,8.00,0.00,29.97,M,6.21,M,FEW,BKN,M,M,1200.00,M,M,M,M,M,M,M,M,M,M,M,RJAA 160000Z 04008KT 9999 FEW012 BKN/// 24/21 Q1015 NOSIG RMK 2CU012 A2998
RJAF,2020-09-16 00:00,137.9228,36.1667,68.00,59.00,72.92,M,2.00,0.00,30.03,M,6.21,M,FEW,BKN,M,M,2500.00,18000.00,M,M,M,M,M,M,M,M,M,M,RJAF 160000Z VRB02KT 9999 FEW025 BKN180 20/15 Q1017
RJAH,2020-09-16 00:00,140.4147,36.1817,75.20,66.20,73.61,60.00,8.00,0.00,29.97,M,6.21,M,FEW,BKN,M,M,2000.00,25000.00,M,M,M,M,M,M,M,M,M,M,RJAH 160000Z 06008KT 030V100 9999 FEW020 BKN250 24/19 Q1015
RJBT,2020-09-16 00:00,134.7869,35.5128,73.40,68.00,83.21,210.00,4.00,0.00,29.91,M,6.21,M,FEW,SCT,BKN,M,4000.00,8000.00,15000.00,M,M,M,M,M,M,M,M,M,RJBT 160000Z 21004KT 150V250 9999 FEW040 SCT080 BKN150 23/20 Q1013
RJCB,2020-09-16 00:00,143.2172,42.7333,60.80,60.80,100.00,360.00,4.00,0.00,30.06,M,1.99,M,FEW,BKN,BKN,M,200.00,300.00,400.00,M,-SHRA BR,M,M,M,M,M,M,M,RJCB 160000Z 36004KT 3200 -SHRA BR FEW002 BKN003 BKN004 16/16 Q1018
RJCC,2020-09-16 00:00,141.6926,42.7742,71.60,66.20,83.09,140.00,17.00,0.00,29.97,M,6.21,M,FEW,SCT,BKN,M,600.00,1500.00,2500.00,M,VCSH,M,M,M,M,M,M,M,RJCC 160000Z 14017KT 9999 VCSH FEW006 SCT015 BKN025 22/19 Q1015 RMK 1ST006 3ST015 6CU025 A2997 SH S
RJCH,2020-09-16 00:00,140.8219,41.7700,69.80,66.20,88.34,330.00,4.00,0.00,29.97,M,6.21,M,FEW,SCT,BKN,M,700.00,1500.00,2000.00,M,M,M,M,M,M,M,M,M,RJCH 160000Z 33004KT 300V030 9999 FEW007 SCT015 BKN020 21/19 Q1015
RJCK,2020-09-16 00:00,144.1931,43.0408,64.40,62.60,93.88,0.00,0.00,0.00,30.06,M,3.11,M,FEW,SCT,BKN,M,200.00,400.00,500.00,M,BR,M,M,M,M,M,M,M,RJCK 160000Z 00000KT 5000 BR FEW002 SCT004 BKN005 18/17 Q1018
RJCM,2020-09-16 00:00,144.1642,43.8806,64.40,59.00,82.62,210.00,4.00,0.00,30.03,M,6.21,M,FEW,SCT,BKN,M,800.00,3000.00,11000.00,M,-SHRA,M,M,M,M,M,M,M,RJCM 160000Z 21004KT 9999 -SHRA FEW008 SCT030 BKN110 18/15 Q1017
RJCN,2020-09-16 00:00,144.9600,43.5775,64.40,62.60,93.88,180.00,7.00,0.00,30.06,M,4.97,M,FEW,SCT,BKN,M,400.00,600.00,800.00,M,-SHRA,M,M,M,M,M,M,M,RJCN 160000Z 18007KT 140V210 8000 -SHRA FEW004 SCT006 BKN008 18/17 Q1018
RJCO,2020-09-16 00:00,141.3814,43.1175,68.00,66.20,93.97,140.00,12.00,0.00,29.97,M,6.21,M,FEW,SCT,BKN,M,1000.00,4000.00,10000.00,M,M,M,M,M,M,M,M,M,RJCO 160000Z 14012KT 9999 FEW010 SCT040 BKN100 20/19 Q1015
RJCW,2020-09-16 00:00,141.8022,45.4044,69.80,62.60,77.90,180.00,8.00,0.00,29.91,M,6.21,M,FEW,SCT,BKN,M,2000.00,4000.00,8000.00,M,M,M,M,M,M,M,M,M,RJCW 160000Z 18008KT 9999 FEW020 SCT040 BKN080 21/17 Q1013
RJDT,2020-09-16 00:00,129.3306,34.2850,71.60,69.80,94.06,M,1.00,0.00,29.85,M,6.21,M,FEW,SCT,BKN,M,1000.00,2500.00,3000.00,M,M,M,M,M,M,M,M,M,RJDT 160000Z VRB01KT 9999 FEW010 SCT025 BKN030 22/21 Q1011
RJEB,2020-09-16 00:00,143.4040,44.3039,66.20,64.40,93.92,M,2.00,0.00,29.97,M,6.21,M,FEW,BKN,M,M,4000.00,8000.00,M,M,M,M,M,M,M,M,M,M,RJEB 160000Z VRB02KT 9999 FEW040 BKN080 19/18 Q1015
RJEC,2020-09-16 00:00,142.4475,43.6708,68.00,55.40,64.04,150.00,13.00,0.00,29.97,M,6.21,M,FEW,SCT,BKN,M,3000.00,5000.00,12000.00,M,M,M,M,M,M,M,M,M,RJEC 160000Z 15013KT 9999 FEW030 SCT050 BKN120 20/13 Q1015
RJFE,2020-09-16 00:00,128.8328,32.6664,71.60,69.80,94.06,30.00,3.00,0.00,29.85,M,6.21,M,FEW,SCT,BKN,M,1000.00,6000.00,8000.00,M,M,M,M,M,M,M,M,M,RJFE 160000Z 03003KT 9999 FEW010 SCT060 BKN080 22/21 Q1011
RJFF,2020-09-16 00:00,130.4517,33.5844,73.40,71.60,94.10,160.00,7.00,0.00,29.85,M,6.21,M,FEW,SCT,BKN,M,1000.00,3000.00,4000.00,M,VCSH,M,M,M,M,M,M,M,RJFF 160000Z 16007KT 9999 VCSH FEW010 SCT030 BKN040 23/22 Q1011 NOSIG RMK 1CU010 3CU030 5CU040 A2988
RJFK,2020-09-16 00:00,130.7194,31.8033,71.60,71.60,100.00,50.00,2.00,0.00,29.91,M,1.86,M,FEW,SCT,BKN,M,200.00,1200.00,3000.00,M,-SHRA BCFG BR,M,M,M,M,M,M,M,RJFK 160000Z 05002KT 3000 -SHRA BCFG BR FEW002 SCT012 BKN030 22/22 Q1013 RMK 1ST002 3CU012 5CU030 A2992 8000SE-SW FG N-NE
RJFM,2020-09-16 00:00,131.4486,31.8772,73.40,71.60,94.10,M,2.00,0.00,29.88,M,5.59,M,FEW,BKN,BKN,M,500.00,800.00,1500.00,M,-SHRA,M,M,M,M,M,M,M,RJFM 160000Z VRB02KT 9000 -SHRA FEW005 BKN008 BKN015 23/22 Q1012
RJFO,2020-09-16 00:00,131.7372,33.4794,75.20,69.80,83.32,140.00,13.00,0.00,29.88,M,6.21,M,FEW,SCT,BKN,M,500.00,800.00,1500.00,M,M,M,M,M,M,M,M,M,RJFO 160000Z 14013KT 9999 FEW005 SCT008 BKN015 24/21 Q1012
RJAW,2020-09-16 00:00,141.3227,24.7840,86.00,78.80,79.18,130.00,8.00,0.00,29.94,M,6.21,M,FEW,M,M,M,1500.00,M,M,M,M,M,M,M,M,M,M,99.38,RJAW 160000Z 13008KT 100V160 9999 FEW015 30/26 Q1014 RMK 2CU015 A2995
RJBB,2020-09-16 00:00,135.2328,34.4342,77.00,66.20,69.33,90.00,5.00,0.00,29.91,M,6.21,M,FEW,SCT,BKN,M,2500.00,10000.00,14000.00,M,M,M,M,M,M,M,M,M,RJBB 160000Z 09005KT 9999 FEW025 SCT100 BKN140 25/19 Q1013 NOSIG
RJBE,2020-09-16 00:00,135.2239,34.6328,77.00,66.20,69.33,50.00,10.00,0.00,29.91,M,6.21,M,FEW,SCT,BKN,M,3000.00,9000.00,13000.00,M,M,M,M,M,M,M,M,M,RJBE 160000Z 05010KT 9999 FEW030 SCT090 BKN130 25/19 Q1013
RJNK,2020-09-16 00:00,136.4075,36.3939,75.20,66.20,73.61,M,2.00,0.00,29.91,M,6.21,M,SCT,BKN,BKN,M,15000.00,18000.00,25000.00,M,M,M,M,M,M,M,M,M,RJNK 160000Z VRB02KT 9999 SCT150 BKN180 BKN250 24/19 Q1013
RJNT,2020-09-16 00:00,137.1875,36.6483,73.40,66.20,78.19,M,2.00,0.00,29.91,M,6.21,M,FEW,SCT,BKN,M,2000.00,17000.00,M,M,M,M,M,M,M,M,M,M,RJNT 160000Z VRB02KT 9999 FEW020 SCT170 BKN/// 23/19 Q1013
RJNW,2020-09-16 00:00,136.9618,37.2931,73.40,64.40,73.44,M,2.00,0.00,29.94,M,6.21,M,FEW,BKN,BKN,M,1000.00,18000.00,M,M,M,M,M,M,M,M,M,M,RJNW 160000Z VRB02KT 9999 FEW010 BKN180 BKN/// 23/18 Q1014
RJOA,2020-09-16 00:00,132.9194,34.4361,71.60,66.20,83.09,70.00,5.00,0.00,29.91,M,6.21,M,FEW,BKN,BKN,M,1500.00,6000.00,8000.00,M,M,M,M,M,M,M,M,M,RJOA 160000Z 07005KT 9999 FEW015 BKN060 BKN080 22/19 Q1013
RJOB,2020-09-16 00:00,133.8553,34.7569,73.40,64.40,73.44,30.00,4.00,0.00,29.91,M,6.21,M,FEW,BKN,M,M,2000.00,12000.00,M,M,M,M,M,M,M,M,M,M,RJOB 160000Z 03004KT 350V080 9999 FEW020 BKN120 23/18 Q1013
RJOC,2020-09-16 00:00,132.8900,35.4136,73.40,68.00,83.21,M,2.00,0.00,29.85,M,6.21,M,FEW,BKN,M,M,3000.00,9000.00,M,M,M,M,M,M,M,M,M,M,RJOC 160000Z VRB02KT 9999 FEW030 BKN090 23/20 Q1011
RJOH,2020-09-16 00:00,133.2392,35.4933,77.00,66.20,69.33,M,2.00,0.00,29.88,M,6.21,M,FEW,SCT,BKN,M,5000.00,7000.00,15000.00,M,M,M,M,M,M,M,M,M,RJOH 160000Z VRB02KT 9999 FEW050 SCT070 BKN150 25/19 Q1012
RJKA,2020-09-16 00:00,129.7125,28.4308,84.20,78.80,83.88,180.00,6.00,0.00,29.85,M,6.21,M,FEW,SCT,M,M,1500.00,M,M,M,M,M,M,M,M,M,M,96.10,RJKA 160000Z 18006KT 150V210 9999 FEW015 SCT/// 29/26 Q1011
RJOK,2020-09-16 00:00,133.6694,33.5461,75.20,69.80,83.32,130.00,10.00,0.00,29.91,M,6.21,M,FEW,BKN,BKN,M,1000.00,3000.00,7000.00,M,-SHRA,M,M,M,M,M,M,M,RJOK 160000Z 13010KT 9999 -SHRA FEW010 BKN030 BKN070 24/21 Q1013
RJFU,2020-09-16 00:00,129.9136,32.9169,75.20,71.60,88.59,110.00,3.00,0.00,29.85,M,6.21,M,FEW,SCT,BKN,M,500.00,1000.00,5000.00,M,M,M,M,M,M,M,M,M,RJFU 160000Z 11003KT 9999 FEW005 SCT010 BKN050 24/22 Q1011
RJGG,2020-09-16 00:00,136.8054,34.8584,77.00,68.00,73.78,M,2.00,0.00,29.91,M,6.21,M,FEW,SCT,BKN,M,1400.00,10000.00,15000.00,M,M,M,M,M,M,M,M,M,RJGG 160000Z VRB02KT 9999 FEW014 SCT100 BKN150 25/20 Q1013 NOSIG
RJKI,2020-09-16 00:00,129.9281,28.3213,86.00,80.60,83.99,250.00,7.00,0.00,29.88,M,6.21,M,NCD,M,M,M,M,M,M,M,M,M,M,M,M,M,M,101.90,RJKI 160000Z AUTO 25007KT 9999 NCD 30/27 Q1012
ROIG,2020-09-16 00:00,124.1633,24.3367,86.00,80.60,83.99,170.00,9.00,0.00,29.85,M,6.21,M,FEW,M,M,M,1400.00,M,M,M,M,M,M,M,M,M,M,101.90,ROIG 160000Z 17009KT 9999 FEW014 30/27 Q1011
ROMD,2020-09-16 00:00,131.2286,25.8289,86.00,77.00,74.61,150.00,6.00,0.00,29.91,M,6.21,M,NCD,M,M,M,M,M,M,M,M,M,M,M,M,M,M,97.15,ROMD 160000Z AUTO 15006KT 120V190 9999 NCD 30/25 Q1013
ROMY,2020-09-16 00:00,125.2767,24.7933,86.00,78.80,79.18,160.00,9.00,0.00,29.85,M,6.21,M,SCT,SCT,M,M,1500.00,M,M,M,M,M,M,M,M,M,M,99.38,ROMY 160000Z 16009KT 9999 SCT015 SCT/// 30/26 Q1011
RORY,2020-09-16 00:00,128.4020,27.0440,84.20,78.80,83.88,200.00,4.00,0.00,29.88,M,6.21,M,NCD,M,M,M,M,M,M,M,M,M,M,M,M,M,M,96.10,RORY 160000Z AUTO 20004KT 150V260 9999 NCD 29/26 Q1012
RJDC,2020-09-16 00:00,131.2786,33.9300,78.80,73.40,83.55,120.00,11.00,0.00,29.85,M,6.21,M,FEW,SCT,BKN,M,1000.00,4500.00,8000.00,M,M,M,M,M,M,M,M,M,RJDC 160000Z 12011KT 9999 FEW010 SCT045 BKN080 26/23 Q1011
RJOM,2020-09-16 00:00,132.6997,33.8272,78.80,69.80,73.95,110.00,4.00,0.00,29.88,M,6.21,M,FEW,SCT,BKN,M,2000.00,7000.00,11000.00,M,M,M,M,M,M,M,M,M,RJOM 160000Z 11004KT 070V150 9999 FEW020 SCT070 BKN110 26/21 Q1012
RJFS,2020-09-16 00:00,130.3000,33.1500,75.20,73.40,94.14,M,1.00,0.00,29.85,M,1.24,M,FEW,BKN,BKN,M,500.00,700.00,1000.00,M,-SHRA BR,M,M,M,M,M,M,M,RJFS 160000Z VRB01KT 2000 -SHRA BR FEW005 BKN007 BKN010 24/23 Q1011
RJFT,2020-09-16 00:00,130.8553,32.8372,73.40,71.60,94.10,140.00,4.00,0.00,29.88,M,1.86,M,FEW,BKN,BKN,M,100.00,1500.00,3500.00,M,-RA BR,M,M,M,M,M,M,M,RJFT 160000Z 14004KT 110V180 3000 -RA BR FEW001 BKN015 BKN035 23/22 Q1012
RJOT,2020-09-16 00:00,134.0167,34.2167,73.40,68.00,83.21,0.00,0.00,0.00,29.91,M,6.21,M,FEW,SCT,BKN,M,1500.00,8000.00,10000.00,M,M,M,M,M,M,M,M,M,RJOT 160000Z 00000KT 9999 FEW015 SCT080 BKN100 23/20 Q1013
RJSK,2020-09-16 00:00,140.2167,39.6167,73.40,66.20,78.19,150.00,4.00,0.00,29.97,M,6.21,M,FEW,SCT,M,M,2500.00,M,M,M,M,M,M,M,M,M,M,M,RJSK 160000Z 15004KT 110V210 9999 FEW025 SCT/// 23/19 Q1015
RJOO,2020-09-16 00:00,135.4392,34.7844,77.00,68.00,73.78,70.00,5.00,0.00,29.91,M,6.21,M,FEW,SCT,BKN,M,2500.00,8000.00,9000.00,M,M,M,M,M,M,M,M,M,RJOO 160000Z 07005KT 030V110 9999 FEW025 SCT080 BKN090 25/20 Q1013
RJOR,2020-09-16 00:00,134.1650,35.5300,77.00,64.40,65.12,160.00,5.00,0.00,29.88,M,6.21,M,FEW,BKN,M,M,6000.00,15000.00,M,M,M,M,M,M,M,M,M,M,RJOR 160000Z 16005KT 130V210 9999 FEW060 BKN150 25/18 Q1012
RJOW,2020-09-16 00:00,131.7903,34.6764,77.00,68.00,73.78,160.00,7.00,0.00,29.85,M,6.21,M,M,M,M,M,M,M,M,M,M,M,M,M,M,M,M,M,RJOW 160000Z 16007KT CAVOK 25/20 Q1011
RJOY,2020-09-16 00:00,135.6006,34.5967,78.80,68.00,69.52,160.00,3.00,0.00,29.91,M,6.21,M,FEW,SCT,BKN,M,3000.00,8000.00,15000.00,M,M,M,M,M,M,M,M,M,RJOY 160000Z 16003KT 090V240 9999 FEW030 SCT080 BKN150 26/20 Q1013
RJSA,2020-09-16 00:00,140.6886,40.7333,73.40,62.60,68.94,M,2.00,0.00,29.97,M,6.21,M,FEW,BKN,M,M,4000.00,10000.00,M,M,M,M,M,M,M,M,M,M,RJSA 160000Z VRB02KT 9999 FEW040 BKN100 23/17 Q1015
RJSN,2020-09-16 00:00,139.1117,37.9558,77.00,69.80,78.48,M,2.00,0.00,29.94,M,6.21,M,FEW,BKN,M,M,2000.00,M,M,M,M,M,M,M,M,M,M,M,RJSN 160000Z VRB02KT 9999 FEW020 BKN/// 25/21 Q1014
RJSS,2020-09-16 00:00,140.9169,38.1397,73.40,64.40,73.44,M,3.00,0.00,29.97,M,6.21,M,FEW,SCT,BKN,M,800.00,2500.00,M,M,M,M,M,M,M,M,M,M,RJSS 160000Z VRB03KT 9999 FEW008 SCT025 BKN/// 23/18 Q1015
RJTF,2020-09-16 00:00,139.5281,35.6717,75.20,66.20,73.61,350.00,3.00,0.00,29.97,M,6.21,M,SCT,BKN,M,M,2000.00,4500.00,M,M,M,M,M,M,M,M,M,M,RJTF 160000Z 35003KT 310V030 9999 SCT020 BKN045 24/19 Q1015
RJTO,2020-09-16 00:00,139.3603,34.7819,75.20,73.40,94.14,40.00,9.00,0.00,29.94,M,6.21,M,FEW,SCT,BKN,M,500.00,4500.00,11000.00,M,M,M,M,M,M,M,M,M,RJTO 160000Z 04009KT 9999 FEW005 SCT045 BKN110 24/23 Q1014
RJTT,2020-09-16 00:00,139.7811,35.5533,73.40,68.00,83.21,20.00,7.00,0.00,29.97,M,6.21,M,FEW,BKN,M,M,1500.00,9000.00,M,M,M,M,M,M,M,M,M,M,RJTT 160000Z 02007KT 9999 FEW015 BKN090 23/20 Q1015 NOSIG
RORS,2020-09-16 00:00,125.1447,24.8267,86.00,80.60,83.99,170.00,9.00,0.00,29.85,M,6.21,M,SCT,BKN,M,M,1600.00,M,M,M,M,M,M,M,M,M,M,101.90,RORS 160000Z 17009KT 9999 SCT016 BKN/// 30/27 Q1011
RJNS,2020-09-16 00:00,138.1894,34.7961,73.40,71.60,94.10,20.00,3.00,0.00,29.94,M,6.21,M,FEW,BKN,BKN,M,1500.00,18000.00,M,M,M,M,M,M,M,M,M,M,RJNS 160000Z 02003KT 290V070 9999 FEW015 BKN180 BKN/// 23/22 Q1014
RJBD,2020-09-16 00:00,135.3644,33.6622,77.00,69.80,78.48,100.00,3.00,0.00,29.91,M,6.21,M,FEW,SCT,BKN,M,2000.00,3500.00,9000.00,M,M,M,M,M,M,M,M,M,RJBD 160000Z 10003KT 070V130 9999 FEW020 SCT035 BKN090 25/21 Q1013
RJFG,2020-09-16 00:00,130.9917,30.6050,78.80,77.00,94.23,260.00,3.00,0.00,29.91,M,6.21,M,FEW,BKN,M,M,800.00,M,M,M,M,M,M,M,M,M,M,M,RJFG 160000Z 26003KT 210V290 9999 FEW008 BKN/// 26/25 Q1013
RJTI,2020-09-16 00:00,139.8500,35.6300,75.20,68.00,78.34,20.00,4.00,0.00,29.97,M,6.21,M,FEW,BKN,M,M,1500.00,9000.00,M,M,M,M,M,M,M,M,M,M,RJTI 160000Z 02004KT 320V080 9999 FEW015 BKN090 24/20 Q1015
RJOS,2020-09-16 00:00,134.6092,34.1322,75.20,66.20,73.61,270.00,2.00,0.00,29.91,M,6.21,M,FEW,SCT,BKN,M,1500.00,8000.00,10000.00,M,M,M,M,M,M,M,M,M,RJOS 160000Z 27002KT 9999 FEW015 SCT080 BKN100 24/19 Q1013
RJSY,2020-09-16 00:00,139.7872,38.8122,75.20,66.20,73.61,90.00,9.00,0.00,29.94,M,6.21,M,FEW,BKN,M,M,2000.00,M,M,M,M,M,M,M,M,M,M,M,RJSY 160000Z 09009KT 9999 FEW020 BKN/// 24/19 Q1014
RORK,2020-09-16 00:00,131.3333,25.9167,87.80,75.20,66.35,160.00,8.00,0.00,29.91,M,6.21,M,NCD,M,M,M,M,M,M,M,M,M,M,M,M,M,M,97.76,RORK 160000Z AUTO 16008KT 9999 NCD 31/24 Q1013
ROYN,2020-09-16 00:00,122.9780,24.4670,86.00,80.60,83.99,190.00,11.00,0.00,29.83,M,6.21,M,FEW,M,M,M,2900.00,M,M,M,M,M,M,M,M,M,M,101.90,ROYN 160000Z AUTO 19011KT 9999 FEW029 30/27 Q1010
ROAH,2020-09-16 00:00,127.6458,26.1958,86.00,80.60,83.99,200.00,7.00,0.00,29.88,M,6.21,M,FEW,M,M,M,1300.00,M,M,M,VCSH,M,M,M,M,M,M,101.90,ROAH 160000Z 20007KT 9999 VCSH FEW013 30/27 Q1012
RJNG,2020-09-16 00:07,136.8694,35.3944,75.20,64.40,69.14,M,1.00,0.00,29.94,M,6.21,M,BKN,SCT,BKN,M,2500.00,4500.00,15000.00,M,M,M,M,M,M,M,M,M,RJNG 160007Z VRB01KT 9999 BKN025 SCT045 BKN150 24/18 Q1014 RMK 5CU025 3SC045 5AC150 A2996
RJTY,2020-09-16 00:09,139.3485,35.7485,69.80,69.80,100.00,20.00,5.00,0.00,30.03,1016.80,10.00,M,SCT,BKN,M,M,1500.00,2700.00,M,M,M,M,M,M,M,M,M,M,RJTY 160009Z AUTO 02005KT 10SM SCT015 BKN027 21/21 A3003 RMK AO2 DZE09 CIG 015V027 CIG 021 RWY18 SLP168 FZRANO $
RJSF,2020-09-16 00:10,140.4281,37.2275,68.00,64.40,88.26,350.00,3.00,0.00,30.00,M,6.21,M,FEW,SCT,BKN,M,800.00,900.00,1000.00,M,M,M,M,M,M,M,M,M,RJSF 160010Z 35003KT 310V020 9999 FEW008 SCT009 BKN010 20/18 Q1016 RMK 1ST008 3ST009 5ST010 A3003
RJOF,2020-09-16 00:12,131.5464,34.0344,73.40,71.60,94.10,M,2.00,0.00,29.85,M,6.21,M,FEW,SCT,BKN,M,500.00,1500.00,2500.00,M,M,M,M,M,M,M,M,M,RJOF 160012Z VRB02KT 9999 FEW005 SCT015 BKN025 23/22 Q1011 RERA RMK 1ST005 3CU015 6CU025 A2988
RJCB,2020-09-16 00:20,143.2172,42.7333,60.80,60.80,100.00,330.00,3.00,0.00,30.06,M,2.80,M,SCT,BKN,M,M,300.00,400.00,M,M,-SHRA BR,M,M,M,M,M,M,M,RJCB 160020Z 33003KT 300V360 4500 -SHRA BR SCT003 BKN004 16/16 Q1018 RMK 4ST003 7ST004 A3007
RJFT,2020-09-16 00:20,130.8553,32.8372,73.40,71.60,94.10,M,2.00,0.00,29.88,M,3.11,M,FEW,SCT,BKN,M,100.00,2000.00,4500.00,M,-RA BR,M,M,M,M,M,M,M,RJFT 160020Z VRB02KT 5000 -RA BR FEW001 SCT020 BKN045 23/22 Q1012 RMK 1ST001 3ST020 7SC045 A2991
RJCK,2020-09-16 00:21,144.1931,43.0408,66.20,64.40,93.92,M,1.00,0.00,30.06,M,4.97,M,FEW,SCT,BKN,M,300.00,500.00,600.00,M,-SHRA,M,M,M,M,M,M,M,RJCK 160021Z VRB01KT 8000 -SHRA FEW003 SCT005 BKN006 19/18 Q1018 RMK 1ST003 4ST005 6ST006 A3007
RJFM,2020-09-16 00:24,131.4486,31.8772,73.40,71.60,94.10,20.00,4.00,0.00,29.88,M,2.49,M,FEW,BKN,BKN,M,200.00,600.00,1000.00,M,-SHRA BR,M,M,M,M,M,M,M,RJFM 160024Z 02004KT 4000 -SHRA BR FEW002 BKN006 BKN010 23/22 Q1012 RMK 2ST002 5ST006 6ST010 A2990
RJTY,2020-09-16 00:25,139.3485,35.7485,69.80,68.00,94.01,360.00,4.00,0.00,30.03,1016.80,10.00,M,FEW,M,M,M,2700.00,M,M,M,M,M,M,M,M,M,M,M,RJTY 160025Z AUTO 36004KT 10SM FEW027 21/20 A3003 RMK AO2 DZE09 SLP168 FZRANO $
RODN,2020-09-16 00:26,127.7676,26.3556,84.20,77.00,79.04,130.00,6.00,0.00,29.90,1013.00,10.00,M,SCT,BKN,BKN,M,1700.00,2700.00,4400.00,M,M,M,M,M,M,M,M,94.16,RODN 160026Z AUTO 13006KT 10SM SCT017 BKN027 BKN044 29/25 A2990 RMK AO2 CIG 018V027 SLP130 $
RJNG,2020-09-16 00:28,136.8694,35.3944,75.20,66.20,73.61,M,1.00,0.00,29.94,M,6.21,M,FEW,SCT,BKN,M,2500.00,4500.00,10000.00,M,M,M,M,M,M,M,M,M,RJNG 160028Z VRB01KT 9999 FEW025 SCT045 BKN100 24/19 Q1014 RMK 2CU025 3SC045 5AC100 A2996
RJCB,2020-09-16 00:29,143.2172,42.7333,60.80,60.80,100.00,330.00,3.00,0.00,30.06,M,1.93,M,BKN,BKN,M,M,300.00,400.00,M,M,-SHRA BR,M,M,M,M,M,M,M,RJCB 160029Z 33003KT 300V360 3100 R35/1400VP2000D -SHRA BR BKN003 BKN004 16/16 Q1018 RMK 5ST003 7ST004 A3006
RJAA,2020-09-16 00:30,140.3856,35.7653,77.00,71.60,83.44,20.00,7.00,0.00,29.97,M,6.21,M,FEW,SCT,BKN,M,1000.00,1400.00,M,M,M,M,M,M,M,M,M,M,RJAA 160030Z 02007KT 9999 FEW010 SCT014 BKN/// 25/22 Q1015 NOSIG
RJCC,2020-09-16 00:30,141.6926,42.7742,71.60,68.00,88.43,140.00,14.00,0.00,29.97,M,6.21,M,FEW,SCT,BKN,M,600.00,1500.00,3000.00,M,-SHRA,M,M,M,M,M,M,M,RJCC 160030Z 14014KT 9999 -SHRA FEW006 SCT015 BKN030 22/20 Q1015
RJFF,2020-09-16 00:30,130.4517,33.5844,73.40,71.60,94.10,150.00,6.00,0.00,29.85,M,3.73,M,FEW,SCT,BKN,M,1000.00,3500.00,4000.00,M,-SHRA,M,M,M,M,M,M,M,RJFF 160030Z 15006KT 6000 -SHRA FEW010 SCT035 BKN040 23/22 Q1011 NOSIG
RJBB,2020-09-16 00:30,135.2328,34.4342,78.80,66.20,65.33,90.00,3.00,0.00,29.91,M,6.21,M,FEW,SCT,BKN,M,2500.00,8000.00,12000.00,M,M,M,M,M,M,M,M,M,RJBB 160030Z 09003KT 030V120 9999 FEW025 SCT080 BKN120 26/19 Q1013 NOSIG
RJGG,2020-09-16 00:30,136.8054,34.8584,77.00,68.00,73.78,M,1.00,0.00,29.91,M,6.21,M,FEW,SCT,BKN,M,1300.00,10000.00,14000.00,M,M,M,M,M,M,M,M,M,RJGG 160030Z VRB01KT 9999 FEW013 SCT100 BKN140 25/20 Q1013 BECMG 15005KT
RJTT,2020-09-16 00:30,139.7811,35.5533,75.20,68.00,78.34,30.00,7.00,0.00,29.94,M,6.21,M,FEW,BKN,M,M,1500.00,8000.00,M,M,M,M,M,M,M,M,M,M,RJTT 160030Z 03007KT 9999 FEW015 BKN080 24/20 Q1014 NOSIG
ROAH,2020-09-16 00:30,127.6458,26.1958,86.00,80.60,83.99,190.00,7.00,0.00,29.88,M,6.21,M,FEW,M,M,M,1300.00,M,M,M,M,M,M,M,M,M,M,101.90,ROAH 160030Z 19007KT 9999 FEW013 30/27 Q1012
RJCC,2020-09-16 00:32,141.6926,42.7742,71.60,68.00,88.43,140.00,15.00,0.00,29.97,M,6.21,28.00,FEW,SCT,BKN,M,600.00,1500.00,3000.00,M,-SHRA,M,M,M,M,M,M,M,RJCC 160032Z 14015G28KT 9999 -SHRA FEW006 SCT015 BKN030 22/20 Q1015 RMK 1ST006 3ST015 5CU030 A2997
RJFF,2020-09-16 00:32,130.4517,33.5844,73.40,71.60,94.10,150.00,6.00,0.00,29.85,M,2.49,M,FEW,SCT,BKN,M,1000.00,3500.00,4000.00,M,-SHRA BR,M,M,M,M,M,M,M,RJFF 160032Z 15006KT 4000 -SHRA BR FEW010 SCT035 BKN040 23/22 Q1011 RMK 1CU010 3CU035 5CU040 A2987
RJFS,2020-09-16 00:33,130.3000,33.1500,73.40,M,M,M,2.00,0.00,29.85,M,2.17,M,FEW,SCT,BKN,M,200.00,500.00,700.00,M,-SHRA BR,M,M,M,M,M,M,M,RJFS 160033Z VRB02KT 3500 -SHRA BR FEW002 SCT005 BKN007 23/// Q1011 RMK 1ST002 4ST005 5ST007 A2988
RJCN,2020-09-16 00:36,144.9600,43.5775,68.00,64.40,88.26,180.00,7.00,0.00,30.06,M,6.21,M,FEW,SCT,BKN,M,500.00,800.00,1200.00,M,M,M,M,M,M,M,M,M,RJCN 160036Z 18007KT 9999 FEW005 SCT008 BKN012 20/18 Q1018 RMK 1ST005 4ST008 7ST012 A3007
RODN,2020-09-16 00:36,127.7676,26.3556,84.20,77.00,79.04,130.00,4.00,0.00,29.90,1013.00,10.00,M,FEW,SCT,BKN,BKN,1900.00,2500.00,3100.00,4200.00,M,M,M,M,M,M,M,94.16,RODN 160036Z AUTO 13004KT 10SM FEW019 SCT025 BKN031 BKN042 29/25 A2990 RMK AO2 SLP130 $
RJAT,2020-09-16 00:38,138.8764,35.3150,68.00,66.20,93.97,30.00,3.00,0.00,30.03,M,3.73,M,FEW,BKN,BKN,M,0.00,800.00,2500.00,M,M,M,M,M,M,M,M,M,RJAT 160038Z 03003KT 6000 FEW000 BKN008 BKN025 20/19 Q1017 RMK 2ST000 5ST008 7SC025 A3004
RJCB,2020-09-16 00:42,143.2172,42.7333,62.60,62.60,100.00,M,1.00,0.00,30.03,M,1.99,M,SCT,BKN,M,M,300.00,400.00,M,M,-SHRA BR,M,M,M,M,M,M,M,RJCB 160042Z VRB01KT 3200 -SHRA BR SCT003 BKN004 17/17 Q1017 RMK 4ST003 7ST004 A3005
RJNY,2020-09-16 00:43,138.2981,34.8128,78.80,69.80,73.95,30.00,7.00,0.00,29.94,M,6.21,M,FEW,SCT,BKN,M,1500.00,17000.00,21000.00,M,M,M,M,M,M,M,M,M,RJNY 160043Z 03007KT 350V060 9999 FEW015 SCT170 BKN210 26/21 Q1014 RMK 1CU015 4AC170 A2994
RJFF,2020-09-16 00:46,130.4517,33.5844,73.40,71.60,94.10,140.00,5.00,0.00,29.85,M,5.59,M,FEW,SCT,BKN,M,500.00,2500.00,3500.00,M,-SHRA,M,M,M,M,M,M,M,RJFF 160046Z 14005KT 9000 -SHRA FEW005 SCT025 BKN035 23/22 Q1011 RMK 1ST005 3CU025 5CU035 A2987
RJFS,2020-09-16 00:46,130.3000,33.1500,73.40,M,M,100.00,3.00,0.00,29.85,M,3.11,M,FEW,SCT,BKN,M,200.00,500.00,700.00,M,-SHRA BR,M,M,M,M,M,M,M,RJFS 160046Z 10003KT 5000 -SHRA BR FEW002 SCT005 BKN007 23/// Q1011 RMK 1ST002 3ST005 5ST007 A2988
RODN,2020-09-16 00:46,127.7676,26.3556,84.20,77.00,79.04,180.00,7.00,0.00,29.90,1013.00,10.00,M,SCT,BKN,BKN,M,2000.00,2600.00,3200.00,M,M,M,M,M,M,M,M,94.16,RODN 160046Z AUTO 18007KT 10SM SCT020 BKN026 BKN032 29/25 A2990 RMK AO2 CIG 026V031 SLP130 $
RJOI,2020-09-16 00:55,132.2357,34.1439,78.10,66.90,68.49,40.00,5.00,0.00,29.89,1012.30,6.21,M,SCT,BKN,OVC,M,3000.00,6000.00,15000.00,M,M,M,M,M,M,M,M,M,RJOI 160055Z 04005KT 9999 SCT030 BKN060 OVC150 26/19 A2989 RMK SLP123 T02560194
RJTY,2020-09-16 00:56,139.3485,35.7485,71.80,68.70,89.97,0.00,0.00,T,30.03,1016.80,10.00,M,SCT,M,M,M,7000.00,M,M,M,M,M,M,M,M,M,M,M,RJTY 160056Z AUTO 00000KT 10SM SCT070 22/20 A3003 RMK AO2 DZE09 SLP168 P0000 T02210204 FZRANO $
RODN,2020-09-16 00:56,127.7676,26.3556,84.70,78.60,82.00,210.00,7.00,0.00,29.90,1013.00,10.00,M,BKN,BKN,OVC,M,1800.00,2500.00,3200.00,M,M,M,M,M,M,M,M,96.81,RODN 160056Z AUTO 21007KT 10SM BKN018 BKN025 OVC032 29/26 A2990 RMK AO2 CIG 018V026 BKN018 V SCT SLP130 T02930259 $
ROTM,2020-09-16 00:56,127.7565,26.2743,84.90,77.00,77.28,180.00,6.00,0.00,29.92,1011.60,6.21,M,SCT,BKN,M,M,1700.00,5000.00,M,M,M,M,M,M,M,M,M,95.36,ROTM 160056Z 18006KT 9999 SCT017 BKN050 29/25 A2992 RMK SLP116 T02940250
RJSC,2020-09-16 01:00,140.3711,38.4119,73.40,66.20,78.19,M,2.00,0.00,29.97,M,6.21,M,FEW,BKN,M,M,2000.00,M,M,M,M,M,M,M,M,M,M,M,RJSC 160100Z VRB02KT 9999 FEW020 BKN/// 23/19 Q1015
RJSD,2020-09-16 01:00,138.4139,38.0602,77.00,68.00,73.78,70.00,4.00,0.00,29.91,M,6.21,M,NSC,M,M,M,M,M,M,M,M,M,M,M,M,M,M,M,RJSD 160100Z AUTO 07004KT 030V110 9999 NSC 25/20 Q1013
RJSF,2020-09-16 01:00,140.4281,37.2275,69.80,66.20,88.34,M,2.00,0.00,30.00,M,6.21,M,FEW,BKN,M,M,1500.00,M,M,M,M,M,M,M,M,M,M,M,RJSF 160100Z VRB02KT 9999 FEW015 BKN/// 21/19 Q1016
RJFR,2020-09-16 01:00,131.0350,33.8456,77.00,69.80,78.48,M,1.00,0.00,29.85,M,6.21,M,FEW,BKN,BKN,M,1200.00,2500.00,6000.00,M,-SHRA,M,M,M,M,M,M,M,RJFR 160100Z VRB01KT 9999 -SHRA FEW012 BKN025 BKN060 25/21 Q1011
RJSR,2020-09-16 01:00,140.3714,40.1919,75.20,66.20,73.61,M,1.00,0.00,29.94,M,6.21,M,FEW,SCT,M,M,3000.00,4000.00,M,M,M,M,M,M,M,M,M,M,RJSR 160100Z VRB01KT 9999 FEW030 SCT040 24/19 Q1014
RJSI,2020-09-16 01:00,141.1353,39.4286,73.40,62.60,68.94,200.00,5.00,0.00,29.97,M,6.21,M,FEW,SCT,BKN,M,2000.00,3000.00,M,M,M,M,M,M,M,M,M,M,RJSI 160100Z 20005KT 140V250 9999 FEW020 SCT030 BKN/// 23/17 Q1015
RJSM,2020-09-16 01:00,141.3684,40.7032,73.40,66.20,78.19,110.00,6.00,0.00,29.97,M,6.21,M,SCT,M,M,M,2000.00,M,M,M,M,M,M,M,M,M,M,M,RJSM 160100Z 11006KT 9999 SCT020 23/19 Q1015
RJAA,2020-09-16 01:00,140.3856,35.7653,77.00,71.60,83.44,30.00,7.00,0.00,29.94,M,6.21,M,FEW,SCT,BKN,M,1000.00,1700.00,M,M,M,M,M,M,M,M,M,M,RJAA 160100Z 03007KT 350V070 9999 FEW010 SCT017 BKN/// 25/22 Q1014 NOSIG
RJAF,2020-09-16 01:00,137.9228,36.1667,71.60,60.80,68.75,M,2.00,0.00,30.00,M,6.21,M,FEW,BKN,M,M,2500.00,17000.00,M,M,M,M,M,M,M,M,M,M,RJAF 160100Z VRB02KT 9999 FEW025 BKN170 22/16 Q1016
RJAH,2020-09-16 01:00,140.4147,36.1817,77.00,66.20,69.33,30.00,6.00,0.00,29.97,M,6.21,M,SCT,SCT,BKN,M,1500.00,16000.00,25000.00,M,M,M,M,M,M,M,M,M,RJAH 160100Z 03006KT 010V080 9999 SCT015 SCT160 BKN250 25/19 Q1015
RJBT,2020-09-16 01:00,134.7869,35.5128,75.20,68.00,78.34,200.00,4.00,0.00,29.88,M,6.21,M,FEW,BKN,M,M,4000.00,M,M,M,M,M,M,M,M,M,M,M,RJBT 160100Z 20004KT 150V230 9999 FEW040 BKN/// 24/20 Q1012
RJCB,2020-09-16 01:00,143.2172,42.7333,62.60,60.80,93.83,M,1.00,0.00,30.03,M,3.11,M,SCT,BKN,M,M,400.00,500.00,M,M,-SHRA BR,M,M,M,M,M,M,M,RJCB 160100Z VRB01KT 5000 -SHRA BR SCT004 BKN005 17/16 Q1017
RJCC,2020-09-16 01:00,141.6926,42.7742,73.40,68.00,83.21,160.00,21.00,0.00,29.97,M,6.21,M,FEW,BKN,M,M,600.00,1500.00,M,M,VCSH,M,M,M,M,M,M,M,RJCC 160100Z 16021KT 9999 VCSH FEW006 BKN015 23/20 Q1015
RJCH,2020-09-16 01:00,140.8219,41.7700,71.60,66.20,83.09,M,2.00,0.00,29.97,M,6.21,M,FEW,SCT,BKN,M,1500.00,2500.00,4500.00,M,M,M,M,M,M,M,M,M,RJCH 160100Z VRB02KT 9999 FEW015 SCT025 BKN045 22/19 Q1015
RJCK,2020-09-16 01:00,144.1931,43.0408,66.20,64.40,93.92,160.00,10.00,0.00,30.06,M,6.21,M,FEW,SCT,BKN,M,300.00,500.00,800.00,M,M,M,M,M,M,M,M,M,RJCK 160100Z 16010KT 9999 FEW003 SCT005 BKN008 19/18 Q1018
RJCM,2020-09-16 01:00,144.1642,43.8806,69.80,60.80,73.09,200.00,5.00,0.00,30.00,M,6.21,M,FEW,SCT,BKN,M,1000.00,10000.00,12000.00,M,M,M,M,M,M,M,M,M,RJCM 160100Z 20005KT 150V260 9999 FEW010 SCT100 BKN120 21/16 Q1016
RJCN,2020-09-16 01:00,144.9600,43.5775,68.00,62.60,82.86,190.00,8.00,0.00,30.06,M,6.21,M,FEW,SCT,BKN,M,800.00,1200.00,2000.00,M,M,M,M,M,M,M,M,M,RJCN 160100Z 19008KT 160V230 9999 FEW008 SCT012 BKN020 20/17 Q1018
RJCO,2020-09-16 01:00,141.3814,43.1175,68.00,66.20,93.97,140.00,11.00,0.00,29.97,M,6.21,M,FEW,SCT,BKN,M,1000.00,4000.00,8000.00,M,M,M,M,M,M,M,M,M,RJCO 160100Z 14011KT 9999 FEW010 SCT040 BKN080 20/19 Q1015
RJCW,2020-09-16 01:00,141.8022,45.4044,73.40,62.60,68.94,190.00,11.00,0.00,29.91,M,6.21,M,FEW,SCT,BKN,M,2000.00,3000.00,4000.00,M,M,M,M,M,M,M,M,M,RJCW 160100Z 19011KT 9999 FEW020 SCT030 BKN040 23/17 Q1013
RJDT,2020-09-16 01:00,129.3306,34.2850,71.60,69.80,94.06,180.00,3.00,0.00,29.85,M,6.21,M,FEW,SCT,BKN,M,1000.00,1500.00,2000.00,M,-RA,M,M,M,M,M,M,M,RJDT 160100Z 18003KT 100V260 9999 -RA FEW010 SCT015 BKN020 22/21 Q1011
RJEB,2020-09-16 01:00,143.4040,44.3039,71.60,64.40,78.04,120.00,4.00,0.00,29.94,M,6.21,M,FEW,SCT,M,M,4000.00,10000.00,M,M,M,M,M,M,M,M,M,M,RJEB 160100Z 12004KT 060V180 9999 FEW040 SCT100 22/18 Q1014
RJEC,2020-09-16 01:00,142.4475,43.6708,69.80,50.00,49.37,190.00,14.00,0.00,29.97,M,6.21,24.00,FEW,SCT,BKN,M,3000.00,5000.00,12000.00,M,M,M,M,M,M,M,M,M,RJEC 160100Z 19014G24KT 160V230 9999 FEW030 SCT050 BKN120 21/10 Q1015
RJFE,2020-09-16 01:00,128.8328,32.6664,71.60,68.00,88.43,M,1.00,0.00,29.85,M,6.21,M,FEW,SCT,BKN,M,1000.00,3500.00,7000.00,M,M,M,M,M,M,M,M,M,RJFE 160100Z VRB01KT 9999 FEW010 SCT035 BKN070 22/20 Q1011
RJFF,2020-09-16 01:00,130.4517,33.5844,73.40,71.60,94.10,150.00,6.00,0.00,29.85,M,6.21,M,FEW,SCT,BKN,M,500.00,2000.00,3500.00,M,-SHRA,M,M,M,M,M,M,M,RJFF 160100Z 15006KT 130V200 9999 -SHRA FEW005 SCT020 BKN035 23/22 Q1011 TEMPO 4000 -SHRA BR
RJFK,2020-09-16 01:00,130.7194,31.8033,73.40,73.40,100.00,100.00,3.00,0.00,29.91,M,2.49,M,FEW,SCT,BKN,M,200.00,3000.00,4000.00,M,-SHRA BCFG BR,M,M,M,M,M,M,M,RJFK 160100Z 10003KT 060V120 4000 -SHRA BCFG BR FEW002 SCT030 BKN040 23/23 Q1013
RJFM,2020-09-16 01:00,131.4486,31.8772,73.40,73.40,100.00,M,2.00,0.00,29.88,M,2.49,M,FEW,BKN,BKN,M,200.00,600.00,800.00,M,-SHRA BR,M,M,M,M,M,M,M,RJFM 160100Z VRB02KT 4000 -SHRA BR FEW002 BKN006 BKN008 23/23 Q1012
RJFO,2020-09-16 01:00,131.7372,33.4794,75.20,69.80,83.32,140.00,11.00,0.00,29.88,M,6.21,M,FEW,SCT,BKN,M,800.00,1500.00,5000.00,M,M,M,M,M,M,M,M,M,RJFO 160100Z 14011KT 9999 FEW008 SCT015 BKN050 24/21 Q1012
RJAW,2020-09-16 01:00,141.3227,24.7840,86.00,78.80,79.18,140.00,9.00,0.00,29.94,M,6.21,M,FEW,M,M,M,1500.00,M,M,M,M,M,M,M,M,M,M,99.38,RJAW 160100Z 14009KT 100V170 9999 FEW015 30/26 Q1014 RMK 2CU015 A2995
RJBB,2020-09-16 01:00,135.2328,34.4342,78.80,66.20,65.33,50.00,5.00,0.00,29.88,M,6.21,M,FEW,SCT,BKN,M,2500.00,8000.00,12000.00,M,M,M,M,M,M,M,M,M,RJBB 160100Z 05005KT 020V110 9999 FEW025 SCT080 BKN120 26/19 Q1012 NOSIG
RJBE,2020-09-16 01:00,135.2239,34.6328,78.80,68.00,69.52,80.00,9.00,0.00,29.88,M,6.21,M,FEW,SCT,BKN,M,3000.00,9000.00,12000.00,M,M,M,M,M,M,M,M,M,RJBE 160100Z 08009KT 9999 FEW030 SCT090 BKN120 26/20 Q1012
RJNK,2020-09-16 01:00,136.4075,36.3939,77.00,62.60,61.13,70.00,3.00,0.00,29.88,M,6.21,M,FEW,BKN,BKN,M,15000.00,18000.00,23000.00,M,M,M,M,M,M,M,M,M,RJNK 160100Z 07003KT 020V100 9999 FEW150 BKN180 BKN230 25/17 Q1012
RJNT,2020-09-16 01:00,137.1875,36.6483,78.80,64.40,61.36,M,2.00,0.00,29.91,M,6.21,M,FEW,SCT,BKN,M,3000.00,18000.00,M,M,M,M,M,M,M,M,M,M,RJNT 160100Z VRB02KT 9999 FEW030 SCT180 BKN/// 26/18 Q1013
RJNW,2020-09-16 01:00,136.9618,37.2931,77.00,62.60,61.13,80.00,4.00,0.00,29.94,M,6.21,M,FEW,SCT,BKN,M,1500.00,17000.00,M,M,M,M,M,M,M,M,M,M,RJNW 160100Z 08004KT 040V110 9999 FEW015 SCT170 BKN/// 25/17 Q1014
RJOA,2020-09-16 01:00,132.9194,34.4361,71.60,64.40,78.04,150.00,3.00,0.00,29.91,M,6.21,M,FEW,BKN,M,M,1500.00,6000.00,M,M,M,M,M,M,M,M,M,M,RJOA 160100Z 15003KT 9999 FEW015 BKN060 22/18 Q1013
RJOB,2020-09-16 01:00,133.8553,34.7569,73.40,66.20,78.19,70.00,3.00,0.00,29.91,M,6.21,M,FEW,SCT,BKN,M,1000.00,1500.00,8000.00,M,M,M,M,M,M,M,M,M,RJOB 160100Z 07003KT 040V110 9999 FEW010 SCT015 BKN080 23/19 Q1013
RJOC,2020-09-16 01:00,132.8900,35.4136,75.20,69.80,83.32,0.00,0.00,0.00,29.85,M,6.21,M,FEW,SCT,BKN,M,3500.00,6000.00,9000.00,M,M,M,M,M,M,M,M,M,RJOC 160100Z 00000KT 9999 FEW035 SCT060 BKN090 24/21 Q1011
RJOH,2020-09-16 01:00,133.2392,35.4933,78.80,64.40,61.36,160.00,4.00,0.00,29.88,M,6.21,M,FEW,BKN,BKN,M,3000.00,6000.00,15000.00,M,M,M,M,M,M,M,M,M,RJOH 160100Z 16004KT 130V190 9999 FEW030 BKN060 BKN150 26/18 Q1012
RJKA,2020-09-16 01:00,129.7125,28.4308,86.00,78.80,79.18,210.00,9.00,0.00,29.88,M,6.21,M,FEW,BKN,M,M,1500.00,M,M,M,M,M,M,M,M,M,M,99.38,RJKA 160100Z 21009KT 9999 FEW015 BKN/// 30/26 Q1012
RJOK,2020-09-16 01:00,133.6694,33.5461,75.20,71.60,88.59,120.00,6.00,0.00,29.91,M,6.21,M,FEW,SCT,BKN,M,1000.00,2500.00,5000.00,M,-SHRA,M,M,M,M,M,M,M,RJOK 160100Z 12006KT 9999 -SHRA FEW010 SCT025 BKN050 24/22 Q1013
RJFU,2020-09-16 01:00,129.9136,32.9169,75.20,71.60,88.59,140.00,3.00,0.00,29.85,M,6.21,M,FEW,SCT,BKN,M,600.00,1000.00,3000.00,M,M,M,M,M,M,M,M,M,RJFU 160100Z 14003KT 090V150 9999 FEW006 SCT010 BKN030 24/22 Q1011
RJGG,2020-09-16 01:00,136.8054,34.8584,77.00,68.00,73.78,290.00,3.00,0.00,29.91,M,6.21,M,FEW,BKN,M,M,1500.00,M,M,M,M,M,M,M,M,M,M,M,RJGG 160100Z 29003KT 9999 FEW015 BKN/// 25/20 Q1013 BECMG 15005KT
RJKI,2020-09-16 01:00,129.9281,28.3213,86.00,78.80,79.18,210.00,6.00,0.00,29.88,M,6.21,M,BKN,BKN,M,M,1500.00,1700.00,M,M,M,M,M,M,M,M,M,99.38,RJKI 160100Z AUTO 21006KT 170V270 9999 BKN015 BKN017 30/26 Q1012
ROIG,2020-09-16 01:00,124.1633,24.3367,87.80,82.40,84.10,160.00,10.00,0.00,29.85,M,6.21,M,SCT,M,M,M,1400.00,M,M,M,M,M,M,M,M,M,M,108.27,ROIG 160100Z 16010KT 9999 SCT014 31/28 Q1011
ROMD,2020-09-16 01:00,131.2286,25.8289,86.00,77.00,74.61,150.00,5.00,0.00,29.91,M,6.21,M,NCD,M,M,M,M,M,M,M,M,M,M,M,M,M,M,97.15,ROMD 160100Z AUTO 15005KT 110V220 9999 NCD 30/25 Q1013
ROMY,2020-09-16 01:00,125.2767,24.7933,84.20,77.00,79.04,170.00,10.00,0.00,29.85,M,6.21,M,SCT,BKN,M,M,1700.00,M,M,M,M,M,M,M,M,M,M,94.16,ROMY 160100Z 17010KT 9999 SCT017 BKN/// 29/25 Q1011
RORY,2020-09-16 01:00,128.4020,27.0440,86.00,80.60,83.99,170.00,5.00,0.00,29.88,M,6.21,M,FEW,M,M,M,2300.00,M,M,M,M,M,M,M,M,M,M,101.90,RORY 160100Z AUTO 17005KT 140V220 9999 FEW023 30/27 Q1012
RJDC,2020-09-16 01:00,131.2786,33.9300,77.00,69.80,78.48,140.00,5.00,0.00,29.85,M,6.21,M,FEW,BKN,BKN,M,1500.00,3500.00,5000.00,M,-RA,M,M,M,M,M,M,M,RJDC 160100Z 14005KT 9999 -RA FEW015 BKN035 BKN050 25/21 Q1011
RJOM,2020-09-16 01:00,132.6997,33.8272,78.80,69.80,73.95,330.00,4.00,0.00,29.85,M,6.21,M,FEW,BKN,BKN,M,1500.00,7000.00,M,M,M,M,M,M,M,M,M,M,RJOM 160100Z 33004KT 9999 FEW015 BKN070 BKN/// 26/21 Q1011
RJFS,2020-09-16 01:00,130.3000,33.1500,75.20,73.40,94.14,70.00,3.00,0.00,29.85,M,3.11,M,FEW,SCT,BKN,M,500.00,700.00,1000.00,M,-SHRA BR,M,M,M,M,M,M,M,RJFS 160100Z 07003KT 030V100 5000 -SHRA BR FEW005 SCT007 BKN010 24/23 Q1011
RJFT,2020-09-16 01:00,130.8553,32.8372,73.40,71.60,94.10,20.00,3.00,0.00,29.88,M,3.11,M,FEW,SCT,BKN,M,100.00,2500.00,4500.00,M,-RA BR,M,M,M,M,M,M,M,RJFT 160100Z 02003KT 360V060 5000 -RA BR FEW001 SCT025 BKN045 23/22 Q1012
RJOT,2020-09-16 01:00,134.0167,34.2167,75.20,66.20,73.61,10.00,3.00,0.00,29.91,M,6.21,M,FEW,BKN,M,M,1500.00,8000.00,M,M,M,M,M,M,M,M,M,M,RJOT 160100Z 01003KT 9999 FEW015 BKN080 24/19 Q1013
RJSK,2020-09-16 01:00,140.2167,39.6167,75.20,64.40,69.14,140.00,7.00,0.00,29.94,M,6.21,M,FEW,SCT,M,M,2500.00,M,M,M,M,M,M,M,M,M,M,M,RJSK 160100Z 14007KT 100V200 9999 FEW025 SCT/// 24/18 Q1014
RJOO,2020-09-16 01:00,135.4392,34.7844,78.80,68.00,69.52,80.00,7.00,0.00,29.91,M,6.21,M,FEW,SCT,BKN,M,3000.00,9000.00,13000.00,M,M,M,M,M,M,M,M,M,RJOO 160100Z 08007KT 030V110 9999 FEW030 SCT090 BKN130 26/20 Q1013
RJOR,2020-09-16 01:00,134.1650,35.5300,80.60,66.20,61.58,M,3.00,0.00,29.85,M,6.21,M,FEW,SCT,BKN,M,4500.00,13000.00,15000.00,M,M,M,M,M,M,M,M,82.75,RJOR 160100Z VRB03KT 9999 FEW045 SCT130 BKN150 27/19 Q1011
RJOW,2020-09-16 01:00,131.7903,34.6764,77.00,66.20,69.33,160.00,7.00,0.00,29.85,M,6.21,M,FEW,BKN,M,M,2000.00,7000.00,M,M,M,M,M,M,M,M,M,M,RJOW 160100Z 16007KT 9999 FEW020 BKN070 25/19 Q1011
RJOY,2020-09-16 01:00,135.6006,34.5967,78.80,66.20,65.33,90.00,4.00,0.00,29.88,M,6.21,M,FEW,SCT,BKN,M,3000.00,8000.00,13000.00,M,M,M,M,M,M,M,M,M,RJOY 160100Z 09004KT 050V150 9999 FEW030 SCT080 BKN130 26/19 Q1012
RJSA,2020-09-16 01:00,140.6886,40.7333,73.40,62.60,68.94,M,1.00,0.00,29.97,M,6.21,M,FEW,BKN,M,M,2500.00,10000.00,M,M,M,M,M,M,M,M,M,M,RJSA 160100Z VRB01KT 9999 FEW025 BKN100 23/17 Q1015
RJSN,2020-09-16 01:00,139.1117,37.9558,77.00,69.80,78.48,360.00,5.00,0.00,29.91,M,6.21,M,FEW,SCT,BKN,M,3000.00,17000.00,M,M,M,M,M,M,M,M,M,M,RJSN 160100Z 36005KT 9999 FEW030 SCT170 BKN/// 25/21 Q1013
RJSS,2020-09-16 01:00,140.9169,38.1397,75.20,66.20,73.61,110.00,7.00,0.00,29.97,M,6.21,M,FEW,BKN,M,M,1000.00,M,M,M,M,M,M,M,M,M,M,M,RJSS 160100Z 11007KT 9999 FEW010 BKN/// 24/19 Q1015
RJTF,2020-09-16 01:00,139.5281,35.6717,75.20,66.20,73.61,40.00,3.00,0.00,29.97,M,6.21,M,SCT,BKN,BKN,M,2000.00,5000.00,8000.00,M,M,M,M,M,M,M,M,M,RJTF 160100Z 04003KT 350V090 9999 SCT020 BKN050 BKN080 24/19 Q1015
RJTO,2020-09-16 01:00,139.3603,34.7819,77.00,73.40,88.67,50.00,9.00,0.00,29.94,M,6.21,M,FEW,BKN,BKN,M,1000.00,1500.00,M,M,M,M,M,M,M,M,M,M,RJTO 160100Z 05009KT 9999 FEW010 BKN015 BKN/// 25/23 Q1014
RJTT,2020-09-16 01:00,139.7811,35.5533,75.20,68.00,78.34,40.00,7.00,0.00,29.94,M,6.21,M,FEW,BKN,M,M,1500.00,8000.00,M,M,M,M,M,M,M,M,M,M,RJTT 160100Z 04007KT 9999 FEW015 BKN080 24/20 Q1014 NOSIG
RORS,2020-09-16 01:00,125.1447,24.8267,87.80,82.40,84.10,160.00,11.00,0.00,29.85,M,6.21,M,SCT,BKN,M,M,1600.00,M,M,M,M,M,M,M,M,M,M,108.27,RORS 160100Z 16011KT 9999 SCT016 BKN/// 31/28 Q1011
RJNS,2020-09-16 01:00,138.1894,34.7961,75.20,71.60,88.59,30.00,3.00,0.00,29.94,M,6.21,M,FEW,BKN,BKN,M,2500.00,15000.00,18000.00,M,M,M,M,M,M,M,M,M,RJNS 160100Z 03003KT 340V080 9999 FEW025 BKN150 BKN180 24/22 Q1014
RJBD,2020-09-16 01:00,135.3644,33.6622,77.00,69.80,78.48,150.00,4.00,0.00,29.91,M,6.21,M,FEW,SCT,BKN,M,2000.00,3500.00,8000.00,M,VCSH,M,M,M,M,M,M,M,RJBD 160100Z 15004KT 120V190 9999 VCSH FEW020 SCT035 BKN080 25/21 Q1013
RJFG,2020-09-16 01:00,130.9917,30.6050,82.40,75.20,78.90,280.00,6.00,0.00,29.91,M,6.21,M,FEW,SCT,BKN,M,1000.00,17000.00,M,M,M,M,M,M,M,M,M,89.48,RJFG 160100Z 28006KT 230V330 9999 FEW010 SCT170 BKN/// 28/24 Q1013
RJTI,2020-09-16 01:00,139.8500,35.6300,77.00,68.00,73.78,30.00,5.00,0.00,29.94,M,6.21,M,FEW,BKN,M,M,1500.00,9000.00,M,M,M,M,M,M,M,M,M,M,RJTI 160100Z 03005KT 330V090 9999 FEW015 BKN090 25/20 Q1014
RJOS,2020-09-16 01:00,134.6092,34.1322,77.00,68.00,73.78,220.00,3.00,0.00,29.88,M,6.21,M,SCT,BKN,M,M,2500.00,10000.00,M,M,M,M,M,M,M,M,M,M,RJOS 160100Z 22003KT 160V260 9999 SCT025 BKN100 25/20 Q1012
RJSY,2020-09-16 01:00,139.7872,38.8122,77.00,66.20,69.33,90.00,7.00,0.00,29.94,M,6.21,M,FEW,SCT,BKN,M,2000.00,8000.00,M,M,M,M,M,M,M,M,M,M,RJSY 160100Z 09007KT 9999 FEW020 SCT080 BKN/// 25/19 Q1014
RORK,2020-09-16 01:00,131.3333,25.9167,87.80,77.00,70.45,160.00,6.00,0.00,29.91,M,6.21,M,NCD,M,M,M,M,M,M,M,M,M,M,M,M,M,M,99.92,RORK 160100Z AUTO 16006KT 9999 NCD 31/25 Q1013
ROYN,2020-09-16 01:00,122.9780,24.4670,87.80,80.60,79.31,170.00,8.00,0.00,29.83,M,6.21,M,NCD,M,M,M,M,M,M,M,M,M,M,M,M,M,M,105.14,ROYN 160100Z AUTO 17008KT 130V210 9999 NCD 31/27 Q1010
ROAH,2020-09-16 01:00,127.6458,26.1958,87.80,80.60,79.31,190.00,8.00,0.00,29.88,M,6.21,M,FEW,M,M,M,1300.00,M,M,M,VCSH,M,M,M,M,M,M,105.14,ROAH 160100Z 19008KT 160V220 9999 VCSH FEW013 31/27 Q1012
RJAK,2020-09-16 01:10,140.1928,36.0347,78.80,68.00,69.52,70.00,6.00,0.00,29.97,M,6.21,M,FEW,BKN,BKN,M,2500.00,10000.00,23000.00,M,M,M,M,M,M,M,M,M,RJAK 160110Z 07006KT 9999 FEW025 BKN100 BKN230 26/20 Q1015 RMK 2CU025 5AC100 7CI230 A2998
RJFM,2020-09-16 01:15,131.4486,31.8772,73.40,71.60,94.10,M,2.00,0.00,29.88,M,3.11,M,FEW,BKN,BKN,M,200.00,600.00,800.00,M,-SHRA BR,M,M,M,M,M,M,M,RJFM 160115Z VRB02KT 5000 -SHRA BR FEW002 BKN006 BKN008 23/22 Q1012 RMK 1ST002 6ST006 7ST008 A2990
RODN,2020-09-16 01:21,127.7676,26.3556,86.00,78.80,79.18,220.00,6.00,0.00,29.90,1013.00,10.00,M,SCT,BKN,OVC,M,1900.00,2600.00,3600.00,M,-DZ,M,M,M,M,M,M,99.38,RODN 160121Z AUTO 22006KT 10SM -DZ SCT019 BKN026 OVC036 30/26 A2990 RMK AO2 DZB21 CIG 019V026 SLP130 $
RJNY,2020-09-16 01:23,138.2981,34.8128,78.80,69.80,73.95,40.00,8.00,0.00,29.94,M,6.21,M,FEW,BKN,BKN,M,1500.00,16000.00,21000.00,M,M,M,M,M,M,M,M,M,RJNY 160123Z 04008KT 010V070 9999 FEW015 BKN160 BKN210 26/21 Q1014 RMK 1CU015 5AC160 A2994
RODN,2020-09-16 01:24,127.7676,26.3556,86.00,80.60,83.99,230.00,5.00,0.00,29.90,1013.00,10.00,M,SCT,BKN,BKN,M,1900.00,2800.00,3500.00,M,M,M,M,M,M,M,M,101.90,RODN 160124Z 23005KT 10SM SCT019 BKN028 BKN035 30/27 A2990 RMK CIG 019V028 CIG 026 RWY05 SLP130 $
RJFF,2020-09-16 01:26,130.4517,33.5844,73.40,71.60,94.10,160.00,6.00,0.00,29.85,M,2.80,M,FEW,SCT,BKN,M,500.00,1000.00,1500.00,M,-SHRA BR,M,M,M,M,M,M,M,RJFF 160126Z 16006KT 4500 -SHRA BR FEW005 SCT010 BKN015 23/22 Q1011 RMK 1ST005 3CU010 5CU015 A2987
RJFK,2020-09-16 01:26,130.7194,31.8033,73.40,73.40,100.00,60.00,2.00,0.00,29.91,M,3.73,M,FEW,SCT,BKN,M,200.00,1200.00,3000.00,M,-SHRA BCFG,M,M,M,M,M,M,M,RJFK 160126Z 06002KT 6000 -SHRA BCFG FEW002 SCT012 BKN030 23/23 Q1013 RMK 1ST002 3CU012 6CU030 A2992 2000N FG NW-NE
RJAA,2020-09-16 01:30,140.3856,35.7653,77.00,69.80,78.48,40.00,9.00,0.00,29.94,M,6.21,M,SCT,BKN,M,M,1800.00,M,M,M,M,M,M,M,M,M,M,M,RJAA 160130Z 04009KT 9999 SCT018 BKN/// 25/21 Q1014 NOSIG RMK 3CU018 A2995
RJCC,2020-09-16 01:30,141.6926,42.7742,71.60,66.20,83.09,150.00,16.00,0.00,29.97,M,6.21,M,FEW,BKN,M,M,800.00,1500.00,M,M,-SHRA,M,M,M,M,M,M,M,RJCC 160130Z 15016KT 9999 -SHRA FEW008 BKN015 22/19 Q1015 RMK 1ST008 6ST015 A2997
RJFF,2020-09-16 01:30,130.4517,33.5844,73.40,71.60,94.10,160.00,6.00,0.00,29.85,M,2.80,M,FEW,SCT,BKN,M,500.00,1000.00,1500.00,M,-SHRA BR,M,M,M,M,M,M,M,RJFF 160130Z 16006KT 4500 -SHRA BR FEW005 SCT010 BKN015 23/22 Q1011 BECMG TL0300 NSW RMK 1ST005 3CU010 5CU015 A2987
RJBB,2020-09-16 01:30,135.2328,34.4342,78.80,66.20,65.33,30.00,7.00,0.00,29.88,M,6.21,M,FEW,SCT,BKN,M,2500.00,8000.00,12000.00,M,M,M,M,M,M,M,M,M,RJBB 160130Z 03007KT 9999 FEW025 SCT080 BKN120 26/19 Q1012 NOSIG
RJOF,2020-09-16 01:30,131.5464,34.0344,77.00,69.80,78.48,130.00,8.00,0.00,29.85,M,6.21,M,FEW,SCT,BKN,M,600.00,2500.00,4000.00,M,M,M,M,M,M,M,M,M,RJOF 160130Z 13008KT 9999 FEW006 SCT025 BKN040 25/21 Q1011 RMK 1ST006 3CU025 7CU040 A2988
RJGG,2020-09-16 01:30,136.8054,34.8584,78.80,69.80,73.95,290.00,4.00,0.00,29.91,M,6.21,M,FEW,BKN,M,M,1500.00,M,M,M,M,M,M,M,M,M,M,M,RJGG 160130Z 29004KT 9999 FEW015 BKN/// 26/21 Q1013 BECMG TL0230 24005KT
RJFT,2020-09-16 01:30,130.8553,32.8372,73.40,71.60,94.10,110.00,3.00,0.00,29.88,M,1.86,M,FEW,SCT,BKN,M,100.00,1500.00,3000.00,M,-RA BR,M,M,M,M,M,M,M,RJFT 160130Z 11003KT 3000 R07/1000VP1800D -RA BR FEW001 SCT015 BKN030 23/22 Q1012 RMK 1ST001 3ST015 7SC030 A2991
RJTT,2020-09-16 01:30,139.7811,35.5533,77.00,68.00,73.78,10.00,5.00,0.00,29.94,M,6.21,M,FEW,BKN,M,M,1500.00,7000.00,M,M,M,M,M,M,M,M,M,M,RJTT 160130Z 01005KT 9999 FEW015 BKN070 25/20 Q1014 NOSIG RMK 1CU015 7AC070 A2995
ROAH,2020-09-16 01:30,127.6458,26.1958,87.80,78.80,74.77,190.00,9.00,0.00,29.88,M,6.21,M,FEW,SCT,M,M,1300.00,M,M,M,M,M,M,M,M,M,M,102.37,ROAH 160130Z 19009KT 9999 FEW013 SCT/// 31/26 Q1012 RMK 2CU013 A2990
RJCK,2020-09-16 01:36,144.1931,43.0408,68.00,64.40,88.26,170.00,11.00,0.00,30.03,M,6.21,M,FEW,SCT,BKN,M,500.00,800.00,1000.00,M,M,M,M,M,M,M,M,M,RJCK 160136Z 17011KT 9999 FEW005 SCT008 BKN010 20/18 Q1017 RMK 1ST005 4ST008 6ST010 A3005
RJFK,2020-09-16 01:39,130.7194,31.8033,73.40,73.40,100.00,70.00,3.00,0.00,29.91,M,1.86,M,FEW,SCT,BKN,M,200.00,2000.00,3000.00,M,-SHRA BCFG BR,M,M,M,M,M,M,M,RJFK 160139Z 07003KT 040V100 3000 -SHRA BCFG BR FEW002 SCT020 BKN030 23/23 Q1013 RMK 1ST002 3CU020 6CU030 A2992 FG NW-E
RJFF,2020-09-16 01:46,130.4517,33.5844,73.40,71.60,94.10,180.00,5.00,0.00,29.85,M,3.73,M,FEW,SCT,BKN,M,500.00,1000.00,1200.00,M,-SHRA,M,M,M,M,M,M,M,RJFF 160146Z 18005KT 140V220 6000 -SHRA FEW005 SCT010 BKN012 23/22 Q1011 RMK 1ST005 3CU010 5CU012 A2987
RJFT,2020-09-16 01:48,130.8553,32.8372,73.40,71.60,94.10,M,2.00,0.00,29.88,M,3.11,M,FEW,SCT,BKN,M,100.00,2000.00,3500.00,M,-RA BR,M,M,M,M,M,M,M,RJFT 160148Z VRB02KT 5000 -RA BR FEW001 SCT020 BKN035 23/22 Q1012 RMK 1ST001 3ST020 7SC035 A2990
RODN,2020-09-16 01:53,127.7676,26.3556,86.00,80.60,83.99,220.00,9.00,0.00,29.89,1012.70,10.00,M,SCT,BKN,M,M,2200.00,3400.00,M,M,M,M,M,M,M,M,M,101.90,RODN 160153Z AUTO 22009KT 10SM SCT022 BKN034 30/27 A2989 RMK AO2 DZB21E34 SLP127 $
RJOI,2020-09-16 01:55,132.2357,34.1439,80.10,66.90,64.14,60.00,5.00,0.00,29.88,1011.80,6.21,M,SCT,OVC,M,M,3000.00,6000.00,M,M,M,M,M,M,M,M,M,82.40,RJOI 160155Z 06005KT 9999 SCT030 OVC060 27/19 A2988 RMK SLP118 T02670194
RJTY,2020-09-16 01:56,139.3485,35.7485,73.40,68.20,83.78,0.00,0.00,0.00,30.01,1016.00,10.00,M,BKN,BKN,M,M,1700.00,6500.00,M,M,M,M,M,M,M,M,M,M,RJTY 160156Z AUTO 00000KT 10SM BKN017 BKN065 23/20 A3001 RMK AO2 CIG 017V065 BKN017 V SCT SLP160 T02300201 FZRANO $
RODN,2020-09-16 01:56,127.7676,26.3556,86.20,80.20,82.37,220.00,9.00,T,29.89,1012.70,10.00,M,FEW,SCT,M,M,2200.00,3400.00,M,M,M,M,M,M,M,M,M,101.68,RODN 160156Z AUTO 22009KT 10SM FEW022 SCT034 30/27 A2989 RMK AO2 DZB21E34 SLP127 P0000 T03010268 $
ROTM,2020-09-16 01:56,127.7565,26.2743,88.00,77.00,70.00,180.00,9.00,0.00,29.91,1011.40,6.21,M,SCT,BKN,M,M,1500.00,5000.00,M,M,M,M,M,M,M,M,M,100.22,ROTM 160156Z 18009KT 9999 SCT015 BKN050 31/25 A2991 RMK SLP114 T03110250
RODN,2020-09-16 01:57,127.7676,26.3556,86.00,80.60,83.99,230.00,8.00,0.00,29.89,1012.70,10.00,M,SCT,SCT,M,M,2300.00,3400.00,M,M,-DZ,M,M,M,M,M,M,101.90,RODN 160157Z AUTO 23008KT 10SM -DZ SCT023 SCT034 30/27 A2989 RMK AO2 DZB56 SLP127 $
RJSC,2020-09-16 02:00,140.3711,38.4119,77.00,66.20,69.33,M,3.00,0.00,29.94,M,6.21,M,FEW,BKN,M,M,2000.00,M,M,M,M,M,M,M,M,M,M,M,RJSC 160200Z VRB03KT 9999 FEW020 BKN/// 25/19 Q1014
RJSD,2020-09-16 02:00,138.4139,38.0602,78.80,68.00,69.52,60.00,6.00,0.00,29.91,M,6.21,M,NSC,M,M,M,M,M,M,M,M,M,M,M,M,M,M,M,RJSD 160200Z AUTO 06006KT 020V090 9999 NSC 26/20 Q1013
RJSF,2020-09-16 02:00,140.4281,37.2275,71.60,64.40,78.04,M,2.00,0.00,29.97,M,6.21,M,FEW,BKN,M,M,1500.00,M,M,M,M,M,M,M,M,M,M,M,RJSF 160200Z VRB02KT 9999 FEW015 BKN/// 22/18 Q1015
RJFR,2020-09-16 02:00,131.0350,33.8456,77.00,71.60,83.44,170.00,3.00,0.00,29.85,M,6.21,M,FEW,BKN,BKN,M,1200.00,2500.00,6000.00,M,M,M,M,M,M,M,M,M,RJFR 160200Z 17003KT 120V200 9999 FEW012 BKN025 BKN060 25/22 Q1011
RJSR,2020-09-16 02:00,140.3714,40.1919,77.00,66.20,69.33,290.00,3.00,0.00,29.94,M,6.21,M,FEW,SCT,M,M,3000.00,4000.00,M,M,M,M,M,M,M,M,M,M,RJSR 160200Z 29003KT 250V320 9999 FEW030 SCT040 25/19 Q1014
RJSI,2020-09-16 02:00,141.1353,39.4286,77.00,64.40,65.12,210.00,5.00,0.00,29.97,M,6.21,M,FEW,SCT,M,M,3000.00,M,M,M,M,M,M,M,M,M,M,M,RJSI 160200Z 21005KT 180V300 9999 FEW030 SCT/// 25/18 Q1015
RJSM,2020-09-16 02:00,141.3684,40.7032,73.40,66.20,78.19,100.00,8.00,0.00,29.94,M,6.21,M,FEW,M,M,M,1000.00,M,M,M,M,M,M,M,M,M,M,M,RJSM 160200Z 10008KT 9999 FEW010 23/19 Q1014
RJAA,2020-09-16 02:00,140.3856,35.7653,78.80,71.60,78.62,30.00,8.00,0.00,29.94,M,6.21,M,FEW,SCT,BKN,M,1500.00,1800.00,19000.00,M,M,M,M,M,M,M,M,M,RJAA 160200Z 03008KT 9999 FEW015 SCT018 BKN190 26/22 Q1014 NOSIG
RJAF,2020-09-16 02:00,137.9228,36.1667,73.40,60.80,64.69,20.00,5.00,0.00,30.00,M,6.21,M,FEW,BKN,M,M,2500.00,15000.00,M,M,M,M,M,M,M,M,M,M,RJAF 160200Z 02005KT 330V070 9999 FEW025 BKN150 23/16 Q1016
RJAH,2020-09-16 02:00,140.4147,36.1817,80.60,66.20,61.58,60.00,6.00,0.00,29.94,M,6.21,M,SCT,SCT,BKN,M,2000.00,10000.00,23000.00,M,M,M,M,M,M,M,M,82.75,RJAH 160200Z 06006KT 020V110 9999 SCT020 SCT100 BKN230 27/19 Q1014
RJBT,2020-09-16 02:00,134.7869,35.5128,80.60,68.00,65.54,170.00,6.00,0.00,29.88,M,6.21,M,FEW,SCT,BKN,M,4000.00,15000.00,M,M,M,M,M,M,M,M,M,83.29,RJBT 160200Z 17006KT 130V210 9999 FEW040 SCT150 BKN/// 27/20 Q1012
RJCB,2020-09-16 02:00,143.2172,42.7333,66.20,64.40,93.92,180.00,3.00,0.00,30.03,M,6.21,M,BKN,BKN,M,M,500.00,600.00,M,M,M,M,M,M,M,M,M,M,RJCB 160200Z 18003KT 120V250 9999 BKN005 BKN006 19/18 Q1017
RJCC,2020-09-16 02:00,141.6926,42.7742,73.40,68.00,83.21,150.00,17.00,0.00,29.94,M,6.21,M,FEW,SCT,BKN,M,800.00,1200.00,2000.00,M,-SHRA,M,M,M,M,M,M,M,RJCC 160200Z 15017KT 9999 -SHRA FEW008 SCT012 BKN020 23/20 Q1014 RMK 1ST008 3ST012 5CU020 A2997
RJCH,2020-09-16 02:00,140.8219,41.7700,71.60,64.40,78.04,250.00,4.00,0.00,29.94,M,6.21,M,FEW,SCT,BKN,M,1200.00,2000.00,3500.00,M,M,M,M,M,M,M,M,M,RJCH 160200Z 25004KT 210V280 9999 FEW012 SCT020 BKN035 22/18 Q1014
RJCK,2020-09-16 02:00,144.1931,43.0408,68.00,64.40,88.26,160.00,12.00,0.00,30.03,M,6.21,M,FEW,SCT,BKN,M,500.00,800.00,1200.00,M,M,M,M,M,M,M,M,M,RJCK 160200Z 16012KT 9999 FEW005 SCT008 BKN012 20/18 Q1017
RJCM,2020-09-16 02:00,144.1642,43.8806,73.40,62.60,68.94,160.00,12.00,0.00,29.97,M,6.21,M,FEW,M,M,M,2000.00,M,M,M,M,M,M,M,M,M,M,M,RJCM 160200Z 16012KT 9999 FEW020 23/17 Q1015
RJCN,2020-09-16 02:00,144.9600,43.5775,71.60,64.40,78.04,190.00,7.00,0.00,30.03,M,6.21,M,FEW,SCT,BKN,M,1000.00,1500.00,2500.00,M,M,M,M,M,M,M,M,M,RJCN 160200Z 19007KT 150V220 9999 FEW010 SCT015 BKN025 22/18 Q1017
RJCO,2020-09-16 02:00,141.3814,43.1175,73.40,68.00,83.21,130.00,12.00,0.00,29.94,M,6.21,M,FEW,BKN,M,M,800.00,4500.00,M,M,M,M,M,M,M,M,M,M,RJCO 160200Z 13012KT 9999 FEW008 BKN045 23/20 Q1014
RJCW,2020-09-16 02:00,141.8022,45.4044,73.40,62.60,68.94,200.00,13.00,0.00,29.91,M,6.21,M,FEW,SCT,BKN,M,2500.00,3000.00,4000.00,M,M,M,M,M,M,M,M,M,RJCW 160200Z 20013KT 9999 FEW025 SCT030 BKN040 23/17 Q1013
RJDT,2020-09-16 02:00,129.3306,34.2850,75.20,71.60,88.59,M,2.00,0.00,29.83,M,6.21,M,FEW,SCT,BKN,M,1000.00,2500.00,3000.00,M,M,M,M,M,M,M,M,M,RJDT 160200Z VRB02KT 9999 FEW010 SCT025 BKN030 24/22 Q1010
RJEB,2020-09-16 02:00,143.4040,44.3039,73.40,64.40,73.44,70.00,5.00,0.00,29.94,M,6.21,M,FEW,SCT,M,M,4000.00,10000.00,M,M,M,M,M,M,M,M,M,M,RJEB 160200Z 07005KT 360V100 9999 FEW040 SCT100 23/18 Q1014
RJEC,2020-09-16 02:00,142.4475,43.6708,71.60,53.60,53.03,200.00,14.00,0.00,29.97,M,6.21,M,FEW,SCT,M,M,3000.00,12000.00,M,M,M,M,M,M,M,M,M,M,RJEC 160200Z 20014KT 9999 FEW030 SCT120 22/12 Q1015
RJFE,2020-09-16 02:00,128.8328,32.6664,73.40,69.80,88.51,10.00,3.00,0.00,29.85,M,6.21,M,FEW,SCT,BKN,M,1000.00,1500.00,2500.00,M,-SHRA,M,M,M,M,M,M,M,RJFE 160200Z 01003KT 9999 -SHRA FEW010 SCT015 BKN025 23/21 Q1011
RJFF,2020-09-16 02:00,130.4517,33.5844,75.20,71.60,88.59,M,2.00,0.00,29.85,M,4.35,M,FEW,SCT,BKN,M,500.00,800.00,1000.00,M,M,M,M,M,M,M,M,M,RJFF 160200Z VRB02KT 7000 -SHRA FEW005 SCT008 BKN010 24/22 Q1011 BECMG 15006KT TEMPO TL0300 4000 -SHRA BR
RJFK,2020-09-16 02:00,130.7194,31.8033,73.40,73.40,100.00,M,2.00,0.00,29.91,M,1.55,M,FEW,SCT,BKN,M,200.00,1000.00,2000.00,M,-SHRA BCFG BR,M,M,M,M,M,M,M,RJFK 160200Z VRB02KT 2500 R34/2000N -SHRA BCFG BR FEW002 SCT010 BKN020 23/23 Q1013 RMK 1ST002 3CU010 6CU020 A2992 FG ALL QUAD
RJFM,2020-09-16 02:00,131.4486,31.8772,73.40,71.60,94.10,10.00,5.00,0.00,29.88,M,4.35,M,FEW,SCT,BKN,M,200.00,500.00,700.00,M,-SHRA,M,M,M,M,M,M,M,RJFM 160200Z 01005KT 7000 -SHRA FEW002 SCT005 BKN007 23/22 Q1012
RJFO,2020-09-16 02:00,131.7372,33.4794,75.20,69.80,83.32,140.00,11.00,0.00,29.85,M,6.21,M,FEW,SCT,BKN,M,900.00,1500.00,5000.00,M,M,M,M,M,M,M,M,M,RJFO 160200Z 14011KT 9999 FEW009 SCT015 BKN050 24/21 Q1011
RJAW,2020-09-16 02:00,141.3227,24.7840,87.80,77.00,70.45,160.00,7.00,0.00,29.91,M,6.21,M,SCT,M,M,M,1500.00,M,M,M,VCSH,M,M,M,M,M,M,99.92,RJAW 160200Z 16007KT 110V200 9999 VCSH SCT015 31/25 Q1013 RMK 3CU015 A2993
RJBB,2020-09-16 02:00,135.2328,34.4342,80.60,68.00,65.54,20.00,6.00,0.00,29.88,M,6.21,M,FEW,SCT,BKN,M,2500.00,10000.00,14000.00,M,M,M,M,M,M,M,M,83.29,RJBB 160200Z 02006KT 9999 FEW025 SCT100 BKN140 27/20 Q1012 NOSIG
RJBE,2020-09-16 02:00,135.2239,34.6328,80.60,66.20,61.58,60.00,8.00,0.00,29.88,M,6.21,M,FEW,BKN,M,M,2500.00,11000.00,M,M,M,M,M,M,M,M,M,82.75,RJBE 160200Z 06008KT 020V090 9999 FEW025 BKN110 27/19 Q1012
RJNK,2020-09-16 02:00,136.4075,36.3939,78.80,64.40,61.36,330.00,5.00,0.00,29.88,M,6.21,M,FEW,BKN,M,M,15000.00,18000.00,M,M,M,M,M,M,M,M,M,M,RJNK 160200Z 33005KT 310V010 9999 FEW150 BKN180 26/18 Q1012
RJNT,2020-09-16 02:00,137.1875,36.6483,80.60,64.40,57.84,330.00,4.00,0.00,29.88,M,6.21,M,FEW,SCT,BKN,M,3000.00,13000.00,M,M,M,M,M,M,M,M,M,82.27,RJNT 160200Z 33004KT 290V040 9999 FEW030 SCT130 BKN/// 27/18 Q1012
RJNW,2020-09-16 02:00,136.9618,37.2931,77.00,64.40,65.12,M,3.00,0.00,29.91,M,6.21,M,FEW,SCT,BKN,M,2000.00,18000.00,M,M,M,M,M,M,M,M,M,M,RJNW 160200Z VRB03KT 9999 FEW020 SCT180 BKN/// 25/18 Q1013
RJOA,2020-09-16 02:00,132.9194,34.4361,75.20,66.20,73.61,M,3.00,0.00,29.91,M,6.21,M,FEW,BKN,M,M,1500.00,7000.00,M,M,M,M,M,M,M,M,M,M,RJOA 160200Z VRB03KT 9999 FEW015 BKN070 24/19 Q1013
RJOB,2020-09-16 02:00,133.8553,34.7569,73.40,66.20,78.19,140.00,3.00,0.00,29.91,M,6.21,M,FEW,BKN,BKN,M,1000.00,1500.00,8000.00,M,M,M,M,M,M,M,M,M,RJOB 160200Z 14003KT 100V190 9999 FEW010 BKN015 BKN080 23/19 Q1013
RJOC,2020-09-16 02:00,132.8900,35.4136,78.80,69.80,73.95,80.00,3.00,0.00,29.85,M,6.21,M,FEW,BKN,BKN,M,3500.00,8000.00,12000.00,M,M,M,M,M,M,M,M,M,RJOC 160200Z 08003KT 050V110 9999 FEW035 BKN080 BKN120 26/21 Q1011
RJOH,2020-09-16 02:00,133.2392,35.4933,78.80,64.40,61.36,160.00,6.00,0.00,29.85,M,6.21,M,FEW,SCT,BKN,M,3000.00,6000.00,9000.00,M,M,M,M,M,M,M,M,M,RJOH 160200Z 16006KT 9999 FEW030 SCT060 BKN090 26/18 Q1011
RJKA,2020-09-16 02:00,129.7125,28.4308,87.80,80.60,79.31,200.00,9.00,0.00,29.88,M,6.21,M,FEW,BKN,M,M,1500.00,M,M,M,M,M,M,M,M,M,M,105.14,RJKA 160200Z 20009KT 9999 FEW015 BKN/// 31/27 Q1012
RJOK,2020-09-16 02:00,133.6694,33.5461,77.00,69.80,78.48,130.00,4.00,0.00,29.88,M,6.21,M,FEW,SCT,BKN,M,1000.00,5000.00,7000.00,M,VCSH,M,M,M,M,M,M,M,RJOK 160200Z 13004KT 090V160 9999 VCSH FEW010 SCT050 BKN070 25/21 Q1012
RJFU,2020-09-16 02:00,129.9136,32.9169,75.20,71.60,88.59,M,1.00,0.00,29.85,M,4.35,M,FEW,SCT,BKN,M,700.00,1000.00,2500.00,M,-SHRA,M,M,M,M,M,M,M,RJFU 160200Z VRB01KT 7000 -SHRA FEW007 SCT010 BKN025 24/22 Q1011
RJGG,2020-09-16 02:00,136.8054,34.8584,78.80,69.80,73.95,280.00,4.00,0.00,29.91,M,6.21,M,FEW,SCT,BKN,M,1500.00,16000.00,M,M,M,M,M,M,M,M,M,M,RJGG 160200Z 28004KT 9999 FEW015 SCT160 BKN/// 26/21 Q1013 BECMG TL0230 24005KT
RJKI,2020-09-16 02:00,129.9281,28.3213,87.80,80.60,79.31,210.00,9.00,0.00,29.88,M,6.21,M,FEW,M,M,M,1700.00,M,M,M,M,M,M,M,M,M,M,105.14,RJKI 160200Z AUTO 21009KT 170V240 9999 FEW017 31/27 Q1012
ROIG,2020-09-16 02:00,124.1633,24.3367,89.60,82.40,79.45,160.00,10.00,0.00,29.83,M,6.21,M,SCT,M,M,M,1300.00,M,M,M,M,M,M,M,M,M,M,111.44,ROIG 160200Z 16010KT 130V200 9999 SCT013 32/28 Q1010
ROMD,2020-09-16 02:00,131.2286,25.8289,86.00,78.80,79.18,140.00,6.00,0.00,29.91,M,6.21,M,FEW,M,M,M,1800.00,M,M,M,M,M,M,M,M,M,M,99.38,ROMD 160200Z AUTO 14006KT 080V170 9999 FEW018 30/26 Q1013
ROMY,2020-09-16 02:00,125.2767,24.7933,86.00,77.00,74.61,150.00,11.00,0.00,29.85,M,6.21,M,SCT,BKN,M,M,1700.00,M,M,M,M,M,M,M,M,M,M,97.15,ROMY 160200Z 15011KT 120V180 9999 SCT017 BKN/// 30/25 Q1011
RORY,2020-09-16 02:00,128.4020,27.0440,87.80,80.60,79.31,160.00,7.00,0.00,29.88,M,6.21,M,NCD,M,M,M,M,M,M,M,M,M,M,M,M,M,M,105.14,RORY 160200Z AUTO 16007KT 130V190 9999 NCD 31/27 Q1012
RJDC,2020-09-16 02:00,131.2786,33.9300,77.00,69.80,78.48,160.00,8.00,0.00,29.85,M,6.21,M,FEW,SCT,BKN,M,1000.00,1500.00,5000.00,M,M,M,M,M,M,M,M,M,RJDC 160200Z 16008KT 9999 FEW010 SCT015 BKN050 25/21 Q1011
RJOM,2020-09-16 02:00,132.6997,33.8272,78.80,69.80,73.95,310.00,4.00,0.00,29.85,M,6.21,M,FEW,SCT,BKN,M,1000.00,5000.00,7000.00,M,M,M,M,M,M,M,M,M,RJOM 160200Z 31004KT 9999 FEW010 SCT050 BKN070 26/21 Q1011
RJFS,2020-09-16 02:00,130.3000,33.1500,75.20,73.40,94.14,120.00,4.00,0.00,29.85,M,4.97,M,FEW,SCT,BKN,M,500.00,1500.00,6000.00,M,-SHRA,M,M,M,M,M,M,M,RJFS 160200Z 12004KT 080V150 8000 -SHRA FEW005 SCT015 BKN060 24/23 Q1011
RJFT,2020-09-16 02:00,130.8553,32.8372,73.40,71.60,94.10,M,2.00,0.00,29.88,M,6.21,M,FEW,SCT,BKN,M,100.00,3000.00,4500.00,M,M,M,M,M,M,M,M,M,RJFT 160200Z VRB02KT 9999 FEW001 SCT030 BKN045 23/22 Q1012
RJOT,2020-09-16 02:00,134.0167,34.2167,77.00,66.20,69.33,30.00,3.00,0.00,29.88,M,6.21,M,FEW,SCT,BKN,M,1500.00,7000.00,9000.00,M,M,M,M,M,M,M,M,M,RJOT 160200Z 03003KT 310V100 9999 FEW015 SCT070 BKN090 25/19 Q1012
RJSK,2020-09-16 02:00,140.2167,39.6167,77.00,64.40,65.12,160.00,6.00,0.00,29.94,M,6.21,M,FEW,BKN,M,M,3000.00,M,M,M,M,M,M,M,M,M,M,M,RJSK 160200Z 16006KT 120V190 9999 FEW030 BKN/// 25/18 Q1014
RJOO,2020-09-16 02:00,135.4392,34.7844,82.40,68.00,61.81,50.00,5.00,0.00,29.88,M,6.21,M,FEW,BKN,M,M,3000.00,12000.00,M,M,M,M,M,M,M,M,M,85.38,RJOO 160200Z 05005KT 020V100 9999 FEW030 BKN120 28/20 Q1012
RJOR,2020-09-16 02:00,134.1650,35.5300,78.80,68.00,69.52,290.00,4.00,0.00,29.85,M,6.21,M,FEW,SCT,BKN,M,4000.00,13000.00,15000.00,M,M,M,M,M,M,M,M,M,RJOR 160200Z 29004KT 270V330 9999 FEW040 SCT130 BKN150 26/20 Q1011
RJOW,2020-09-16 02:00,131.7903,34.6764,78.80,68.00,69.52,170.00,8.00,0.00,29.85,M,6.21,M,FEW,BKN,BKN,M,2000.00,7000.00,M,M,-SHRA,M,M,M,M,M,M,M,RJOW 160200Z 17008KT 140V200 9999 -SHRA FEW020 BKN070 BKN/// 26/20 Q1011
RJOY,2020-09-16 02:00,135.6006,34.5967,82.40,68.00,61.81,130.00,4.00,0.00,29.88,M,6.21,M,FEW,SCT,BKN,M,3000.00,8000.00,12000.00,M,M,M,M,M,M,M,M,85.38,RJOY 160200Z 13004KT 060V200 9999 FEW030 SCT080 BKN120 28/20 Q1012
RJSA,2020-09-16 02:00,140.6886,40.7333,75.20,62.60,64.91,10.00,5.00,0.00,29.94,M,6.21,M,FEW,SCT,M,M,3000.00,4000.00,M,M,M,M,M,M,M,M,M,M,RJSA 160200Z 01005KT 330V040 9999 FEW030 SCT040 24/17 Q1014
RJSN,2020-09-16 02:00,139.1117,37.9558,77.00,68.00,73.78,360.00,6.00,0.00,29.91,M,6.21,M,FEW,SCT,BKN,M,3000.00,17000.00,M,M,M,M,M,M,M,M,M,M,RJSN 160200Z 36006KT 9999 FEW030 SCT170 BKN/// 25/20 Q1013
RJSS,2020-09-16 02:00,140.9169,38.1397,75.20,66.20,73.61,100.00,7.00,0.00,29.94,M,6.21,M,FEW,BKN,M,M,1000.00,M,M,M,M,M,M,M,M,M,M,M,RJSS 160200Z 10007KT 9999 FEW010 BKN/// 24/19 Q1014
RJTF,2020-09-16 02:00,139.5281,35.6717,77.00,66.20,69.33,M,2.00,0.00,29.94,M,6.21,M,FEW,SCT,BKN,M,2000.00,5000.00,8000.00,M,M,M,M,M,M,M,M,M,RJTF 160200Z VRB02KT 9999 FEW020 SCT050 BKN080 25/19 Q1014
RJTO,2020-09-16 02:00,139.3603,34.7819,77.00,73.40,88.67,20.00,9.00,0.00,29.94,M,6.21,M,FEW,BKN,BKN,M,1000.00,1500.00,2000.00,M,M,M,M,M,M,M,M,M,RJTO 160200Z 02009KT 9999 FEW010 BKN015 BKN020 25/23 Q1014
RJTT,2020-09-16 02:00,139.7811,35.5533,77.00,68.00,73.78,20.00,4.00,0.00,29.94,M,6.21,M,FEW,BKN,M,M,1500.00,7000.00,M,M,M,M,M,M,M,M,M,M,RJTT 160200Z 02004KT 9999 FEW015 BKN070 25/20 Q1014 NOSIG
RORS,2020-09-16 02:00,125.1447,24.8267,87.80,80.60,79.31,170.00,11.00,0.00,29.85,M,6.21,M,SCT,BKN,M,M,1700.00,M,M,M,M,M,M,M,M,M,M,105.14,RORS 160200Z 17011KT 9999 SCT017 BKN/// 31/27 Q1011
RJNS,2020-09-16 02:00,138.1894,34.7961,80.60,69.80,69.71,60.00,5.00,0.00,29.94,M,6.21,M,FEW,SCT,BKN,M,2500.00,15000.00,M,M,M,M,M,M,M,M,M,83.90,RJNS 160200Z 06005KT 360V100 9999 FEW025 SCT150 BKN/// 27/21 Q1014
RJBD,2020-09-16 02:00,135.3644,33.6622,77.00,71.60,83.44,160.00,7.00,0.00,29.88,M,6.21,M,FEW,SCT,BKN,M,2000.00,5000.00,8000.00,M,M,M,M,M,M,M,M,M,RJBD 160200Z 16007KT 9999 FEW020 SCT050 BKN080 25/22 Q1012
RJFG,2020-09-16 02:00,130.9917,30.6050,80.60,73.40,78.76,270.00,7.00,0.00,29.91,M,6.21,M,FEW,SCT,BKN,M,1000.00,17000.00,M,M,M,M,M,M,M,M,M,85.32,RJFG 160200Z 27007KT 240V310 9999 FEW010 SCT170 BKN/// 27/23 Q1013
RJTI,2020-09-16 02:00,139.8500,35.6300,78.80,68.00,69.52,M,2.00,0.00,29.94,M,6.21,M,FEW,BKN,M,M,1500.00,8000.00,M,M,M,M,M,M,M,M,M,M,RJTI 160200Z VRB02KT 9999 FEW015 BKN080 26/20 Q1014
RJOS,2020-09-16 02:00,134.6092,34.1322,77.00,69.80,78.48,170.00,4.00,0.00,29.88,M,6.21,M,SCT,BKN,M,M,2500.00,8000.00,M,M,M,M,M,M,M,M,M,M,RJOS 160200Z 17004KT 9999 SCT025 BKN080 25/21 Q1012
RJSY,2020-09-16 02:00,139.7872,38.8122,78.80,66.20,65.33,120.00,4.00,0.00,29.91,M,6.21,M,FEW,SCT,BKN,M,2000.00,8000.00,M,M,M,M,M,M,M,M,M,M,RJSY 160200Z 12004KT 360V170 9999 FEW020 SCT080 BKN/// 26/19 Q1013
RORK,2020-09-16 02:00,131.3333,25.9167,87.80,77.00,70.45,170.00,5.00,0.00,29.91,M,6.21,M,NCD,M,M,M,M,M,M,M,M,M,M,M,M,M,M,99.92,RORK 160200Z AUTO 17005KT 9999 NCD 31/25 Q1013
ROYN,2020-09-16 02:00,122.9780,24.4670,87.80,80.60,79.31,190.00,12.00,0.00,29.83,M,6.21,M,FEW,M,M,M,1700.00,M,M,M,M,M,M,M,M,M,M,105.14,ROYN 160200Z AUTO 19012KT 150V220 9999 FEW017 31/27 Q1010
ROAH,2020-09-16 02:00,127.6458,26.1958,87.80,80.60,79.31,190.00,9.00,0.00,29.88,M,6.21,M,FEW,BKN,M,M,1300.00,M,M,M,VCSH,M,M,M,M,M,M,105.14,ROAH 160200Z 19009KT 9999 VCSH FEW013 BKN/// 31/27 Q1012 RMK 2CU013 A2989
RJOF,2020-09-16 02:01,131.5464,34.0344,75.20,69.80,83.32,130.00,9.00,0.00,29.85,M,6.21,M,FEW,BKN,BKN,M,600.00,1500.00,4000.00,M,M,M,M,M,M,M,M,M,RJOF 160201Z 13009KT 9999 FEW006 BKN015 BKN040 24/21 Q1011 RMK 1ST006 5CU015 7CU040 A2988
RODN,2020-09-16 02:03,127.7676,26.3556,86.00,80.60,83.99,230.00,7.00,0.00,29.89,1012.70,10.00,M,SCT,SCT,M,M,2300.00,3400.00,M,M,M,M,M,M,M,M,M,101.90,RODN 160203Z 23007KT 10SM SCT023 SCT034 30/27 A2989 RMK SLP127 $
RJTY,2020-09-16 02:04,139.3485,35.7485,73.40,68.00,83.21,30.00,3.00,0.00,30.01,1016.00,10.00,M,SCT,SCT,M,M,1700.00,19000.00,M,M,M,M,M,M,M,M,M,M,RJTY 160204Z 03003KT 10SM SCT017 SCT190 23/20 A3001 RMK SLP160 FZRANO $
RJCB,2020-09-16 02:06,143.2172,42.7333,66.20,64.40,93.92,M,2.00,0.00,30.03,M,6.21,M,SCT,BKN,M,M,500.00,600.00,M,M,M,M,M,M,M,M,M,M,RJCB 160206Z VRB02KT 9999 SCT005 BKN006 19/18 Q1017 RMK 4ST005 7ST006 A3003
RJTY,2020-09-16 02:11,139.3485,35.7485,73.40,68.00,83.21,0.00,0.00,0.00,30.01,1016.00,10.00,M,SCT,BKN,BKN,M,1700.00,2500.00,19000.00,M,M,M,M,M,M,M,M,M,RJTY 160211Z AUTO 00000KT 10SM SCT017 BKN025 BKN190 23/20 A3001 RMK AO2 CIG 017V190 BKN025 V SCT SLP160 FZRANO $
RJAH,2020-09-16 02:14,140.4147,36.1817,78.80,66.20,65.33,100.00,6.00,0.00,29.94,M,6.21,M,SCT,BKN,BKN,M,1500.00,10000.00,25000.00,M,M,M,M,M,M,M,M,M,RJAH 160214Z 10006KT 060V140 9999 SCT015 BKN100 BKN250 26/19 Q1014 RMK 3CU015 5AC100 A2994
RJFK,2020-09-16 02:17,130.7194,31.8033,73.40,73.40,100.00,90.00,1.00,0.00,29.91,M,2.49,M,FEW,SCT,BKN,M,200.00,1200.00,2000.00,M,-SHRA BCFG BR,M,M,M,M,M,M,M,RJFK 160217Z 09001KT 4000 R34/P2000N -SHRA BCFG BR FEW002 SCT012 BKN020 23/23 Q1013 RMK 1ST002 3CU012 6CU020 A2992 1500N FG ALL QUAD
RJCC,2020-09-16 02:26,141.6926,42.7742,71.60,68.00,88.43,150.00,15.00,0.00,29.94,M,6.21,25.00,FEW,SCT,BKN,M,800.00,1200.00,2000.00,M,-SHRA,M,M,M,M,M,M,M,RJCC 160226Z 15015G25KT 9999 -SHRA FEW008 SCT012 BKN020 22/20 Q1014 RMK 1ST008 4ST012 6CU020 A2996
RJTY,2020-09-16 02:26,139.3485,35.7485,75.20,68.00,78.34,0.00,0.00,0.00,30.01,1016.00,10.00,M,FEW,SCT,M,M,2500.00,7000.00,M,M,M,M,M,M,M,M,M,M,RJTY 160226Z AUTO 00000KT 10SM FEW025 SCT070 24/20 A3001 RMK AO2 SLP160 FZRANO $
RJTU,2020-09-16 02:28,139.8708,36.5144,78.80,64.40,61.36,150.00,3.00,0.00,29.97,M,6.21,M,FEW,SCT,BKN,M,2000.00,3000.00,12000.00,M,M,M,M,M,M,M,M,M,RJTU 160228Z 15003KT 080V210 9999 FEW020 SCT030 BKN120 26/18 Q1015 RMK 1CU020 3CU030 5AC120 A2998
RJAA,2020-09-16 02:30,140.3856,35.7653,78.80,69.80,73.95,20.00,8.00,0.00,29.91,M,6.21,M,FEW,SCT,BKN,M,1500.00,2000.00,M,M,M,M,M,M,M,M,M,M,RJAA 160230Z 02008KT 9999 FEW015 SCT020 BKN/// 26/21 Q1013 NOSIG
RJCC,2020-09-16 02:30,141.6926,42.7742,73.40,68.00,83.21,150.00,16.00,0.00,29.94,M,6.21,M,FEW,SCT,BKN,M,800.00,1200.00,2000.00,M,-SHRA,M,M,M,M,M,M,M,RJCC 160230Z 15016KT 9999 -SHRA FEW008 SCT012 BKN020 23/20 Q1014
RJCK,2020-09-16 02:30,144.1931,43.0408,68.00,64.40,88.26,160.00,13.00,0.00,30.03,M,6.21,M,FEW,SCT,BKN,M,300.00,500.00,800.00,M,M,M,M,M,M,M,M,M,RJCK 160230Z 16013KT 9999 FEW003 SCT005 BKN008 20/18 Q1017 RMK 1ST003 3ST005 5ST008 A3004
RJFF,2020-09-16 02:30,130.4517,33.5844,73.40,71.60,94.10,M,2.00,0.00,29.85,M,3.73,M,FEW,SCT,BKN,M,500.00,800.00,1200.00,M,-SHRA,M,M,M,M,M,M,M,RJFF 160230Z VRB02KT 6000 -SHRA FEW005 SCT008 BKN012 23/22 Q1011 NOSIG
RJBB,2020-09-16 02:30,135.2328,34.4342,78.80,68.00,69.52,20.00,6.00,0.00,29.88,M,6.21,M,FEW,SCT,BKN,M,2500.00,10000.00,M,M,M,M,M,M,M,M,M,M,RJBB 160230Z 02006KT 9999 FEW025 SCT100 BKN/// 26/20 Q1012 NOSIG
RJGG,2020-09-16 02:30,136.8054,34.8584,78.80,69.80,73.95,270.00,3.00,0.00,29.88,M,6.21,M,FEW,BKN,M,M,1500.00,16000.00,M,M,M,M,M,M,M,M,M,M,RJGG 160230Z 27003KT 9999 FEW015 BKN160 26/21 Q1012 BECMG TL0300 24005KT
RJTT,2020-09-16 02:30,139.7811,35.5533,77.00,68.00,73.78,40.00,3.00,0.00,29.94,M,6.21,M,FEW,BKN,M,M,1500.00,7000.00,M,M,M,M,M,M,M,M,M,M,RJTT 160230Z 04003KT 350V070 9999 FEW015 BKN070 25/20 Q1014 NOSIG
ROAH,2020-09-16 02:30,127.6458,26.1958,87.80,80.60,79.31,200.00,11.00,0.00,29.88,M,6.21,M,FEW,FEW,BKN,M,1500.00,2000.00,M,M,VCSH,M,M,M,M,M,M,105.14,ROAH 160230Z 20011KT 9999 VCSH FEW015 FEW020TCU BKN/// 31/27 Q1012
RJDM,2020-09-16 02:33,130.4136,33.3253,73.40,71.60,94.10,M,2.00,0.00,29.85,M,4.97,M,FEW,SCT,BKN,M,400.00,800.00,2000.00,M,-SHRA,M,M,M,M,M,M,M,RJDM 160233Z VRB02KT 8000 -SHRA FEW004 SCT008 BKN020 23/22 Q1011 RMK 1ST004 3ST008 5CU020 A2987
RJNY,2020-09-16 02:33,138.2981,34.8128,82.40,69.80,65.74,80.00,7.00,0.00,29.91,M,6.21,M,FEW,SCT,BKN,M,1500.00,16000.00,23000.00,M,M,M,M,M,M,M,M,86.22,RJNY 160233Z 08007KT 040V100 9999 FEW015 SCT160 BKN230 28/21 Q1013 RMK 1CU015 4AC160 A2993
RODN,2020-09-16 02:38,127.7676,26.3556,86.00,80.60,83.99,220.00,12.00,0.00,29.89,1012.70,10.00,M,BKN,BKN,M,M,2400.00,4700.00,M,M,M,M,M,M,M,M,M,101.90,RODN 160238Z AUTO 22012KT 10SM BKN024 BKN047 30/27 A2989 RMK AO2 DZB0156E20 SLP127 $
RJNY,2020-09-16 02:40,138.2981,34.8128,80.60,68.00,65.54,80.00,7.00,0.00,29.91,M,6.21,M,FEW,BKN,BKN,M,1500.00,16000.00,23000.00,M,M,M,M,M,M,M,M,83.29,RJNY 160240Z 08007KT 040V100 9999 FEW015 BKN160 BKN230 27/20 Q1013 RMK 1CU015 5AC160 A2992
RJCB,2020-09-16 02:44,143.2172,42.7333,68.00,62.60,82.86,170.00,5.00,0.00,30.00,M,6.21,M,SCT,BKN,M,M,600.00,1000.00,M,M,M,M,M,M,M,M,M,M,RJCB 160244Z 17005KT 120V210 9999 SCT006 BKN010 20/17 Q1016 RMK 4ST006 7ST010 A3003
RJCC,2020-09-16 02:49,141.6926,42.7742,71.60,66.20,83.09,140.00,16.00,0.00,29.94,M,3.11,M,FEW,BKN,BKN,M,800.00,1200.00,2000.00,M,SHRA BR,M,M,M,M,M,M,M,RJCC 160249Z 14016KT 5000 SHRA BR FEW008 BKN012 BKN020 22/19 Q1014 RMK 1ST008 5ST012 6CU020 A2996
RJOI,2020-09-16 02:55,132.2357,34.1439,78.10,66.90,68.49,120.00,3.00,0.00,29.88,1011.70,6.21,M,SCT,BKN,OVC,M,3000.00,6000.00,15000.00,M,M,M,M,M,M,M,M,M,RJOI 160255Z 12003KT 9999 SCT030 BKN060 OVC150 26/19 A2988 RMK SLP117 T02560194 58014
RJTY,2020-09-16 02:56,139.3485,35.7485,75.20,68.20,78.88,0.00,0.00,0.00,30.00,1015.70,10.00,M,FEW,M,M,M,17000.00,M,M,M,M,M,M,M,M,M,M,M,RJTY 160256Z AUTO 00000KT 10SM FEW170 24/20 A3000 RMK AO2 SLP157 60000 T02400201 57015 FZRANO $
RODN,2020-09-16 02:56,127.7676,26.3556,85.80,79.20,80.74,190.00,6.00,T,29.88,1012.30,10.00,M,OVC,M,M,M,2100.00,M,M,M,M,M,M,M,M,M,M,99.56,RODN 160256Z AUTO 19006KT 10SM OVC021 30/26 A2988 RMK AO2 DZB0156E20 SLP123 P0000 60000 T02990262 58005 $
ROTM,2020-09-16 02:56,127.7565,26.2743,87.10,75.90,69.45,210.00,8.00,0.00,29.90,1010.90,6.21,M,SCT,BKN,M,M,1500.00,5000.00,M,M,VCSH,M,M,M,M,M,M,97.56,ROTM 160256Z 21008KT 9999 VCSH SCT015 BKN050 31/24 A2990 RMK SLP109 T03060244 57010
RJSC,2020-09-16 03:00,140.3711,38.4119,78.80,66.20,65.33,140.00,3.00,0.00,29.91,M,6.21,M,FEW,BKN,M,M,2000.00,M,M,M,M,M,M,M,M,M,M,M,RJSC 160300Z 14003KT 080V190 9999 FEW020 BKN/// 26/19 Q1013
RJSD,2020-09-16 03:00,138.4139,38.0602,78.80,68.00,69.52,50.00,5.00,0.00,29.88,M,6.21,M,NSC,M,M,M,M,M,M,M,M,M,M,M,M,M,M,M,RJSD 160300Z AUTO 05005KT 360V100 9999 NSC 26/20 Q1012
RJSF,2020-09-16 03:00,140.4281,37.2275,75.20,66.20,73.61,M,2.00,0.00,29.97,M,6.21,M,FEW,BKN,M,M,2000.00,M,M,M,M,M,M,M,M,M,M,M,RJSF 160300Z VRB02KT 9999 FEW020 BKN/// 24/19 Q1015
RJFR,2020-09-16 03:00,131.0350,33.8456,77.00,69.80,78.48,150.00,5.00,0.00,29.83,M,6.21,M,FEW,BKN,BKN,M,1200.00,3000.00,6000.00,M,M,M,M,M,M,M,M,M,RJFR 160300Z 15005KT 9999 FEW012 BKN030 BKN060 25/21 Q1010
RJSR,2020-09-16 03:00,140.3714,40.1919,80.60,66.20,61.58,M,3.00,0.00,29.91,M,6.21,M,FEW,SCT,BKN,M,3000.00,4000.00,M,M,M,M,M,M,M,M,M,82.75,RJSR 160300Z VRB03KT 9999 FEW030 SCT040 BKN/// 27/19 Q1013
RJSI,2020-09-16 03:00,141.1353,39.4286,78.80,64.40,61.36,180.00,6.00,0.00,29.94,M,6.21,M,FEW,BKN,M,M,4000.00,M,M,M,M,M,M,M,M,M,M,M,RJSI 160300Z 18006KT 130V220 9999 FEW040 BKN/// 26/18 Q1014
RJSM,2020-09-16 03:00,141.3684,40.7032,73.40,68.00,83.21,100.00,10.00,0.00,29.94,M,6.21,M,FEW,M,M,M,1000.00,M,M,M,M,M,M,M,M,M,M,M,RJSM 160300Z 10010KT 080V140 9999 FEW010 23/20 Q1014
RJAA,2020-09-16 03:00,140.3856,35.7653,78.80,69.80,73.95,50.00,7.00,0.00,29.91,M,6.21,M,FEW,SCT,BKN,M,1500.00,2000.00,9000.00,M,M,M,M,M,M,M,M,M,RJAA 160300Z 05007KT 9999 FEW015 SCT020 BKN090 26/21 Q1013 NOSIG
RJAF,2020-09-16 03:00,137.9228,36.1667,73.40,60.80,64.69,340.00,7.00,0.00,29.97,M,6.21,M,FEW,BKN,M,M,2500.00,14000.00,M,M,M,M,M,M,M,M,M,M,RJAF 160300Z 34007KT 290V360 9999 FEW025 BKN140 23/16 Q1015
RJAH,2020-09-16 03:00,140.4147,36.1817,78.80,64.40,61.36,70.00,7.00,0.00,29.94,M,6.21,M,SCT,BKN,BKN,M,1500.00,10000.00,25000.00,M,M,M,M,M,M,M,M,M,RJAH 160300Z 07007KT 030V120 9999 SCT015 BKN100 BKN250 26/18 Q1014
RJBT,2020-09-16 03:00,134.7869,35.5128,80.60,66.20,61.58,170.00,7.00,0.00,29.85,M,6.21,M,FEW,SCT,BKN,M,3000.00,15000.00,M,M,M,M,M,M,M,M,M,82.75,RJBT 160300Z 17007KT 9999 FEW030 SCT150 BKN/// 27/19 Q1011
RJCB,2020-09-16 03:00,143.2172,42.7333,69.80,66.20,88.34,170.00,8.00,0.00,30.00,M,6.21,M,FEW,BKN,M,M,1000.00,1300.00,M,M,M,M,M,M,M,M,M,M,RJCB 160300Z 17008KT 9999 FEW010 BKN013 21/19 Q1016
RJCC,2020-09-16 03:00,141.6926,42.7742,71.60,68.00,88.43,140.00,15.00,0.00,29.94,M,6.21,M,FEW,BKN,BKN,M,800.00,1200.00,1800.00,M,-SHRA,M,M,M,M,M,M,M,RJCC 160300Z 14015KT 9999 -SHRA FEW008 BKN012 BKN018 22/20 Q1014
RJCH,2020-09-16 03:00,140.8219,41.7700,71.60,64.40,78.04,M,1.00,0.00,29.94,M,6.21,M,FEW,SCT,BKN,M,2000.00,3000.00,6000.00,M,M,M,M,M,M,M,M,M,RJCH 160300Z VRB01KT 9999 FEW020 SCT030 BKN060 22/18 Q1014
RJCK,2020-09-16 03:00,144.1931,43.0408,68.00,64.40,88.26,160.00,13.00,0.00,30.03,M,6.21,M,FEW,SCT,BKN,M,300.00,500.00,800.00,M,M,M,M,M,M,M,M,M,RJCK 160300Z 16013KT 9999 FEW003 SCT005 BKN008 20/18 Q1017
RJCM,2020-09-16 03:00,144.1642,43.8806,73.40,60.80,64.69,150.00,13.00,0.00,29.97,M,6.21,M,FEW,SCT,BKN,M,2000.00,3000.00,4000.00,M,M,M,M,M,M,M,M,M,RJCM 160300Z 15013KT 9999 FEW020 SCT030 BKN040 23/16 Q1015
RJCN,2020-09-16 03:00,144.9600,43.5775,69.80,62.60,77.90,160.00,8.00,0.00,30.03,M,6.21,M,FEW,SCT,M,M,2000.00,3500.00,M,M,M,M,M,M,M,M,M,M,RJCN 160300Z 16008KT 130V190 9999 FEW020 SCT035 21/17 Q1017
RJCO,2020-09-16 03:00,141.3814,43.1175,75.20,68.00,78.34,140.00,15.00,0.00,29.94,M,6.21,M,SCT,BKN,M,M,1000.00,4500.00,M,M,M,M,M,M,M,M,M,M,RJCO 160300Z 14015KT 9999 SCT010 BKN045 24/20 Q1014
RJCW,2020-09-16 03:00,141.8022,45.4044,75.20,62.60,64.91,200.00,13.00,0.00,29.88,M,6.21,M,FEW,SCT,BKN,M,2500.00,4000.00,5000.00,M,M,M,M,M,M,M,M,M,RJCW 160300Z 20013KT 9999 FEW025 SCT040 BKN050 24/17 Q1012
RJDT,2020-09-16 03:00,129.3306,34.2850,75.20,68.00,78.34,270.00,4.00,0.00,29.83,M,6.21,M,FEW,SCT,BKN,M,1500.00,3500.00,4000.00,M,M,M,M,M,M,M,M,M,RJDT 160300Z 27004KT 180V330 9999 FEW015 SCT035 BKN040 24/20 Q1010
RJEB,2020-09-16 03:00,143.4040,44.3039,75.20,64.40,69.14,30.00,4.00,0.00,29.91,M,6.21,M,FEW,M,M,M,3000.00,M,M,M,M,M,M,M,M,M,M,M,RJEB 160300Z 03004KT 330V070 9999 FEW030 24/18 Q1013
RJEC,2020-09-16 03:00,142.4475,43.6708,73.40,51.80,46.71,210.00,12.00,0.00,29.94,M,6.21,M,FEW,SCT,M,M,3000.00,12000.00,M,M,M,M,M,M,M,M,M,M,RJEC 160300Z 21012KT 170V240 9999 FEW030 SCT120 23/11 Q1014
RJFE,2020-09-16 03:00,128.8328,32.6664,73.40,69.80,88.51,30.00,3.00,0.00,29.85,M,6.21,M,FEW,SCT,BKN,M,1500.00,2000.00,3000.00,M,-SHRA,M,M,M,M,M,M,M,RJFE 160300Z 03003KT 320V050 9999 -SHRA FEW015 SCT020 BKN030 23/21 Q1011
RJFF,2020-09-16 03:00,130.4517,33.5844,73.40,71.60,94.10,M,1.00,0.00,29.85,M,2.17,M,FEW,SCT,BKN,M,500.00,800.00,1200.00,M,-SHRA BR,M,M,M,M,M,M,M,RJFF 160300Z VRB01KT 3500 -SHRA BR FEW005 SCT008 BKN012 23/22 Q1011 NOSIG
RJFK,2020-09-16 03:00,130.7194,31.8033,73.40,73.40,100.00,M,2.00,0.00,29.88,M,2.17,M,FEW,SCT,BKN,M,100.00,500.00,1500.00,M,-SHRA BCFG BR,M,M,M,M,M,M,M,RJFK 160300Z VRB02KT 3500 R34/P2000N -SHRA BCFG BR FEW001 SCT005 BKN015 23/23 Q1012
RJFM,2020-09-16 03:00,131.4486,31.8772,75.20,73.40,94.14,10.00,3.00,0.00,29.85,M,4.97,M,FEW,SCT,BKN,M,300.00,600.00,900.00,M,-SHRA,M,M,M,M,M,M,M,RJFM 160300Z 01003KT 320V040 8000 -SHRA FEW003 SCT006 BKN009 24/23 Q1011
RJFO,2020-09-16 03:00,131.7372,33.4794,75.20,71.60,88.59,150.00,10.00,0.00,29.85,M,6.21,M,FEW,SCT,BKN,M,700.00,1500.00,4500.00,M,M,M,M,M,M,M,M,M,RJFO 160300Z 15010KT 9999 FEW007 SCT015 BKN045 24/22 Q1011
RJAW,2020-09-16 03:00,141.3227,24.7840,87.80,77.00,70.45,140.00,8.00,0.00,29.91,M,6.21,M,SCT,M,M,M,1500.00,M,M,M,VCSH,M,M,M,M,M,M,99.92,RJAW 160300Z 14008KT 100V190 9999 VCSH SCT015 31/25 Q1013 RMK 3CU015 A2992
RJBB,2020-09-16 03:00,135.2328,34.4342,78.80,69.80,73.95,20.00,6.00,0.00,29.88,M,6.21,M,FEW,SCT,BKN,M,2500.00,10000.00,M,M,M,M,M,M,M,M,M,M,RJBB 160300Z 02006KT 9999 FEW025 SCT100 BKN/// 26/21 Q1012 NOSIG
RJBE,2020-09-16 03:00,135.2239,34.6328,80.60,66.20,61.58,M,3.00,0.00,29.88,M,6.21,M,FEW,SCT,BKN,M,2500.00,11000.00,14000.00,M,M,M,M,M,M,M,M,82.75,RJBE 160300Z VRB03KT 9999 FEW025 SCT110 BKN140 27/19 Q1012
RJNK,2020-09-16 03:00,136.4075,36.3939,80.60,66.20,61.58,340.00,8.00,0.00,29.85,M,6.21,M,FEW,BKN,BKN,M,5000.00,18000.00,23000.00,M,M,M,M,M,M,M,M,82.75,RJNK 160300Z 34008KT 9999 FEW050 BKN180 BKN230 27/19 Q1011
RJNT,2020-09-16 03:00,137.1875,36.6483,80.60,64.40,57.84,20.00,5.00,0.00,29.85,M,6.21,M,FEW,SCT,BKN,M,3000.00,17000.00,19000.00,M,M,M,M,M,M,M,M,82.27,RJNT 160300Z 02005KT 340V070 9999 FEW030 SCT170 BKN190 27/18 Q1011
RJNW,2020-09-16 03:00,136.9618,37.2931,77.00,62.60,61.13,M,3.00,0.00,29.91,M,6.21,M,FEW,SCT,BKN,M,2000.00,15000.00,18000.00,M,M,M,M,M,M,M,M,M,RJNW 160300Z VRB03KT 9999 FEW020 SCT150 BKN180 25/17 Q1013
RJOA,2020-09-16 03:00,132.9194,34.4361,75.20,66.20,73.61,M,3.00,0.00,29.91,M,6.21,M,FEW,SCT,BKN,M,1500.00,7000.00,11000.00,M,M,M,M,M,M,M,M,M,RJOA 160300Z VRB03KT 9999 FEW015 SCT070 BKN110 24/19 Q1013
RJOB,2020-09-16 03:00,133.8553,34.7569,77.00,68.00,73.78,100.00,4.00,0.00,29.88,M,6.21,M,FEW,SCT,BKN,M,1000.00,1500.00,8000.00,M,M,M,M,M,M,M,M,M,RJOB 160300Z 10004KT 010V140 9999 FEW010 SCT015 BKN080 25/20 Q1012
RJOC,2020-09-16 03:00,132.8900,35.4136,78.80,68.00,69.52,10.00,3.00,0.00,29.83,M,6.21,M,FEW,BKN,M,M,3500.00,8000.00,M,M,M,M,M,M,M,M,M,M,RJOC 160300Z 01003KT 9999 FEW035 BKN080 26/20 Q1010
RJOH,2020-09-16 03:00,133.2392,35.4933,84.20,66.20,54.80,150.00,6.00,0.00,29.85,M,6.21,M,FEW,SCT,BKN,M,3000.00,6000.00,9000.00,M,M,M,M,M,M,M,M,86.50,RJOH 160300Z 15006KT 110V210 9999 FEW030 SCT060 BKN090 29/19 Q1011
RJKA,2020-09-16 03:00,129.7125,28.4308,87.80,78.80,74.77,210.00,10.00,0.00,29.85,M,6.21,M,FEW,BKN,M,M,1500.00,M,M,M,M,M,M,M,M,M,M,102.37,RJKA 160300Z 21010KT 9999 FEW015 BKN/// 31/26 Q1011
RJOK,2020-09-16 03:00,133.6694,33.5461,77.00,71.60,83.44,140.00,5.00,0.00,29.88,M,6.21,M,FEW,BKN,BKN,M,1500.00,4000.00,8000.00,M,VCSH,M,M,M,M,M,M,M,RJOK 160300Z 14005KT 9999 VCSH FEW015 BKN040 BKN080 25/22 Q1012
RJFU,2020-09-16 03:00,129.9136,32.9169,73.40,71.60,94.10,M,1.00,0.00,29.85,M,6.21,M,FEW,SCT,BKN,M,600.00,1000.00,2500.00,M,-SHRA,M,M,M,M,M,M,M,RJFU 160300Z VRB01KT 9999 -SHRA FEW006 SCT010 BKN025 23/22 Q1011
RJGG,2020-09-16 03:00,136.8054,34.8584,78.80,69.80,73.95,250.00,3.00,0.00,29.88,M,6.21,M,FEW,BKN,M,M,2000.00,15000.00,M,M,M,M,M,M,M,M,M,M,RJGG 160300Z 25003KT 210V280 9999 FEW020 BKN150 26/21 Q1012 NOSIG
RJKI,2020-09-16 03:00,129.9281,28.3213,86.00,78.80,79.18,200.00,8.00,0.00,29.88,M,6.21,M,SCT,SCT,M,M,1600.00,3800.00,M,M,M,M,M,M,M,M,M,99.38,RJKI 160300Z AUTO 20008KT 160V250 9999 SCT016 SCT038 30/26 Q1012
ROIG,2020-09-16 03:00,124.1633,24.3367,89.60,82.40,79.45,150.00,11.00,0.00,29.83,M,6.21,M,SCT,BKN,M,M,1400.00,M,M,M,M,M,M,M,M,M,M,111.44,ROIG 160300Z 15011KT 9999 SCT014 BKN/// 32/28 Q1010
ROMD,2020-09-16 03:00,131.2286,25.8289,87.80,80.60,79.31,140.00,6.00,0.00,29.91,M,6.21,M,NCD,M,M,M,M,M,M,M,M,M,M,M,M,M,M,105.14,ROMD 160300Z AUTO 14006KT 080V180 9999 NCD 31/27 Q1013
ROMY,2020-09-16 03:00,125.2767,24.7933,87.80,75.20,66.35,160.00,11.00,0.00,29.85,M,6.21,M,SCT,BKN,M,M,1800.00,M,M,M,M,M,M,M,M,M,M,97.76,ROMY 160300Z 16011KT 130V190 9999 SCT018 BKN/// 31/24 Q1011
RORY,2020-09-16 03:00,128.4020,27.0440,86.00,80.60,83.99,160.00,11.00,0.00,29.88,M,6.21,M,FEW,BKN,M,M,1200.00,3100.00,M,M,M,M,M,M,M,M,M,101.90,RORY 160300Z AUTO 16011KT 9999 FEW012 BKN031 30/27 Q1012
RJDC,2020-09-16 03:00,131.2786,33.9300,78.80,69.80,73.95,150.00,7.00,0.00,29.83,M,6.21,M,FEW,SCT,BKN,M,1500.00,4000.00,5000.00,M,M,M,M,M,M,M,M,M,RJDC 160300Z 15007KT 080V180 9999 FEW015 SCT040 BKN050 26/21 Q1010
RJOM,2020-09-16 03:00,132.6997,33.8272,77.00,71.60,83.44,230.00,3.00,0.00,29.85,M,6.21,M,FEW,SCT,BKN,M,1500.00,4500.00,7000.00,M,M,M,M,M,M,M,M,M,RJOM 160300Z 23003KT 9999 FEW015 SCT045 BKN070 25/22 Q1011
RJFS,2020-09-16 03:00,130.3000,33.1500,75.20,73.40,94.14,140.00,4.00,0.00,29.85,M,4.97,M,FEW,SCT,BKN,M,700.00,1500.00,2000.00,M,-SHRA,M,M,M,M,M,M,M,RJFS 160300Z 14004KT 8000 -SHRA FEW007 SCT015 BKN020 24/23 Q1011
RJFT,2020-09-16 03:00,130.8553,32.8372,75.20,71.60,88.59,M,1.00,0.00,29.88,M,6.21,M,FEW,BKN,M,M,100.00,2500.00,M,M,-RA,M,M,M,M,M,M,M,RJFT 160300Z VRB01KT 9999 -RA FEW001 BKN025 24/22 Q1012
RJOT,2020-09-16 03:00,134.0167,34.2167,78.80,69.80,73.95,100.00,3.00,0.00,29.88,M,6.21,M,FEW,SCT,BKN,M,2000.00,6000.00,9000.00,M,M,M,M,M,M,M,M,M,RJOT 160300Z 10003KT 050V140 9999 FEW020 SCT060 BKN090 26/21 Q1012
RJSK,2020-09-16 03:00,140.2167,39.6167,78.80,66.20,65.33,140.00,4.00,0.00,29.91,M,6.21,M,FEW,BKN,M,M,3000.00,M,M,M,M,M,M,M,M,M,M,M,RJSK 160300Z 14004KT 090V180 9999 FEW030 BKN/// 26/19 Q1013
RJOO,2020-09-16 03:00,135.4392,34.7844,84.20,68.00,58.32,M,2.00,0.00,29.85,M,6.21,M,FEW,BKN,M,M,3000.00,12000.00,M,M,M,M,M,M,M,M,M,87.40,RJOO 160300Z VRB02KT 9999 FEW030 BKN120 29/20 Q1011 RMK 1CU030 6AC120 A2988
RJOR,2020-09-16 03:00,134.1650,35.5300,80.60,69.80,69.71,300.00,4.00,0.00,29.83,M,6.21,M,FEW,SCT,BKN,M,4000.00,12000.00,14000.00,M,M,M,M,M,M,M,M,83.90,RJOR 160300Z 30004KT 9999 FEW040 SCT120 BKN140 27/21 Q1010
RJOW,2020-09-16 03:00,131.7903,34.6764,77.00,68.00,73.78,170.00,5.00,0.00,29.83,M,6.21,M,FEW,BKN,M,M,2000.00,7000.00,M,M,-SHRA,M,M,M,M,M,M,M,RJOW 160300Z 17005KT 140V200 9999 -SHRA FEW020 BKN070 25/20 Q1010
RJOY,2020-09-16 03:00,135.6006,34.5967,84.20,64.40,51.47,90.00,3.00,0.00,29.85,M,6.21,M,FEW,SCT,BKN,M,3000.00,10000.00,M,M,M,M,M,M,M,M,M,85.71,RJOY 160300Z 09003KT 040V140 9999 FEW030 SCT100 BKN/// 29/18 Q1011
RJSA,2020-09-16 03:00,140.6886,40.7333,75.20,64.40,69.14,30.00,5.00,0.00,29.94,M,6.21,M,FEW,SCT,M,M,2000.00,3500.00,M,M,M,M,M,M,M,M,M,M,RJSA 160300Z 03005KT 9999 FEW020 SCT035 24/18 Q1014
RJSN,2020-09-16 03:00,139.1117,37.9558,78.80,69.80,73.95,350.00,6.00,0.00,29.88,M,6.21,M,FEW,SCT,BKN,M,3000.00,17000.00,M,M,M,M,M,M,M,M,M,M,RJSN 160300Z 35006KT 9999 FEW030 SCT170 BKN/// 26/21 Q1012
RJSS,2020-09-16 03:00,140.9169,38.1397,75.20,64.40,69.14,120.00,7.00,0.00,29.94,M,6.21,M,FEW,BKN,M,M,1500.00,M,M,M,M,M,M,M,M,M,M,M,RJSS 160300Z 12007KT 9999 FEW015 BKN/// 24/18 Q1014
RJTF,2020-09-16 03:00,139.5281,35.6717,78.80,68.00,69.52,M,2.00,0.00,29.94,M,6.21,M,FEW,SCT,BKN,M,2000.00,6000.00,8000.00,M,M,M,M,M,M,M,M,M,RJTF 160300Z VRB02KT 9999 FEW020 SCT060 BKN080 26/20 Q1014
RJTO,2020-09-16 03:00,139.3603,34.7819,77.00,73.40,88.67,30.00,10.00,0.00,29.91,M,6.21,M,FEW,SCT,BKN,M,1000.00,1500.00,M,M,M,M,M,M,M,M,M,M,RJTO 160300Z 03010KT 9999 FEW010 SCT015 BKN/// 25/23 Q1013
RJTT,2020-09-16 03:00,139.7811,35.5533,78.80,68.00,69.52,10.00,3.00,0.00,29.91,M,6.21,M,FEW,BKN,M,M,1500.00,7000.00,M,M,M,M,M,M,M,M,M,M,RJTT 160300Z 01003KT 330V050 9999 FEW015 BKN070 26/20 Q1013 NOSIG RMK 1CU015 7AC070 A2993
RORS,2020-09-16 03:00,125.1447,24.8267,87.80,82.40,84.10,160.00,12.00,0.00,29.85,M,6.21,M,FEW,BKN,M,M,1700.00,M,M,M,M,M,M,M,M,M,M,108.27,RORS 160300Z 16012KT 140V200 9999 FEW017 BKN/// 31/28 Q1011
RJNS,2020-09-16 03:00,138.1894,34.7961,78.80,66.20,65.33,100.00,6.00,0.00,29.91,M,6.21,M,FEW,BKN,BKN,M,2500.00,15000.00,M,M,M,M,M,M,M,M,M,M,RJNS 160300Z 10006KT 060V120 9999 FEW025 BKN150 BKN/// 26/19 Q1013
RJBD,2020-09-16 03:00,135.3644,33.6622,78.80,69.80,73.95,170.00,6.00,0.00,29.88,M,6.21,M,FEW,SCT,BKN,M,2000.00,5000.00,8000.00,M,M,M,M,M,M,M,M,M,RJBD 160300Z 17006KT 140V220 9999 FEW020 SCT050 BKN080 26/21 Q1012
RJFG,2020-09-16 03:00,130.9917,30.6050,82.40,75.20,78.90,270.00,8.00,0.00,29.91,M,6.21,M,FEW,SCT,BKN,M,1000.00,1500.00,M,M,M,M,M,M,M,M,M,89.48,RJFG 160300Z 27008KT 230V310 9999 FEW010 SCT015 BKN/// 28/24 Q1013
RJTI,2020-09-16 03:00,139.8500,35.6300,80.60,69.80,69.71,330.00,4.00,0.00,29.91,M,6.21,M,FEW,BKN,M,M,2000.00,7000.00,M,M,M,M,M,M,M,M,M,83.90,RJTI 160300Z 33004KT 270V030 9999 FEW020 BKN070 27/21 Q1013
RJOS,2020-09-16 03:00,134.6092,34.1322,78.80,71.60,78.62,140.00,4.00,0.00,29.88,M,6.21,M,FEW,BKN,M,M,2500.00,8000.00,M,M,M,M,M,M,M,M,M,M,RJOS 160300Z 14004KT 100V170 9999 FEW025 BKN080 26/22 Q1012
RJSY,2020-09-16 03:00,139.7872,38.8122,80.60,66.20,61.58,M,3.00,0.00,29.91,M,6.21,M,FEW,BKN,M,M,3000.00,M,M,M,M,M,M,M,M,M,M,82.75,RJSY 160300Z VRB03KT 9999 FEW030 BKN/// 27/19 Q1013
RORK,2020-09-16 03:00,131.3333,25.9167,87.80,77.00,70.45,160.00,5.00,0.00,29.88,M,6.21,M,NCD,M,M,M,M,M,M,M,M,M,M,M,M,M,M,99.92,RORK 160300Z AUTO 16005KT 9999 NCD 31/25 Q1012
ROYN,2020-09-16 03:00,122.9780,24.4670,87.80,80.60,79.31,190.00,12.00,0.00,29.83,M,6.21,M,FEW,M,M,M,1600.00,M,M,M,M,M,M,M,M,M,M,105.14,ROYN 160300Z AUTO 19012KT 140V220 9999 FEW016 31/27 Q1010
ROAH,2020-09-16 03:00,127.6458,26.1958,89.60,80.60,74.93,190.00,11.00,0.00,29.85,M,6.21,M,FEW,FEW,BKN,M,1500.00,2000.00,M,M,M,M,M,M,M,M,M,108.11,ROAH 160300Z 19011KT 9999 FEW015 FEW020TCU BKN/// 32/27 Q1011
RJKI,2020-09-16 03:05,129.9281,28.3213,89.60,82.40,79.45,210.00,8.00,0.00,29.88,M,6.21,M,SCT,SCT,BKN,M,1600.00,2100.00,3900.00,M,M,M,M,M,M,M,M,111.44,RJKI 160305Z AUTO 21008KT 140V250 9999 SCT016 SCT021 BKN039 32/28 Q1012 RMK A2988
RJFF,2020-09-16 03:20,130.4517,33.5844,73.40,71.60,94.10,360.00,3.00,0.00,29.85,M,3.73,M,FEW,SCT,BKN,M,500.00,800.00,1200.00,M,-SHRA,M,M,M,M,M,M,M,RJFF 160320Z 36003KT 300V040 6000 -SHRA FEW005 SCT008 BKN012 23/22 Q1011 RMK 1ST005 3ST008 5CU012 A2986
RJAA,2020-09-16 03:30,140.3856,35.7653,78.80,69.80,73.95,50.00,7.00,0.00,29.91,M,6.21,M,FEW,BKN,M,M,2000.00,9000.00,M,M,M,M,M,M,M,M,M,M,RJAA 160330Z 05007KT 360V080 9999 FEW020 BKN090 26/21 Q1013 NOSIG RMK 2CU020 7AC090 A2993
RJCC,2020-09-16 03:30,141.6926,42.7742,71.60,68.00,88.43,160.00,12.00,0.00,29.94,M,6.21,M,FEW,BKN,BKN,M,800.00,1200.00,1500.00,M,-SHRA BR,M,M,M,M,M,M,M,RJCC 160330Z 16012KT 9999 -SHRA BR FEW008 BKN012 BKN015 22/20 Q1014 RMK 1ST008 5ST012 6ST015 A2995 5000E BR E
RJFF,2020-09-16 03:30,130.4517,33.5844,73.40,71.60,94.10,M,1.00,0.00,29.85,M,5.59,M,FEW,SCT,BKN,M,500.00,800.00,1500.00,M,-SHRA,M,M,M,M,M,M,M,RJFF 160330Z VRB01KT 9000 -SHRA FEW005 SCT008 BKN015 23/22 Q1011 TEMPO 4000 -SHRA BR FEW005 SCT008 BKN012 RMK 1ST005 3ST008 5CU015 A2986
RJBB,2020-09-16 03:30,135.2328,34.4342,78.80,68.00,69.52,360.00,5.00,0.00,29.88,M,6.21,M,FEW,SCT,BKN,M,2500.00,10000.00,12000.00,M,M,M,M,M,M,M,M,M,RJBB 160330Z 36005KT 9999 FEW025 SCT100 BKN120 26/20 Q1012 BECMG 31005KT
RJGG,2020-09-16 03:30,136.8054,34.8584,78.80,69.80,73.95,200.00,4.00,0.00,29.88,M,6.21,M,FEW,BKN,M,M,2000.00,13000.00,M,M,M,M,M,M,M,M,M,M,RJGG 160330Z 20004KT 180V240 9999 FEW020 BKN130 26/21 Q1012 NOSIG
RJTT,2020-09-16 03:30,139.7811,35.5533,78.80,69.80,73.95,20.00,3.00,0.00,29.91,M,6.21,M,FEW,BKN,M,M,2000.00,8000.00,M,M,M,M,M,M,M,M,M,M,RJTT 160330Z 02003KT 340V070 9999 FEW020 BKN080 26/21 Q1013 NOSIG RMK 1CU020 7AC080 A2992
ROAH,2020-09-16 03:30,127.6458,26.1958,87.80,80.60,79.31,180.00,11.00,0.00,29.85,M,6.21,M,FEW,FEW,BKN,M,1300.00,2000.00,M,M,M,M,M,M,M,M,M,105.14,ROAH 160330Z 18011KT 9999 FEW013 FEW020TCU BKN/// 31/27 Q1011 RMK 2CU013 1TCU020 A2987 TCU 20KM NE STNR
RJCC,2020-09-16 03:34,141.6926,42.7742,69.80,68.00,94.01,160.00,12.00,0.00,29.94,M,3.11,M,FEW,BKN,BKN,M,800.00,1200.00,1500.00,M,+SHRA BR,M,M,M,M,M,M,M,RJCC 160334Z 16012KT 5000 R19R/P2000N R19L/P2000N +SHRA BR FEW008 BKN012 BKN015 21/20 Q1014 RMK 1ST008 5ST012 6ST015 A2996
RJFS,2020-09-16 03:38,130.3000,33.1500,75.20,71.60,88.59,160.00,3.00,0.00,29.85,M,2.49,M,FEW,SCT,BKN,M,700.00,1000.00,1500.00,M,SHRA BR,M,M,M,M,M,M,M,RJFS 160338Z 16003KT 110V190 4000 SHRA BR FEW007 SCT010 BKN015 24/22 Q1011 RMK 1ST007 3CU010 5CU015 A2985
RJCC,2020-09-16 03:39,141.6926,42.7742,69.80,68.00,94.01,170.00,13.00,0.00,29.94,M,3.04,25.00,FEW,BKN,BKN,M,800.00,1200.00,1500.00,M,SHRA BR,M,M,M,M,M,M,M,RJCC 160339Z 17013G25KT 4900 R19R/0600VP2000D R19L/1000VP2000D SHRA BR FEW008 BKN012 BKN015 21/20 Q1014 RMK 1ST008 5ST012 6ST015 A2996
RJFK,2020-09-16 03:40,130.7194,31.8033,75.20,75.20,100.00,20.00,3.00,0.00,29.88,M,3.11,M,FEW,SCT,BKN,M,100.00,500.00,2500.00,M,-SHRA BCFG BR,M,M,M,M,M,M,M,RJFK 160340Z 02003KT 5000 -SHRA BCFG BR FEW001 SCT005 BKN025 24/24 Q1012 RMK 1ST001 3ST005 5CU025 A2991 2000N-NE FG NW-E
RJCC,2020-09-16 03:42,141.6926,42.7742,69.80,68.00,94.01,160.00,23.00,0.00,29.94,M,2.49,M,FEW,BKN,BKN,M,700.00,1200.00,1500.00,M,+SHRA BR,M,M,M,M,M,M,M,RJCC 160342Z 16023KT 4000 R19R/0600VP2000D R19L/1000VP2000D +SHRA BR FEW007 BKN012 BKN015 21/20 Q1014 RMK 1ST007 5ST012 6ST015 A2996
RJCC,2020-09-16 03:45,141.6926,42.7742,69.80,68.00,94.01,170.00,21.00,0.00,29.94,M,2.80,M,FEW,BKN,BKN,M,700.00,1200.00,1500.00,M,+SHRA BR,M,M,M,M,M,M,M,RJCC 160345Z 17021KT 4500 R19R/0600VP2000U R19L/1000VP2000U +SHRA BR FEW007 BKN012 BKN015 21/20 Q1014 RMK 1ST007 5ST012 6ST015 A2996 9999W RI++
RODN,2020-09-16 03:46,127.7676,26.3556,86.00,78.80,79.18,200.00,9.00,0.00,29.87,1012.00,10.00,M,BKN,OVC,M,M,1800.00,2400.00,M,M,M,M,M,M,M,M,M,99.38,RODN 160346Z AUTO 20009KT 10SM BKN018 OVC024 30/26 A2987 RMK AO2 CIG 018V024 SLP120 $
RODN,2020-09-16 03:54,127.7676,26.3556,87.80,80.60,79.31,220.00,9.00,0.00,29.87,1012.00,10.00,M,BKN,OVC,M,M,1900.00,2400.00,M,M,-DZ,M,M,M,M,M,M,105.14,RODN 160354Z AUTO 22009KT 10SM -DZ BKN019 OVC024 31/27 A2987 RMK AO2 DZB54 CIG 017V024 SLP120 $
RJOI,2020-09-16 03:55,132.2357,34.1439,78.10,68.00,71.14,150.00,5.00,0.00,29.86,1011.20,6.21,M,FEW,BKN,OVC,M,3000.00,6000.00,15000.00,M,M,M,M,M,M,M,M,M,RJOI 160355Z 15005KT 9999 FEW030 BKN060 OVC150 26/20 A2986 RMK SLP112 T02560200
RJTY,2020-09-16 03:56,139.3485,35.7485,77.00,67.60,72.77,0.00,0.00,0.00,29.97,1014.70,10.00,M,FEW,M,M,M,17000.00,M,M,M,M,M,M,M,M,M,M,M,RJTY 160356Z AUTO 00000KT 10SM FEW170 25/20 A2997 RMK AO2 SLP147 T02500198 FZRANO $
RODN,2020-09-16 03:56,127.7676,26.3556,87.40,79.70,77.99,220.00,8.00,T,29.87,1012.00,10.00,M,BKN,OVC,M,M,1900.00,2700.00,M,M,-DZ,M,M,M,M,M,M,103.05,RODN 160356Z AUTO 22008KT 10SM -DZ BKN019 OVC027 31/27 A2987 RMK AO2 DZB54 CIG 017V024 SLP120 P0000 T03080265 $
ROTM,2020-09-16 03:56,127.7565,26.2743,87.10,75.90,69.45,180.00,11.00,0.00,29.89,1010.60,6.21,M,SCT,BKN,M,M,2100.00,5000.00,M,M,VCSH,M,M,M,M,M,M,97.56,ROTM 160356Z 18011KT 9999 VCSH SCT021 BKN050 31/24 A2989 RMK SLP106 T03060244
RJSC,2020-09-16 04:00,140.3711,38.4119,80.60,66.20,61.58,M,3.00,0.00,29.88,M,6.21,M,FEW,BKN,M,M,2000.00,M,M,M,M,M,M,M,M,M,M,82.75,RJSC 160400Z VRB03KT 9999 FEW020 BKN/// 27/19 Q1012
RJSD,2020-09-16 04:00,138.4139,38.0602,78.80,68.00,69.52,50.00,6.00,0.00,29.88,M,6.21,M,NSC,M,M,M,M,M,M,M,M,M,M,M,M,M,M,M,RJSD 160400Z AUTO 05006KT 010V110 9999 NSC 26/20 Q1012
RJSF,2020-09-16 04:00,140.4281,37.2275,75.20,66.20,73.61,210.00,3.00,0.00,29.94,M,6.21,M,FEW,BKN,M,M,2000.00,M,M,M,M,M,M,M,M,M,M,M,RJSF 160400Z 21003KT 150V290 9999 FEW020 BKN/// 24/19 Q1014
RJFR,2020-09-16 04:00,131.0350,33.8456,77.00,71.60,83.44,140.00,5.00,0.00,29.83,M,6.21,M,FEW,BKN,BKN,M,1000.00,3000.00,6000.00,M,M,M,M,M,M,M,M,M,RJFR 160400Z 14005KT 9999 FEW010 BKN030 BKN060 25/22 Q1010
RJSR,2020-09-16 04:00,140.3714,40.1919,78.80,66.20,65.33,300.00,3.00,0.00,29.88,M,6.21,M,FEW,SCT,BKN,M,3000.00,5000.00,M,M,M,M,M,M,M,M,M,M,RJSR 160400Z 30003KT 270V350 9999 FEW030 SCT050 BKN/// 26/19 Q1012
RJSI,2020-09-16 04:00,141.1353,39.4286,80.60,62.60,54.30,200.00,9.00,0.00,29.91,M,6.21,M,FEW,BKN,M,M,4000.00,M,M,M,M,M,M,M,M,M,M,81.84,RJSI 160400Z 20009KT 9999 FEW040 BKN/// 27/17 Q1013
RJSM,2020-09-16 04:00,141.3684,40.7032,75.20,64.40,69.14,110.00,10.00,0.00,29.91,M,6.21,M,FEW,M,M,M,1000.00,M,M,M,M,M,M,M,M,M,M,M,RJSM 160400Z 11010KT 9999 FEW010 24/18 Q1013
RJAA,2020-09-16 04:00,140.3856,35.7653,80.60,71.60,74.11,50.00,7.00,0.00,29.91,M,6.21,M,FEW,BKN,BKN,M,2000.00,18000.00,M,M,M,M,M,M,M,M,M,84.57,RJAA 160400Z 05007KT 020V080 9999 FEW020 BKN180 BKN/// 27/22 Q1013 NOSIG
RJAF,2020-09-16 04:00,137.9228,36.1667,77.00,60.80,57.36,10.00,6.00,0.00,29.94,M,6.21,M,FEW,SCT,BKN,M,2500.00,15000.00,18000.00,M,M,M,M,M,M,M,M,M,RJAF 160400Z 01006KT 310V060 9999 FEW025 SCT150 BKN180 25/16 Q1014
RJAH,2020-09-16 04:00,140.4147,36.1817,78.80,64.40,61.36,70.00,6.00,0.00,29.91,M,6.21,M,FEW,BKN,BKN,M,1500.00,10000.00,25000.00,M,M,M,M,M,M,M,M,M,RJAH 160400Z 07006KT 9999 FEW015 BKN100 BKN250 26/18 Q1013
RJBT,2020-09-16 04:00,134.7869,35.5128,78.80,66.20,65.33,180.00,5.00,0.00,29.83,M,6.21,M,FEW,SCT,BKN,M,3000.00,10000.00,12000.00,M,M,M,M,M,M,M,M,M,RJBT 160400Z 18005KT 150V230 9999 FEW030 SCT100 BKN120 26/19 Q1010
RJCB,2020-09-16 04:00,143.2172,42.7333,71.60,64.40,78.04,150.00,11.00,0.00,30.00,M,6.21,M,FEW,BKN,M,M,1000.00,1500.00,M,M,M,M,M,M,M,M,M,M,RJCB 160400Z 15011KT 9999 FEW010 BKN015 22/18 Q1016
RJCC,2020-09-16 04:00,141.6926,42.7742,71.60,69.80,94.06,160.00,13.00,0.00,29.94,M,4.35,M,FEW,BKN,BKN,M,700.00,1200.00,1500.00,M,-SHRA,M,M,M,M,M,M,M,RJCC 160400Z 16013KT 7000 -SHRA FEW007 BKN012 BKN015 22/21 Q1014
RJCH,2020-09-16 04:00,140.8219,41.7700,73.40,66.20,78.19,M,2.00,0.00,29.94,M,6.21,M,FEW,SCT,BKN,M,2000.00,5000.00,7000.00,M,M,M,M,M,M,M,M,M,RJCH 160400Z VRB02KT 9999 FEW020 SCT050 BKN070 23/19 Q1014
RJCK,2020-09-16 04:00,144.1931,43.0408,68.00,64.40,88.26,170.00,14.00,0.00,30.03,M,6.21,M,FEW,BKN,BKN,M,500.00,800.00,1000.00,M,M,M,M,M,M,M,M,M,RJCK 160400Z 17014KT 9999 FEW005 BKN008 BKN010 20/18 Q1017
RJCM,2020-09-16 04:00,144.1642,43.8806,77.00,60.80,57.36,180.00,15.00,0.00,29.94,M,6.21,M,FEW,SCT,BKN,M,2000.00,3000.00,4000.00,M,M,M,M,M,M,M,M,M,RJCM 160400Z 18015KT 9999 FEW020 SCT030 BKN040 25/16 Q1014
RJCN,2020-09-16 04:00,144.9600,43.5775,71.60,62.60,73.27,170.00,10.00,0.00,30.00,M,6.21,M,FEW,BKN,M,M,2000.00,3500.00,M,M,M,M,M,M,M,M,M,M,RJCN 160400Z 17010KT 140V230 9999 FEW020 BKN035 22/17 Q1016
RJCO,2020-09-16 04:00,141.3814,43.1175,75.20,68.00,78.34,150.00,16.00,0.00,29.94,M,6.21,M,FEW,BKN,M,M,800.00,6000.00,M,M,M,M,M,M,M,M,M,M,RJCO 160400Z 15016KT 9999 FEW008 BKN060 24/20 Q1014
RJCW,2020-09-16 04:00,141.8022,45.4044,73.40,64.40,73.44,200.00,8.00,0.00,29.88,M,6.21,M,FEW,BKN,M,M,1500.00,4000.00,M,M,M,M,M,M,M,M,M,M,RJCW 160400Z 20008KT 9999 FEW015 BKN040 23/18 Q1012
RJDT,2020-09-16 04:00,129.3306,34.2850,75.20,69.80,83.32,230.00,3.00,0.00,29.83,M,6.21,M,FEW,SCT,BKN,M,1500.00,3000.00,4000.00,M,-RA,M,M,M,M,M,M,M,RJDT 160400Z 23003KT 130V300 9999 -RA FEW015 SCT030 BKN040 24/21 Q1010
RJEB,2020-09-16 04:00,143.4040,44.3039,77.00,62.60,61.13,80.00,7.00,0.00,29.91,M,6.21,M,FEW,M,M,M,3000.00,M,M,M,M,M,M,M,M,M,M,M,RJEB 160400Z 08007KT 9999 FEW030 25/17 Q1013
RJEC,2020-09-16 04:00,142.4475,43.6708,75.20,53.60,46.98,190.00,13.00,0.00,29.94,M,6.21,M,FEW,M,M,M,3000.00,M,M,M,M,M,M,M,M,M,M,M,RJEC 160400Z 19013KT 160V220 9999 FEW030 24/12 Q1014
RJFE,2020-09-16 04:00,128.8328,32.6664,73.40,69.80,88.51,190.00,4.00,0.00,29.83,M,6.21,M,FEW,SCT,BKN,M,700.00,1000.00,1500.00,M,-SHRA,M,M,M,M,M,M,M,RJFE 160400Z 19004KT 160V240 9999 -SHRA FEW007 SCT010 BKN015 23/21 Q1010
RJFF,2020-09-16 04:00,130.4517,33.5844,73.40,71.60,94.10,90.00,3.00,0.00,29.85,M,2.80,M,FEW,SCT,BKN,M,500.00,800.00,1500.00,M,-SHRA BR,M,M,M,M,M,M,M,RJFF 160400Z 09003KT 050V130 4500 -SHRA BR FEW005 SCT008 BKN015 23/22 Q1011 NOSIG
RJFK,2020-09-16 04:00,130.7194,31.8033,75.20,75.20,100.00,40.00,3.00,0.00,29.88,M,3.11,M,FEW,SCT,BKN,M,100.00,700.00,2000.00,M,-SHRA BCFG BR,M,M,M,M,M,M,M,RJFK 160400Z 04003KT 360V070 5000 -SHRA BCFG BR FEW001 SCT007 BKN020 24/24 Q1012
RJFM,2020-09-16 04:00,131.4486,31.8772,75.20,71.60,88.59,10.00,3.00,0.00,29.85,M,4.97,M,FEW,SCT,BKN,M,300.00,600.00,900.00,M,-SHRA,M,M,M,M,M,M,M,RJFM 160400Z 01003KT 8000 -SHRA FEW003 SCT006 BKN009 24/22 Q1011
RJFO,2020-09-16 04:00,131.7372,33.4794,77.00,69.80,78.48,140.00,12.00,0.00,29.85,M,6.21,M,FEW,SCT,BKN,M,1500.00,4500.00,6000.00,M,M,M,M,M,M,M,M,M,RJFO 160400Z 14012KT 9999 FEW015 SCT045 BKN060 25/21 Q1011
RJAW,2020-09-16 04:00,141.3227,24.7840,87.80,77.00,70.45,150.00,7.00,0.00,29.91,M,6.21,M,SCT,M,M,M,1500.00,M,M,M,VCSH,M,M,M,M,M,M,99.92,RJAW 160400Z 15007KT 100V220 9999 VCSH SCT015 31/25 Q1013 RMK 3CU015 A2991
RJBB,2020-09-16 04:00,135.2328,34.4342,80.60,66.20,61.58,360.00,3.00,0.00,29.85,M,6.21,M,FEW,SCT,BKN,M,2500.00,10000.00,12000.00,M,M,M,M,M,M,M,M,82.75,RJBB 160400Z 36003KT 9999 FEW025 SCT100 BKN120 27/19 Q1011 NOSIG
RJBE,2020-09-16 04:00,135.2239,34.6328,80.60,66.20,61.58,210.00,3.00,0.00,29.85,M,6.21,M,FEW,BKN,BKN,M,2500.00,12000.00,M,M,M,M,M,M,M,M,M,82.75,RJBE 160400Z 21003KT 150V270 9999 FEW025 BKN120 BKN/// 27/19 Q1011
RJNK,2020-09-16 04:00,136.4075,36.3939,82.40,64.40,54.55,360.00,7.00,0.00,29.85,M,6.21,M,FEW,SCT,M,M,5000.00,23000.00,M,M,M,M,M,M,M,M,M,83.98,RJNK 160400Z 36007KT 320V020 9999 FEW050 SCT230 28/18 Q1011
RJNT,2020-09-16 04:00,137.1875,36.6483,82.40,64.40,54.55,20.00,4.00,0.00,29.85,M,6.21,M,FEW,BKN,M,M,3000.00,M,M,M,M,M,M,M,M,M,M,83.98,RJNT 160400Z 02004KT 330V080 9999 FEW030 BKN/// 28/18 Q1011
RJNW,2020-09-16 04:00,136.9618,37.2931,77.00,64.40,65.12,M,2.00,0.00,29.88,M,6.21,M,FEW,SCT,BKN,M,2000.00,8000.00,18000.00,M,M,M,M,M,M,M,M,M,RJNW 160400Z VRB02KT 9999 FEW020 SCT080 BKN180 25/18 Q1012
RJOA,2020-09-16 04:00,132.9194,34.4361,75.20,66.20,73.61,140.00,3.00,0.00,29.88,M,6.21,M,FEW,SCT,BKN,M,2000.00,3500.00,11000.00,M,M,M,M,M,M,M,M,M,RJOA 160400Z 14003KT 070V210 9999 FEW020 SCT035 BKN110 24/19 Q1012
RJOB,2020-09-16 04:00,133.8553,34.7569,77.00,69.80,78.48,M,2.00,0.00,29.88,M,6.21,M,FEW,BKN,BKN,M,1500.00,2000.00,7000.00,M,M,M,M,M,M,M,M,M,RJOB 160400Z VRB02KT 9999 FEW015 BKN020 BKN070 25/21 Q1012
RJOC,2020-09-16 04:00,132.8900,35.4136,80.60,68.00,65.54,30.00,4.00,0.00,29.83,M,6.21,M,FEW,BKN,M,M,2500.00,8000.00,M,M,M,M,M,M,M,M,M,83.29,RJOC 160400Z 03004KT 9999 FEW025 BKN080 27/20 Q1010
RJOH,2020-09-16 04:00,133.2392,35.4933,84.20,66.20,54.80,150.00,4.00,0.00,29.83,M,6.21,M,FEW,BKN,BKN,M,3000.00,9000.00,25000.00,M,M,M,M,M,M,M,M,86.50,RJOH 160400Z 15004KT 9999 FEW030 BKN090 BKN250 29/19 Q1010
RJKA,2020-09-16 04:00,129.7125,28.4308,87.80,78.80,74.77,210.00,12.00,0.00,29.85,M,6.21,M,FEW,SCT,BKN,M,1200.00,2000.00,M,M,M,M,M,M,M,M,M,102.37,RJKA 160400Z 21012KT 9999 FEW012 SCT020 BKN/// 31/26 Q1011
RJOK,2020-09-16 04:00,133.6694,33.5461,75.20,71.60,88.59,220.00,5.00,0.00,29.88,M,6.21,M,FEW,SCT,BKN,M,1000.00,4000.00,5000.00,M,-RA,M,M,M,M,M,M,M,RJOK 160400Z 22005KT 9999 -RA FEW010 SCT040 BKN050 24/22 Q1012
RJFU,2020-09-16 04:00,129.9136,32.9169,73.40,71.60,94.10,M,2.00,0.00,29.85,M,1.55,M,FEW,SCT,BKN,M,500.00,1000.00,1500.00,M,+SHRA BR,M,M,M,M,M,M,M,RJFU 160400Z VRB02KT 2500 R32/0900VP2000D +SHRA BR FEW005 SCT010 BKN015 23/22 Q1011
RJGG,2020-09-16 04:00,136.8054,34.8584,78.80,69.80,73.95,220.00,7.00,0.00,29.88,M,6.21,M,FEW,BKN,M,M,2000.00,12000.00,M,M,M,M,M,M,M,M,M,M,RJGG 160400Z 22007KT 9999 FEW020 BKN120 26/21 Q1012 NOSIG
RJKI,2020-09-16 04:00,129.9281,28.3213,86.00,80.60,83.99,210.00,9.00,0.00,29.85,M,6.21,M,BKN,M,M,M,1700.00,M,M,M,M,M,M,M,M,M,M,101.90,RJKI 160400Z AUTO 21009KT 160V240 9999 BKN017 30/27 Q1011
ROIG,2020-09-16 04:00,124.1633,24.3367,87.80,82.40,84.10,160.00,11.00,0.00,29.83,M,6.21,M,FEW,BKN,M,M,1700.00,M,M,M,M,M,M,M,M,M,M,108.27,ROIG 160400Z 16011KT 120V180 9999 FEW017 BKN/// 31/28 Q1010
ROMD,2020-09-16 04:00,131.2286,25.8289,86.00,78.80,79.18,140.00,6.00,0.00,29.88,M,6.21,M,FEW,SCT,M,M,1800.00,2000.00,M,M,M,M,M,M,M,M,M,99.38,ROMD 160400Z AUTO 14006KT 060V190 9999 FEW018 SCT020 30/26 Q1012
ROMY,2020-09-16 04:00,125.2767,24.7933,87.80,77.00,70.45,150.00,9.00,0.00,29.83,M,6.21,M,SCT,BKN,M,M,1700.00,M,M,M,M,M,M,M,M,M,M,99.92,ROMY 160400Z 15009KT 9999 SCT017 BKN/// 31/25 Q1010
RORY,2020-09-16 04:00,128.4020,27.0440,86.00,80.60,83.99,160.00,10.00,0.00,29.85,M,6.21,M,FEW,SCT,BKN,M,800.00,2500.00,3500.00,M,M,M,M,M,M,M,M,101.90,RORY 160400Z AUTO 16010KT 130V190 9999 FEW008 SCT025 BKN035 30/27 Q1011
RJDC,2020-09-16 04:00,131.2786,33.9300,78.80,69.80,73.95,160.00,6.00,0.00,29.83,M,6.21,M,FEW,SCT,BKN,M,1500.00,3500.00,5000.00,M,-RA,M,M,M,M,M,M,M,RJDC 160400Z 16006KT 9999 -RA FEW015 SCT035 BKN050 26/21 Q1010
RJOM,2020-09-16 04:00,132.6997,33.8272,77.00,71.60,83.44,300.00,3.00,0.00,29.85,M,6.21,M,FEW,SCT,BKN,M,1500.00,3500.00,6000.00,M,M,M,M,M,M,M,M,M,RJOM 160400Z 30003KT 270V330 9999 FEW015 SCT035 BKN060 25/22 Q1011
RJFS,2020-09-16 04:00,130.3000,33.1500,75.20,71.60,88.59,M,2.00,0.00,29.83,M,4.35,M,FEW,SCT,BKN,M,600.00,1000.00,2000.00,M,-SHRA,M,M,M,M,M,M,M,RJFS 160400Z VRB02KT 7000 -SHRA FEW006 SCT010 BKN020 24/22 Q1010
RJFT,2020-09-16 04:00,130.8553,32.8372,75.20,69.80,83.32,M,2.00,0.00,29.88,M,6.21,M,FEW,BKN,M,M,1000.00,2000.00,M,M,-RA,M,M,M,M,M,M,M,RJFT 160400Z VRB02KT 9999 -RA FEW010 BKN020 24/21 Q1012
RJOT,2020-09-16 04:00,134.0167,34.2167,78.80,68.00,69.52,M,2.00,0.00,29.88,M,6.21,M,FEW,SCT,BKN,M,2000.00,6000.00,8000.00,M,M,M,M,M,M,M,M,M,RJOT 160400Z VRB02KT 9999 FEW020 SCT060 BKN080 26/20 Q1012
RJSK,2020-09-16 04:00,140.2167,39.6167,78.80,64.40,61.36,120.00,4.00,0.00,29.91,M,6.21,M,FEW,BKN,M,M,3500.00,M,M,M,M,M,M,M,M,M,M,M,RJSK 160400Z 12004KT 080V170 9999 FEW035 BKN/// 26/18 Q1013
RJOO,2020-09-16 04:00,135.4392,34.7844,84.20,66.20,54.80,M,3.00,0.00,29.85,M,6.21,M,FEW,SCT,BKN,M,3500.00,10000.00,12000.00,M,M,M,M,M,M,M,M,86.50,RJOO 160400Z VRB03KT 9999 FEW035 SCT100 BKN120 29/19 Q1011
RJOR,2020-09-16 04:00,134.1650,35.5300,80.60,68.00,65.54,320.00,5.00,0.00,29.83,M,6.21,M,FEW,SCT,BKN,M,4000.00,10000.00,14000.00,M,M,M,M,M,M,M,M,83.29,RJOR 160400Z 32005KT 9999 FEW040 SCT100 BKN140 27/20 Q1010
RJOW,2020-09-16 04:00,131.7903,34.6764,78.80,68.00,69.52,170.00,8.00,0.00,29.83,M,6.21,M,FEW,SCT,BKN,M,2000.00,5000.00,7000.00,M,M,M,M,M,M,M,M,M,RJOW 160400Z 17008KT 140V220 9999 FEW020 SCT050 BKN070 26/20 Q1010
RJOY,2020-09-16 04:00,135.6006,34.5967,84.20,64.40,51.47,M,2.00,0.00,29.85,M,6.21,M,FEW,SCT,BKN,M,3000.00,5000.00,12000.00,M,M,M,M,M,M,M,M,85.71,RJOY 160400Z VRB02KT 9999 FEW030 SCT050 BKN120 29/18 Q1011
RJSA,2020-09-16 04:00,140.6886,40.7333,75.20,62.60,64.91,30.00,7.00,0.00,29.91,M,6.21,M,FEW,SCT,M,M,2000.00,3500.00,M,M,M,M,M,M,M,M,M,M,RJSA 160400Z 03007KT 320V060 9999 FEW020 SCT035 24/17 Q1013
RJSN,2020-09-16 04:00,139.1117,37.9558,78.80,69.80,73.95,10.00,5.00,0.00,29.88,M,6.21,M,FEW,BKN,BKN,M,3000.00,18000.00,M,M,M,M,M,M,M,M,M,M,RJSN 160400Z 01005KT 9999 FEW030 BKN180 BKN/// 26/21 Q1012
RJSS,2020-09-16 04:00,140.9169,38.1397,75.20,64.40,69.14,120.00,8.00,0.00,29.91,M,6.21,M,FEW,BKN,BKN,M,1500.00,10000.00,M,M,M,M,M,M,M,M,M,M,RJSS 160400Z 12008KT 9999 FEW015 BKN100 BKN/// 24/18 Q1013
RJTF,2020-09-16 04:00,139.5281,35.6717,78.80,66.20,65.33,M,2.00,0.00,29.91,M,6.21,M,FEW,SCT,BKN,M,2000.00,8000.00,12000.00,M,M,M,M,M,M,M,M,M,RJTF 160400Z VRB02KT 9999 FEW020 SCT080 BKN120 26/19 Q1013
RJTO,2020-09-16 04:00,139.3603,34.7819,77.00,71.60,83.44,40.00,10.00,0.00,29.88,M,6.21,M,FEW,SCT,BKN,M,1000.00,2000.00,16000.00,M,M,M,M,M,M,M,M,M,RJTO 160400Z 04010KT 9999 FEW010 SCT020 BKN160 25/22 Q1012
RJTT,2020-09-16 04:00,139.7811,35.5533,78.80,68.00,69.52,M,2.00,0.00,29.91,M,6.21,M,FEW,BKN,M,M,2000.00,8000.00,M,M,M,M,M,M,M,M,M,M,RJTT 160400Z VRB02KT 9999 FEW020 BKN080 26/20 Q1013 BECMG 05005KT
RORS,2020-09-16 04:00,125.1447,24.8267,87.80,80.60,79.31,170.00,11.00,0.00,29.83,M,6.21,M,SCT,BKN,M,M,1800.00,M,M,M,M,M,M,M,M,M,M,105.14,RORS 160400Z 17011KT 130V200 9999 SCT018 BKN/// 31/27 Q1010
RJNS,2020-09-16 04:00,138.1894,34.7961,78.80,66.20,65.33,100.00,5.00,0.00,29.88,M,6.21,M,FEW,SCT,BKN,M,2500.00,11000.00,14000.00,M,M,M,M,M,M,M,M,M,RJNS 160400Z 10005KT 060V130 9999 FEW025 SCT110 BKN140 26/19 Q1012
RJBD,2020-09-16 04:00,135.3644,33.6622,77.00,71.60,83.44,160.00,9.00,0.00,29.88,M,6.21,M,FEW,SCT,BKN,M,2000.00,5000.00,8000.00,M,M,M,M,M,M,M,M,M,RJBD 160400Z 16009KT 9999 FEW020 SCT050 BKN080 25/22 Q1012
RJFG,2020-09-16 04:00,130.9917,30.6050,78.80,73.40,83.55,260.00,5.00,0.00,29.88,M,6.21,M,FEW,SCT,BKN,M,1000.00,1500.00,5000.00,M,M,M,M,M,M,M,M,M,RJFG 160400Z 26005KT 210V280 9999 FEW010 SCT015 BKN050 26/23 Q1012
RJTI,2020-09-16 04:00,139.8500,35.6300,80.60,68.00,65.54,50.00,5.00,0.00,29.91,M,6.21,M,FEW,BKN,M,M,2000.00,8000.00,M,M,M,M,M,M,M,M,M,83.29,RJTI 160400Z 05005KT 010V090 9999 FEW020 BKN080 27/20 Q1013
RJOS,2020-09-16 04:00,134.6092,34.1322,80.60,73.40,78.76,160.00,10.00,0.00,29.85,M,6.21,M,FEW,SCT,BKN,M,1500.00,5000.00,8000.00,M,M,M,M,M,M,M,M,85.32,RJOS 160400Z 16010KT 9999 FEW015 SCT050 BKN080 27/23 Q1011
RJSY,2020-09-16 04:00,139.7872,38.8122,78.80,68.00,69.52,310.00,5.00,0.00,29.88,M,6.21,M,FEW,BKN,M,M,3000.00,M,M,M,M,M,M,M,M,M,M,M,RJSY 160400Z 31005KT 270V350 9999 FEW030 BKN/// 26/20 Q1012
RORK,2020-09-16 04:00,131.3333,25.9167,89.60,77.00,66.55,150.00,6.00,0.00,29.88,M,6.21,M,NCD,M,M,M,M,M,M,M,M,M,M,M,M,M,M,102.54,RORK 160400Z AUTO 15006KT 9999 NCD 32/25 Q1012
ROYN,2020-09-16 04:00,122.9780,24.4670,89.60,80.60,74.93,160.00,10.00,0.00,29.80,M,6.21,M,SCT,M,M,M,1900.00,M,M,M,M,M,M,M,M,M,M,108.11,ROYN 160400Z AUTO 16010KT 130V200 9999 SCT019 32/27 Q1009
ROAH,2020-09-16 04:00,127.6458,26.1958,87.80,80.60,79.31,190.00,11.00,0.00,29.85,M,6.21,M,FEW,SCT,BKN,M,1300.00,20000.00,M,M,M,M,M,M,M,M,M,105.14,ROAH 160400Z 19011KT 9999 FEW013 SCT200 BKN/// 31/27 Q1011
RJFU,2020-09-16 04:01,129.9136,32.9169,73.40,71.60,94.10,M,2.00,0.00,29.85,M,1.55,M,FEW,SCT,BKN,M,500.00,1000.00,1500.00,M,+SHRA BR,M,M,M,M,M,M,M,RJFU 160401Z VRB02KT 2500 R32/0900VP2000D +SHRA BR FEW005 SCT010 BKN015 23/22 Q1011 RMK 1ST005 4CU010 7CU015 A2986 RI++
RJOF,2020-09-16 04:04,131.5464,34.0344,77.00,69.80,78.48,130.00,10.00,0.00,29.85,M,6.21,M,FEW,BKN,BKN,M,1000.00,1500.00,4000.00,M,-SHRA,M,M,M,M,M,M,M,RJOF 160404Z 13010KT 9999 -SHRA FEW010 BKN015 BKN040 25/21 Q1011 RMK 1ST010 6CU015 7CU040 A2986
RJFU,2020-09-16 04:06,129.9136,32.9169,73.40,71.60,94.10,M,2.00,0.00,29.85,M,1.86,M,FEW,BKN,BKN,M,500.00,1000.00,1500.00,M,SHRA BR,M,M,M,M,M,M,M,RJFU 160406Z VRB02KT 3000 R32/0900VP2000U SHRA BR FEW005 BKN010 BKN015 23/22 Q1011 RMK 1ST005 5CU010 7CU015 A2986
RODN,2020-09-16 04:06,127.7676,26.3556,87.80,80.60,79.31,220.00,8.00,0.00,29.86,1011.60,10.00,M,OVC,M,M,M,2100.00,M,M,M,-DZ,M,M,M,M,M,M,105.14,RODN 160406Z AUTO 22008KT 10SM -DZ OVC021 31/27 A2986 RMK AO2 SLP116 $
RJDM,2020-09-16 04:07,130.4136,33.3253,73.40,73.40,100.00,50.00,1.00,0.00,29.85,M,3.73,M,FEW,BKN,BKN,M,400.00,2500.00,3000.00,M,-SHRA,M,M,M,M,M,M,M,RJDM 160407Z 05001KT 6000 -SHRA FEW004 BKN025 BKN030 23/23 Q1011 RMK 1ST004 5CU025 6CU030 A2987
RJFF,2020-09-16 04:07,130.4517,33.5844,73.40,71.60,94.10,90.00,3.00,0.00,29.83,M,5.59,M,FEW,SCT,BKN,M,500.00,800.00,4000.00,M,-SHRA,M,M,M,M,M,M,M,RJFF 160407Z 09003KT 040V120 9000 -SHRA FEW005 SCT008 BKN040 23/22 Q1010 RMK 1ST005 3ST008 5CU040 A2985
RODN,2020-09-16 04:10,127.7676,26.3556,87.80,80.60,79.31,230.00,9.00,0.00,29.86,1011.60,10.00,M,OVC,M,M,M,2100.00,M,M,M,M,M,M,M,M,M,M,105.14,RODN 160410Z AUTO 23009KT 10SM OVC021 31/27 A2986 RMK AO2 DZE10 SLP116 $
RJFU,2020-09-16 04:20,129.9136,32.9169,73.40,71.60,94.10,300.00,4.00,0.00,29.85,M,1.24,M,FEW,BKN,BKN,M,500.00,1000.00,1500.00,M,+SHRA BR,M,M,M,M,M,M,M,RJFU 160420Z 30004KT 260V330 2000 R32/1200VP2000D +SHRA BR FEW005 BKN010 BKN015 23/22 Q1011 RMK 1ST005 6CU010 7CU015 A2986 RI++
RJCT,2020-09-16 04:20,143.1585,42.8905,68.00,62.60,82.86,M,3.00,0.00,30.03,M,6.21,M,FEW,BKN,BKN,M,800.00,1200.00,1500.00,M,-SHRA,M,M,M,M,M,M,M,RJCT 160420Z VRB03KT 9999 -SHRA FEW008 BKN012 BKN015 20/17 Q1017 RMK 2ST008 6ST012 7ST015 A3004
RJFK,2020-09-16 04:23,130.7194,31.8033,75.20,73.40,94.14,M,1.00,0.00,29.88,M,2.17,M,FEW,SCT,BKN,M,200.00,1000.00,2000.00,M,-SHRA BCFG BR,M,M,M,M,M,M,M,RJFK 160423Z VRB01KT 3500 -SHRA BCFG BR FEW002 SCT010 BKN020 24/23 Q1012 RMK 1ST002 3CU010 6CU020 A2990 FG NW-E
RJOF,2020-09-16 04:23,131.5464,34.0344,77.00,71.60,83.44,120.00,8.00,0.00,29.85,M,6.21,M,FEW,BKN,BKN,M,800.00,1200.00,1500.00,M,-SHRA,M,M,M,M,M,M,M,RJOF 160423Z 12008KT 9999 -SHRA FEW008 BKN012 BKN015 25/22 Q1011 RMK 1ST008 5CU012 7CU015 A2986 FCST AMD 0410 BECMG 0404 NSW FEW008ST SCT012CU BKN015CU TEMPO 0406 -SHRA FEW008ST BKN012CU BKN015CU TEMPO 0610 4000 -SHRA BR FEW006ST BKN010CU BKN015CU
RJFU,2020-09-16 04:25,129.9136,32.9169,73.40,71.60,94.10,320.00,4.00,0.00,29.85,M,2.49,M,FEW,BKN,BKN,M,500.00,1000.00,1500.00,M,SHRA BR,M,M,M,M,M,M,M,RJFU 160425Z 32004KT 4000 R32/1200VP2000N SHRA BR FEW005 BKN010 BKN015 23/22 Q1011 RMK 1ST005 6CU010 7CU015 A2985
RJAA,2020-09-16 04:30,140.3856,35.7653,78.80,68.00,69.52,70.00,5.00,0.00,29.91,M,6.21,M,FEW,SCT,BKN,M,2000.00,2500.00,18000.00,M,M,M,M,M,M,M,M,M,RJAA 160430Z 07005KT 030V100 9999 FEW020 SCT025 BKN180 26/20 Q1013 BECMG 05009KT RMK 1CU020 3CU025 6AC180 A2992
RJCC,2020-09-16 04:30,141.6926,42.7742,71.60,69.80,94.06,160.00,13.00,0.00,29.94,M,6.21,M,FEW,BKN,BKN,M,700.00,1000.00,1500.00,M,-SHRA,M,M,M,M,M,M,M,RJCC 160430Z 16013KT 9999 -SHRA FEW007 BKN010 BKN015 22/21 Q1014 RMK 1ST007 5ST010 6ST015 A2995
RJFF,2020-09-16 04:30,130.4517,33.5844,73.40,73.40,100.00,110.00,5.00,0.00,29.83,M,6.21,M,FEW,SCT,BKN,M,500.00,3000.00,3500.00,M,-SHRA,M,M,M,M,M,M,M,RJFF 160430Z 11005KT 060V160 9999 -SHRA FEW005 SCT030 BKN035 23/23 Q1010 TEMPO 4000 -SHRA BR RMK 1ST005 3CU030 6CU035 A2984
RJBB,2020-09-16 04:30,135.2328,34.4342,80.60,68.00,65.54,M,2.00,0.00,29.85,M,6.21,M,FEW,SCT,BKN,M,2500.00,10000.00,M,M,M,M,M,M,M,M,M,83.29,RJBB 160430Z VRB02KT 9999 FEW025 SCT100 BKN/// 27/20 Q1011 NOSIG
RJGG,2020-09-16 04:30,136.8054,34.8584,78.80,69.80,73.95,210.00,6.00,0.00,29.85,M,6.21,M,FEW,BKN,M,M,2000.00,12000.00,M,M,M,M,M,M,M,M,M,M,RJGG 160430Z 21006KT 9999 FEW020 BKN120 26/21 Q1011 NOSIG
RJTT,2020-09-16 04:30,139.7811,35.5533,78.80,69.80,73.95,M,2.00,0.00,29.88,M,6.21,M,FEW,BKN,BKN,M,2000.00,8000.00,17000.00,M,M,M,M,M,M,M,M,M,RJTT 160430Z VRB02KT 9999 FEW020 BKN080 BKN170 26/21 Q1012 BECMG 05005KT RMK 1CU020 6AC080 7AC170 A2990
ROAH,2020-09-16 04:30,127.6458,26.1958,86.00,80.60,83.99,200.00,12.00,0.00,29.85,M,6.21,M,FEW,BKN,M,M,1300.00,M,M,M,M,M,M,M,M,M,M,101.90,ROAH 160430Z 20012KT 9999 FEW013 BKN/// 30/27 Q1011 RMK 2CU013 A2986
RJFK,2020-09-16 04:32,130.7194,31.8033,75.20,73.40,94.14,M,2.00,0.00,29.88,M,1.86,M,FEW,SCT,BKN,M,200.00,1000.00,2500.00,M,SHRA BCFG BR,M,M,M,M,M,M,M,RJFK 160432Z VRB02KT 3000 SHRA BCFG BR FEW002 SCT010 BKN025 24/23 Q1012 RMK 1ST002 3CU010 6CU025 A2990 FG NW-SE
RJFU,2020-09-16 04:33,129.9136,32.9169,71.60,71.60,100.00,340.00,4.00,0.00,29.83,M,3.11,M,FEW,BKN,BKN,M,500.00,1000.00,1500.00,M,-SHRA BR,M,M,M,M,M,M,M,RJFU 160433Z 34004KT 5000 -SHRA BR FEW005 BKN010 BKN015 22/22 Q1010 RMK 2ST005 6CU010 7CU015 A2985
RJDM,2020-09-16 04:37,130.4136,33.3253,73.40,73.40,100.00,310.00,1.00,0.00,29.85,M,2.49,M,FEW,BKN,BKN,M,400.00,2500.00,3500.00,M,SHRA BR,M,M,M,M,M,M,M,RJDM 160437Z 31001KT 4000 SHRA BR FEW004 BKN025 BKN035 23/23 Q1011 RMK 1ST004 5CU025 6CU035 A2986
RJFK,2020-09-16 04:40,130.7194,31.8033,75.20,73.40,94.14,M,2.00,0.00,29.88,M,1.55,M,FEW,SCT,BKN,M,100.00,500.00,2500.00,M,SHRA BCFG BR,M,M,M,M,M,M,M,RJFK 160440Z VRB02KT 2500 R34/1100VP2000D SHRA BCFG BR FEW001 SCT005 BKN025 24/23 Q1012 RMK 1ST001 3ST005 6CU025 A2990 FG ALL QUAD
RJFT,2020-09-16 04:40,130.8553,32.8372,73.40,71.60,94.10,220.00,3.00,0.00,29.88,M,1.86,M,BKN,M,M,M,2000.00,M,M,M,RA,M,M,M,M,M,M,M,RJFT 160440Z 22003KT 190V250 3000 R07/0900VP1800D RA BKN020 23/22 Q1012 RMK 7ST020 A2988
RJFT,2020-09-16 04:42,130.8553,32.8372,73.40,71.60,94.10,220.00,3.00,0.00,29.88,M,1.86,M,BKN,M,M,M,2000.00,M,M,M,+RA,M,M,M,M,M,M,M,RJFT 160442Z 22003KT 190V250 3000 R07/0800VP1800D +RA BKN020 23/22 Q1012 RMK 7ST020 A2988
RJFS,2020-09-16 04:46,130.3000,33.1500,73.40,71.60,94.10,M,1.00,0.00,29.83,M,1.86,M,FEW,SCT,BKN,M,600.00,1000.00,1500.00,M,SHRA BR,M,M,M,M,M,M,M,RJFS 160446Z VRB01KT 3000 R29/2000N SHRA BR FEW006 SCT010 BKN015 23/22 Q1010 RMK 1ST006 3CU010 6CU015 A2984
RJOZ,2020-09-16 04:46,131.0522,34.0469,75.20,71.60,88.59,140.00,9.00,0.00,29.83,M,6.21,M,FEW,BKN,BKN,M,1500.00,2000.00,4000.00,M,-SHRA,M,M,M,M,M,M,M,RJOZ 160446Z 14009KT 9999 -SHRA FEW015 BKN020 BKN040 24/22 Q1010 RMK 1CU015 5CU020 7SC040 A2983
RJFK,2020-09-16 04:47,130.7194,31.8033,75.20,73.40,94.14,300.00,3.00,0.00,29.88,M,2.49,M,FEW,SCT,BKN,M,100.00,600.00,2500.00,M,-SHRA BCFG BR,M,M,M,M,M,M,M,RJFK 160447Z 30003KT 260V330 4000 R34/1100VP2000U -SHRA BCFG BR FEW001 SCT006 BKN025 24/23 Q1012 RMK 1ST001 3ST006 6CU025 A2990 FG ALL QUAD
RJFT,2020-09-16 04:48,130.8553,32.8372,73.40,71.60,94.10,210.00,3.00,0.00,29.85,M,1.86,M,BKN,M,M,M,2000.00,M,M,M,+RA,M,M,M,M,M,M,M,RJFT 160448Z 21003KT 170V240 3000 R07/0700V1500D +RA BKN020 23/22 Q1011 RMK 7ST020 A2988
RJOI,2020-09-16 04:55,132.2357,34.1439,78.10,68.00,71.14,170.00,4.00,0.00,29.85,1010.90,6.21,M,SCT,BKN,OVC,M,3000.00,4500.00,8000.00,M,M,M,M,M,M,M,M,M,RJOI 160455Z 17004KT 9999 SCT030 BKN045 OVC080 26/20 A2985 RMK SLP109 T02560200
RJTY,2020-09-16 04:56,139.3485,35.7485,79.00,67.50,67.89,0.00,0.00,0.00,29.96,1014.30,10.00,M,SCT,SCT,M,M,3200.00,16000.00,M,M,M,M,M,M,M,M,M,M,RJTY 160456Z AUTO 00000KT 10SM SCT032 SCT160 26/20 A2996 RMK AO2 SLP143 T02610197 FZRANO $
RODN,2020-09-16 04:56,127.7676,26.3556,87.80,80.80,79.83,230.00,11.00,T,29.85,1011.30,10.00,M,OVC,M,M,M,2000.00,M,M,M,M,M,M,M,M,M,M,105.47,RODN 160456Z AUTO 23011KT 10SM OVC020 31/27 A2985 RMK AO2 DZE10 OVC V BKN SLP113 P0000 T03100271 $
ROTM,2020-09-16 04:56,127.7565,26.2743,88.00,75.00,65.49,160.00,10.00,0.00,29.87,1009.90,6.21,M,SCT,SCT,BKN,M,2200.00,3000.00,5000.00,M,M,M,M,M,M,M,M,97.81,ROTM 160456Z 16010KT 9999 SCT022 SCT030 BKN050 31/24 A2987 RMK SLP099 T03110239
RJSC,2020-09-16 05:00,140.3711,38.4119,80.60,66.20,61.58,90.00,7.00,0.00,29.88,M,6.21,M,FEW,BKN,M,M,2500.00,M,M,M,M,M,M,M,M,M,M,82.75,RJSC 160500Z 09007KT 070V140 9999 FEW025 BKN/// 27/19 Q1012
RJSD,2020-09-16 05:00,138.4139,38.0602,80.60,69.80,69.71,50.00,5.00,0.00,29.85,M,6.21,M,NSC,M,M,M,M,M,M,M,M,M,M,M,M,M,M,83.90,RJSD 160500Z AUTO 05005KT 360V090 9999 NSC 27/21 Q1011
RJSF,2020-09-16 05:00,140.4281,37.2275,77.00,66.20,69.33,140.00,4.00,0.00,29.94,M,6.21,M,FEW,SCT,BKN,M,2500.00,5000.00,18000.00,M,M,M,M,M,M,M,M,M,RJSF 160500Z 14004KT 110V180 9999 FEW025 SCT050 BKN180 25/19 Q1014
RJFR,2020-09-16 05:00,131.0350,33.8456,75.20,71.60,88.59,140.00,5.00,0.00,29.83,M,4.35,M,FEW,SCT,BKN,M,1000.00,2000.00,3000.00,M,-SHRA,M,M,M,M,M,M,M,RJFR 160500Z 14005KT 080V190 7000 -SHRA FEW010 SCT020 BKN030 24/22 Q1010
RJSR,2020-09-16 05:00,140.3714,40.1919,80.60,66.20,61.58,M,2.00,0.00,29.88,M,6.21,M,FEW,SCT,BKN,M,3000.00,5000.00,M,M,M,M,M,M,M,M,M,82.75,RJSR 160500Z VRB02KT 9999 FEW030 SCT050 BKN/// 27/19 Q1012
RJSI,2020-09-16 05:00,141.1353,39.4286,80.60,64.40,57.84,190.00,9.00,0.00,29.91,M,6.21,M,FEW,BKN,M,M,4000.00,M,M,M,M,M,M,M,M,M,M,82.27,RJSI 160500Z 19009KT 9999 FEW040 BKN/// 27/18 Q1013
RJSM,2020-09-16 05:00,141.3684,40.7032,73.40,68.00,83.21,110.00,12.00,0.00,29.91,M,6.21,M,FEW,SCT,M,M,1000.00,2500.00,M,M,M,M,M,M,M,M,M,M,RJSM 160500Z 11012KT 9999 FEW010 SCT025 23/20 Q1013
RJAA,2020-09-16 05:00,140.3856,35.7653,80.60,68.00,65.54,40.00,6.00,0.00,29.91,M,6.21,M,FEW,SCT,BKN,M,2500.00,9000.00,18000.00,M,M,M,M,M,M,M,M,83.29,RJAA 160500Z 04006KT 360V090 9999 FEW025 SCT090 BKN180 27/20 Q1013 NOSIG
RJAF,2020-09-16 05:00,137.9228,36.1667,75.20,60.80,60.90,330.00,8.00,0.00,29.94,M,6.21,M,FEW,BKN,M,M,3000.00,16000.00,M,M,M,M,M,M,M,M,M,M,RJAF 160500Z 33008KT 9999 FEW030 BKN160 24/16 Q1014
RJAH,2020-09-16 05:00,140.4147,36.1817,77.00,64.40,65.12,80.00,7.00,0.00,29.91,M,6.21,M,FEW,BKN,BKN,M,1500.00,10000.00,25000.00,M,M,M,M,M,M,M,M,M,RJAH 160500Z 08007KT 9999 FEW015 BKN100 BKN250 25/18 Q1013
RJBT,2020-09-16 05:00,134.7869,35.5128,78.80,68.00,69.52,170.00,5.00,0.00,29.83,M,6.21,M,FEW,SCT,BKN,M,3000.00,10000.00,12000.00,M,M,M,M,M,M,M,M,M,RJBT 160500Z 17005KT 9999 FEW030 SCT100 BKN120 26/20 Q1010
RJCB,2020-09-16 05:00,143.2172,42.7333,69.80,64.40,82.98,150.00,11.00,0.00,30.00,M,6.21,M,FEW,BKN,M,M,1500.00,2000.00,M,M,M,M,M,M,M,M,M,M,RJCB 160500Z 15011KT 9999 FEW015 BKN020 21/18 Q1016
RJCC,2020-09-16 05:00,141.6926,42.7742,71.60,68.00,88.43,170.00,13.00,0.00,29.94,M,6.21,M,FEW,BKN,BKN,M,700.00,1200.00,1500.00,M,-SHRA,M,M,M,M,M,M,M,RJCC 160500Z 17013KT 9999 -SHRA FEW007 BKN012 BKN015 22/20 Q1014
RJCH,2020-09-16 05:00,140.8219,41.7700,75.20,66.20,73.61,150.00,6.00,0.00,29.91,M,6.21,M,FEW,SCT,BKN,M,2500.00,4000.00,8000.00,M,M,M,M,M,M,M,M,M,RJCH 160500Z 15006KT 110V180 9999 FEW025 SCT040 BKN080 24/19 Q1013
RJCK,2020-09-16 05:00,144.1931,43.0408,68.00,64.40,88.26,160.00,12.00,0.00,30.00,M,6.21,M,FEW,BKN,BKN,M,500.00,800.00,1000.00,M,M,M,M,M,M,M,M,M,RJCK 160500Z 16012KT 9999 FEW005 BKN008 BKN010 20/18 Q1016
RJCM,2020-09-16 05:00,144.1642,43.8806,75.20,59.00,57.12,170.00,14.00,0.00,29.94,M,6.21,M,FEW,SCT,M,M,2000.00,3000.00,M,M,M,M,M,M,M,M,M,M,RJCM 160500Z 17014KT 9999 FEW020 SCT030 24/15 Q1014
RJCN,2020-09-16 05:00,144.9600,43.5775,71.60,62.60,73.27,180.00,10.00,0.00,30.00,M,6.21,M,FEW,SCT,M,M,1500.00,2500.00,M,M,M,M,M,M,M,M,M,M,RJCN 160500Z 18010KT 140V210 9999 FEW015 SCT025 22/17 Q1016
RJCO,2020-09-16 05:00,141.3814,43.1175,77.00,68.00,73.78,150.00,13.00,0.00,29.91,M,6.21,M,FEW,SCT,M,M,800.00,6000.00,M,M,M,M,M,M,M,M,M,M,RJCO 160500Z 15013KT 9999 FEW008 SCT060 25/20 Q1013
RJCW,2020-09-16 05:00,141.8022,45.4044,75.20,64.40,69.14,210.00,13.00,0.00,29.88,M,6.21,M,FEW,SCT,BKN,M,1500.00,3000.00,4500.00,M,M,M,M,M,M,M,M,M,RJCW 160500Z 21013KT 9999 FEW015 SCT030 BKN045 24/18 Q1012
RJDT,2020-09-16 05:00,129.3306,34.2850,75.20,69.80,83.32,M,2.00,0.00,29.80,M,6.21,M,FEW,SCT,BKN,M,1500.00,2000.00,2500.00,M,M,M,M,M,M,M,M,M,RJDT 160500Z VRB02KT 9999 FEW015 SCT020 BKN025 24/21 Q1009
RJEB,2020-09-16 05:00,143.4040,44.3039,75.20,64.40,69.14,80.00,7.00,0.00,29.88,M,6.21,M,FEW,M,M,M,3000.00,M,M,M,M,M,M,M,M,M,M,M,RJEB 160500Z 08007KT 9999 FEW030 24/18 Q1012
RJEC,2020-09-16 05:00,142.4475,43.6708,75.20,53.60,46.98,180.00,15.00,0.00,29.94,M,6.21,M,FEW,M,M,M,3000.00,M,M,M,M,M,M,M,M,M,M,M,RJEC 160500Z 18015KT 9999 FEW030 24/12 Q1014
RJFE,2020-09-16 05:00,128.8328,32.6664,75.20,73.40,94.14,150.00,4.00,0.00,29.80,M,6.21,M,FEW,SCT,BKN,M,400.00,800.00,1500.00,M,-SHRA,M,M,M,M,M,M,M,RJFE 160500Z 15004KT 100V180 9999 -SHRA FEW004 SCT008 BKN015 24/23 Q1009
RJFF,2020-09-16 05:00,130.4517,33.5844,73.40,73.40,100.00,100.00,4.00,0.00,29.83,M,2.49,M,FEW,SCT,BKN,M,500.00,3000.00,4000.00,M,SHRA BR,M,M,M,M,M,M,M,RJFF 160500Z 10004KT 4000 SHRA BR FEW005 SCT030 BKN040 23/23 Q1010 NOSIG
RJFK,2020-09-16 05:00,130.7194,31.8033,75.20,75.20,100.00,300.00,5.00,0.00,29.88,M,3.11,M,FEW,SCT,BKN,M,200.00,1000.00,3000.00,M,-SHRA BCFG BR,M,M,M,M,M,M,M,RJFK 160500Z 30005KT 5000 -SHRA BCFG BR FEW002 SCT010 BKN030 24/24 Q1012
RJFM,2020-09-16 05:00,131.4486,31.8772,75.20,71.60,88.59,40.00,3.00,0.00,29.85,M,4.35,M,FEW,SCT,BKN,M,300.00,600.00,800.00,M,M,M,M,M,M,M,M,M,RJFM 160500Z 04003KT 7000 FEW003 SCT006 BKN008 24/22 Q1011
RJFO,2020-09-16 05:00,131.7372,33.4794,75.20,71.60,88.59,140.00,8.00,0.00,29.83,M,6.21,M,FEW,SCT,BKN,M,1500.00,3000.00,4500.00,M,-SHRA,M,M,M,M,M,M,M,RJFO 160500Z 14008KT 9999 -SHRA FEW015 SCT030 BKN045 24/22 Q1010
RJAW,2020-09-16 05:00,141.3227,24.7840,86.00,75.20,70.27,340.00,5.00,0.00,29.88,M,6.21,M,FEW,SCT,M,M,1000.00,1500.00,M,M,-SHRA,M,M,M,M,M,M,95.19,RJAW 160500Z 34005KT 300V020 9999 -SHRA FEW010 SCT015 30/24 Q1012 RMK 2CU010 4CU015 A2990
RJBB,2020-09-16 05:00,135.2328,34.4342,80.60,68.00,65.54,M,2.00,0.00,29.85,M,6.21,M,FEW,SCT,BKN,M,2500.00,9000.00,M,M,M,M,M,M,M,M,M,83.29,RJBB 160500Z VRB02KT 9999 FEW025 SCT090 BKN/// 27/20 Q1011 NOSIG
RJBE,2020-09-16 05:00,135.2239,34.6328,80.60,68.00,65.54,260.00,5.00,0.00,29.85,M,6.21,M,FEW,SCT,BKN,M,2500.00,11000.00,M,M,M,M,M,M,M,M,M,83.29,RJBE 160500Z 26005KT 230V290 9999 FEW025 SCT110 BKN/// 27/20 Q1011
RJNK,2020-09-16 05:00,136.4075,36.3939,82.40,64.40,54.55,340.00,9.00,0.00,29.83,M,6.21,M,FEW,SCT,M,M,5000.00,23000.00,M,M,M,M,M,M,M,M,M,83.98,RJNK 160500Z 34009KT 9999 FEW050 SCT230 28/18 Q1010
RJNT,2020-09-16 05:00,137.1875,36.6483,82.40,64.40,54.55,10.00,7.00,0.00,29.83,M,6.21,M,FEW,SCT,M,M,3000.00,M,M,M,M,M,M,M,M,M,M,83.98,RJNT 160500Z 01007KT 320V050 9999 FEW030 SCT/// 28/18 Q1010
RJNW,2020-09-16 05:00,136.9618,37.2931,80.60,64.40,57.84,M,2.00,0.00,29.88,M,6.21,M,FEW,SCT,M,M,2000.00,16000.00,M,M,M,M,M,M,M,M,M,82.27,RJNW 160500Z VRB02KT 9999 FEW020 SCT160 27/18 Q1012
RJOA,2020-09-16 05:00,132.9194,34.4361,73.40,68.00,83.21,190.00,3.00,0.00,29.88,M,6.21,M,FEW,BKN,M,M,1500.00,2500.00,M,M,M,M,M,M,M,M,M,M,RJOA 160500Z 19003KT 150V220 9999 FEW015 BKN025 23/20 Q1012
RJOB,2020-09-16 05:00,133.8553,34.7569,78.80,69.80,73.95,110.00,5.00,0.00,29.85,M,6.21,M,FEW,SCT,BKN,M,1500.00,2000.00,7000.00,M,M,M,M,M,M,M,M,M,RJOB 160500Z 11005KT 030V150 9999 FEW015 SCT020 BKN070 26/21 Q1011
RJOC,2020-09-16 05:00,132.8900,35.4136,82.40,69.80,65.74,20.00,3.00,0.00,29.80,M,6.21,M,FEW,BKN,BKN,M,2500.00,8000.00,12000.00,M,M,M,M,M,M,M,M,86.22,RJOC 160500Z 02003KT 9999 FEW025 BKN080 BKN120 28/21 Q1009
RJOH,2020-09-16 05:00,133.2392,35.4933,82.40,68.00,61.81,60.00,5.00,0.00,29.83,M,6.21,M,FEW,SCT,BKN,M,3000.00,6000.00,9000.00,M,M,M,M,M,M,M,M,85.38,RJOH 160500Z 06005KT 9999 FEW030 SCT060 BKN090 28/20 Q1010
RJKA,2020-09-16 05:00,129.7125,28.4308,86.00,78.80,79.18,210.00,11.00,0.00,29.85,M,6.21,M,FEW,BKN,M,M,1500.00,M,M,M,M,M,M,M,M,M,M,99.38,RJKA 160500Z 21011KT 9999 FEW015 BKN/// 30/26 Q1011
RJOK,2020-09-16 05:00,133.6694,33.5461,75.20,69.80,83.32,300.00,3.00,0.00,29.85,M,6.21,M,FEW,SCT,BKN,M,500.00,4000.00,5000.00,M,VCSH,M,M,M,M,M,M,M,RJOK 160500Z 30003KT 260V320 9999 VCSH FEW005 SCT040 BKN050 24/21 Q1011
RJFU,2020-09-16 05:00,129.9136,32.9169,71.60,69.80,94.06,60.00,2.00,0.00,29.83,M,5.59,M,FEW,BKN,BKN,M,400.00,800.00,2500.00,M,-SHRA,M,M,M,M,M,M,M,RJFU 160500Z 06002KT 9000 -SHRA FEW004 BKN008 BKN025 22/21 Q1010
RJGG,2020-09-16 05:00,136.8054,34.8584,78.80,71.60,78.62,210.00,7.00,0.00,29.85,M,6.21,M,FEW,SCT,BKN,M,2000.00,12000.00,M,M,M,M,M,M,M,M,M,M,RJGG 160500Z 21007KT 9999 FEW020 SCT120 BKN/// 26/22 Q1011 NOSIG
RJKI,2020-09-16 05:00,129.9281,28.3213,86.00,78.80,79.18,200.00,9.00,0.00,29.85,M,6.21,M,FEW,M,M,M,1700.00,M,M,M,M,M,M,M,M,M,M,99.38,RJKI 160500Z AUTO 20009KT 160V240 9999 FEW017 30/26 Q1011
ROIG,2020-09-16 05:00,124.1633,24.3367,87.80,80.60,79.31,150.00,10.00,0.00,29.83,M,6.21,M,FEW,SCT,BKN,M,1700.00,2100.00,M,M,M,M,M,M,M,M,M,105.14,ROIG 160500Z 15010KT 9999 FEW017 SCT021 BKN/// 31/27 Q1010
ROMD,2020-09-16 05:00,131.2286,25.8289,87.80,78.80,74.77,160.00,7.00,0.00,29.88,M,6.21,M,FEW,M,M,M,2400.00,M,M,M,M,M,M,M,M,M,M,102.37,ROMD 160500Z AUTO 16007KT 120V230 9999 FEW024 31/26 Q1012
ROMY,2020-09-16 05:00,125.2767,24.7933,87.80,78.80,74.77,170.00,11.00,0.00,29.83,M,6.21,M,SCT,BKN,M,M,1900.00,M,M,M,M,M,M,M,M,M,M,102.37,ROMY 160500Z 17011KT 140V200 9999 SCT019 BKN/// 31/26 Q1010
RORY,2020-09-16 05:00,128.4020,27.0440,86.00,78.80,79.18,190.00,8.00,0.00,29.85,M,6.21,M,FEW,M,M,M,3800.00,M,M,M,M,M,M,M,M,M,M,99.38,RORY 160500Z AUTO 19008KT 160V220 9999 FEW038 30/26 Q1011
RJDC,2020-09-16 05:00,131.2786,33.9300,75.20,73.40,94.14,160.00,6.00,0.00,29.83,M,6.21,M,FEW,BKN,BKN,M,800.00,1500.00,3000.00,M,-SHRA,M,M,M,M,M,M,M,RJDC 160500Z 16006KT 9999 -SHRA FEW008 BKN015 BKN030 24/23 Q1010
RJOM,2020-09-16 05:00,132.6997,33.8272,77.00,71.60,83.44,260.00,3.00,0.00,29.83,M,6.21,M,FEW,BKN,BKN,M,1000.00,3500.00,6000.00,M,M,M,M,M,M,M,M,M,RJOM 160500Z 26003KT 230V300 9999 FEW010 BKN035 BKN060 25/22 Q1010
RJFS,2020-09-16 05:00,130.3000,33.1500,73.40,71.60,94.10,M,1.00,0.00,29.83,M,2.49,M,FEW,SCT,BKN,M,500.00,900.00,1500.00,M,SHRA BR,M,M,M,M,M,M,M,RJFS 160500Z VRB01KT 4000 R29/1100VP2000N SHRA BR FEW005 SCT009 BKN015 23/22 Q1010
RJFT,2020-09-16 05:00,130.8553,32.8372,73.40,71.60,94.10,M,1.00,0.00,29.85,M,1.86,M,BKN,M,M,M,2000.00,M,M,M,RA BR,M,M,M,M,M,M,M,RJFT 160500Z VRB01KT 3000 R07/1500VP1800N RA BR BKN020 23/22 Q1011
RJOT,2020-09-16 05:00,134.0167,34.2167,78.80,68.00,69.52,70.00,4.00,0.00,29.85,M,6.21,M,FEW,SCT,BKN,M,2000.00,6000.00,8000.00,M,M,M,M,M,M,M,M,M,RJOT 160500Z 07004KT 040V110 9999 FEW020 SCT060 BKN080 26/20 Q1011
RJSK,2020-09-16 05:00,140.2167,39.6167,78.80,64.40,61.36,M,2.00,0.00,29.88,M,6.21,M,FEW,BKN,BKN,M,2500.00,3500.00,M,M,M,M,M,M,M,M,M,M,RJSK 160500Z VRB02KT 9999 FEW025 BKN035 BKN/// 26/18 Q1012
RJOO,2020-09-16 05:00,135.4392,34.7844,82.40,68.00,61.81,250.00,7.00,0.00,29.85,M,6.21,M,FEW,SCT,BKN,M,3500.00,12000.00,M,M,M,M,M,M,M,M,M,85.38,RJOO 160500Z 25007KT 230V290 9999 FEW035 SCT120 BKN/// 28/20 Q1011
RJOR,2020-09-16 05:00,134.1650,35.5300,80.60,69.80,69.71,320.00,5.00,0.00,29.80,M,6.21,M,FEW,SCT,BKN,M,3500.00,10000.00,14000.00,M,M,M,M,M,M,M,M,83.90,RJOR 160500Z 32005KT 9999 FEW035 SCT100 BKN140 27/21 Q1009
RJOW,2020-09-16 05:00,131.7903,34.6764,78.80,69.80,73.95,170.00,5.00,0.00,29.80,M,6.21,M,FEW,SCT,BKN,M,2000.00,5000.00,7000.00,M,M,M,M,M,M,M,M,M,RJOW 160500Z 17005KT 140V210 9999 FEW020 SCT050 BKN070 26/21 Q1009
RJOY,2020-09-16 05:00,135.6006,34.5967,86.00,66.20,51.72,M,3.00,0.00,29.83,M,6.21,M,FEW,SCT,BKN,M,3000.00,5000.00,12000.00,M,M,M,M,M,M,M,M,88.39,RJOY 160500Z VRB03KT 9999 FEW030 SCT050 BKN120 30/19 Q1010
RJSA,2020-09-16 05:00,140.6886,40.7333,75.20,60.80,60.90,10.00,6.00,0.00,29.91,M,6.21,M,FEW,SCT,BKN,M,2000.00,3500.00,M,M,M,M,M,M,M,M,M,M,RJSA 160500Z 01006KT 330V060 9999 FEW020 SCT035 BKN/// 24/16 Q1013
RJSN,2020-09-16 05:00,139.1117,37.9558,78.80,69.80,73.95,10.00,6.00,0.00,29.85,M,6.21,M,FEW,BKN,M,M,3000.00,18000.00,M,M,M,M,M,M,M,M,M,M,RJSN 160500Z 01006KT 9999 FEW030 BKN180 26/21 Q1011
RJSS,2020-09-16 05:00,140.9169,38.1397,75.20,66.20,73.61,120.00,8.00,0.00,29.91,M,6.21,M,FEW,SCT,BKN,M,2000.00,15000.00,M,M,M,M,M,M,M,M,M,M,RJSS 160500Z 12008KT 9999 FEW020 SCT150 BKN/// 24/19 Q1013
RJTF,2020-09-16 05:00,139.5281,35.6717,82.40,69.80,65.74,M,3.00,0.00,29.88,M,6.21,M,FEW,SCT,BKN,M,2500.00,8000.00,15000.00,M,M,M,M,M,M,M,M,86.22,RJTF 160500Z VRB03KT 9999 FEW025 SCT080 BKN150 28/21 Q1012
RJTO,2020-09-16 05:00,139.3603,34.7819,78.80,71.60,78.62,50.00,9.00,0.00,29.88,M,6.21,M,FEW,BKN,M,M,1500.00,13000.00,M,M,M,M,M,M,M,M,M,M,RJTO 160500Z 05009KT 9999 FEW015 BKN130 26/22 Q1012
RJTT,2020-09-16 05:00,139.7811,35.5533,80.60,71.60,74.11,70.00,3.00,0.00,29.88,M,6.21,M,FEW,SCT,BKN,M,2000.00,8000.00,17000.00,M,M,M,M,M,M,M,M,84.57,RJTT 160500Z 07003KT 9999 FEW020 SCT080 BKN170 27/22 Q1012 NOSIG
RORS,2020-09-16 05:00,125.1447,24.8267,87.80,80.60,79.31,170.00,10.00,0.00,29.83,M,6.21,M,SCT,BKN,M,M,1800.00,M,M,M,M,M,M,M,M,M,M,105.14,RORS 160500Z 17010KT 140V200 9999 SCT018 BKN/// 31/27 Q1010
RJNS,2020-09-16 05:00,138.1894,34.7961,78.80,68.00,69.52,140.00,6.00,0.00,29.88,M,6.21,M,FEW,SCT,BKN,M,2500.00,11000.00,14000.00,M,M,M,M,M,M,M,M,M,RJNS 160500Z 14006KT 9999 FEW025 SCT110 BKN140 26/20 Q1012
RJBD,2020-09-16 05:00,135.3644,33.6622,77.00,71.60,83.44,160.00,7.00,0.00,29.88,M,6.21,M,FEW,SCT,BKN,M,2500.00,5000.00,8000.00,M,VCSH,M,M,M,M,M,M,M,RJBD 160500Z 16007KT 140V200 9999 VCSH FEW025 SCT050 BKN080 25/22 Q1012
RJFG,2020-09-16 05:00,130.9917,30.6050,78.80,73.40,83.55,M,2.00,0.00,29.88,M,6.21,M,FEW,SCT,BKN,M,1000.00,5000.00,6000.00,M,M,M,M,M,M,M,M,M,RJFG 160500Z VRB02KT 9999 FEW010 SCT050 BKN060 26/23 Q1012
RJTI,2020-09-16 05:00,139.8500,35.6300,80.60,69.80,69.71,160.00,4.00,0.00,29.88,M,6.21,M,FEW,BKN,BKN,M,2000.00,8000.00,17000.00,M,M,M,M,M,M,M,M,83.90,RJTI 160500Z 16004KT 9999 FEW020 BKN080 BKN170 27/21 Q1012
RJOS,2020-09-16 05:00,134.6092,34.1322,78.80,71.60,78.62,160.00,13.00,0.00,29.85,M,6.21,M,FEW,SCT,BKN,M,1500.00,5000.00,8000.00,M,M,M,M,M,M,M,M,M,RJOS 160500Z 16013KT 9999 FEW015 SCT050 BKN080 26/22 Q1011
RJSY,2020-09-16 05:00,139.7872,38.8122,78.80,66.20,65.33,290.00,4.00,0.00,29.88,M,6.21,M,FEW,BKN,M,M,3000.00,M,M,M,M,M,M,M,M,M,M,M,RJSY 160500Z 29004KT 240V340 9999 FEW030 BKN/// 26/19 Q1012
RORK,2020-09-16 05:00,131.3333,25.9167,87.80,77.00,70.45,150.00,7.00,0.00,29.88,M,6.21,M,NCD,M,M,M,M,M,M,M,M,M,M,M,M,M,M,99.92,RORK 160500Z AUTO 15007KT 9999 NCD 31/25 Q1012
ROYN,2020-09-16 05:00,122.9780,24.4670,89.60,80.60,74.93,170.00,11.00,0.00,29.80,M,6.21,M,FEW,SCT,M,M,1800.00,2100.00,M,M,M,M,M,M,M,M,M,108.11,ROYN 160500Z AUTO 17011KT 120V210 9999 FEW018 SCT021 32/27 Q1009
ROAH,2020-09-16 05:00,127.6458,26.1958,87.80,80.60,79.31,190.00,10.00,0.00,29.83,M,6.21,M,FEW,BKN,M,M,1300.00,M,M,M,M,M,M,M,M,M,M,105.14,ROAH 160500Z 19010KT 9999 FEW013 BKN/// 31/27 Q1010
RJAW,2020-09-16 05:04,141.3227,24.7840,86.00,77.00,74.61,330.00,6.00,0.00,29.88,M,6.21,M,FEW,BKN,M,M,1000.00,1500.00,M,M,-SHRA,M,M,M,M,M,M,97.15,RJAW 160504Z 33006KT 310V010 9999 -SHRA FEW010 BKN015 30/25 Q1012 RMK 2CU010 5CU015 A2990
RODN,2020-09-16 05:06,127.7676,26.3556,87.80,80.60,79.31,220.00,11.00,0.00,29.85,1011.30,10.00,M,SCT,BKN,OVC,M,2000.00,2600.00,3600.00,M,M,M,M,M,M,M,M,105.14,RODN 160506Z AUTO 22011KT 10SM SCT020 BKN026 OVC036 31/27 A2985 RMK AO2 CIG 020V026 BKN V OVC SLP113 $
RJOF,2020-09-16 05:10,131.5464,34.0344,75.20,71.60,88.59,140.00,9.00,0.00,29.83,M,6.21,M,FEW,BKN,BKN,M,600.00,1100.00,1500.00,M,-SHRA,M,M,M,M,M,M,M,RJOF 160510Z 14009KT 9999 -SHRA FEW006 BKN011 BKN015 24/22 Q1010 RMK 2ST006 6CU011 7CU015 A2984 FCST AMD 0511 BECMG 0505 NSW FEW008ST SCT011CU BKN015CU TEMPO 0506 -SHRA FEW006ST BKN011CU BKN015CU TEMPO 0611 4000 -SHRA BR FEW006ST BKN010CU BKN015CU
RJFS,2020-09-16 05:10,130.3000,33.1500,73.40,71.60,94.10,0.00,0.00,0.00,29.83,M,3.73,M,FEW,SCT,BKN,M,500.00,1000.00,1500.00,M,-SHRA,M,M,M,M,M,M,M,RJFS 160510Z 00000KT 6000 -SHRA FEW005 SCT010 BKN015 23/22 Q1010 RMK 1ST005 3CU010 5CU015 A2983
RJFF,2020-09-16 05:12,130.4517,33.5844,73.40,71.60,94.10,110.00,3.00,0.00,29.83,M,5.59,M,FEW,SCT,BKN,M,500.00,1200.00,4000.00,M,-SHRA,M,M,M,M,M,M,M,RJFF 160512Z 11003KT 080V140 9000 -SHRA FEW005 SCT012 BKN040 23/22 Q1010 RMK 1ST005 3CU012 6CU040 A2982
RJAW,2020-09-16 05:23,141.3227,24.7840,86.00,77.00,74.61,270.00,4.00,0.00,29.88,M,6.21,M,FEW,SCT,M,M,1000.00,1500.00,M,M,M,M,M,M,M,M,M,97.15,RJAW 160523Z 27004KT 240V300 9999 FEW010 SCT015 30/25 Q1012 RMK 1CU010 4CU015 A2990
RJFG,2020-09-16 05:24,130.9917,30.6050,78.80,73.40,83.55,230.00,1.00,0.00,29.88,M,6.21,M,FEW,FEW,BKN,M,1000.00,2000.00,4000.00,M,TS,M,M,M,M,M,M,M,RJFG 160524Z 23001KT 9999 TS FEW010 FEW020CB BKN040 26/23 Q1012 RMK 1CU010 1CB020 5SC040 A2989 FBL TS 30KM SW MOV NE
RODN,2020-09-16 05:26,127.7676,26.3556,87.80,80.60,79.31,230.00,11.00,0.00,29.85,1011.30,10.00,M,BKN,BKN,BKN,OVC,2300.00,2900.00,3800.00,4500.00,M,M,M,M,M,M,M,105.14,RODN 160526Z AUTO 23011KT 10SM BKN023 BKN029 BKN038 OVC045 31/27 A2985 RMK AO2 SLP113 $
RJAA,2020-09-16 05:30,140.3856,35.7653,78.80,69.80,73.95,50.00,9.00,0.00,29.88,M,6.21,M,FEW,BKN,M,M,2000.00,9000.00,M,M,M,M,M,M,M,M,M,M,RJAA 160530Z 05009KT 020V080 9999 FEW020 BKN090 26/21 Q1012 NOSIG RMK 1CU020 7AC090 A2990
RJCC,2020-09-16 05:30,141.6926,42.7742,71.60,69.80,94.06,170.00,14.00,0.00,29.94,M,6.21,M,FEW,SCT,BKN,M,700.00,1200.00,1500.00,M,-SHRA,M,M,M,M,M,M,M,RJCC 160530Z 17014KT 9999 -SHRA FEW007 SCT012 BKN015 22/21 Q1014 RMK 1ST007 4ST012 6ST015 A2995
RJFF,2020-09-16 05:30,130.4517,33.5844,75.20,71.60,88.59,130.00,4.00,0.00,29.80,M,6.21,M,FEW,SCT,BKN,M,500.00,2000.00,3500.00,M,-SHRA,M,M,M,M,M,M,M,RJFF 160530Z 13004KT 080V170 9999 -SHRA FEW005 SCT020 BKN035 24/22 Q1009 TEMPO 4000 -SHRA BR RMK 1ST005 3CU020 5CU035 A2982
RJBB,2020-09-16 05:30,135.2328,34.4342,78.80,68.00,69.52,310.00,3.00,0.00,29.85,M,6.21,M,FEW,SCT,BKN,M,2500.00,9000.00,12000.00,M,M,M,M,M,M,M,M,M,RJBB 160530Z 31003KT 270V340 9999 FEW025 SCT090 BKN120 26/20 Q1011 NOSIG
RJGG,2020-09-16 05:30,136.8054,34.8584,78.80,69.80,73.95,200.00,7.00,0.00,29.85,M,6.21,M,FEW,SCT,BKN,M,2000.00,12000.00,15000.00,M,M,M,M,M,M,M,M,M,RJGG 160530Z 20007KT 9999 FEW020 SCT120 BKN150 26/21 Q1011 NOSIG
RJTT,2020-09-16 05:30,139.7811,35.5533,80.60,69.80,69.71,80.00,3.00,0.00,29.88,M,6.21,M,FEW,BKN,M,M,2000.00,17000.00,M,M,M,M,M,M,M,M,M,83.90,RJTT 160530Z 08003KT 9999 FEW020 BKN170 27/21 Q1012 NOSIG RMK 1CU020 7AC170 A2990
ROAH,2020-09-16 05:30,127.6458,26.1958,86.00,80.60,83.99,200.00,11.00,0.00,29.83,M,6.21,M,FEW,BKN,M,M,1200.00,M,M,M,M,M,M,M,M,M,M,101.90,ROAH 160530Z 20011KT 9999 FEW012 BKN/// 30/27 Q1010 RMK 2CU012 A2985
RJFU,2020-09-16 05:31,129.9136,32.9169,73.40,73.40,100.00,150.00,5.00,0.00,29.80,M,5.59,M,FEW,SCT,BKN,M,400.00,800.00,2000.00,M,-SHRA,M,M,M,M,M,M,M,RJFU 160531Z 15005KT 9000 -SHRA FEW004 SCT008 BKN020 23/23 Q1009 RMK 1ST004 3ST008 5CU020 A2982
RJFK,2020-09-16 05:36,130.7194,31.8033,75.20,73.40,94.14,300.00,3.00,0.00,29.88,M,2.80,M,FEW,SCT,BKN,M,200.00,4000.00,10000.00,M,-RA BCFG BR,M,M,M,M,M,M,M,RJFK 160536Z 30003KT 4500 -RA BCFG BR FEW002 SCT040 BKN100 24/23 Q1012 RMK 1ST002 4SC040 7AC100 A2990 FG NW-E
RJCC,2020-09-16 05:40,141.6926,42.7742,69.80,66.20,88.34,170.00,16.00,0.00,29.94,M,3.04,M,FEW,SCT,BKN,M,700.00,1200.00,1500.00,M,SHRA BR,M,M,M,M,M,M,M,RJCC 160540Z 17016KT 4900 R19R/P2000N R19L/P2000N SHRA BR FEW007 SCT012 BKN015 21/19 Q1014 RMK 1ST007 4ST012 6ST015 A2995
RJCC,2020-09-16 05:43,141.6926,42.7742,69.80,68.00,94.01,170.00,17.00,0.00,29.94,M,2.17,M,FEW,SCT,BKN,M,600.00,1200.00,1500.00,M,SHRA BR,M,M,M,M,M,M,M,RJCC 160543Z 17017KT 3500 R19R/0800VP2000D R19L/P2000N SHRA BR FEW006 SCT012 BKN015 21/20 Q1014 RMK 1ST006 4ST012 6ST015 A2995
RJFK,2020-09-16 05:43,130.7194,31.8033,75.20,73.40,94.14,M,2.00,0.00,29.88,M,2.80,M,FEW,SCT,BKN,M,200.00,4000.00,10000.00,M,RA BCFG BR,M,M,M,M,M,M,M,RJFK 160543Z VRB02KT 4500 R34/2000N RA BCFG BR FEW002 SCT040 BKN100 24/23 Q1012 RMK 1ST002 4SC040 7AC100 A2989 FG NW-E
RJCC,2020-09-16 05:45,141.6926,42.7742,69.80,68.00,94.01,170.00,18.00,0.00,29.94,M,2.17,M,FEW,SCT,BKN,M,600.00,1200.00,1500.00,M,SHRA BR,M,M,M,M,M,M,M,RJCC 160545Z 17018KT 3500 R19R/0800VP2000D R19L/P2000N SHRA BR FEW006 SCT012 BKN015 21/20 Q1014 RMK 1ST006 4ST012 6ST015 A2995
RJAT,2020-09-16 05:47,138.8764,35.3150,71.60,64.40,78.04,50.00,5.00,0.00,29.97,M,6.21,M,FEW,SCT,BKN,M,300.00,800.00,1500.00,M,-SHRA,M,M,M,M,M,M,M,RJAT 160547Z 05005KT 9999 -SHRA FEW003 SCT008 BKN015 22/18 Q1015 RMK 1ST003 3ST008 5CU015 A2998
RJOI,2020-09-16 05:55,132.2357,34.1439,78.10,69.10,73.88,160.00,6.00,T,29.84,1010.50,6.21,M,SCT,BKN,OVC,M,3000.00,4500.00,8000.00,M,M,M,M,M,M,M,M,M,RJOI 160555Z 16006KT 9999 SCT030 BKN045 OVC080 26/21 A2984 RMK RAB25E35 SLP105 P0000 60000 T02560206 10267 20256 57003
RJTY,2020-09-16 05:56,139.3485,35.7485,78.60,68.40,70.95,60.00,4.00,0.00,29.95,1014.00,10.00,M,OVC,M,M,M,3500.00,M,M,M,M,M,M,M,M,M,M,M,RJTY 160556Z AUTO 06004KT 10SM OVC035 26/20 A2995 RMK AO2 SLP140 60000 T02590202 10262 20205 56015 FZRANO $
RODN,2020-09-16 05:56,127.7676,26.3556,86.90,79.90,79.77,220.00,11.00,0.00,29.85,1011.30,10.00,M,OVC,M,M,M,2100.00,M,M,M,M,M,M,M,M,M,M,102.49,RODN 160556Z AUTO 22011KT 10SM OVC021 31/27 A2985 RMK AO2 SLP113 60000 T03050266 10311 20290 55009 $
ROTM,2020-09-16 05:56,127.7565,26.2743,87.10,75.00,67.39,200.00,8.00,0.00,29.87,1010.00,6.21,M,SCT,SCT,BKN,M,2500.00,3100.00,5000.00,M,M,M,M,M,M,M,M,96.56,ROTM 160556Z 20008KT 9999 SCT025 SCT031 BKN050 31/24 A2987 RMK SLP100 T03060239 10311 20294 55007
RJSC,2020-09-16 06:00,140.3711,38.4119,78.80,66.20,65.33,70.00,9.00,0.00,29.88,M,6.21,M,FEW,SCT,BKN,M,2500.00,8000.00,M,M,M,M,M,M,M,M,M,M,RJSC 160600Z 07009KT 9999 FEW025 SCT080 BKN/// 26/19 Q1012
RJSD,2020-09-16 06:00,138.4139,38.0602,78.80,69.80,73.95,70.00,7.00,0.00,29.85,M,6.21,M,NSC,M,M,M,M,M,M,M,M,M,M,M,M,M,M,M,RJSD 160600Z AUTO 07007KT 9999 NSC 26/21 Q1011
RJSF,2020-09-16 06:00,140.4281,37.2275,75.20,66.20,73.61,130.00,3.00,0.00,29.94,M,6.21,M,FEW,SCT,BKN,M,2000.00,4000.00,9000.00,M,VCSH,M,M,M,M,M,M,M,RJSF 160600Z 13003KT 090V160 9999 VCSH FEW020 SCT040 BKN090 24/19 Q1014
RJFR,2020-09-16 06:00,131.0350,33.8456,77.00,71.60,83.44,150.00,4.00,0.00,29.80,M,6.21,M,FEW,BKN,BKN,M,1000.00,4000.00,6000.00,M,-SHRA,M,M,M,M,M,M,M,RJFR 160600Z 15004KT 090V240 9999 -SHRA FEW010 BKN040 BKN060 25/22 Q1009
RJSR,2020-09-16 06:00,140.3714,40.1919,80.60,66.20,61.58,300.00,3.00,0.00,29.88,M,6.21,M,FEW,BKN,M,M,3000.00,M,M,M,M,M,M,M,M,M,M,82.75,RJSR 160600Z 30003KT 250V010 9999 FEW030 BKN/// 27/19 Q1012
RJSI,2020-09-16 06:00,141.1353,39.4286,78.80,64.40,61.36,170.00,8.00,0.00,29.91,M,6.21,M,FEW,BKN,M,M,4000.00,M,M,M,M,M,M,M,M,M,M,M,RJSI 160600Z 17008KT 9999 FEW040 BKN/// 26/18 Q1013
RJSM,2020-09-16 06:00,141.3684,40.7032,71.60,69.80,94.06,120.00,11.00,0.00,29.91,M,6.21,M,BKN,SCT,BKN,M,600.00,800.00,10000.00,M,M,M,M,M,M,M,M,M,RJSM 160600Z 12011KT 9999 BKN006 SCT008 BKN100 22/21 Q1013
RJAA,2020-09-16 06:00,140.3856,35.7653,78.80,69.80,73.95,50.00,8.00,0.00,29.88,M,6.21,M,FEW,SCT,BKN,M,2000.00,9000.00,18000.00,M,M,M,M,M,M,M,M,M,RJAA 160600Z 05008KT 010V080 9999 FEW020 SCT090 BKN180 26/21 Q1012 NOSIG
RJAF,2020-09-16 06:00,137.9228,36.1667,77.00,60.80,57.36,330.00,6.00,0.00,29.91,M,6.21,M,FEW,SCT,BKN,M,3000.00,8000.00,M,M,M,M,M,M,M,M,M,M,RJAF 160600Z 33006KT 280V020 9999 FEW030 SCT080 BKN/// 25/16 Q1013
RJAH,2020-09-16 06:00,140.4147,36.1817,77.00,66.20,69.33,80.00,8.00,0.00,29.91,M,6.21,M,FEW,BKN,BKN,M,1500.00,10000.00,25000.00,M,M,M,M,M,M,M,M,M,RJAH 160600Z 08008KT 040V110 9999 FEW015 BKN100 BKN250 25/19 Q1013
RJBT,2020-09-16 06:00,134.7869,35.5128,80.60,68.00,65.54,160.00,6.00,0.00,29.83,M,6.21,M,FEW,BKN,M,M,3000.00,M,M,M,M,M,M,M,M,M,M,83.29,RJBT 160600Z 16006KT 110V180 9999 FEW030 BKN/// 27/20 Q1010
RJCB,2020-09-16 06:00,143.2172,42.7333,69.80,64.40,82.98,160.00,12.00,0.00,30.00,M,6.21,M,SCT,BKN,M,M,1200.00,2500.00,M,M,M,M,M,M,M,M,M,M,RJCB 160600Z 16012KT 9999 SCT012 BKN025 21/18 Q1016
RJCC,2020-09-16 06:00,141.6926,42.7742,71.60,69.80,94.06,140.00,14.00,0.00,29.94,M,4.97,M,FEW,SCT,BKN,M,600.00,1200.00,2500.00,M,-SHRA,M,M,M,M,M,M,M,RJCC 160600Z 14014KT 8000 -SHRA FEW006 SCT012 BKN025 22/21 Q1014
RJCH,2020-09-16 06:00,140.8219,41.7700,73.40,64.40,73.44,150.00,6.00,0.00,29.91,M,6.21,M,FEW,SCT,BKN,M,2500.00,6000.00,9000.00,M,M,M,M,M,M,M,M,M,RJCH 160600Z 15006KT 120V180 9999 FEW025 SCT060 BKN090 23/18 Q1013
RJCK,2020-09-16 06:00,144.1931,43.0408,68.00,66.20,93.97,170.00,10.00,0.00,30.03,M,6.21,M,FEW,BKN,BKN,M,500.00,800.00,1000.00,M,M,M,M,M,M,M,M,M,RJCK 160600Z 17010KT 9999 FEW005 BKN008 BKN010 20/19 Q1017
RJCM,2020-09-16 06:00,144.1642,43.8806,75.20,59.00,57.12,170.00,16.00,0.00,29.94,M,6.21,M,FEW,M,M,M,2000.00,M,M,M,M,M,M,M,M,M,M,M,RJCM 160600Z 17016KT 9999 FEW020 24/15 Q1014
RJCN,2020-09-16 06:00,144.9600,43.5775,69.80,62.60,77.90,170.00,11.00,0.00,30.00,M,6.21,M,FEW,SCT,M,M,2000.00,3000.00,M,M,M,M,M,M,M,M,M,M,RJCN 160600Z 17011KT 9999 FEW020 SCT030 21/17 Q1016
RJCO,2020-09-16 06:00,141.3814,43.1175,75.20,66.20,73.61,150.00,13.00,0.00,29.91,M,6.21,M,FEW,BKN,M,M,1500.00,5000.00,M,M,M,M,M,M,M,M,M,M,RJCO 160600Z 15013KT 9999 FEW015 BKN050 24/19 Q1013
RJCW,2020-09-16 06:00,141.8022,45.4044,73.40,62.60,68.94,210.00,12.00,0.00,29.88,M,6.21,M,FEW,SCT,BKN,M,1500.00,3000.00,6000.00,M,M,M,M,M,M,M,M,M,RJCW 160600Z 21012KT 9999 FEW015 SCT030 BKN060 23/17 Q1012
RJDT,2020-09-16 06:00,129.3306,34.2850,75.20,69.80,83.32,M,2.00,0.00,29.80,M,6.21,M,FEW,BKN,M,M,1500.00,2000.00,M,M,M,M,M,M,M,M,M,M,RJDT 160600Z VRB02KT 9999 FEW015 BKN020 24/21 Q1009
RJEB,2020-09-16 06:00,143.4040,44.3039,73.40,64.40,73.44,70.00,5.00,0.00,29.91,M,6.21,M,FEW,M,M,M,3000.00,M,M,M,M,M,M,M,M,M,M,M,RJEB 160600Z 07005KT 040V110 9999 FEW030 23/18 Q1013
RJEC,2020-09-16 06:00,142.4475,43.6708,73.40,51.80,46.71,190.00,10.00,0.00,29.94,M,6.21,M,FEW,SCT,BKN,M,2000.00,3000.00,7000.00,M,M,M,M,M,M,M,M,M,RJEC 160600Z 19010KT 9999 FEW020 SCT030 BKN070 23/11 Q1014
RJFE,2020-09-16 06:00,128.8328,32.6664,75.20,73.40,94.14,180.00,5.00,0.00,29.80,M,6.21,M,FEW,SCT,BKN,M,500.00,800.00,1500.00,M,M,M,M,M,M,M,M,M,RJFE 160600Z 18005KT 160V220 9999 FEW005 SCT008 BKN015 24/23 Q1009
RJFF,2020-09-16 06:00,130.4517,33.5844,73.40,69.80,88.51,M,2.00,0.00,29.83,M,6.21,M,FEW,SCT,BKN,M,500.00,2000.00,3000.00,M,-SHRA,M,M,M,M,M,M,M,RJFF 160600Z VRB02KT 9999 -SHRA FEW005 SCT020 BKN030 23/21 Q1010 NOSIG
RJFK,2020-09-16 06:00,130.7194,31.8033,75.20,73.40,94.14,290.00,2.00,0.00,29.88,M,2.49,M,FEW,SCT,BKN,M,200.00,1000.00,4000.00,M,-RA BCFG BR,M,M,M,M,M,M,M,RJFK 160600Z 29002KT 4000 -RA BCFG BR FEW002 SCT010 BKN040 24/23 Q1012
RJFM,2020-09-16 06:00,131.4486,31.8772,75.20,73.40,94.14,M,2.00,0.00,29.85,M,3.73,M,FEW,BKN,BKN,M,300.00,800.00,1500.00,M,-SHRA,M,M,M,M,M,M,M,RJFM 160600Z VRB02KT 6000 -SHRA FEW003 BKN008 BKN015 24/23 Q1011
RJFO,2020-09-16 06:00,131.7372,33.4794,75.20,71.60,88.59,160.00,9.00,0.00,29.83,M,3.73,M,FEW,SCT,BKN,M,500.00,2000.00,4500.00,M,-SHRA,M,M,M,M,M,M,M,RJFO 160600Z 16009KT 140V200 6000 -SHRA FEW005 SCT020 BKN045 24/22 Q1010
RJAW,2020-09-16 06:00,141.3227,24.7840,84.20,75.20,74.44,300.00,2.00,0.00,29.88,M,6.21,M,FEW,SCT,M,M,1000.00,1500.00,M,M,M,M,M,M,M,M,M,92.45,RJAW 160600Z 30002KT 9999 FEW010 SCT015 29/24 Q1012 RMK 1CU010 4CU015 A2990
RJBB,2020-09-16 06:00,135.2328,34.4342,78.80,69.80,73.95,270.00,5.00,0.00,29.85,M,6.21,M,FEW,SCT,BKN,M,2500.00,9000.00,12000.00,M,M,M,M,M,M,M,M,M,RJBB 160600Z 27005KT 9999 FEW025 SCT090 BKN120 26/21 Q1011 NOSIG
RJBE,2020-09-16 06:00,135.2239,34.6328,80.60,68.00,65.54,250.00,6.00,0.00,29.83,M,6.21,M,FEW,SCT,BKN,M,3000.00,9000.00,M,M,M,M,M,M,M,M,M,83.29,RJBE 160600Z 25006KT 9999 FEW030 SCT090 BKN/// 27/20 Q1010
RJNK,2020-09-16 06:00,136.4075,36.3939,82.40,64.40,54.55,360.00,8.00,0.00,29.83,M,6.21,M,FEW,SCT,M,M,5000.00,13000.00,M,M,M,M,M,M,M,M,M,83.98,RJNK 160600Z 36008KT 9999 FEW050 SCT130 28/18 Q1010
RJNT,2020-09-16 06:00,137.1875,36.6483,82.40,62.60,51.21,10.00,8.00,0.00,29.83,M,6.21,M,FEW,SCT,M,M,3000.00,16000.00,M,M,M,M,M,M,M,M,M,83.41,RJNT 160600Z 01008KT 9999 FEW030 SCT160 28/17 Q1010
RJNW,2020-09-16 06:00,136.9618,37.2931,78.80,62.60,57.60,210.00,4.00,0.00,29.88,M,6.21,M,FEW,SCT,BKN,M,2500.00,16000.00,M,M,M,M,M,M,M,M,M,M,RJNW 160600Z 21004KT 160V280 9999 FEW025 SCT160 BKN/// 26/17 Q1012
RJOA,2020-09-16 06:00,132.9194,34.4361,73.40,66.20,78.19,170.00,4.00,0.00,29.85,M,6.21,M,FEW,BKN,M,M,1500.00,2000.00,M,M,M,M,M,M,M,M,M,M,RJOA 160600Z 17004KT 130V210 9999 FEW015 BKN020 23/19 Q1011
RJOB,2020-09-16 06:00,133.8553,34.7569,77.00,69.80,78.48,140.00,4.00,0.00,29.85,M,6.21,M,FEW,SCT,BKN,M,2000.00,2500.00,7000.00,M,M,M,M,M,M,M,M,M,RJOB 160600Z 14004KT 110V200 9999 FEW020 SCT025 BKN070 25/21 Q1011
RJOC,2020-09-16 06:00,132.8900,35.4136,80.60,69.80,69.71,M,1.00,0.00,29.80,M,6.21,M,FEW,SCT,BKN,M,2500.00,4000.00,6000.00,M,-SHRA,M,M,M,M,M,M,83.90,RJOC 160600Z VRB01KT 9999 -SHRA FEW025 SCT040 BKN060 27/21 Q1009
RJOH,2020-09-16 06:00,133.2392,35.4933,82.40,68.00,61.81,80.00,5.00,0.00,29.80,M,6.21,M,FEW,SCT,BKN,M,3000.00,6000.00,9000.00,M,M,M,M,M,M,M,M,85.38,RJOH 160600Z 08005KT 9999 FEW030 SCT060 BKN090 28/20 Q1009
RJKA,2020-09-16 06:00,129.7125,28.4308,87.80,78.80,74.77,210.00,11.00,0.00,29.85,M,6.21,M,FEW,BKN,M,M,1500.00,M,M,M,M,M,M,M,M,M,M,102.37,RJKA 160600Z 21011KT 9999 FEW015 BKN/// 31/26 Q1011
RJOK,2020-09-16 06:00,133.6694,33.5461,75.20,69.80,83.32,250.00,3.00,0.00,29.85,M,6.21,M,FEW,SCT,BKN,M,800.00,4000.00,4500.00,M,VCSH,M,M,M,M,M,M,M,RJOK 160600Z 25003KT 200V290 9999 VCSH FEW008 SCT040 BKN045 24/21 Q1011
RJFU,2020-09-16 06:00,129.9136,32.9169,75.20,73.40,94.14,140.00,10.00,0.00,29.80,M,4.97,M,FEW,SCT,BKN,M,400.00,1000.00,2000.00,M,-SHRA,M,M,M,M,M,M,M,RJFU 160600Z 14010KT 8000 -SHRA FEW004 SCT010 BKN020 24/23 Q1009
RJGG,2020-09-16 06:00,136.8054,34.8584,78.80,69.80,73.95,190.00,7.00,0.00,29.85,M,6.21,M,FEW,BKN,M,M,2000.00,14000.00,M,M,M,M,M,M,M,M,M,M,RJGG 160600Z 19007KT 9999 FEW020 BKN140 26/21 Q1011 NOSIG
RJKI,2020-09-16 06:00,129.9281,28.3213,86.00,78.80,79.18,200.00,8.00,0.00,29.85,M,6.21,M,FEW,M,M,M,1700.00,M,M,M,M,M,M,M,M,M,M,99.38,RJKI 160600Z AUTO 20008KT 160V240 9999 FEW017 30/26 Q1011
ROIG,2020-09-16 06:00,124.1633,24.3367,87.80,82.40,84.10,160.00,9.00,0.00,29.83,M,6.21,M,SCT,BKN,M,M,1700.00,M,M,M,M,M,M,M,M,M,M,108.27,ROIG 160600Z 16009KT 9999 SCT017 BKN/// 31/28 Q1010
ROMD,2020-09-16 06:00,131.2286,25.8289,86.00,78.80,79.18,130.00,5.00,0.00,29.88,M,6.21,M,FEW,M,M,M,2200.00,M,M,M,M,M,M,M,M,M,M,99.38,ROMD 160600Z AUTO 13005KT 050V210 9999 FEW022 30/26 Q1012
ROMY,2020-09-16 06:00,125.2767,24.7933,86.00,77.00,74.61,170.00,10.00,0.00,29.83,M,6.21,M,BKN,BKN,M,M,1900.00,M,M,M,M,M,M,M,M,M,M,97.15,ROMY 160600Z 17010KT 9999 BKN019 BKN/// 30/25 Q1010
RORY,2020-09-16 06:00,128.4020,27.0440,86.00,80.60,83.99,180.00,6.00,0.00,29.85,M,6.21,M,FEW,SCT,M,M,2500.00,18000.00,M,M,M,M,M,M,M,M,M,101.90,RORY 160600Z AUTO 18006KT 150V210 9999 FEW025 SCT180 30/27 Q1011
RJDC,2020-09-16 06:00,131.2786,33.9300,75.20,71.60,88.59,130.00,6.00,0.00,29.80,M,6.21,M,FEW,SCT,BKN,M,800.00,1500.00,3000.00,M,M,M,M,M,M,M,M,M,RJDC 160600Z 13006KT 9999 FEW008 SCT015 BKN030 24/22 Q1009
RJOM,2020-09-16 06:00,132.6997,33.8272,77.00,73.40,88.67,260.00,4.00,0.00,29.83,M,6.21,M,FEW,SCT,BKN,M,1500.00,3000.00,5000.00,M,M,M,M,M,M,M,M,M,RJOM 160600Z 26004KT 9999 FEW015 SCT030 BKN050 25/23 Q1010
RJFS,2020-09-16 06:00,130.3000,33.1500,75.20,71.60,88.59,150.00,7.00,0.00,29.83,M,4.35,M,FEW,SCT,BKN,M,500.00,1000.00,2000.00,M,-SHRA,M,M,M,M,M,M,M,RJFS 160600Z 15007KT 7000 -SHRA FEW005 SCT010 BKN020 24/22 Q1010
RJFT,2020-09-16 06:00,130.8553,32.8372,73.40,73.40,100.00,100.00,3.00,0.00,29.85,M,3.11,M,FEW,SCT,BKN,M,100.00,1000.00,2000.00,M,-RA BR,M,M,M,M,M,M,M,RJFT 160600Z 10003KT 070V130 5000 -RA BR FEW001 SCT010 BKN020 23/23 Q1011
RJOT,2020-09-16 06:00,134.0167,34.2167,78.80,69.80,73.95,80.00,3.00,0.00,29.85,M,6.21,M,FEW,SCT,BKN,M,2000.00,6000.00,8000.00,M,M,M,M,M,M,M,M,M,RJOT 160600Z 08003KT 040V140 9999 FEW020 SCT060 BKN080 26/21 Q1011
RJSK,2020-09-16 06:00,140.2167,39.6167,80.60,64.40,57.84,M,2.00,0.00,29.88,M,6.21,M,FEW,SCT,BKN,M,3000.00,4000.00,M,M,M,M,M,M,M,M,M,82.27,RJSK 160600Z VRB02KT 9999 FEW030 SCT040 BKN/// 27/18 Q1012
RJOO,2020-09-16 06:00,135.4392,34.7844,84.20,68.00,58.32,210.00,4.00,0.00,29.83,M,6.21,M,FEW,BKN,M,M,3500.00,M,M,M,M,M,M,M,M,M,M,87.40,RJOO 160600Z 21004KT 140V270 9999 FEW035 BKN/// 29/20 Q1010
RJOR,2020-09-16 06:00,134.1650,35.5300,82.40,69.80,65.74,10.00,6.00,0.00,29.80,M,6.21,M,FEW,SCT,BKN,M,3500.00,12000.00,M,M,M,M,M,M,M,M,M,86.22,RJOR 160600Z 01006KT 9999 FEW035 SCT120 BKN/// 28/21 Q1009
RJOW,2020-09-16 06:00,131.7903,34.6764,77.00,69.80,78.48,180.00,5.00,0.00,29.80,M,6.21,M,SCT,BKN,M,M,5000.00,8000.00,M,M,M,M,M,M,M,M,M,M,RJOW 160600Z 18005KT 9999 SCT050 BKN080 25/21 Q1009
RJOY,2020-09-16 06:00,135.6006,34.5967,84.20,66.20,54.80,270.00,7.00,0.00,29.83,M,6.21,M,FEW,SCT,BKN,M,3000.00,12000.00,M,M,M,M,M,M,M,M,M,86.50,RJOY 160600Z 27007KT 9999 FEW030 SCT120 BKN/// 29/19 Q1010
RJSA,2020-09-16 06:00,140.6886,40.7333,75.20,64.40,69.14,340.00,8.00,0.00,29.91,M,6.21,M,FEW,BKN,M,M,2000.00,M,M,M,M,M,M,M,M,M,M,M,RJSA 160600Z 34008KT 310V030 9999 FEW020 BKN/// 24/18 Q1013
RJSN,2020-09-16 06:00,139.1117,37.9558,78.80,69.80,73.95,20.00,5.00,0.00,29.85,M,6.21,M,FEW,SCT,BKN,M,3000.00,10000.00,17000.00,M,M,M,M,M,M,M,M,M,RJSN 160600Z 02005KT 9999 FEW030 SCT100 BKN170 26/21 Q1011
RJSS,2020-09-16 06:00,140.9169,38.1397,73.40,68.00,83.21,120.00,7.00,0.00,29.91,M,6.21,M,FEW,SCT,BKN,M,2000.00,15000.00,M,M,M,M,M,M,M,M,M,M,RJSS 160600Z 12007KT 9999 FEW020 SCT150 BKN/// 23/20 Q1013
RJTF,2020-09-16 06:00,139.5281,35.6717,80.60,68.00,65.54,30.00,3.00,0.00,29.88,M,6.21,M,FEW,SCT,BKN,M,3000.00,8000.00,18000.00,M,M,M,M,M,M,M,M,83.29,RJTF 160600Z 03003KT 320V090 9999 FEW030 SCT080 BKN180 27/20 Q1012
RJTO,2020-09-16 06:00,139.3603,34.7819,77.00,71.60,83.44,60.00,7.00,0.00,29.88,M,6.21,M,FEW,BKN,M,M,1500.00,11000.00,M,M,M,M,M,M,M,M,M,M,RJTO 160600Z 06007KT 9999 FEW015 BKN110 25/22 Q1012
RJTT,2020-09-16 06:00,139.7811,35.5533,78.80,69.80,73.95,80.00,3.00,0.00,29.88,M,6.21,M,FEW,SCT,BKN,M,2000.00,10000.00,17000.00,M,M,M,M,M,M,M,M,M,RJTT 160600Z 08003KT 9999 FEW020 SCT100 BKN170 26/21 Q1012 NOSIG
RORS,2020-09-16 06:00,125.1447,24.8267,87.80,82.40,84.10,170.00,10.00,0.00,29.83,M,6.21,M,SCT,BKN,M,M,1600.00,M,M,M,M,M,M,M,M,M,M,108.27,RORS 160600Z 17010KT 9999 SCT016 BKN/// 31/28 Q1010
RJNS,2020-09-16 06:00,138.1894,34.7961,77.00,71.60,83.44,160.00,5.00,0.00,29.88,M,6.21,M,FEW,SCT,BKN,M,1500.00,2000.00,6000.00,M,-SHRA,M,M,M,M,M,M,M,RJNS 160600Z 16005KT 9999 -SHRA FEW015 SCT020 BKN060 25/22 Q1012
RJBD,2020-09-16 06:00,135.3644,33.6622,77.00,71.60,83.44,160.00,9.00,0.00,29.85,M,6.21,M,FEW,SCT,BKN,M,1500.00,4000.00,7000.00,M,M,M,M,M,M,M,M,M,RJBD 160600Z 16009KT 9999 FEW015 SCT040 BKN070 25/22 Q1011
RJFG,2020-09-16 06:00,130.9917,30.6050,78.80,75.20,88.75,M,2.00,0.00,29.88,M,6.21,M,FEW,FEW,SCT,BKN,1000.00,2000.00,5000.00,15000.00,TS,M,M,M,M,M,M,M,RJFG 160600Z VRB02KT 9999 TS FEW010 FEW020CB SCT050 BKN150 26/24 Q1012
RJTI,2020-09-16 06:00,139.8500,35.6300,80.60,69.80,69.71,160.00,5.00,0.00,29.88,M,6.21,M,FEW,SCT,BKN,M,2000.00,8000.00,17000.00,M,M,M,M,M,M,M,M,83.90,RJTI 160600Z 16005KT 130V290 9999 FEW020 SCT080 BKN170 27/21 Q1012
RJOS,2020-09-16 06:00,134.6092,34.1322,78.80,69.80,73.95,180.00,10.00,0.00,29.83,M,6.21,M,FEW,SCT,BKN,M,2000.00,5000.00,8000.00,M,M,M,M,M,M,M,M,M,RJOS 160600Z 18010KT 9999 FEW020 SCT050 BKN080 26/21 Q1010
RJSY,2020-09-16 06:00,139.7872,38.8122,78.80,66.20,65.33,320.00,3.00,0.00,29.88,M,6.21,M,FEW,SCT,BKN,M,3000.00,17000.00,M,M,M,M,M,M,M,M,M,M,RJSY 160600Z 32003KT 270V360 9999 FEW030 SCT170 BKN/// 26/19 Q1012
RORK,2020-09-16 06:00,131.3333,25.9167,87.80,77.00,70.45,170.00,4.00,0.00,29.88,M,6.21,M,NCD,M,M,M,M,M,M,M,M,M,M,M,M,M,M,99.92,RORK 160600Z AUTO 17004KT 130V200 9999 NCD 31/25 Q1012
ROYN,2020-09-16 06:00,122.9780,24.4670,87.80,80.60,79.31,170.00,9.00,0.00,29.80,M,6.21,M,FEW,SCT,M,M,1800.00,3100.00,M,M,M,M,M,M,M,M,M,105.14,ROYN 160600Z AUTO 17009KT 140V210 9999 FEW018 SCT031 31/27 Q1009
ROAH,2020-09-16 06:00,127.6458,26.1958,86.00,80.60,83.99,200.00,8.00,0.00,29.85,M,6.21,M,FEW,BKN,M,M,1200.00,M,M,M,M,M,M,M,M,M,M,101.90,ROAH 160600Z 20008KT 170V230 9999 FEW012 BKN/// 30/27 Q1011
RJNY,2020-09-16 06:02,138.2981,34.8128,80.60,69.80,69.71,170.00,5.00,0.00,29.88,M,6.21,M,FEW,SCT,BKN,M,2500.00,6000.00,13000.00,M,-SHRA,M,M,M,M,M,M,83.90,RJNY 160602Z 17005KT 120V200 9999 -SHRA FEW025 SCT060 BKN130 27/21 Q1012 RMK 2CU025 3SC060 7AC130 A2989
RJTK,2020-09-16 06:10,139.9097,35.3983,80.60,69.80,69.71,340.00,4.00,0.00,29.88,M,6.21,M,FEW,BKN,BKN,M,2500.00,3500.00,17000.00,M,-SHRA,M,M,M,M,M,M,83.90,RJTK 160610Z 34004KT 9999 -SHRA FEW025 BKN035 BKN170 27/21 Q1012 RMK 1CU025 5CU035 6AC170 A2990
RJOE,2020-09-16 06:15,136.6722,34.5333,78.80,69.80,73.95,120.00,9.00,0.00,29.88,M,6.21,M,FEW,SCT,BKN,M,1200.00,2000.00,3000.00,M,-SHRA,M,M,M,M,M,M,M,RJOE 160615Z 12009KT 9999 -SHRA FEW012 SCT020 BKN030 26/21 Q1012 RMK 1CU012 3CU020 5CU030 A2989
RJOF,2020-09-16 06:23,131.5464,34.0344,75.20,71.60,88.59,130.00,7.00,0.00,29.83,M,4.97,M,FEW,BKN,BKN,M,500.00,900.00,2500.00,M,-SHRA,M,M,M,M,M,M,M,RJOF 160623Z 13007KT 8000 -SHRA FEW005 BKN009 BKN025 24/22 Q1010 RMK 1ST005 6CU009 7CU025 A2984 VIS N-SE 4500M
RODN,2020-09-16 06:26,127.7676,26.3556,86.00,78.80,79.18,230.00,10.00,0.00,29.86,1011.60,10.00,M,SCT,BKN,M,M,2300.00,2800.00,M,M,M,M,M,M,M,M,M,99.38,RODN 160626Z AUTO 23010KT 10SM SCT023 BKN028 30/26 A2986 RMK AO2 CIG 022V028 SLP116 $
RJAA,2020-09-16 06:30,140.3856,35.7653,78.80,69.80,73.95,70.00,7.00,0.00,29.91,M,6.21,M,FEW,BKN,M,M,2000.00,17000.00,M,M,M,M,M,M,M,M,M,M,RJAA 160630Z 07007KT 9999 FEW020 BKN170 26/21 Q1013 BECMG 05009KT RMK 1CU020 7AC170 A2991
RJCC,2020-09-16 06:30,141.6926,42.7742,71.60,69.80,94.06,160.00,12.00,0.00,29.94,M,6.21,M,FEW,SCT,BKN,M,600.00,1200.00,2000.00,M,-SHRA,M,M,M,M,M,M,M,RJCC 160630Z 16012KT 9999 -SHRA FEW006 SCT012 BKN020 22/21 Q1014 RMK 1ST006 4ST012 6CU020 A2995
RJFF,2020-09-16 06:30,130.4517,33.5844,75.20,71.60,88.59,130.00,6.00,0.00,29.80,M,6.21,M,FEW,SCT,BKN,M,500.00,2000.00,4000.00,M,-SHRA,M,M,M,M,M,M,M,RJFF 160630Z 13006KT 9999 -SHRA FEW005 SCT020 BKN040 24/22 Q1009 NOSIG RMK 1ST005 3CU020 5CU040 A2982
RJBB,2020-09-16 06:30,135.2328,34.4342,80.60,73.40,78.76,250.00,7.00,0.00,29.85,M,6.21,M,FEW,SCT,BKN,M,2500.00,9000.00,M,M,M,M,M,M,M,M,M,85.32,RJBB 160630Z 25007KT 9999 FEW025 SCT090 BKN/// 27/23 Q1011 NOSIG
RJGG,2020-09-16 06:30,136.8054,34.8584,80.60,66.20,61.58,170.00,10.00,0.00,29.85,M,6.21,M,FEW,BKN,BKN,M,2000.00,9000.00,12000.00,M,M,M,M,M,M,M,M,82.75,RJGG 160630Z 17010KT 9999 FEW020 BKN090 BKN120 27/19 Q1011 NOSIG
RJTT,2020-09-16 06:30,139.7811,35.5533,80.60,71.60,74.11,60.00,3.00,0.00,29.88,M,6.21,M,FEW,SCT,BKN,M,2000.00,10000.00,17000.00,M,M,M,M,M,M,M,M,84.57,RJTT 160630Z 06003KT 9999 FEW020 SCT100 BKN170 27/22 Q1012 BECMG 08005KT RMK 1CU020 3AC100 7AC170 A2990
ROAH,2020-09-16 06:30,127.6458,26.1958,86.00,78.80,79.18,200.00,10.00,0.00,29.85,M,6.21,M,FEW,BKN,M,M,1400.00,M,M,M,M,M,M,M,M,M,M,99.38,ROAH 160630Z 20010KT 9999 FEW014 BKN/// 30/26 Q1011 RMK 2CU014 A2986
RODN,2020-09-16 06:36,127.7676,26.3556,86.00,78.80,79.18,220.00,11.00,0.00,29.86,1011.60,10.00,M,SCT,SCT,M,M,2300.00,2800.00,M,M,M,M,M,M,M,M,M,99.38,RODN 160636Z AUTO 22011KT 10SM SCT023 SCT028 30/26 A2986 RMK AO2 SLP116 $
RJFG,2020-09-16 06:39,130.9917,30.6050,80.60,75.20,83.66,260.00,4.00,0.00,29.88,M,6.21,M,FEW,SCT,BKN,M,1000.00,3000.00,5000.00,M,M,M,M,M,M,M,M,86.17,RJFG 160639Z 26004KT 230V290 9999 FEW010 SCT030 BKN050 27/24 Q1012 RMK 1CU010 3SC030 5SC050 A2988
RJTR,2020-09-16 06:40,139.3937,35.5138,80.60,66.20,61.58,0.00,0.00,0.00,29.89,1012.10,9.00,M,SCT,BKN,M,M,3700.00,7500.00,M,M,-RA,M,M,M,M,M,M,82.75,RJTR 160640Z AUTO 00000KT 9SM -RA SCT037 BKN075 27/19 A2989 RMK AO2 RAB40 SLP121 $
RJFM,2020-09-16 06:41,131.4486,31.8772,75.20,73.40,94.14,30.00,3.00,0.00,29.85,M,3.73,M,FEW,SCT,BKN,M,300.00,800.00,1000.00,M,-SHRA,M,M,M,M,M,M,M,RJFM 160641Z 03003KT 330V050 6000 -SHRA FEW003 SCT008 BKN010 24/23 Q1011 RMK 1ST003 3ST008 5ST010 A2985
RJCT,2020-09-16 06:42,143.1585,42.8905,68.00,64.40,88.26,M,1.00,0.00,30.00,M,6.21,M,FEW,BKN,BKN,M,800.00,1200.00,1500.00,M,-SHRA,M,M,M,M,M,M,M,RJCT 160642Z VRB01KT 9999 -SHRA FEW008 BKN012 BKN015 20/18 Q1016 RMK 2ST008 5ST012 7CU015 A3003
RJFK,2020-09-16 06:44,130.7194,31.8033,75.20,73.40,94.14,M,2.00,0.00,29.88,M,2.49,M,FEW,SCT,BKN,M,200.00,600.00,8000.00,M,RA BCFG BR,M,M,M,M,M,M,M,RJFK 160644Z VRB02KT 4000 RA BCFG BR FEW002 SCT006 BKN080 24/23 Q1012 RMK 1ST002 3ST006 5AC080 A2989 2000N-NE FG NW-E
RJTR,2020-09-16 06:49,139.3937,35.5138,80.60,66.20,61.58,190.00,3.00,0.00,29.89,1012.10,10.00,M,SCT,SCT,M,M,3700.00,4800.00,M,M,M,M,M,M,M,M,M,82.75,RJTR 160649Z AUTO 19003KT 10SM SCT037 SCT048 27/19 A2989 RMK AO2 RAB40E49 SLP121 $
RJOI,2020-09-16 06:55,132.2357,34.1439,78.10,68.00,71.14,200.00,9.00,0.00,29.84,1010.50,6.21,M,SCT,BKN,OVC,M,2500.00,4000.00,6000.00,M,M,M,M,M,M,M,M,M,RJOI 160655Z 20009KT 9999 SCT025 BKN040 OVC060 26/20 A2984 RMK SLP105 T02560200
RJTY,2020-09-16 06:56,139.3485,35.7485,79.00,68.70,70.75,110.00,4.00,0.00,29.96,1014.30,10.00,M,BKN,M,M,M,3900.00,M,M,M,M,M,M,M,M,M,M,M,RJTY 160656Z AUTO 11004KT 10SM BKN039 26/20 A2996 RMK AO2 SLP143 T02610204 FZRANO $
RODN,2020-09-16 06:56,127.7676,26.3556,84.60,79.20,83.91,220.00,9.00,0.00,29.86,1011.70,10.00,M,FEW,FEW,M,M,2500.00,3500.00,M,M,M,M,M,M,M,M,M,97.34,RODN 160656Z AUTO 22009KT 10SM FEW025 FEW035 29/26 A2986 RMK AO2 SLP117 T02920262 $
ROTM,2020-09-16 06:56,127.7565,26.2743,86.00,77.00,74.61,190.00,9.00,0.00,29.88,1010.10,6.21,M,SCT,BKN,M,M,2500.00,5000.00,M,M,M,M,M,M,M,M,M,97.15,ROTM 160656Z 19009KT 9999 SCT025 BKN050 30/25 A2988 RMK SLP101 T03000250
RJSC,2020-09-16 07:00,140.3711,38.4119,78.80,66.20,65.33,60.00,8.00,0.00,29.88,M,6.21,M,FEW,SCT,BKN,M,2500.00,10000.00,M,M,M,M,M,M,M,M,M,M,RJSC 160700Z 06008KT 9999 FEW025 SCT100 BKN/// 26/19 Q1012
RJSD,2020-09-16 07:00,138.4139,38.0602,78.80,69.80,73.95,40.00,4.00,0.00,29.85,M,6.21,M,NCD,M,M,M,M,M,M,M,M,M,M,M,M,M,M,M,RJSD 160700Z AUTO 04004KT 350V100 9999 NCD 26/21 Q1011
RJSF,2020-09-16 07:00,140.4281,37.2275,73.40,68.00,83.21,130.00,5.00,0.00,29.94,M,6.21,M,FEW,SCT,BKN,M,2000.00,4000.00,9000.00,M,-SHRA,M,M,M,M,M,M,M,RJSF 160700Z 13005KT 100V170 9999 -SHRA FEW020 SCT040 BKN090 23/20 Q1014
RJFR,2020-09-16 07:00,131.0350,33.8456,75.20,71.60,88.59,M,2.00,0.00,29.83,M,6.21,M,FEW,BKN,BKN,M,1000.00,2500.00,6000.00,M,VCSH,M,M,M,M,M,M,M,RJFR 160700Z VRB02KT 9999 VCSH FEW010 BKN025 BKN060 24/22 Q1010
RJSR,2020-09-16 07:00,140.3714,40.1919,77.00,69.80,78.48,290.00,4.00,0.00,29.88,M,6.21,M,FEW,BKN,M,M,3000.00,M,M,M,M,M,M,M,M,M,M,M,RJSR 160700Z 29004KT 9999 FEW030 BKN/// 25/21 Q1012
RJSI,2020-09-16 07:00,141.1353,39.4286,78.80,64.40,61.36,180.00,8.00,0.00,29.91,M,6.21,M,FEW,SCT,BKN,M,3000.00,4000.00,9000.00,M,M,M,M,M,M,M,M,M,RJSI 160700Z 18008KT 9999 FEW030 SCT040 BKN090 26/18 Q1013
RJSM,2020-09-16 07:00,141.3684,40.7032,71.60,69.80,94.06,120.00,11.00,0.00,29.91,M,6.21,M,BKN,BKN,BKN,M,600.00,800.00,10000.00,M,M,M,M,M,M,M,M,M,RJSM 160700Z 12011KT 090V150 9999 BKN006 BKN008 BKN100 22/21 Q1013
RJAA,2020-09-16 07:00,140.3856,35.7653,78.80,69.80,73.95,50.00,8.00,0.00,29.91,M,6.21,M,FEW,SCT,BKN,M,2000.00,8000.00,18000.00,M,M,M,M,M,M,M,M,M,RJAA 160700Z 05008KT 360V110 9999 FEW020 SCT080 BKN180 26/21 Q1013 NOSIG
RJAF,2020-09-16 07:00,137.9228,36.1667,77.00,60.80,57.36,270.00,3.00,0.00,29.94,M,6.21,M,FEW,SCT,BKN,M,3000.00,8000.00,11000.00,M,M,M,M,M,M,M,M,M,RJAF 160700Z 27003KT 240V010 9999 FEW030 SCT080 BKN110 25/16 Q1014
RJAH,2020-09-16 07:00,140.4147,36.1817,75.20,66.20,73.61,70.00,6.00,0.00,29.91,M,6.21,M,FEW,BKN,BKN,M,1500.00,10000.00,25000.00,M,M,M,M,M,M,M,M,M,RJAH 160700Z 07006KT 030V090 9999 FEW015 BKN100 BKN250 24/19 Q1013
RJBT,2020-09-16 07:00,134.7869,35.5128,80.60,69.80,69.71,170.00,6.00,0.00,29.83,M,6.21,M,FEW,SCT,BKN,M,3000.00,12000.00,M,M,M,M,M,M,M,M,M,83.90,RJBT 160700Z 17006KT 130V200 9999 FEW030 SCT120 BKN/// 27/21 Q1010
RJCB,2020-09-16 07:00,143.2172,42.7333,68.00,64.40,88.26,150.00,11.00,0.00,30.00,M,6.21,M,FEW,SCT,M,M,1200.00,4000.00,M,M,M,M,M,M,M,M,M,M,RJCB 160700Z 15011KT 9999 FEW012 SCT040 20/18 Q1016
RJCC,2020-09-16 07:00,141.6926,42.7742,69.80,68.00,94.01,160.00,12.00,0.00,29.94,M,3.11,M,FEW,BKN,BKN,M,600.00,1000.00,1200.00,M,-SHRA BR,M,M,M,M,M,M,M,RJCC 160700Z 16012KT 5000 R19R/1300VP2000N R19L/P2000N -SHRA BR FEW006 BKN010 BKN012 21/20 Q1014
RJCH,2020-09-16 07:00,140.8219,41.7700,73.40,68.00,83.21,130.00,11.00,0.00,29.91,M,6.21,M,FEW,SCT,BKN,M,3000.00,5000.00,M,M,M,M,M,M,M,M,M,M,RJCH 160700Z 13011KT 9999 FEW030 SCT050 BKN/// 23/20 Q1013
RJCK,2020-09-16 07:00,144.1931,43.0408,68.00,64.40,88.26,150.00,9.00,0.00,30.00,M,6.21,M,FEW,BKN,BKN,M,500.00,800.00,1500.00,M,M,M,M,M,M,M,M,M,RJCK 160700Z 15009KT 9999 FEW005 BKN008 BKN015 20/18 Q1016
RJCM,2020-09-16 07:00,144.1642,43.8806,71.60,59.00,64.48,160.00,15.00,0.00,29.94,M,6.21,M,FEW,M,M,M,2000.00,M,M,M,M,M,M,M,M,M,M,M,RJCM 160700Z 16015KT 9999 FEW020 22/15 Q1014
RJCN,2020-09-16 07:00,144.9600,43.5775,69.80,60.80,73.09,180.00,9.00,0.00,30.00,M,6.21,M,FEW,SCT,M,M,2000.00,3000.00,M,M,M,M,M,M,M,M,M,M,RJCN 160700Z 18009KT 9999 FEW020 SCT030 21/16 Q1016
RJCO,2020-09-16 07:00,141.3814,43.1175,73.40,66.20,78.19,150.00,13.00,0.00,29.94,M,6.21,M,FEW,SCT,BKN,M,800.00,5000.00,8000.00,M,M,M,M,M,M,M,M,M,RJCO 160700Z 15013KT 9999 FEW008 SCT050 BKN080 23/19 Q1014
RJCW,2020-09-16 07:00,141.8022,45.4044,73.40,64.40,73.44,190.00,8.00,0.00,29.88,M,6.21,M,FEW,SCT,BKN,M,1500.00,2500.00,M,M,M,M,M,M,M,M,M,M,RJCW 160700Z 19008KT 9999 FEW015 SCT025 BKN/// 23/18 Q1012
RJDT,2020-09-16 07:00,129.3306,34.2850,73.40,69.80,88.51,M,4.00,0.00,29.77,M,6.21,M,FEW,SCT,BKN,M,1500.00,2000.00,3500.00,M,M,M,M,M,M,M,M,M,RJDT 160700Z VRB04KT 9999 FEW015 SCT020 BKN035 23/21 Q1008
RJEB,2020-09-16 07:00,143.4040,44.3039,73.40,68.00,83.21,M,1.00,0.00,29.91,M,6.21,M,FEW,M,M,M,3000.00,M,M,M,M,M,M,M,M,M,M,M,RJEB 160700Z VRB01KT 9999 FEW030 23/20 Q1013
RJEC,2020-09-16 07:00,142.4475,43.6708,71.60,53.60,53.03,200.00,9.00,0.00,29.94,M,6.21,M,FEW,SCT,BKN,M,2000.00,3000.00,7000.00,M,M,M,M,M,M,M,M,M,RJEC 160700Z 20009KT 180V240 9999 FEW020 SCT030 BKN070 22/12 Q1014
RJFE,2020-09-16 07:00,128.8328,32.6664,75.20,73.40,94.14,170.00,8.00,0.00,29.80,M,6.21,M,FEW,SCT,BKN,M,600.00,1000.00,2000.00,M,M,M,M,M,M,M,M,M,RJFE 160700Z 17008KT 9999 FEW006 SCT010 BKN020 24/23 Q1009
RJFF,2020-09-16 07:00,130.4517,33.5844,75.20,71.60,88.59,160.00,8.00,0.00,29.80,M,6.21,M,FEW,SCT,BKN,M,500.00,3000.00,4000.00,M,M,M,M,M,M,M,M,M,RJFF 160700Z 16008KT 9999 FEW005 SCT030 BKN040 24/22 Q1009 NOSIG
RJFK,2020-09-16 07:00,130.7194,31.8033,73.40,71.60,94.10,330.00,4.00,0.00,29.88,M,3.73,M,FEW,SCT,BKN,M,100.00,600.00,9000.00,M,-RA BCFG,M,M,M,M,M,M,M,RJFK 160700Z 33004KT 6000 -RA BCFG FEW001 SCT006 BKN090 23/22 Q1012
RJFM,2020-09-16 07:00,131.4486,31.8772,75.20,73.40,94.14,M,2.00,0.00,29.85,M,3.73,M,FEW,SCT,BKN,M,300.00,800.00,2000.00,M,-SHRA,M,M,M,M,M,M,M,RJFM 160700Z VRB02KT 6000 -SHRA FEW003 SCT008 BKN020 24/23 Q1011
RJFO,2020-09-16 07:00,131.7372,33.4794,75.20,71.60,88.59,160.00,10.00,0.00,29.83,M,3.73,M,FEW,SCT,BKN,M,300.00,1500.00,4000.00,M,-SHRA,M,M,M,M,M,M,M,RJFO 160700Z 16010KT 6000 -SHRA FEW003 SCT015 BKN040 24/22 Q1010
RJBB,2020-09-16 07:00,135.2328,34.4342,78.80,73.40,83.55,240.00,8.00,0.00,29.83,M,6.21,M,FEW,SCT,BKN,M,2500.00,9000.00,M,M,M,M,M,M,M,M,M,M,RJBB 160700Z 24008KT 9999 FEW025 SCT090 BKN/// 26/23 Q1010 NOSIG
RJBE,2020-09-16 07:00,135.2239,34.6328,78.80,69.80,73.95,260.00,6.00,0.00,29.83,M,6.21,M,FEW,SCT,BKN,M,3000.00,8000.00,M,M,M,M,M,M,M,M,M,M,RJBE 160700Z 26006KT 9999 FEW030 SCT080 BKN/// 26/21 Q1010
RJNK,2020-09-16 07:00,136.4075,36.3939,82.40,66.20,58.08,360.00,7.00,0.00,29.83,M,6.21,M,FEW,BKN,BKN,M,5000.00,15000.00,23000.00,M,M,M,M,M,M,M,M,84.63,RJNK 160700Z 36007KT 9999 FEW050 BKN150 BKN230 28/19 Q1010
RJNT,2020-09-16 07:00,137.1875,36.6483,82.40,60.80,48.05,360.00,6.00,0.00,29.85,M,6.21,M,FEW,SCT,BKN,M,3000.00,10000.00,15000.00,M,M,M,M,M,M,M,M,82.90,RJNT 160700Z 36006KT 9999 FEW030 SCT100 BKN150 28/16 Q1011
RJNW,2020-09-16 07:00,136.9618,37.2931,77.00,66.20,69.33,110.00,4.00,0.00,29.88,M,6.21,M,FEW,SCT,BKN,M,2500.00,17000.00,M,M,M,M,M,M,M,M,M,M,RJNW 160700Z 11004KT 9999 FEW025 SCT170 BKN/// 25/19 Q1012
RJOA,2020-09-16 07:00,132.9194,34.4361,73.40,66.20,78.19,M,2.00,0.00,29.88,M,6.21,M,FEW,BKN,M,M,1500.00,2300.00,M,M,M,M,M,M,M,M,M,M,RJOA 160700Z VRB02KT 9999 FEW015 BKN023 23/19 Q1012
RJOB,2020-09-16 07:00,133.8553,34.7569,77.00,68.00,73.78,110.00,5.00,0.00,29.85,M,6.21,M,FEW,SCT,BKN,M,1500.00,2500.00,5000.00,M,M,M,M,M,M,M,M,M,RJOB 160700Z 11005KT 9999 FEW015 SCT025 BKN050 25/20 Q1011
RJOC,2020-09-16 07:00,132.8900,35.4136,80.60,66.20,61.58,M,1.00,0.00,29.80,M,6.21,M,FEW,BKN,BKN,M,2500.00,4500.00,8000.00,M,M,M,M,M,M,M,M,82.75,RJOC 160700Z VRB01KT 9999 FEW025 BKN045 BKN080 27/19 Q1009
RJOH,2020-09-16 07:00,133.2392,35.4933,78.80,68.00,69.52,40.00,3.00,0.00,29.83,M,6.21,M,FEW,BKN,BKN,M,3000.00,5000.00,8000.00,M,-SHRA,M,M,M,M,M,M,M,RJOH 160700Z 04003KT 010V070 9999 -SHRA FEW030 BKN050 BKN080 26/20 Q1010
RJKA,2020-09-16 07:00,129.7125,28.4308,86.00,78.80,79.18,210.00,11.00,0.00,29.85,M,6.21,M,FEW,SCT,BKN,M,1500.00,2000.00,M,M,M,M,M,M,M,M,M,99.38,RJKA 160700Z 21011KT 9999 FEW015 SCT020 BKN/// 30/26 Q1011
RJOK,2020-09-16 07:00,133.6694,33.5461,73.40,71.60,94.10,310.00,5.00,0.00,29.85,M,6.21,M,FEW,SCT,BKN,M,600.00,3000.00,4500.00,M,VCSH,M,M,M,M,M,M,M,RJOK 160700Z 31005KT 9999 VCSH FEW006 SCT030 BKN045 23/22 Q1011
RJFU,2020-09-16 07:00,129.9136,32.9169,75.20,73.40,94.14,140.00,6.00,0.00,29.83,M,6.21,M,FEW,SCT,BKN,M,200.00,800.00,1000.00,M,-SHRA,M,M,M,M,M,M,M,RJFU 160700Z 14006KT 9999 -SHRA FEW002 SCT008 BKN010 24/23 Q1010
RJGG,2020-09-16 07:00,136.8054,34.8584,78.80,71.60,78.62,170.00,9.00,0.00,29.85,M,6.21,M,FEW,SCT,BKN,M,2000.00,2500.00,12000.00,M,-SHRA,M,M,M,M,M,M,M,RJGG 160700Z 17009KT 9999 -SHRA FEW020 SCT025 BKN120 26/22 Q1011 NOSIG
RJKI,2020-09-16 07:00,129.9281,28.3213,86.00,78.80,79.18,200.00,8.00,0.00,29.85,M,6.21,M,NCD,M,M,M,M,M,M,M,M,M,M,M,M,M,M,99.38,RJKI 160700Z AUTO 20008KT 160V240 9999 NCD 30/26 Q1011
ROIG,2020-09-16 07:00,124.1633,24.3367,86.00,80.60,83.99,160.00,8.00,0.00,29.83,M,6.21,M,SCT,BKN,M,M,1800.00,M,M,M,M,M,M,M,M,M,M,101.90,ROIG 160700Z 16008KT 9999 SCT018 BKN/// 30/27 Q1010
ROMD,2020-09-16 07:00,131.2286,25.8289,86.00,78.80,79.18,150.00,5.00,0.00,29.88,M,6.21,M,NCD,M,M,M,M,M,M,M,M,M,M,M,M,M,M,99.38,ROMD 160700Z AUTO 15005KT 110V170 9999 NCD 30/26 Q1012
ROMY,2020-09-16 07:00,125.2767,24.7933,86.00,78.80,79.18,160.00,6.00,0.00,29.83,M,6.21,M,SCT,BKN,M,M,1800.00,M,M,M,M,M,M,M,M,M,M,99.38,ROMY 160700Z 16006KT 9999 SCT018 BKN/// 30/26 Q1010
RORY,2020-09-16 07:00,128.4020,27.0440,86.00,80.60,83.99,190.00,8.00,0.00,29.85,M,6.21,M,FEW,M,M,M,2100.00,M,M,M,M,M,M,M,M,M,M,101.90,RORY 160700Z AUTO 19008KT 160V220 9999 FEW021 30/27 Q1011
RJDC,2020-09-16 07:00,131.2786,33.9300,77.00,71.60,83.44,90.00,5.00,0.00,29.83,M,6.21,M,FEW,SCT,BKN,M,700.00,1500.00,3500.00,M,M,M,M,M,M,M,M,M,RJDC 160700Z 09005KT 9999 FEW007 SCT015 BKN035 25/22 Q1010
RJOM,2020-09-16 07:00,132.6997,33.8272,77.00,73.40,88.67,290.00,4.00,0.00,29.83,M,6.21,M,FEW,SCT,BKN,M,1500.00,3500.00,5000.00,M,M,M,M,M,M,M,M,M,RJOM 160700Z 29004KT 9999 FEW015 SCT035 BKN050 25/23 Q1010
RJFS,2020-09-16 07:00,130.3000,33.1500,75.20,73.40,94.14,150.00,5.00,0.00,29.83,M,5.59,M,FEW,SCT,BKN,M,800.00,1000.00,1500.00,M,-SHRA,M,M,M,M,M,M,M,RJFS 160700Z 15005KT 9000 -SHRA FEW008 SCT010 BKN015 24/23 Q1010
RJFT,2020-09-16 07:00,130.8553,32.8372,75.20,73.40,94.14,180.00,4.00,0.00,29.85,M,4.97,M,FEW,BKN,M,M,100.00,2500.00,M,M,-RA,M,M,M,M,M,M,M,RJFT 160700Z 18004KT 8000 -RA FEW001 BKN025 24/23 Q1011
RJOT,2020-09-16 07:00,134.0167,34.2167,78.80,69.80,73.95,40.00,4.00,0.00,29.85,M,6.21,M,FEW,SCT,BKN,M,2000.00,7000.00,M,M,M,M,M,M,M,M,M,M,RJOT 160700Z 04004KT 010V110 9999 FEW020 SCT070 BKN/// 26/21 Q1011
RJSK,2020-09-16 07:00,140.2167,39.6167,78.80,68.00,69.52,290.00,5.00,0.00,29.88,M,6.21,M,FEW,BKN,M,M,3000.00,M,M,M,M,M,M,M,M,M,M,M,RJSK 160700Z 29005KT 240V320 9999 FEW030 BKN/// 26/20 Q1012
RJOO,2020-09-16 07:00,135.4392,34.7844,82.40,68.00,61.81,230.00,6.00,0.00,29.83,M,6.21,M,FEW,SCT,BKN,M,2500.00,9000.00,M,M,M,M,M,M,M,M,M,85.38,RJOO 160700Z 23006KT 180V270 9999 FEW025 SCT090 BKN/// 28/20 Q1010
RJOR,2020-09-16 07:00,134.1650,35.5300,82.40,69.80,65.74,20.00,4.00,0.00,29.80,M,6.21,M,FEW,SCT,BKN,M,3000.00,12000.00,M,M,M,M,M,M,M,M,M,86.22,RJOR 160700Z 02004KT 350V060 9999 FEW030 SCT120 BKN/// 28/21 Q1009
RJOW,2020-09-16 07:00,131.7903,34.6764,78.80,69.80,73.95,150.00,3.00,0.00,29.80,M,6.21,M,FEW,SCT,BKN,M,2000.00,3500.00,8000.00,M,M,M,M,M,M,M,M,M,RJOW 160700Z 15003KT 120V180 9999 FEW020 SCT035 BKN080 26/21 Q1009
RJOY,2020-09-16 07:00,135.6006,34.5967,82.40,68.00,61.81,280.00,8.00,0.00,29.83,M,6.21,M,FEW,SCT,BKN,M,3000.00,10000.00,M,M,M,M,M,M,M,M,M,85.38,RJOY 160700Z 28008KT 9999 FEW030 SCT100 BKN/// 28/20 Q1010
RJSA,2020-09-16 07:00,140.6886,40.7333,73.40,64.40,73.44,340.00,6.00,0.00,29.91,M,6.21,M,FEW,SCT,M,M,2000.00,M,M,M,M,M,M,M,M,M,M,M,RJSA 160700Z 34006KT 310V020 9999 FEW020 SCT/// 23/18 Q1013
RJSN,2020-09-16 07:00,139.1117,37.9558,80.60,71.60,74.11,30.00,5.00,0.00,29.85,M,6.21,M,FEW,BKN,M,M,3000.00,15000.00,M,M,M,M,M,M,M,M,M,84.57,RJSN 160700Z 03005KT 9999 FEW030 BKN150 27/22 Q1011
RJSS,2020-09-16 07:00,140.9169,38.1397,73.40,68.00,83.21,130.00,7.00,0.00,29.91,M,6.21,M,FEW,SCT,BKN,M,1000.00,15000.00,M,M,M,M,M,M,M,M,M,M,RJSS 160700Z 13007KT 9999 FEW010 SCT150 BKN/// 23/20 Q1013
RJTF,2020-09-16 07:00,139.5281,35.6717,80.60,68.00,65.54,80.00,3.00,0.00,29.88,M,6.21,M,FEW,SCT,BKN,M,2500.00,4000.00,8000.00,M,M,M,M,M,M,M,M,83.29,RJTF 160700Z 08003KT 010V140 9999 FEW025 SCT040 BKN080 27/20 Q1012
RJTO,2020-09-16 07:00,139.3603,34.7819,77.00,73.40,88.67,60.00,6.00,0.00,29.88,M,6.21,M,FEW,BKN,M,M,1500.00,10000.00,M,M,-SHRA,M,M,M,M,M,M,M,RJTO 160700Z 06006KT 9999 -SHRA FEW015 BKN100 25/23 Q1012
RJTT,2020-09-16 07:00,139.7811,35.5533,80.60,69.80,69.71,70.00,5.00,0.00,29.88,M,6.21,M,FEW,BKN,M,M,2000.00,17000.00,M,M,-SHRA,M,M,M,M,M,M,83.90,RJTT 160700Z 07005KT 9999 -SHRA FEW020 BKN170 27/21 Q1012 NOSIG
RORS,2020-09-16 07:00,125.1447,24.8267,87.80,80.60,79.31,170.00,7.00,0.00,29.83,M,6.21,M,SCT,BKN,M,M,1700.00,M,M,M,VCSH,M,M,M,M,M,M,105.14,RORS 160700Z 17007KT 140V210 9999 VCSH SCT017 BKN/// 31/27 Q1010
RJNS,2020-09-16 07:00,138.1894,34.7961,77.00,71.60,83.44,150.00,7.00,0.00,29.88,M,6.21,M,FEW,SCT,BKN,M,1200.00,1500.00,9000.00,M,VCSH,M,M,M,M,M,M,M,RJNS 160700Z 15007KT 9999 VCSH FEW012 SCT015 BKN090 25/22 Q1012
RJBD,2020-09-16 07:00,135.3644,33.6622,77.00,73.40,88.67,110.00,4.00,0.00,29.85,M,6.21,M,FEW,SCT,BKN,M,800.00,1500.00,3500.00,M,M,M,M,M,M,M,M,M,RJBD 160700Z 11004KT 080V150 9999 FEW008 SCT015 BKN035 25/23 Q1011
RJFG,2020-09-16 07:00,130.9917,30.6050,78.80,73.40,83.55,M,2.00,0.00,29.88,M,6.21,M,FEW,SCT,BKN,M,1000.00,2000.00,5000.00,M,M,M,M,M,M,M,M,M,RJFG 160700Z VRB02KT 9999 FEW010 SCT020 BKN050 26/23 Q1012
RJTI,2020-09-16 07:00,139.8500,35.6300,80.60,69.80,69.71,100.00,5.00,0.00,29.88,M,6.21,M,FEW,SCT,BKN,M,2000.00,10000.00,17000.00,M,-RA,M,M,M,M,M,M,83.90,RJTI 160700Z 10005KT 040V160 9999 -RA FEW020 SCT100 BKN170 27/21 Q1012
RJOS,2020-09-16 07:00,134.6092,34.1322,78.80,71.60,78.62,170.00,11.00,0.00,29.83,M,6.21,M,FEW,SCT,BKN,M,2000.00,5000.00,8000.00,M,M,M,M,M,M,M,M,M,RJOS 160700Z 17011KT 9999 FEW020 SCT050 BKN080 26/22 Q1010
RJSY,2020-09-16 07:00,139.7872,38.8122,77.00,66.20,69.33,M,2.00,0.00,29.88,M,6.21,M,FEW,SCT,BKN,M,2000.00,17000.00,18000.00,M,M,M,M,M,M,M,M,M,RJSY 160700Z VRB02KT 9999 FEW020 SCT170 BKN180 25/19 Q1012
RORK,2020-09-16 07:00,131.3333,25.9167,86.00,78.80,79.18,150.00,5.00,0.00,29.88,M,6.21,M,NCD,M,M,M,M,M,M,M,M,M,M,M,M,M,M,99.38,RORK 160700Z AUTO 15005KT 9999 NCD 30/26 Q1012
ROYN,2020-09-16 07:00,122.9780,24.4670,87.80,80.60,79.31,160.00,12.00,0.00,29.80,M,6.21,M,FEW,M,M,M,1700.00,M,M,M,M,M,M,M,M,M,M,105.14,ROYN 160700Z AUTO 16012KT 9999 FEW017 31/27 Q1009
ROAH,2020-09-16 07:00,127.6458,26.1958,86.00,78.80,79.18,190.00,9.00,0.00,29.85,M,6.21,M,FEW,BKN,M,M,1400.00,M,M,M,M,M,M,M,M,M,M,99.38,ROAH 160700Z 19009KT 9999 FEW014 BKN/// 30/26 Q1011
RJNY,2020-09-16 07:12,138.2981,34.8128,78.80,71.60,78.62,160.00,7.00,0.00,29.88,M,6.21,M,FEW,SCT,BKN,M,1500.00,2000.00,10000.00,M,M,M,M,M,M,M,M,M,RJNY 160712Z 16007KT 9999 FEW015 SCT020 BKN100 26/22 Q1012 RMK 1CU015 3CU020 7AC100 A2990
RJTK,2020-09-16 07:20,139.9097,35.3983,80.60,71.60,74.11,40.00,3.00,0.00,29.88,M,6.21,M,FEW,BKN,BKN,M,2000.00,2500.00,16000.00,M,M,M,M,M,M,M,M,84.57,RJTK 160720Z 04003KT 9999 FEW020 BKN025 BKN160 27/22 Q1012 RMK 1CU020 5CU025 7AC160 A2990
RJAA,2020-09-16 07:30,140.3856,35.7653,77.00,69.80,78.48,60.00,8.00,0.00,29.91,M,6.21,M,FEW,SCT,BKN,M,2000.00,8000.00,17000.00,M,M,M,M,M,M,M,M,M,RJAA 160730Z 06008KT 9999 FEW020 SCT080 BKN170 25/21 Q1013 BECMG 05009KT RMK 1CU020 4AC080 6AC170 A2992
RJCC,2020-09-16 07:30,141.6926,42.7742,69.80,68.00,94.01,140.00,9.00,0.00,29.94,M,6.21,M,FEW,BKN,BKN,FEW,600.00,1000.00,1500.00,2500.00,-SHRA,M,M,M,M,M,M,M,RJCC 160730Z 14009KT 9999 -SHRA FEW006 BKN010 BKN015 FEW025TCU 21/20 Q1014 RMK 1ST006 5ST010 6ST015 1TCU025 A2995 TCU 5KM E MOV N
RJFF,2020-09-16 07:30,130.4517,33.5844,75.20,71.60,88.59,140.00,10.00,0.00,29.80,M,6.21,M,FEW,SCT,BKN,M,500.00,4000.00,7000.00,M,M,M,M,M,M,M,M,M,RJFF 160730Z 14010KT 9999 FEW005 SCT040 BKN070 24/22 Q1009 NOSIG RMK 1ST005 4CU040 5AC070 A2981
RJBB,2020-09-16 07:30,135.2328,34.4342,78.80,73.40,83.55,230.00,9.00,0.00,29.83,M,6.21,M,FEW,SCT,BKN,M,2500.00,9000.00,M,M,M,M,M,M,M,M,M,M,RJBB 160730Z 23009KT 9999 FEW025 SCT090 BKN/// 26/23 Q1010 NOSIG
RJGG,2020-09-16 07:30,136.8054,34.8584,78.80,71.60,78.62,150.00,13.00,0.00,29.85,M,6.21,M,FEW,BKN,BKN,M,2000.00,7000.00,14000.00,M,VCSH,M,M,M,M,M,M,M,RJGG 160730Z 15013KT 9999 VCSH FEW020 BKN070 BKN140 26/22 Q1011 NOSIG
RJTT,2020-09-16 07:30,139.7811,35.5533,80.60,71.60,74.11,90.00,4.00,0.00,29.88,M,6.21,M,FEW,BKN,M,M,2000.00,16000.00,M,M,M,M,M,M,M,M,M,84.57,RJTT 160730Z 09004KT 9999 FEW020 BKN160 27/22 Q1012 NOSIG RMK 1CU020 7AC160 A2990
ROAH,2020-09-16 07:30,127.6458,26.1958,86.00,78.80,79.18,190.00,10.00,0.00,29.85,M,6.21,M,FEW,BKN,M,M,1400.00,M,M,M,M,M,M,M,M,M,M,99.38,ROAH 160730Z 19010KT 9999 FEW014 BKN/// 30/26 Q1011 RMK 2CU014 A2986
RJCA,2020-09-16 07:35,142.3650,43.7944,71.60,66.20,83.09,250.00,3.00,0.00,29.97,M,6.21,M,FEW,SCT,BKN,M,2000.00,3500.00,5000.00,M,-SHRA,M,M,M,M,M,M,M,RJCA 160735Z 25003KT 9999 -SHRA FEW020 SCT035 BKN050 22/19 Q1015 RMK 1CU020 4CU035 6CU050 A2997
RJDT,2020-09-16 07:41,129.3306,34.2850,71.60,71.60,100.00,M,2.00,0.00,29.77,M,2.49,M,SCT,BKN,M,M,1000.00,2500.00,M,M,-RA BR,M,M,M,M,M,M,M,RJDT 160741Z VRB02KT 4000 -RA BR SCT010 BKN025 22/22 Q1008 RMK 4ST010 7SC025 A2979
RJFK,2020-09-16 07:44,130.7194,31.8033,73.40,71.60,94.10,0.00,0.00,0.00,29.88,M,3.11,M,FEW,SCT,BKN,M,100.00,600.00,3500.00,M,SHRA BCFG BR,M,M,M,M,M,M,M,RJFK 160744Z 00000KT 5000 SHRA BCFG BR FEW001 SCT006 BKN035 23/22 Q1012 RMK 1ST001 3ST006 5CU035 A2990 FG NW-E
RODN,2020-09-16 07:46,127.7676,26.3556,84.20,78.80,83.88,230.00,10.00,0.00,29.86,1011.70,10.00,M,BKN,BKN,M,M,2000.00,3500.00,M,M,M,M,M,M,M,M,M,96.10,RODN 160746Z AUTO 23010KT 10SM BKN020 BKN035 29/26 A2986 RMK AO2 CIG 020V034 BKN020 V SCT CIG 019 RWY05 SLP117 $
RJOI,2020-09-16 07:55,132.2357,34.1439,78.10,69.10,73.88,200.00,6.00,0.00,29.85,1010.70,6.21,M,FEW,SCT,OVC,M,1000.00,2000.00,4500.00,M,M,M,M,M,M,M,M,M,RJOI 160755Z 20006KT 9999 FEW010 SCT020 OVC045 26/21 A2985 RMK SLP107 T02560206
RJTY,2020-09-16 07:56,139.3485,35.7485,78.10,69.10,73.88,50.00,6.00,0.00,29.97,1014.70,10.00,M,BKN,M,M,M,3900.00,M,M,M,M,M,M,M,M,M,M,M,RJTY 160756Z AUTO 05006KT 10SM BKN039 26/21 A2997 RMK AO2 SLP147 T02560206 FZRANO $
RODN,2020-09-16 07:56,127.7676,26.3556,84.90,79.20,83.10,230.00,11.00,0.00,29.86,1011.70,10.00,M,BKN,OVC,M,M,1800.00,3300.00,M,M,M,M,M,M,M,M,M,97.91,RODN 160756Z AUTO 23011KT 10SM BKN018 OVC033 29/26 A2986 RMK AO2 SLP117 T02940262 $
ROTM,2020-09-16 07:56,127.7565,26.2743,84.90,77.00,77.28,170.00,8.00,0.00,29.89,1010.30,6.21,M,SCT,BKN,M,M,2000.00,6500.00,M,M,M,M,M,M,M,M,M,95.36,ROTM 160756Z 17008KT 9999 SCT020 BKN065 28/26 A2989 RMK SLP103 T02940250
RJTY,2020-09-16 07:58,139.3485,35.7485,78.80,69.80,73.95,60.00,4.00,0.00,29.97,1014.70,10.00,M,BKN,M,M,M,3900.00,M,M,M,-RA,M,M,M,M,M,M,M,RJTY 160758Z AUTO 06004KT 10SM -RA BKN039 26/21 A2997 RMK AO2 RAB58 SLP147 FZRANO $
RJSA,2020-09-16 08:00,140.6886,40.7333,71.60,66.20,83.09,340.00,4.00,0.00,29.91,M,6.21,M,FEW,SCT,M,M,2000.00,4000.00,M,M,M,M,M,M,M,M,M,M,RJSA 160800Z 34004KT 9999 FEW020 SCT040 22/19 Q1013
RJSC,2020-09-16 08:00,140.3711,38.4119,77.00,66.20,69.33,60.00,8.00,0.00,29.88,M,6.21,M,FEW,BKN,M,M,2000.00,M,M,M,M,M,M,M,M,M,M,M,RJSC 160800Z 06008KT 9999 FEW020 BKN/// 25/19 Q1012
RJSD,2020-09-16 08:00,138.4139,38.0602,77.00,68.00,73.78,40.00,3.00,0.00,29.85,M,6.21,M,NSC,M,M,M,M,M,M,M,M,M,M,M,M,M,M,M,RJSD 160800Z AUTO 04003KT 010V090 9999 NSC 25/20 Q1011
RJSF,2020-09-16 08:00,140.4281,37.2275,71.60,68.00,88.43,130.00,5.00,0.00,29.94,M,6.21,M,FEW,BKN,BKN,M,2000.00,8000.00,16000.00,M,M,M,M,M,M,M,M,M,RJSF 160800Z 13005KT 070V160 9999 FEW020 BKN080 BKN160 22/20 Q1014
RJFR,2020-09-16 08:00,131.0350,33.8456,77.00,71.60,83.44,130.00,5.00,0.00,29.80,M,6.21,M,FEW,BKN,M,M,1000.00,4500.00,M,M,M,M,M,M,M,M,M,M,RJFR 160800Z 13005KT 090V180 9999 FEW010 BKN045 25/22 Q1009
RJSR,2020-09-16 08:00,140.3714,40.1919,75.20,69.80,83.32,270.00,3.00,0.00,29.88,M,6.21,M,FEW,SCT,BKN,M,3000.00,4000.00,M,M,M,M,M,M,M,M,M,M,RJSR 160800Z 27003KT 210V290 9999 FEW030 SCT040 BKN/// 24/21 Q1012
RJSI,2020-09-16 08:00,141.1353,39.4286,75.20,66.20,73.61,160.00,5.00,0.00,29.91,M,6.21,M,FEW,SCT,BKN,M,3000.00,4000.00,M,M,M,M,M,M,M,M,M,M,RJSI 160800Z 16005KT 9999 FEW030 SCT040 BKN/// 24/19 Q1013
RJAA,2020-09-16 08:00,140.3856,35.7653,77.00,69.80,78.48,70.00,8.00,0.00,29.91,M,6.21,M,FEW,BKN,M,M,2000.00,17000.00,M,M,M,M,M,M,M,M,M,M,RJAA 160800Z 07008KT 040V100 9999 FEW020 BKN170 25/21 Q1013 BECMG TL0900 05007KT
RJAH,2020-09-16 08:00,140.4147,36.1817,75.20,64.40,69.14,80.00,7.00,0.00,29.91,M,6.21,M,FEW,BKN,BKN,M,1500.00,10000.00,25000.00,M,M,M,M,M,M,M,M,M,RJAH 160800Z 08007KT 9999 FEW015 BKN100 BKN250 24/18 Q1013
RJBT,2020-09-16 08:00,134.7869,35.5128,78.80,68.00,69.52,180.00,5.00,0.00,29.83,M,6.21,M,FEW,SCT,BKN,M,3000.00,15000.00,M,M,M,M,M,M,M,M,M,M,RJBT 160800Z 18005KT 140V200 9999 FEW030 SCT150 BKN/// 26/20 Q1010
RJCB,2020-09-16 08:00,143.2172,42.7333,66.20,62.60,88.18,150.00,9.00,0.00,30.00,M,6.21,M,FEW,M,M,M,1200.00,M,M,M,M,M,M,M,M,M,M,M,RJCB 160800Z 15009KT 9999 FEW012 19/17 Q1016
RJCC,2020-09-16 08:00,141.6926,42.7742,69.80,68.00,94.01,150.00,12.00,0.00,29.94,M,2.80,M,FEW,BKN,BKN,FEW,600.00,1000.00,1500.00,2500.00,+SHRA BR,M,M,M,M,M,M,M,RJCC 160800Z 15012KT 4500 R19R/1000VP2000D R19L/2000N +SHRA BR FEW006 BKN010 BKN015 FEW025TCU 21/20 Q1014
RJCH,2020-09-16 08:00,140.8219,41.7700,71.60,66.20,83.09,120.00,10.00,0.00,29.91,M,6.21,M,FEW,SCT,BKN,M,3000.00,6000.00,M,M,M,M,M,M,M,M,M,M,RJCH 160800Z 12010KT 9999 FEW030 SCT060 BKN/// 22/19 Q1013
RJCK,2020-09-16 08:00,144.1931,43.0408,66.20,64.40,93.92,150.00,7.00,0.00,30.03,M,6.21,M,FEW,BKN,BKN,M,500.00,800.00,1500.00,M,M,M,M,M,M,M,M,M,RJCK 160800Z 15007KT 9999 FEW005 BKN008 BKN015 19/18 Q1017
RJCM,2020-09-16 08:00,144.1642,43.8806,69.80,59.00,68.55,170.00,13.00,0.00,29.97,M,6.21,M,FEW,M,M,M,2000.00,M,M,M,M,M,M,M,M,M,M,M,RJCM 160800Z 17013KT 9999 FEW020 21/15 Q1015
RJCN,2020-09-16 08:00,144.9600,43.5775,66.20,60.80,82.74,170.00,8.00,0.00,30.03,M,6.21,M,FEW,M,M,M,1500.00,M,M,M,M,M,M,M,M,M,M,M,RJCN 160800Z 17008KT 9999 FEW015 19/16 Q1017
RJCO,2020-09-16 08:00,141.3814,43.1175,73.40,66.20,78.19,150.00,13.00,0.00,29.94,M,6.21,M,FEW,SCT,BKN,M,600.00,5000.00,8000.00,M,M,M,M,M,M,M,M,M,RJCO 160800Z 15013KT 9999 FEW006 SCT050 BKN080 23/19 Q1014
RJCW,2020-09-16 08:00,141.8022,45.4044,71.60,64.40,78.04,210.00,6.00,0.00,29.88,M,6.21,M,FEW,SCT,BKN,M,1500.00,2500.00,5000.00,M,M,M,M,M,M,M,M,M,RJCW 160800Z 21006KT 9999 FEW015 SCT025 BKN050 22/18 Q1012
RJDT,2020-09-16 08:00,129.3306,34.2850,71.60,71.60,100.00,M,2.00,0.00,29.80,M,2.49,M,FEW,SCT,BKN,M,700.00,1000.00,1500.00,M,-RA BR,M,M,M,M,M,M,M,RJDT 160800Z VRB02KT 4000 -RA BR FEW007 SCT010 BKN015 22/22 Q1009
RJEC,2020-09-16 08:00,142.4475,43.6708,69.80,53.60,56.38,210.00,8.00,0.00,29.94,M,6.21,M,FEW,SCT,BKN,M,2000.00,3000.00,6000.00,M,M,M,M,M,M,M,M,M,RJEC 160800Z 21008KT 9999 FEW020 SCT030 BKN060 21/12 Q1014
RJFE,2020-09-16 08:00,128.8328,32.6664,75.20,73.40,94.14,170.00,9.00,0.00,29.80,M,6.21,M,FEW,SCT,BKN,M,400.00,600.00,800.00,M,M,M,M,M,M,M,M,M,RJFE 160800Z 17009KT 9999 FEW004 SCT006 BKN008 24/23 Q1009
RJFF,2020-09-16 08:00,130.4517,33.5844,75.20,71.60,88.59,150.00,13.00,0.00,29.80,M,6.21,M,FEW,BKN,BKN,M,500.00,7000.00,M,M,M,M,M,M,M,M,M,M,RJFF 160800Z 15013KT 9999 FEW005 BKN070 BKN/// 24/22 Q1009 NOSIG
RJSM,2020-09-16 08:00,141.3684,40.7032,71.60,68.00,88.43,120.00,11.00,0.00,29.91,M,6.21,M,BKN,BKN,BKN,M,500.00,800.00,10000.00,M,M,M,M,M,M,M,M,M,RJSM 160800Z 12011KT 9999 BKN005 BKN008 BKN100 22/20 Q1013
RJFK,2020-09-16 08:00,130.7194,31.8033,71.60,71.60,100.00,90.00,2.00,0.00,29.88,M,3.11,M,FEW,SCT,BKN,M,100.00,600.00,3500.00,M,SHRA BCFG BR,M,M,M,M,M,M,M,RJFK 160800Z 09002KT 5000 SHRA BCFG BR FEW001 SCT006 BKN035 22/22 Q1012
RJFM,2020-09-16 08:00,131.4486,31.8772,75.20,73.40,94.14,M,1.00,0.00,29.85,M,3.73,M,FEW,SCT,BKN,M,300.00,1000.00,2000.00,M,-SHRA,M,M,M,M,M,M,M,RJFM 160800Z VRB01KT 6000 -SHRA FEW003 SCT010 BKN020 24/23 Q1011
RJFO,2020-09-16 08:00,131.7372,33.4794,75.20,71.60,88.59,150.00,9.00,0.00,29.83,M,6.21,M,FEW,BKN,BKN,M,500.00,1500.00,3000.00,M,-SHRA,M,M,M,M,M,M,M,RJFO 160800Z 15009KT 9999 -SHRA FEW005 BKN015 BKN030 24/22 Q1010
RJAW,2020-09-16 08:00,141.3227,24.7840,86.00,75.20,70.27,110.00,3.00,0.00,29.91,M,6.21,M,FEW,M,M,M,1500.00,M,M,M,M,M,M,M,M,M,M,95.19,RJAW 160800Z 11003KT 060V160 9999 FEW015 30/24 Q1013 RMK 2CU015 A2992
RJBB,2020-09-16 08:00,135.2328,34.4342,78.80,73.40,83.55,230.00,12.00,0.00,29.85,M,6.21,M,FEW,SCT,BKN,M,2500.00,9000.00,M,M,M,M,M,M,M,M,M,M,RJBB 160800Z 23012KT 9999 FEW025 SCT090 BKN/// 26/23 Q1011 NOSIG
RJBE,2020-09-16 08:00,135.2239,34.6328,78.80,71.60,78.62,240.00,12.00,0.00,29.85,M,6.21,M,FEW,SCT,BKN,M,3000.00,7000.00,M,M,M,M,M,M,M,M,M,M,RJBE 160800Z 24012KT 9999 FEW030 SCT070 BKN/// 26/22 Q1011
RJNK,2020-09-16 08:00,136.4075,36.3939,82.40,66.20,58.08,M,2.00,0.00,29.83,M,6.21,M,FEW,M,M,M,5000.00,M,M,M,M,M,M,M,M,M,M,84.63,RJNK 160800Z VRB02KT 9999 FEW050 28/19 Q1010
RJNT,2020-09-16 08:00,137.1875,36.6483,80.60,64.40,57.84,10.00,5.00,0.00,29.83,M,6.21,M,FEW,BKN,M,M,3000.00,16000.00,M,M,M,M,M,M,M,M,M,82.27,RJNT 160800Z 01005KT 9999 FEW030 BKN160 27/18 Q1010
RJNW,2020-09-16 08:00,136.9618,37.2931,75.20,66.20,73.61,70.00,4.00,0.00,29.88,M,6.21,M,M,M,M,M,M,M,M,M,M,M,M,M,M,M,M,M,RJNW 160800Z 07004KT CAVOK 24/19 Q1012
RJOA,2020-09-16 08:00,132.9194,34.4361,71.60,66.20,83.09,0.00,0.00,0.00,29.88,M,6.21,M,FEW,BKN,M,M,1500.00,2200.00,M,M,M,M,M,M,M,M,M,M,RJOA 160800Z 00000KT 9999 FEW015 BKN022 22/19 Q1012
RJOB,2020-09-16 08:00,133.8553,34.7569,75.20,69.80,83.32,110.00,5.00,0.00,29.85,M,6.21,M,FEW,SCT,BKN,M,1500.00,2500.00,5000.00,M,M,M,M,M,M,M,M,M,RJOB 160800Z 11005KT 9999 FEW015 SCT025 BKN050 24/21 Q1011
RJOC,2020-09-16 08:00,132.8900,35.4136,78.80,71.60,78.62,10.00,4.00,0.00,29.80,M,6.21,M,FEW,BKN,M,M,3500.00,4500.00,M,M,M,M,M,M,M,M,M,M,RJOC 160800Z 01004KT 9999 FEW035 BKN045 26/22 Q1009
RJOH,2020-09-16 08:00,133.2392,35.4933,78.80,68.00,69.52,M,2.00,0.00,29.83,M,6.21,M,FEW,BKN,BKN,M,3000.00,5000.00,8000.00,M,M,M,M,M,M,M,M,M,RJOH 160800Z VRB02KT 9999 FEW030 BKN050 BKN080 26/20 Q1010
RJKA,2020-09-16 08:00,129.7125,28.4308,84.20,78.80,83.88,220.00,11.00,0.00,29.85,M,6.21,M,FEW,BKN,M,M,1500.00,M,M,M,M,M,M,M,M,M,M,96.10,RJKA 160800Z 22011KT 9999 FEW015 BKN/// 29/26 Q1011
RJOK,2020-09-16 08:00,133.6694,33.5461,73.40,71.60,94.10,330.00,5.00,0.00,29.85,M,6.21,M,FEW,BKN,M,M,500.00,3500.00,M,M,VCSH,M,M,M,M,M,M,M,RJOK 160800Z 33005KT 9999 VCSH FEW005 BKN035 23/22 Q1011
RJFU,2020-09-16 08:00,129.9136,32.9169,75.20,73.40,94.14,130.00,6.00,0.00,29.80,M,6.21,M,FEW,SCT,BKN,M,500.00,1000.00,13000.00,M,M,M,M,M,M,M,M,M,RJFU 160800Z 13006KT 9999 FEW005 SCT010 BKN130 24/23 Q1009
RJGG,2020-09-16 08:00,136.8054,34.8584,77.00,71.60,83.44,150.00,12.00,0.00,29.85,M,6.21,M,FEW,BKN,M,M,900.00,7000.00,M,M,M,M,M,M,M,M,M,M,RJGG 160800Z 15012KT 9999 FEW009 BKN070 25/22 Q1011 NOSIG
RJKI,2020-09-16 08:00,129.9281,28.3213,84.20,78.80,83.88,210.00,6.00,0.00,29.85,M,6.21,M,NCD,M,M,M,M,M,M,M,M,M,M,M,M,M,M,96.10,RJKI 160800Z AUTO 21006KT 130V240 9999 NCD 29/26 Q1011
ROIG,2020-09-16 08:00,124.1633,24.3367,86.00,82.40,89.06,140.00,8.00,0.00,29.83,M,6.21,M,FEW,BKN,M,M,1700.00,M,M,M,M,M,M,M,M,M,M,104.83,ROIG 160800Z 14008KT 9999 FEW017 BKN/// 30/28 Q1010
ROMD,2020-09-16 08:00,131.2286,25.8289,84.20,78.80,83.88,150.00,4.00,0.00,29.88,M,6.21,M,NCD,M,M,M,M,M,M,M,M,M,M,M,M,M,M,96.10,ROMD 160800Z AUTO 15004KT 110V180 9999 NCD 29/26 Q1012
ROMY,2020-09-16 08:00,125.2767,24.7933,84.20,78.80,83.88,140.00,6.00,0.00,29.83,M,6.21,M,SCT,FEW,BKN,M,1700.00,2500.00,M,M,VCSH,M,M,M,M,M,M,96.10,ROMY 160800Z 14006KT 9999 VCSH SCT017 FEW025TCU BKN/// 29/26 Q1010
RORY,2020-09-16 08:00,128.4020,27.0440,84.20,80.60,88.98,180.00,5.00,0.00,29.85,M,6.21,M,SCT,BKN,M,M,2800.00,3200.00,M,M,M,M,M,M,M,M,M,98.50,RORY 160800Z AUTO 18005KT 140V230 9999 SCT028 BKN032 29/27 Q1011
RJDC,2020-09-16 08:00,131.2786,33.9300,75.20,71.60,88.59,120.00,5.00,0.00,29.83,M,6.21,M,FEW,SCT,BKN,M,600.00,1000.00,3500.00,M,M,M,M,M,M,M,M,M,RJDC 160800Z 12005KT 9999 FEW006 SCT010 BKN035 24/22 Q1010
RJOM,2020-09-16 08:00,132.6997,33.8272,75.20,73.40,94.14,270.00,5.00,0.00,29.83,M,6.21,M,FEW,SCT,BKN,M,1500.00,3500.00,5000.00,M,-SHRA,M,M,M,M,M,M,M,RJOM 160800Z 27005KT 9999 -SHRA FEW015 SCT035 BKN050 24/23 Q1010
RJFS,2020-09-16 08:00,130.3000,33.1500,77.00,73.40,88.67,150.00,10.00,0.00,29.80,M,6.21,M,FEW,BKN,BKN,M,500.00,1500.00,2000.00,M,M,M,M,M,M,M,M,M,RJFS 160800Z 15010KT 9999 FEW005 BKN015 BKN020 25/23 Q1009
RJFT,2020-09-16 08:00,130.8553,32.8372,73.40,73.40,100.00,M,1.00,0.00,29.85,M,3.73,M,FEW,BKN,BKN,M,100.00,1500.00,5000.00,M,-RA,M,M,M,M,M,M,M,RJFT 160800Z VRB01KT 6000 -RA FEW001 BKN015 BKN050 23/23 Q1011
RJOT,2020-09-16 08:00,134.0167,34.2167,77.00,71.60,83.44,M,1.00,0.00,29.85,M,6.21,M,FEW,SCT,BKN,M,2000.00,8000.00,M,M,M,M,M,M,M,M,M,M,RJOT 160800Z VRB01KT 9999 FEW020 SCT080 BKN/// 25/22 Q1011
RJSK,2020-09-16 08:00,140.2167,39.6167,77.00,66.20,69.33,300.00,5.00,0.00,29.88,M,6.21,M,FEW,BKN,M,M,3000.00,M,M,M,M,M,M,M,M,M,M,M,RJSK 160800Z 30005KT 9999 FEW030 BKN/// 25/19 Q1012
RJOO,2020-09-16 08:00,135.4392,34.7844,82.40,68.00,61.81,230.00,5.00,0.00,29.83,M,6.21,M,FEW,SCT,BKN,M,2500.00,13000.00,M,M,M,M,M,M,M,M,M,85.38,RJOO 160800Z 23005KT 160V270 9999 FEW025 SCT130 BKN/// 28/20 Q1010
RJOR,2020-09-16 08:00,134.1650,35.5300,78.80,69.80,73.95,40.00,5.00,0.00,29.80,M,6.21,M,FEW,SCT,BKN,M,3000.00,8000.00,12000.00,M,M,M,M,M,M,M,M,M,RJOR 160800Z 04005KT 9999 FEW030 SCT080 BKN120 26/21 Q1009
RJOW,2020-09-16 08:00,131.7903,34.6764,75.20,71.60,88.59,200.00,4.00,0.00,29.83,M,4.35,M,FEW,SCT,BKN,M,2500.00,3000.00,4000.00,M,-SHRA,M,M,M,M,M,M,M,RJOW 160800Z 20004KT 170V260 7000 -SHRA FEW025 SCT030 BKN040 24/22 Q1010
RJOY,2020-09-16 08:00,135.6006,34.5967,82.40,69.80,65.74,290.00,7.00,0.00,29.83,M,6.21,M,FEW,SCT,BKN,M,3000.00,8000.00,M,M,M,M,M,M,M,M,M,86.22,RJOY 160800Z 29007KT 240V310 9999 FEW030 SCT080 BKN/// 28/21 Q1010
RJSN,2020-09-16 08:00,139.1117,37.9558,78.80,69.80,73.95,50.00,4.00,0.00,29.85,M,6.21,M,FEW,SCT,M,M,4000.00,15000.00,M,M,M,M,M,M,M,M,M,M,RJSN 160800Z 05004KT 9999 FEW040 SCT150 26/21 Q1011
RJSS,2020-09-16 08:00,140.9169,38.1397,73.40,68.00,83.21,130.00,6.00,0.00,29.91,M,6.21,M,FEW,SCT,BKN,M,1000.00,15000.00,M,M,M,M,M,M,M,M,M,M,RJSS 160800Z 13006KT 9999 FEW010 SCT150 BKN/// 23/20 Q1013
RJTO,2020-09-16 08:00,139.3603,34.7819,75.20,73.40,94.14,50.00,5.00,0.00,29.91,M,6.21,M,FEW,BKN,M,M,2500.00,9000.00,M,M,M,M,M,M,M,M,M,M,RJTO 160800Z 05005KT 9999 FEW025 BKN090 24/23 Q1013
RJTT,2020-09-16 08:00,139.7811,35.5533,80.60,71.60,74.11,90.00,6.00,0.00,29.88,M,6.21,M,FEW,BKN,M,M,2500.00,15000.00,M,M,-SHRA,M,M,M,M,M,M,84.57,RJTT 160800Z 09006KT 9999 -SHRA FEW025 BKN150 27/22 Q1012 NOSIG
RORS,2020-09-16 08:00,125.1447,24.8267,86.00,80.60,83.99,160.00,6.00,0.00,29.83,M,6.21,M,FEW,BKN,M,M,1900.00,M,M,M,VCSH,M,M,M,M,M,M,101.90,RORS 160800Z 16006KT 120V190 9999 VCSH FEW019 BKN/// 30/27 Q1010
RJNS,2020-09-16 08:00,138.1894,34.7961,77.00,71.60,83.44,150.00,5.00,0.00,29.91,M,6.21,M,FEW,SCT,BKN,M,1300.00,2000.00,7000.00,M,M,M,M,M,M,M,M,M,RJNS 160800Z 15005KT 9999 FEW013 SCT020 BKN070 25/22 Q1013
RJBD,2020-09-16 08:00,135.3644,33.6622,77.00,71.60,83.44,170.00,4.00,0.00,29.85,M,6.21,M,FEW,SCT,BKN,M,600.00,1500.00,5000.00,M,M,M,M,M,M,M,M,M,RJBD 160800Z 17004KT 140V210 9999 FEW006 SCT015 BKN050 25/22 Q1011
RJFG,2020-09-16 08:00,130.9917,30.6050,77.00,75.20,94.19,260.00,3.00,0.00,29.88,M,6.21,M,FEW,SCT,BKN,M,500.00,1500.00,3000.00,M,-SHRA,M,M,M,M,M,M,M,RJFG 160800Z 26003KT 9999 -SHRA FEW005 SCT015 BKN030 25/24 Q1012
RJOS,2020-09-16 08:00,134.6092,34.1322,78.80,69.80,73.95,190.00,13.00,0.00,29.83,M,6.21,M,FEW,SCT,BKN,M,2500.00,4500.00,8000.00,M,M,M,M,M,M,M,M,M,RJOS 160800Z 19013KT 9999 FEW025 SCT045 BKN080 26/21 Q1010
RJSY,2020-09-16 08:00,139.7872,38.8122,78.80,66.20,65.33,50.00,4.00,0.00,29.85,M,6.21,M,FEW,SCT,M,M,2000.00,18000.00,M,M,M,M,M,M,M,M,M,M,RJSY 160800Z 05004KT 360V090 9999 FEW020 SCT180 26/19 Q1011
RORK,2020-09-16 08:00,131.3333,25.9167,86.00,77.00,74.61,160.00,5.00,0.00,29.88,M,6.21,M,NCD,M,M,M,M,M,M,M,M,M,M,M,M,M,M,97.15,RORK 160800Z AUTO 16005KT 9999 NCD 30/25 Q1012
ROYN,2020-09-16 08:00,122.9780,24.4670,87.80,78.80,74.77,170.00,9.00,0.00,29.80,M,6.21,M,FEW,M,M,M,1800.00,M,M,M,M,M,M,M,M,M,M,102.37,ROYN 160800Z AUTO 17009KT 9999 FEW018 31/26 Q1009
ROAH,2020-09-16 08:00,127.6458,26.1958,86.00,78.80,79.18,190.00,9.00,0.00,29.85,M,6.21,M,FEW,BKN,M,M,1400.00,M,M,M,M,M,M,M,M,M,M,99.38,ROAH 160800Z 19009KT 9999 FEW014 BKN/// 30/26 Q1011
RJCC,2020-09-16 08:07,141.6926,42.7742,69.80,68.00,94.01,140.00,10.00,0.00,29.94,M,3.11,M,FEW,BKN,BKN,FEW,600.00,1000.00,1500.00,2500.00,SHRA BR,M,M,M,M,M,M,M,RJCC 160807Z 14010KT 5000 R19R/1000VP2000U R19L/P2000N SHRA BR FEW006 BKN010 BKN015 FEW025TCU 21/20 Q1014 RMK 1ST006 5ST010 6ST015 1TCU025 A2996 9999NE-E TCU OHD MOV N
RJFY,2020-09-16 08:07,130.8381,31.3681,77.00,73.40,88.67,M,1.00,0.00,29.85,M,6.21,M,FEW,SCT,BKN,M,1000.00,2500.00,5000.00,M,RA,M,M,M,M,M,M,M,RJFY 160807Z VRB01KT 9999 RA FEW010 SCT025 BKN050 25/23 Q1011 RMK 1ST010 3CU025 6SC050 A2987
RJTY,2020-09-16 08:11,139.3485,35.7485,78.80,69.80,73.95,0.00,0.00,0.00,29.97,1014.70,10.00,M,SCT,BKN,M,M,4100.00,4900.00,M,M,M,M,M,M,M,M,M,M,RJTY 160811Z AUTO 00000KT 10SM SCT041 BKN049 26/21 A2997 RMK AO2 RAB0758E07DZB07E11 SLP147 FZRANO $
RJCC,2020-09-16 08:16,141.6926,42.7742,69.80,68.00,94.01,160.00,11.00,0.00,29.94,M,4.97,M,FEW,BKN,BKN,FEW,600.00,900.00,1500.00,2500.00,-SHRA,M,M,M,M,M,M,M,RJCC 160816Z 16011KT 8000 -SHRA FEW006 BKN009 BKN015 FEW025TCU 21/20 Q1014 RMK 1ST006 5ST009 6ST015 1TCU025 A2996 TCU 5KM N MOV N
RJCK,2020-09-16 08:20,144.1931,43.0408,64.40,64.40,100.00,150.00,8.00,0.00,30.03,M,6.21,M,FEW,BKN,BKN,M,300.00,500.00,800.00,M,M,M,M,M,M,M,M,M,RJCK 160820Z 15008KT 9999 FEW003 BKN005 BKN008 18/18 Q1017 RMK 1ST003 5ST005 6ST008 A3003
RJDT,2020-09-16 08:21,129.3306,34.2850,71.60,71.60,100.00,M,3.00,0.00,29.80,M,2.17,M,FEW,SCT,BKN,M,300.00,500.00,900.00,M,-RA BR,M,M,M,M,M,M,M,RJDT 160821Z VRB03KT 3500 -RA BR FEW003 SCT005 BKN009 22/22 Q1009 RMK 1ST003 3ST005 5ST009 A2980
RJFY,2020-09-16 08:27,130.8381,31.3681,77.00,73.40,88.67,360.00,3.00,0.00,29.85,M,4.97,M,FEW,BKN,OVC,M,300.00,800.00,4000.00,M,RA,M,M,M,M,M,M,M,RJFY 160827Z 36003KT 330V030 8000 RA FEW003 BKN008 OVC040 25/23 Q1011 RMK 1ST003 5ST008 8NS040 A2988
RJAA,2020-09-16 08:30,140.3856,35.7653,75.20,69.80,83.32,60.00,6.00,0.00,29.91,M,6.21,M,FEW,SCT,BKN,M,2000.00,8000.00,17000.00,M,M,M,M,M,M,M,M,M,RJAA 160830Z 06006KT 010V090 9999 FEW020 SCT080 BKN170 24/21 Q1013 BECMG TL0900 05007KT RMK 1CU020 3AC080 6AC170 A2993 LIGHT TO MOD TURB OBS AT 0810Z 15NM N MAMAS BTN FL230 AND FL190 IN DES B788 JAL876
RJCC,2020-09-16 08:30,141.6926,42.7742,68.00,68.00,100.00,160.00,10.00,0.00,29.94,M,4.97,M,FEW,BKN,BKN,FEW,500.00,800.00,1500.00,2500.00,-SHRA,M,M,M,M,M,M,M,RJCC 160830Z 16010KT 8000 -SHRA FEW005 BKN008 BKN015 FEW025TCU 20/20 Q1014 RMK 1ST005 5ST008 6ST015 1TCU025 A2996 TCU 10KM N MOV N
RJDT,2020-09-16 08:30,129.3306,34.2850,71.60,71.60,100.00,M,4.00,0.00,29.80,M,1.55,M,SCT,SCT,BKN,M,200.00,500.00,700.00,M,-RA BR,M,M,M,M,M,M,M,RJDT 160830Z VRB04KT 2500 -RA BR SCT002 SCT005 BKN007 22/22 Q1009 RMK 3ST002 4ST005 6ST007 A2980
RJFF,2020-09-16 08:30,130.4517,33.5844,75.20,71.60,88.59,140.00,13.00,0.00,29.80,M,6.21,M,FEW,SCT,BKN,M,500.00,7000.00,12000.00,M,M,M,M,M,M,M,M,M,RJFF 160830Z 14013KT 9999 FEW005 SCT070 BKN120 24/22 Q1009 NOSIG RMK 1ST005 4AC070 5AC120 A2981
RJBB,2020-09-16 08:30,135.2328,34.4342,78.80,71.60,78.62,220.00,11.00,0.00,29.85,M,6.21,M,FEW,SCT,BKN,M,2500.00,7000.00,M,M,M,M,M,M,M,M,M,M,RJBB 160830Z 22011KT 9999 FEW025 SCT070 BKN/// 26/22 Q1011 NOSIG
RJGG,2020-09-16 08:30,136.8054,34.8584,77.00,71.60,83.44,160.00,12.00,0.00,29.85,M,6.21,M,FEW,BKN,M,M,900.00,6000.00,M,M,M,M,M,M,M,M,M,M,RJGG 160830Z 16012KT 9999 FEW009 BKN060 25/22 Q1011 NOSIG
RJTT,2020-09-16 08:30,139.7811,35.5533,78.80,73.40,83.55,120.00,10.00,0.00,29.88,M,6.21,M,FEW,SCT,BKN,M,2500.00,3000.00,15000.00,M,VCSH,M,M,M,M,M,M,M,RJTT 160830Z 12010KT 9999 VCSH FEW025 SCT030 BKN150 26/23 Q1012 NOSIG RMK 1CU025 3SC030 7AC150 A2991
ROAH,2020-09-16 08:30,127.6458,26.1958,84.20,78.80,83.88,190.00,10.00,0.00,29.85,M,6.21,M,FEW,BKN,M,M,1400.00,M,M,M,M,M,M,M,M,M,M,96.10,ROAH 160830Z 19010KT 9999 FEW014 BKN/// 29/26 Q1011 RMK 2CU014 A2986
RODN,2020-09-16 08:36,127.7676,26.3556,84.20,78.80,83.88,150.00,8.00,0.00,29.87,1012.00,10.00,M,OVC,M,M,M,2100.00,M,M,M,M,M,M,M,M,M,M,96.10,RODN 160836Z AUTO 15008KT 10SM OVC021 29/26 A2987 RMK AO2 CIG 019 RWY05 SLP120 $
RJTK,2020-09-16 08:40,139.9097,35.3983,77.00,69.80,78.48,110.00,6.00,0.00,29.91,M,6.21,M,FEW,BKN,BKN,M,2500.00,6000.00,7000.00,M,-SHRA,M,M,M,M,M,M,M,RJTK 160840Z 11006KT 9999 -SHRA FEW025 BKN060 BKN070 25/21 Q1013 RMK 1CU025 6SC060 7AC070 A2992
RJFY,2020-09-16 08:49,130.8381,31.3681,77.00,73.40,88.67,20.00,4.00,0.00,29.85,M,3.04,M,FEW,BKN,OVC,M,300.00,800.00,2500.00,M,RA BR,M,M,M,M,M,M,M,RJFY 160849Z 02004KT 270V050 4900 RA BR FEW003 BKN008 OVC025 25/23 Q1011 RMK 2ST003 6ST008 8NS025 A2988
RJOZ,2020-09-16 08:49,131.0522,34.0469,75.20,73.40,94.14,110.00,5.00,0.00,29.80,M,6.21,M,FEW,SCT,BKN,M,800.00,2000.00,4000.00,M,M,M,M,M,M,M,M,M,RJOZ 160849Z 11005KT 9999 FEW008 SCT020 BKN040 24/23 Q1009 RMK 1ST008 4CU020 7SC040 A2982
RJOI,2020-09-16 08:55,132.2357,34.1439,77.00,69.10,76.62,220.00,5.00,T,29.85,1010.70,6.21,M,FEW,BKN,OVC,M,1000.00,2500.00,4500.00,M,M,M,M,M,M,M,M,M,RJOI 160855Z 22005KT 9999 FEW010 BKN025 OVC045 25/21 A2985 RMK RAB0800E19 SLP107 P0000 60000 T02500206 54000
RJTY,2020-09-16 08:56,139.3485,35.7485,76.60,69.60,78.99,0.00,0.00,T,29.97,1014.70,10.00,M,SCT,BKN,M,M,3800.00,15000.00,M,M,M,M,M,M,M,M,M,M,RJTY 160856Z AUTO 00000KT 10SM SCT038 BKN150 25/21 A2997 RMK AO2 RAB0758E07DZB07E11 SLP147 P0000 60000 T02480209 50006 FZRANO $
RODN,2020-09-16 08:56,127.7676,26.3556,84.20,76.80,78.52,140.00,7.00,0.00,29.87,1012.00,10.00,M,BKN,M,M,M,2000.00,M,M,M,M,M,M,M,M,M,M,93.96,RODN 160856Z AUTO 14007KT 10SM BKN020 29/25 A2987 RMK AO2 SLP120 T02900249 52005 $
ROTM,2020-09-16 08:56,127.7565,26.2743,82.90,79.00,88.05,160.00,7.00,0.00,29.89,1010.60,6.21,M,SCT,BKN,BKN,M,2000.00,6500.00,12000.00,M,M,M,M,M,M,M,M,93.93,ROTM 160856Z 16007KT 9999 SCT020 BKN065 BKN120 28/26 A2989 RMK SLP106 T02830261 53003
RJSA,2020-09-16 09:00,140.6886,40.7333,69.80,64.40,82.98,340.00,4.00,0.00,29.91,M,6.21,M,FEW,M,M,M,1500.00,M,M,M,M,M,M,M,M,M,M,M,RJSA 160900Z 34004KT 9999 FEW015 21/18 Q1013
RJSC,2020-09-16 09:00,140.3711,38.4119,75.20,66.20,73.61,80.00,7.00,0.00,29.91,M,6.21,M,FEW,SCT,BKN,M,2000.00,4000.00,M,M,M,M,M,M,M,M,M,M,RJSC 160900Z 08007KT 9999 FEW020 SCT040 BKN/// 24/19 Q1013
RJSD,2020-09-16 09:00,138.4139,38.0602,75.20,69.80,83.32,M,2.00,0.00,29.85,M,6.21,M,NSC,M,M,M,M,M,M,M,M,M,M,M,M,M,M,M,RJSD 160900Z AUTO VRB02KT 9999 NSC 24/21 Q1011
RJSF,2020-09-16 09:00,140.4281,37.2275,71.60,66.20,83.09,140.00,3.00,0.00,29.97,M,6.21,M,FEW,BKN,BKN,M,1800.00,8000.00,9000.00,M,M,M,M,M,M,M,M,M,RJSF 160900Z 14003KT 9999 FEW018 BKN080 BKN090 22/19 Q1015
RJFR,2020-09-16 09:00,131.0350,33.8456,77.00,71.60,83.44,140.00,7.00,0.00,29.80,M,6.21,M,FEW,SCT,BKN,M,1000.00,1500.00,12000.00,M,M,M,M,M,M,M,M,M,RJFR 160900Z 14007KT 9999 FEW010 SCT015 BKN120 25/22 Q1009
RJSR,2020-09-16 09:00,140.3714,40.1919,73.40,69.80,88.51,0.00,0.00,0.00,29.88,M,6.21,M,FEW,BKN,M,M,3000.00,M,M,M,M,M,M,M,M,M,M,M,RJSR 160900Z 00000KT 9999 FEW030 BKN/// 23/21 Q1012
RJSI,2020-09-16 09:00,141.1353,39.4286,73.40,66.20,78.19,170.00,4.00,0.00,29.91,M,6.21,M,FEW,BKN,BKN,M,2000.00,3000.00,M,M,M,M,M,M,M,M,M,M,RJSI 160900Z 17004KT 9999 FEW020 BKN030 BKN/// 23/19 Q1013
RJAA,2020-09-16 09:00,140.3856,35.7653,75.20,69.80,83.32,60.00,4.00,0.00,29.91,M,6.21,M,FEW,BKN,M,M,1200.00,8000.00,M,M,M,M,M,M,M,M,M,M,RJAA 160900Z 06004KT 9999 FEW012 BKN080 24/21 Q1013 BECMG TL0930 03005KT
RJAH,2020-09-16 09:00,140.4147,36.1817,73.40,68.00,83.21,70.00,4.00,0.00,29.91,M,6.21,M,FEW,BKN,BKN,M,1500.00,10000.00,25000.00,M,M,M,M,M,M,M,M,M,RJAH 160900Z 07004KT 9999 FEW015 BKN100 BKN250 23/20 Q1013
RJBT,2020-09-16 09:00,134.7869,35.5128,75.20,64.40,69.14,190.00,5.00,0.00,29.83,M,6.21,M,FEW,SCT,BKN,M,2500.00,12000.00,15000.00,M,M,M,M,M,M,M,M,M,RJBT 160900Z 19005KT 9999 FEW025 SCT120 BKN150 24/18 Q1010
RJCB,2020-09-16 09:00,143.2172,42.7333,64.40,62.60,93.88,140.00,5.00,0.00,30.00,M,6.21,M,FEW,SCT,BKN,M,800.00,900.00,10000.00,M,M,M,M,M,M,M,M,M,RJCB 160900Z 14005KT 9999 FEW008 SCT009 BKN100 18/17 Q1016
RJCC,2020-09-16 09:00,141.6926,42.7742,68.00,68.00,100.00,150.00,11.00,0.00,29.94,M,4.97,M,FEW,BKN,BKN,FEW,500.00,800.00,1500.00,2500.00,-SHRA,M,M,M,M,M,M,M,RJCC 160900Z 15011KT 8000 -SHRA FEW005 BKN008 BKN015 FEW025TCU 20/20 Q1014
RJCH,2020-09-16 09:00,140.8219,41.7700,69.80,66.20,88.34,100.00,8.00,0.00,29.91,M,6.21,M,FEW,SCT,BKN,M,2500.00,6000.00,M,M,M,M,M,M,M,M,M,M,RJCH 160900Z 10008KT 9999 FEW025 SCT060 BKN/// 21/19 Q1013
RJCK,2020-09-16 09:00,144.1931,43.0408,64.40,64.40,100.00,140.00,7.00,0.00,30.03,M,4.97,M,FEW,SCT,BKN,M,200.00,400.00,500.00,M,M,M,M,M,M,M,M,M,RJCK 160900Z 14007KT 8000 FEW002 SCT004 BKN005 18/18 Q1017
RJCM,2020-09-16 09:00,144.1642,43.8806,68.00,59.00,72.92,190.00,12.00,0.00,29.97,M,6.21,M,FEW,M,M,M,2000.00,M,M,M,M,M,M,M,M,M,M,M,RJCM 160900Z 19012KT 9999 FEW020 20/15 Q1015
RJCN,2020-09-16 09:00,144.9600,43.5775,64.40,62.60,93.88,180.00,5.00,0.00,30.03,M,6.21,M,FEW,M,M,M,1000.00,M,M,M,M,M,M,M,M,M,M,M,RJCN 160900Z 18005KT 9999 FEW010 18/17 Q1017
RJCO,2020-09-16 09:00,141.3814,43.1175,71.60,64.40,78.04,150.00,13.00,0.00,29.94,M,6.21,M,FEW,BKN,M,M,600.00,6000.00,M,M,M,M,M,M,M,M,M,M,RJCO 160900Z 15013KT 9999 FEW006 BKN060 22/18 Q1014
RJCW,2020-09-16 09:00,141.8022,45.4044,68.00,64.40,88.26,190.00,4.00,0.00,29.91,M,6.21,M,FEW,SCT,BKN,M,2000.00,5000.00,M,M,M,M,M,M,M,M,M,M,RJCW 160900Z 19004KT 9999 FEW020 SCT050 BKN/// 20/18 Q1013
RJDT,2020-09-16 09:00,129.3306,34.2850,71.60,71.60,100.00,170.00,5.00,0.00,29.77,M,1.24,M,FEW,SCT,BKN,M,100.00,200.00,300.00,M,-RA BR,M,M,M,M,M,M,M,RJDT 160900Z 17005KT 090V240 2000 -RA BR FEW001 SCT002 BKN003 22/22 Q1008
RJEC,2020-09-16 09:00,142.4475,43.6708,68.00,53.60,59.97,210.00,6.00,0.00,29.97,M,6.21,M,FEW,SCT,BKN,M,1500.00,3000.00,5000.00,M,M,M,M,M,M,M,M,M,RJEC 160900Z 21006KT 9999 FEW015 SCT030 BKN050 20/12 Q1015
RJFE,2020-09-16 09:00,128.8328,32.6664,77.00,75.20,94.19,170.00,8.00,0.00,29.80,M,6.21,M,FEW,SCT,BKN,M,300.00,500.00,700.00,M,M,M,M,M,M,M,M,M,RJFE 160900Z 17008KT 9999 FEW003 SCT005 BKN007 25/24 Q1009
RJFF,2020-09-16 09:00,130.4517,33.5844,75.20,71.60,88.59,140.00,14.00,0.00,29.80,M,6.21,M,FEW,SCT,BKN,M,500.00,7000.00,12000.00,M,M,M,M,M,M,M,M,M,RJFF 160900Z 14014KT 9999 FEW005 SCT070 BKN120 24/22 Q1009 NOSIG
RJFK,2020-09-16 09:00,130.7194,31.8033,73.40,73.40,100.00,M,1.00,0.00,29.88,M,3.73,M,FEW,SCT,BKN,M,300.00,3500.00,11000.00,M,-SHRA BCFG,M,M,M,M,M,M,M,RJFK 160900Z VRB01KT 6000 -SHRA BCFG FEW003 SCT035 BKN110 23/23 Q1012
RJFM,2020-09-16 09:00,131.4486,31.8772,75.20,73.40,94.14,140.00,5.00,0.00,29.85,M,3.73,M,FEW,SCT,BKN,M,300.00,2000.00,8000.00,M,-SHRA,M,M,M,M,M,M,M,RJFM 160900Z 14005KT 6000 -SHRA FEW003 SCT020 BKN080 24/23 Q1011
RJFO,2020-09-16 09:00,131.7372,33.4794,75.20,71.60,88.59,150.00,10.00,0.00,29.83,M,6.21,M,FEW,SCT,BKN,M,500.00,4500.00,14000.00,M,M,M,M,M,M,M,M,M,RJFO 160900Z 15010KT 9999 FEW005 SCT045 BKN140 24/22 Q1010
RJAW,2020-09-16 09:00,141.3227,24.7840,84.20,75.20,74.44,130.00,4.00,0.00,29.91,M,6.21,M,FEW,M,M,M,1500.00,M,M,M,M,M,M,M,M,M,M,92.45,RJAW 160900Z 13004KT 9999 FEW015 29/24 Q1013 RMK 2CU015 A2993
RJBB,2020-09-16 09:00,135.2328,34.4342,78.80,71.60,78.62,220.00,12.00,0.00,29.85,M,6.21,M,FEW,SCT,BKN,M,2500.00,7000.00,M,M,M,M,M,M,M,M,M,M,RJBB 160900Z 22012KT 9999 FEW025 SCT070 BKN/// 26/22 Q1011 NOSIG
RJBE,2020-09-16 09:00,135.2239,34.6328,78.80,71.60,78.62,230.00,11.00,0.00,29.85,M,6.21,M,FEW,SCT,BKN,M,3000.00,6000.00,M,M,M,M,M,M,M,M,M,M,RJBE 160900Z 23011KT 9999 FEW030 SCT060 BKN/// 26/22 Q1011
RJNK,2020-09-16 09:00,136.4075,36.3939,78.80,68.00,69.52,320.00,4.00,0.00,29.83,M,6.21,M,FEW,SCT,M,M,5000.00,23000.00,M,M,M,M,M,M,M,M,M,M,RJNK 160900Z 32004KT 9999 FEW050 SCT230 26/20 Q1010
RJNT,2020-09-16 09:00,137.1875,36.6483,80.60,62.60,54.30,10.00,2.00,0.00,29.83,M,6.21,M,FEW,SCT,M,M,5000.00,10000.00,M,M,M,M,M,M,M,M,M,81.84,RJNT 160900Z 01002KT 9999 FEW050 SCT100 27/17 Q1010
RJNW,2020-09-16 09:00,136.9618,37.2931,71.60,64.40,78.04,30.00,1.00,0.00,29.88,M,6.21,M,M,M,M,M,M,M,M,M,M,M,M,M,M,M,M,M,RJNW 160900Z 03001KT CAVOK 22/18 Q1012
RJOA,2020-09-16 09:00,132.9194,34.4361,71.60,66.20,83.09,220.00,2.00,0.00,29.88,M,6.21,M,FEW,BKN,M,M,1500.00,2200.00,M,M,M,M,M,M,M,M,M,M,RJOA 160900Z 22002KT 9999 FEW015 BKN022 22/19 Q1012
RJOB,2020-09-16 09:00,133.8553,34.7569,75.20,69.80,83.32,100.00,3.00,0.00,29.85,M,6.21,M,FEW,SCT,BKN,M,1500.00,2500.00,5000.00,M,M,M,M,M,M,M,M,M,RJOB 160900Z 10003KT 9999 FEW015 SCT025 BKN050 24/21 Q1011
RJOC,2020-09-16 09:00,132.8900,35.4136,77.00,71.60,83.44,10.00,2.00,0.00,29.80,M,6.21,M,FEW,SCT,BKN,M,3500.00,4000.00,6000.00,M,M,M,M,M,M,M,M,M,RJOC 160900Z 01002KT 9999 FEW035 SCT040 BKN060 25/22 Q1009
RJOH,2020-09-16 09:00,133.2392,35.4933,77.00,68.00,73.78,60.00,4.00,0.00,29.83,M,6.21,M,FEW,SCT,BKN,M,3000.00,5000.00,8000.00,M,M,M,M,M,M,M,M,M,RJOH 160900Z 06004KT 9999 FEW030 SCT050 BKN080 25/20 Q1010
RJSM,2020-09-16 09:00,141.3684,40.7032,69.80,68.00,94.01,130.00,12.00,0.00,29.91,M,6.21,M,BKN,BKN,BKN,M,500.00,800.00,10000.00,M,M,M,M,M,M,M,M,M,RJSM 160900Z 13012KT 100V160 9999 BKN005 BKN008 BKN100 21/20 Q1013
RJKA,2020-09-16 09:00,129.7125,28.4308,84.20,78.80,83.88,220.00,8.00,0.00,29.85,M,6.21,M,FEW,BKN,M,M,1500.00,M,M,M,M,M,M,M,M,M,M,96.10,RJKA 160900Z 22008KT 9999 FEW015 BKN/// 29/26 Q1011
RJOK,2020-09-16 09:00,133.6694,33.5461,73.40,71.60,94.10,300.00,2.00,0.00,29.85,M,6.21,M,FEW,SCT,BKN,M,500.00,3000.00,3500.00,M,-SHRA,M,M,M,M,M,M,M,RJOK 160900Z 30002KT 9999 -SHRA FEW005 SCT030 BKN035 23/22 Q1011
RJFU,2020-09-16 09:00,129.9136,32.9169,77.00,73.40,88.67,150.00,5.00,0.00,29.80,M,6.21,M,FEW,SCT,BKN,M,300.00,1000.00,4500.00,M,M,M,M,M,M,M,M,M,RJFU 160900Z 15005KT 9999 FEW003 SCT010 BKN045 25/23 Q1009
RJGG,2020-09-16 09:00,136.8054,34.8584,77.00,71.60,83.44,160.00,12.00,0.00,29.85,M,6.21,M,FEW,BKN,M,M,700.00,6000.00,M,M,M,M,M,M,M,M,M,M,RJGG 160900Z 16012KT 9999 FEW007 BKN060 25/22 Q1011 NOSIG
RJKI,2020-09-16 09:00,129.9281,28.3213,82.40,78.80,88.90,210.00,5.00,0.00,29.85,M,6.21,M,NSC,M,M,M,M,M,M,M,M,M,M,M,M,M,M,92.76,RJKI 160900Z AUTO 21005KT 160V250 9999 NSC 28/26 Q1011
ROIG,2020-09-16 09:00,124.1633,24.3367,86.00,80.60,83.99,140.00,7.00,0.00,29.83,M,6.21,M,SCT,BKN,M,M,1700.00,M,M,M,M,M,M,M,M,M,M,101.90,ROIG 160900Z 14007KT 9999 SCT017 BKN/// 30/27 Q1010
ROMD,2020-09-16 09:00,131.2286,25.8289,84.20,78.80,83.88,110.00,3.00,0.00,29.88,M,6.21,M,NCD,M,M,M,M,M,M,M,M,M,M,M,M,M,M,96.10,ROMD 160900Z AUTO 11003KT 060V180 9999 NCD 29/26 Q1012
ROMY,2020-09-16 09:00,125.2767,24.7933,84.20,78.80,83.88,140.00,8.00,0.00,29.83,M,6.21,M,SCT,FEW,BKN,M,1600.00,2500.00,M,M,-SHRA,M,M,M,M,M,M,96.10,ROMY 160900Z 14008KT 9999 -SHRA SCT016 FEW025TCU BKN/// 29/26 Q1010
RORY,2020-09-16 09:00,128.4020,27.0440,84.20,78.80,83.88,200.00,3.00,0.00,29.85,M,6.21,M,BKN,BKN,M,M,2500.00,4700.00,M,M,M,M,M,M,M,M,M,96.10,RORY 160900Z AUTO 20003KT 160V250 9999 BKN025 BKN047 29/26 Q1011
RJDC,2020-09-16 09:00,131.2786,33.9300,77.00,71.60,83.44,120.00,6.00,0.00,29.80,M,6.21,M,FEW,SCT,BKN,M,600.00,1500.00,5000.00,M,M,M,M,M,M,M,M,M,RJDC 160900Z 12006KT 9999 FEW006 SCT015 BKN050 25/22 Q1009
RJOM,2020-09-16 09:00,132.6997,33.8272,75.20,71.60,88.59,310.00,3.00,0.00,29.83,M,6.21,M,FEW,SCT,BKN,M,1500.00,3000.00,5000.00,M,-SHRA,M,M,M,M,M,M,M,RJOM 160900Z 31003KT 9999 -SHRA FEW015 SCT030 BKN050 24/22 Q1010
RJFS,2020-09-16 09:00,130.3000,33.1500,77.00,71.60,83.44,180.00,10.00,0.00,29.83,M,6.21,M,FEW,SCT,BKN,M,500.00,2000.00,5000.00,M,M,M,M,M,M,M,M,M,RJFS 160900Z 18010KT 9999 FEW005 SCT020 BKN050 25/22 Q1010
RJFT,2020-09-16 09:00,130.8553,32.8372,73.40,73.40,100.00,90.00,3.00,0.00,29.85,M,4.97,M,FEW,SCT,BKN,M,100.00,3000.00,M,M,M,M,M,M,M,M,M,M,RJFT 160900Z 09003KT 040V110 8000 FEW001 SCT030 BKN/// 23/23 Q1011
RJOT,2020-09-16 09:00,134.0167,34.2167,75.20,71.60,88.59,140.00,3.00,0.00,29.85,M,6.21,M,FEW,SCT,BKN,M,3000.00,12000.00,M,M,M,M,M,M,M,M,M,M,RJOT 160900Z 14003KT 090V160 9999 FEW030 SCT120 BKN/// 24/22 Q1011
RJSK,2020-09-16 09:00,140.2167,39.6167,75.20,66.20,73.61,300.00,3.00,0.00,29.88,M,6.21,M,FEW,BKN,M,M,4000.00,M,M,M,M,M,M,M,M,M,M,M,RJSK 160900Z 30003KT 9999 FEW040 BKN/// 24/19 Q1012
RJOO,2020-09-16 09:00,135.4392,34.7844,78.80,71.60,78.62,220.00,5.00,0.00,29.85,M,6.21,M,FEW,SCT,BKN,M,2500.00,5000.00,M,M,M,M,M,M,M,M,M,M,RJOO 160900Z 22005KT 180V250 9999 FEW025 SCT050 BKN/// 26/22 Q1011
RJOR,2020-09-16 09:00,134.1650,35.5300,80.60,69.80,69.71,M,2.00,0.00,29.83,M,6.21,M,FEW,SCT,BKN,M,2500.00,6000.00,8000.00,M,M,M,M,M,M,M,M,83.90,RJOR 160900Z VRB02KT 9999 FEW025 SCT060 BKN080 27/21 Q1010
RJOW,2020-09-16 09:00,131.7903,34.6764,75.20,71.60,88.59,160.00,3.00,0.00,29.80,M,6.21,M,FEW,SCT,BKN,M,2000.00,3000.00,4500.00,M,M,M,M,M,M,M,M,M,RJOW 160900Z 16003KT 120V200 9999 FEW020 SCT030 BKN045 24/22 Q1009
RJOY,2020-09-16 09:00,135.6006,34.5967,78.80,71.60,78.62,280.00,6.00,0.00,29.85,M,6.21,M,FEW,BKN,BKN,M,3000.00,7000.00,M,M,M,M,M,M,M,M,M,M,RJOY 160900Z 28006KT 9999 FEW030 BKN070 BKN/// 26/22 Q1011
RJSN,2020-09-16 09:00,139.1117,37.9558,77.00,69.80,78.48,60.00,3.00,0.00,29.85,M,6.21,M,FEW,SCT,M,M,4000.00,15000.00,M,M,M,M,M,M,M,M,M,M,RJSN 160900Z 06003KT 340V070 9999 FEW040 SCT150 25/21 Q1011
RJSS,2020-09-16 09:00,140.9169,38.1397,73.40,68.00,83.21,130.00,4.00,0.00,29.91,M,6.21,M,FEW,SCT,BKN,M,1000.00,15000.00,M,M,M,M,M,M,M,M,M,M,RJSS 160900Z 13004KT 9999 FEW010 SCT150 BKN/// 23/20 Q1013
RJTT,2020-09-16 09:00,139.7811,35.5533,78.80,73.40,83.55,130.00,9.00,0.00,29.91,M,6.21,M,FEW,SCT,BKN,M,2500.00,3000.00,10000.00,M,-SHRA,M,M,M,M,M,M,M,RJTT 160900Z 13009KT 9999 -SHRA FEW025 SCT030 BKN100 26/23 Q1013 NOSIG
RORS,2020-09-16 09:00,125.1447,24.8267,84.20,80.60,88.98,160.00,7.00,0.00,29.83,M,6.21,M,FEW,FEW,BKN,M,1500.00,2500.00,M,M,-SHRA,M,M,M,M,M,M,98.50,RORS 160900Z 16007KT 9999 -SHRA FEW015 FEW025TCU BKN/// 29/27 Q1010
RJNS,2020-09-16 09:00,138.1894,34.7961,75.20,71.60,88.59,140.00,6.00,0.00,29.91,M,6.21,M,FEW,SCT,BKN,M,1500.00,2000.00,6000.00,M,M,M,M,M,M,M,M,M,RJNS 160900Z 14006KT 9999 FEW015 SCT020 BKN060 24/22 Q1013
RJBD,2020-09-16 09:00,135.3644,33.6622,75.20,71.60,88.59,140.00,4.00,0.00,29.85,M,6.21,M,FEW,SCT,BKN,M,600.00,1500.00,5000.00,M,VCSH,M,M,M,M,M,M,M,RJBD 160900Z 14004KT 9999 VCSH FEW006 SCT015 BKN050 24/22 Q1011
RJFG,2020-09-16 09:00,130.9917,30.6050,75.20,73.40,94.14,M,2.00,0.00,29.88,M,6.21,M,FEW,SCT,BKN,M,1000.00,2000.00,4000.00,M,M,M,M,M,M,M,M,M,RJFG 160900Z VRB02KT 9999 FEW010 SCT020 BKN040 24/23 Q1012
RJOS,2020-09-16 09:00,134.6092,34.1322,78.80,69.80,73.95,190.00,13.00,0.00,29.83,M,6.21,M,FEW,SCT,BKN,M,2500.00,4500.00,8000.00,M,M,M,M,M,M,M,M,M,RJOS 160900Z 19013KT 9999 FEW025 SCT045 BKN080 26/21 Q1010
RJSY,2020-09-16 09:00,139.7872,38.8122,73.40,68.00,83.21,80.00,7.00,0.00,29.85,M,6.21,M,FEW,SCT,BKN,M,2000.00,18000.00,M,M,M,M,M,M,M,M,M,M,RJSY 160900Z 08007KT 9999 FEW020 SCT180 BKN/// 23/20 Q1011
RORK,2020-09-16 09:00,131.3333,25.9167,84.20,77.00,79.04,140.00,3.00,0.00,29.88,M,6.21,M,NCD,M,M,M,M,M,M,M,M,M,M,M,M,M,M,94.16,RORK 160900Z AUTO 14003KT 9999 NCD 29/25 Q1012
ROYN,2020-09-16 09:00,122.9780,24.4670,86.00,80.60,83.99,170.00,7.00,0.00,29.80,M,6.21,M,FEW,M,M,M,1900.00,M,M,M,M,M,M,M,M,M,M,101.90,ROYN 160900Z AUTO 17007KT 140V220 9999 FEW019 30/27 Q1009
ROAH,2020-09-16 09:00,127.6458,26.1958,84.20,78.80,83.88,180.00,9.00,0.00,29.85,M,6.21,M,FEW,BKN,M,M,1400.00,M,M,M,M,M,M,M,M,M,M,96.10,ROAH 160900Z 18009KT 9999 FEW014 BKN/// 29/26 Q1011
RODN,2020-09-16 09:06,127.7676,26.3556,84.20,77.00,79.04,150.00,5.00,0.00,29.87,1012.00,10.00,M,BKN,M,M,M,1900.00,M,M,M,M,M,M,M,M,M,M,94.16,RODN 160906Z AUTO 15005KT 10SM BKN019 29/25 A2987 RMK AO2 SLP120 $
RJDT,2020-09-16 09:15,129.3306,34.2850,71.60,71.60,100.00,170.00,5.00,0.00,29.77,M,1.86,M,FEW,SCT,BKN,M,100.00,200.00,300.00,M,-RA BR,M,M,M,M,M,M,M,RJDT 160915Z 17005KT 130V200 3000 -RA BR FEW001 SCT002 BKN003 22/22 Q1008 RMK 1ST001 4ST002 6ST003 A2978
RJFY,2020-09-16 09:15,130.8381,31.3681,77.00,71.60,83.44,20.00,4.00,0.00,29.88,M,2.80,M,FEW,SCT,OVC,M,300.00,800.00,2000.00,M,SHRA BR,M,M,M,M,M,M,M,RJFY 160915Z 02004KT 350V050 4500 SHRA BR FEW003 SCT008 OVC020 25/22 Q1012 RMK 1ST003 4ST008 8CU020 A2989
RJCO,2020-09-16 09:16,141.3814,43.1175,69.80,66.20,88.34,140.00,10.00,0.00,29.97,M,6.21,M,FEW,SCT,BKN,M,600.00,4000.00,7000.00,M,-SHRA,M,M,M,M,M,M,M,RJCO 160916Z 14010KT 9999 -SHRA FEW006 SCT040 BKN070 21/19 Q1015 RMK 1ST006 3CU040 5AC070 A2997
RJCC,2020-09-16 09:20,141.6926,42.7742,68.00,68.00,100.00,140.00,11.00,0.00,29.94,M,3.04,M,FEW,BKN,BKN,M,500.00,800.00,1500.00,M,SHRA BR,M,M,M,M,M,M,M,RJCC 160920Z 14011KT 4900 R19R/P2000N R19L/P2000N SHRA BR FEW005 BKN008 BKN015 20/20 Q1014 RMK 1ST005 5ST008 7ST015 A2997
RJFK,2020-09-16 09:23,130.7194,31.8033,73.40,73.40,100.00,M,2.00,0.00,29.88,M,2.49,M,FEW,BKN,BKN,M,200.00,400.00,1500.00,M,-SHRA BCFG BR,M,M,M,M,M,M,M,RJFK 160923Z VRB02KT 4000 -SHRA BCFG BR FEW002 BKN004 BKN015 23/23 Q1012 RMK 2ST002 5ST004 6CU015 A2990 2000E-SE FG N-S
RJDT,2020-09-16 09:24,129.3306,34.2850,71.60,71.60,100.00,170.00,6.00,0.00,29.77,M,1.24,M,FEW,SCT,BKN,M,100.00,200.00,300.00,M,-RA BR,M,M,M,M,M,M,M,RJDT 160924Z 17006KT 120V210 2000 -RA BR FEW001 SCT002 BKN003 22/22 Q1008 RMK 1ST001 4ST002 6ST003 A2978
ROMY,2020-09-16 09:25,125.2767,24.7933,82.40,78.80,88.90,140.00,7.00,0.00,29.83,M,1.86,M,FEW,SCT,FEW,BKN,800.00,1200.00,2500.00,3000.00,+SHRA,M,M,M,M,M,M,92.76,ROMY 160925Z 14007KT 120V210 3000 +SHRA FEW008 SCT012 FEW025TCU BKN030 28/26 Q1010 RMK 1ST008 4CU012 2TCU025 5CU030 A2985 TCU 5KM W MOV NW RI++
RODN,2020-09-16 09:26,127.7676,26.3556,84.20,77.00,79.04,140.00,8.00,0.00,29.87,1012.00,10.00,M,SCT,M,M,M,2000.00,M,M,M,M,M,M,M,M,M,M,94.16,RODN 160926Z AUTO 14008KT 10SM SCT020 29/25 A2987 RMK AO2 SLP120 $
RJAA,2020-09-16 09:30,140.3856,35.7653,75.20,71.60,88.59,60.00,5.00,0.00,29.91,M,6.21,M,FEW,BKN,M,M,1100.00,8000.00,M,M,M,M,M,M,M,M,M,M,RJAA 160930Z 06005KT 010V090 9999 FEW011 BKN080 24/22 Q1013 BECMG 03005KT TEMPO BKN012
RJCC,2020-09-16 09:30,141.6926,42.7742,68.00,68.00,100.00,140.00,9.00,0.00,29.94,M,2.80,M,FEW,BKN,BKN,M,500.00,800.00,1500.00,M,SHRA BR,M,M,M,M,M,M,M,RJCC 160930Z 14009KT 4500 R19R/2000N R19L/P2000N SHRA BR FEW005 BKN008 BKN015 20/20 Q1014
RJFF,2020-09-16 09:30,130.4517,33.5844,75.20,71.60,88.59,140.00,12.00,0.00,29.80,M,6.21,M,FEW,SCT,BKN,M,500.00,6000.00,10000.00,M,M,M,M,M,M,M,M,M,RJFF 160930Z 14012KT 9999 FEW005 SCT060 BKN100 24/22 Q1009 NOSIG
RJBB,2020-09-16 09:30,135.2328,34.4342,78.80,71.60,78.62,220.00,10.00,0.00,29.85,M,6.21,M,FEW,SCT,BKN,M,2500.00,7000.00,M,M,M,M,M,M,M,M,M,M,RJBB 160930Z 22010KT 9999 FEW025 SCT070 BKN/// 26/22 Q1011 NOSIG
RJGG,2020-09-16 09:30,136.8054,34.8584,77.00,71.60,83.44,150.00,12.00,0.00,29.85,M,6.21,M,FEW,BKN,M,M,700.00,6000.00,M,M,M,M,M,M,M,M,M,M,RJGG 160930Z 15012KT 9999 FEW007 BKN060 25/22 Q1011 NOSIG
RJTT,2020-09-16 09:30,139.7811,35.5533,78.80,71.60,78.62,130.00,9.00,0.00,29.91,M,6.21,M,FEW,BKN,BKN,M,2000.00,3000.00,7000.00,M,-SHRA,M,M,M,M,M,M,M,RJTT 160930Z 13009KT 9999 -SHRA FEW020 BKN030 BKN070 26/22 Q1013 NOSIG
ROAH,2020-09-16 09:30,127.6458,26.1958,84.20,77.00,79.04,190.00,8.00,0.00,29.85,M,6.21,M,FEW,BKN,M,M,1400.00,M,M,M,M,M,M,M,M,M,M,94.16,ROAH 160930Z 19008KT 9999 FEW014 BKN/// 29/25 Q1011
ROMY,2020-09-16 09:34,125.2767,24.7933,80.60,78.80,94.27,210.00,10.00,0.00,29.83,M,3.73,M,FEW,SCT,FEW,BKN,700.00,1200.00,2000.00,3000.00,-SHRA,M,M,M,M,M,M,89.33,ROMY 160934Z 21010KT 6000 R22/1800N -SHRA FEW007 SCT012 FEW020TCU BKN030 27/26 Q1010 RMK 1ST007 4CU012 2TCU020 5CU030 A2985 TCU 5KM NW MOV NW
RJDT,2020-09-16 09:43,129.3306,34.2850,71.60,71.60,100.00,170.00,7.00,0.00,29.77,M,1.06,M,FEW,SCT,BKN,M,0.00,100.00,200.00,M,-RA BR,M,M,M,M,M,M,M,RJDT 160943Z 17007KT 130V240 1700 -RA BR FEW000 SCT001 BKN002 22/22 Q1008 RMK 2ST000 4ST001 6ST002 A2978
RJFE,2020-09-16 09:44,128.8328,32.6664,77.00,75.20,94.19,180.00,10.00,0.00,29.80,M,2.49,M,FEW,SCT,BKN,M,300.00,400.00,500.00,M,-SHRA BR,M,M,M,M,M,M,M,RJFE 160944Z 18010KT 4000 -SHRA BR FEW003 SCT004 BKN005 25/24 Q1009 RMK 1ST003 3ST004 5ST005 A2980
RJCO,2020-09-16 09:45,141.3814,43.1175,69.80,68.00,94.01,130.00,9.00,0.00,29.97,M,6.21,M,FEW,BKN,M,M,600.00,8000.00,M,M,M,M,M,M,M,M,M,M,RJCO 160945Z 13009KT 9999 FEW006 BKN080 21/20 Q1015 RMK 1ST006 5AC080 A2997
RJCC,2020-09-16 09:46,141.6926,42.7742,68.00,68.00,100.00,110.00,7.00,0.00,29.94,M,3.11,M,FEW,BKN,BKN,M,500.00,800.00,1500.00,M,-SHRA BR,M,M,M,M,M,M,M,RJCC 160946Z 11007KT 5000 -SHRA BR FEW005 BKN008 BKN015 20/20 Q1014 RMK 1ST005 5ST008 7ST015 A2996
RJOI,2020-09-16 09:55,132.2357,34.1439,75.90,69.10,79.47,220.00,5.00,0.00,29.84,1010.60,6.21,M,FEW,BKN,OVC,M,1000.00,2500.00,4500.00,M,M,M,M,M,M,M,M,M,RJOI 160955Z 22005KT 9999 FEW010 BKN025 OVC045 24/21 A2984 RMK SLP106 T02440206
RJTY,2020-09-16 09:56,139.3485,35.7485,76.50,71.20,83.69,0.00,0.00,0.00,29.98,1015.00,10.00,M,FEW,SCT,SCT,M,3700.00,4600.00,6000.00,M,M,M,M,M,M,M,M,M,RJTY 160956Z AUTO 00000KT 10SM FEW037 SCT046 SCT060 25/22 A2998 RMK AO2 SLP150 T02470218 FZRANO $
RODN,2020-09-16 09:56,127.7676,26.3556,82.60,76.50,81.86,150.00,5.00,0.00,29.88,1012.30,10.00,M,CLR,M,M,M,M,M,M,M,M,M,M,M,M,M,M,90.83,RODN 160956Z AUTO 15005KT 10SM CLR 28/25 A2988 RMK AO2 SLP123 T02810247 $
ROTM,2020-09-16 09:56,127.7565,26.2743,82.90,78.10,85.48,180.00,6.00,0.00,29.91,1011.10,6.21,M,SCT,BKN,BKN,M,3000.00,6500.00,12000.00,M,M,M,M,M,M,M,M,92.84,ROTM 160956Z 18006KT 9999 SCT030 BKN065 BKN120 28/26 A2991 RMK SLP111 T02830256
RJSA,2020-09-16 10:00,140.6886,40.7333,66.20,64.40,93.92,M,2.00,0.00,29.91,M,6.21,M,FEW,SCT,M,M,1500.00,6000.00,M,M,M,M,M,M,M,M,M,M,RJSA 161000Z VRB02KT 9999 FEW015 SCT060 19/18 Q1013
RJSC,2020-09-16 10:00,140.3711,38.4119,73.40,66.20,78.19,70.00,7.00,0.00,29.91,M,6.21,M,FEW,BKN,M,M,3000.00,16000.00,M,M,M,M,M,M,M,M,M,M,RJSC 161000Z 07007KT 9999 FEW030 BKN160 23/19 Q1013
RJSD,2020-09-16 10:00,138.4139,38.0602,73.40,68.00,83.21,M,2.00,0.00,29.88,M,6.21,M,NCD,M,M,M,M,M,M,M,M,M,M,M,M,M,M,M,RJSD 161000Z AUTO VRB02KT 9999 NCD 23/20 Q1012
RJSF,2020-09-16 10:00,140.4281,37.2275,69.80,64.40,82.98,120.00,4.00,0.00,29.97,M,6.21,M,FEW,BKN,BKN,M,1500.00,7000.00,9000.00,M,M,M,M,M,M,M,M,M,RJSF 161000Z 12004KT 9999 FEW015 BKN070 BKN090 21/18 Q1015
RJFR,2020-09-16 10:00,131.0350,33.8456,77.00,71.60,83.44,140.00,7.00,0.00,29.80,M,6.21,M,FEW,SCT,BKN,M,1000.00,3000.00,13000.00,M,M,M,M,M,M,M,M,M,RJFR 161000Z 14007KT 9999 FEW010 SCT030 BKN130 25/22 Q1009
RJSR,2020-09-16 10:00,140.3714,40.1919,69.80,69.80,100.00,150.00,3.00,0.00,29.88,M,6.21,M,FEW,BKN,M,M,3000.00,M,M,M,M,M,M,M,M,M,M,M,RJSR 161000Z 15003KT 100V180 9999 FEW030 BKN/// 21/21 Q1012
RJSI,2020-09-16 10:00,141.1353,39.4286,73.40,66.20,78.19,180.00,7.00,0.00,29.91,M,6.21,M,FEW,SCT,BKN,M,2000.00,3000.00,M,M,M,M,M,M,M,M,M,M,RJSI 161000Z 18007KT 9999 FEW020 SCT030 BKN/// 23/19 Q1013
RJAA,2020-09-16 10:00,140.3856,35.7653,75.20,71.60,88.59,20.00,4.00,0.00,29.91,M,6.21,M,FEW,BKN,M,M,1500.00,19000.00,M,M,M,M,M,M,M,M,M,M,RJAA 161000Z 02004KT 350V060 9999 FEW015 BKN190 24/22 Q1013 NOSIG
RJAH,2020-09-16 10:00,140.4147,36.1817,71.60,68.00,88.43,50.00,5.00,0.00,29.91,M,6.21,M,FEW,BKN,BKN,M,2500.00,6000.00,10000.00,M,M,M,M,M,M,M,M,M,RJAH 161000Z 05005KT 9999 FEW025 BKN060 BKN100 22/20 Q1013
RJCB,2020-09-16 10:00,143.2172,42.7333,64.40,62.60,93.88,140.00,5.00,0.00,30.03,M,6.21,M,FEW,BKN,M,M,900.00,1200.00,M,M,M,M,M,M,M,M,M,M,RJCB 161000Z 14005KT 9999 FEW009 BKN012 18/17 Q1017
RJCC,2020-09-16 10:00,141.6926,42.7742,68.00,68.00,100.00,120.00,10.00,0.00,29.94,M,4.97,M,FEW,BKN,BKN,M,500.00,800.00,1500.00,M,-SHRA,M,M,M,M,M,M,M,RJCC 161000Z 12010KT 8000 -SHRA FEW005 BKN008 BKN015 20/20 Q1014
RJCH,2020-09-16 10:00,140.8219,41.7700,69.80,66.20,88.34,80.00,8.00,0.00,29.91,M,6.21,M,FEW,SCT,BKN,M,400.00,1200.00,2500.00,M,M,M,M,M,M,M,M,M,RJCH 161000Z 08008KT 9999 FEW004 SCT012 BKN025 21/19 Q1013
RJCK,2020-09-16 10:00,144.1931,43.0408,64.40,64.40,100.00,130.00,4.00,0.00,30.03,M,4.97,M,FEW,SCT,BKN,M,200.00,400.00,500.00,M,M,M,M,M,M,M,M,M,RJCK 161000Z 13004KT 8000 FEW002 SCT004 BKN005 18/18 Q1017
RJCM,2020-09-16 10:00,144.1642,43.8806,68.00,59.00,72.92,180.00,9.00,0.00,29.97,M,6.21,M,FEW,M,M,M,2000.00,M,M,M,M,M,M,M,M,M,M,M,RJCM 161000Z 18009KT 9999 FEW020 20/15 Q1015
RJCO,2020-09-16 10:00,141.3814,43.1175,69.80,66.20,88.34,130.00,10.00,0.00,29.97,M,6.21,M,FEW,BKN,M,M,600.00,7000.00,M,M,M,M,M,M,M,M,M,M,RJCO 161000Z 13010KT 9999 FEW006 BKN070 21/19 Q1015
RJDT,2020-09-16 10:00,129.3306,34.2850,73.40,73.40,100.00,M,6.00,0.00,29.77,M,2.49,M,FEW,SCT,BKN,M,0.00,300.00,400.00,M,-RA BR,M,M,M,M,M,M,M,RJDT 161000Z VRB06KT 4000 -RA BR FEW000 SCT003 BKN004 23/23 Q1008
RJEC,2020-09-16 10:00,142.4475,43.6708,68.00,53.60,59.97,180.00,7.00,0.00,29.97,M,6.21,M,FEW,SCT,BKN,M,1500.00,3000.00,5000.00,M,M,M,M,M,M,M,M,M,RJEC 161000Z 18007KT 9999 FEW015 SCT030 BKN050 20/12 Q1015
RJFE,2020-09-16 10:00,128.8328,32.6664,77.00,75.20,94.19,180.00,8.00,0.00,29.80,M,4.35,M,FEW,SCT,BKN,M,300.00,400.00,500.00,M,-SHRA,M,M,M,M,M,M,M,RJFE 161000Z 18008KT 7000 -SHRA FEW003 SCT004 BKN005 25/24 Q1009
RJFF,2020-09-16 10:00,130.4517,33.5844,75.20,71.60,88.59,140.00,14.00,0.00,29.77,M,6.21,M,FEW,BKN,M,M,1000.00,5000.00,M,M,M,M,M,M,M,M,M,M,RJFF 161000Z 14014KT 9999 FEW010 BKN050 24/22 Q1008 NOSIG
RJFK,2020-09-16 10:00,130.7194,31.8033,71.60,71.60,100.00,M,2.00,0.00,29.88,M,3.11,M,FEW,BKN,BKN,M,200.00,800.00,1500.00,M,-SHRA BCFG BR,M,M,M,M,M,M,M,RJFK 161000Z VRB02KT 5000 -SHRA BCFG BR FEW002 BKN008 BKN015 22/22 Q1012
RJFM,2020-09-16 10:00,131.4486,31.8772,75.20,73.40,94.14,140.00,4.00,0.00,29.85,M,3.73,M,FEW,SCT,BKN,M,300.00,1500.00,13000.00,M,-SHRA,M,M,M,M,M,M,M,RJFM 161000Z 14004KT 6000 -SHRA FEW003 SCT015 BKN130 24/23 Q1011
RJFO,2020-09-16 10:00,131.7372,33.4794,75.20,71.60,88.59,150.00,10.00,0.00,29.83,M,6.21,M,FEW,SCT,BKN,M,600.00,4500.00,14000.00,M,M,M,M,M,M,M,M,M,RJFO 161000Z 15010KT 9999 FEW006 SCT045 BKN140 24/22 Q1010
RJBB,2020-09-16 10:00,135.2328,34.4342,77.00,71.60,83.44,210.00,7.00,0.00,29.85,M,6.21,M,FEW,SCT,BKN,M,2500.00,9000.00,M,M,M,M,M,M,M,M,M,M,RJBB 161000Z 21007KT 9999 FEW025 SCT090 BKN/// 25/22 Q1011 NOSIG
RJBE,2020-09-16 10:00,135.2239,34.6328,78.80,73.40,83.55,220.00,10.00,0.00,29.85,M,6.21,M,FEW,SCT,BKN,M,4000.00,9000.00,M,M,M,M,M,M,M,M,M,M,RJBE 161000Z 22010KT 9999 FEW040 SCT090 BKN/// 26/23 Q1011
RJNK,2020-09-16 10:00,136.4075,36.3939,78.80,68.00,69.52,360.00,3.00,0.00,29.83,M,6.21,M,FEW,BKN,BKN,M,5000.00,12000.00,M,M,M,M,M,M,M,M,M,M,RJNK 161000Z 36003KT 9999 FEW050 BKN120 BKN/// 26/20 Q1010
RJNT,2020-09-16 10:00,137.1875,36.6483,75.20,68.00,78.34,240.00,4.00,0.00,29.85,M,6.21,M,FEW,BKN,M,M,5000.00,9000.00,M,M,M,M,M,M,M,M,M,M,RJNT 161000Z 24004KT 9999 FEW050 BKN090 24/20 Q1011
RJNW,2020-09-16 10:00,136.9618,37.2931,71.60,66.20,83.09,50.00,3.00,0.00,29.88,M,6.21,M,M,M,M,M,M,M,M,M,M,M,M,M,M,M,M,M,RJNW 161000Z 05003KT CAVOK 22/19 Q1012
RJOA,2020-09-16 10:00,132.9194,34.4361,71.60,68.00,88.43,130.00,2.00,0.00,29.88,M,6.21,M,FEW,BKN,M,M,1500.00,2000.00,M,M,M,M,M,M,M,M,M,M,RJOA 161000Z 13002KT 9999 FEW015 BKN020 22/20 Q1012
RJOB,2020-09-16 10:00,133.8553,34.7569,73.40,69.80,88.51,80.00,3.00,0.00,29.85,M,6.21,M,FEW,SCT,BKN,M,1500.00,2500.00,5000.00,M,M,M,M,M,M,M,M,M,RJOB 161000Z 08003KT 9999 FEW015 SCT025 BKN050 23/21 Q1011
RJOC,2020-09-16 10:00,132.8900,35.4136,77.00,71.60,83.44,60.00,2.00,0.00,29.80,M,6.21,M,FEW,BKN,BKN,M,3500.00,4000.00,6000.00,M,M,M,M,M,M,M,M,M,RJOC 161000Z 06002KT 9999 FEW035 BKN040 BKN060 25/22 Q1009
RJOH,2020-09-16 10:00,133.2392,35.4933,77.00,69.80,78.48,60.00,4.00,0.00,29.80,M,6.21,M,FEW,SCT,BKN,M,3000.00,5000.00,8000.00,M,M,M,M,M,M,M,M,M,RJOH 161000Z 06004KT 9999 FEW030 SCT050 BKN080 25/21 Q1009
RJKA,2020-09-16 10:00,129.7125,28.4308,82.40,78.80,88.90,220.00,9.00,0.00,29.85,M,6.21,M,FEW,BKN,M,M,1500.00,M,M,M,M,M,M,M,M,M,M,92.76,RJKA 161000Z 22009KT 9999 FEW015 BKN/// 28/26 Q1011
RJOK,2020-09-16 10:00,133.6694,33.5461,73.40,71.60,94.10,M,2.00,0.00,29.88,M,6.21,M,FEW,BKN,M,M,300.00,3000.00,M,M,-SHRA,M,M,M,M,M,M,M,RJOK 161000Z VRB02KT 9999 -SHRA FEW003 BKN030 23/22 Q1012
RJSM,2020-09-16 10:00,141.3684,40.7032,69.80,68.00,94.01,120.00,12.00,0.00,29.91,M,6.21,M,SCT,BKN,BKN,M,500.00,700.00,M,M,M,M,M,M,M,M,M,M,RJSM 161000Z 12012KT 9999 SCT005 BKN007 BKN/// 21/20 Q1013
RJFU,2020-09-16 10:00,129.9136,32.9169,77.00,73.40,88.67,130.00,8.00,0.00,29.80,M,6.21,M,FEW,SCT,BKN,M,500.00,1000.00,3000.00,M,M,M,M,M,M,M,M,M,RJFU 161000Z 13008KT 9999 FEW005 SCT010 BKN030 25/23 Q1009
RJGG,2020-09-16 10:00,136.8054,34.8584,77.00,71.60,83.44,160.00,10.00,0.00,29.88,M,6.21,M,FEW,BKN,M,M,700.00,6000.00,M,M,M,M,M,M,M,M,M,M,RJGG 161000Z 16010KT 9999 FEW007 BKN060 25/22 Q1012 NOSIG
RJKI,2020-09-16 10:00,129.9281,28.3213,82.40,78.80,88.90,210.00,6.00,0.00,29.88,M,6.21,M,NCD,M,M,M,M,M,M,M,M,M,M,M,M,M,M,92.76,RJKI 161000Z AUTO 21006KT 170V230 9999 NCD 28/26 Q1012
ROIG,2020-09-16 10:00,124.1633,24.3367,84.20,80.60,88.98,140.00,7.00,0.00,29.83,M,6.21,M,FEW,BKN,M,M,1500.00,M,M,M,M,M,M,M,M,M,M,98.50,ROIG 161000Z 14007KT 9999 FEW015 BKN/// 29/27 Q1010
ROMD,2020-09-16 10:00,131.2286,25.8289,82.40,78.80,88.90,M,1.00,0.00,29.91,M,6.21,M,NCD,M,M,M,M,M,M,M,M,M,M,M,M,M,M,92.76,ROMD 161000Z AUTO VRB01KT 9999 NCD 28/26 Q1013
ROMY,2020-09-16 10:00,125.2767,24.7933,80.60,78.80,94.27,180.00,4.00,0.00,29.85,M,6.21,M,FEW,SCT,FEW,BKN,500.00,1200.00,2000.00,5000.00,-SHRA,M,M,M,M,M,M,89.33,ROMY 161000Z 18004KT 130V240 9999 -SHRA FEW005 SCT012 FEW020TCU BKN050 27/26 Q1011
RORY,2020-09-16 10:00,128.4020,27.0440,82.40,78.80,88.90,160.00,8.00,0.00,29.85,M,6.21,M,BKN,BKN,///,M,2500.00,4100.00,M,M,M,M,M,M,M,M,M,92.76,RORY 161000Z AUTO 16008KT 9999 BKN025 BKN041 //////CB 28/26 Q1011
RJDC,2020-09-16 10:00,131.2786,33.9300,77.00,73.40,88.67,130.00,7.00,0.00,29.80,M,6.21,M,FEW,SCT,BKN,M,600.00,1000.00,3500.00,M,M,M,M,M,M,M,M,M,RJDC 161000Z 13007KT 9999 FEW006 SCT010 BKN035 25/23 Q1009
RJOM,2020-09-16 10:00,132.6997,33.8272,75.20,73.40,94.14,320.00,3.00,0.00,29.83,M,6.21,M,FEW,SCT,BKN,M,2000.00,3500.00,4500.00,M,-SHRA,M,M,M,M,M,M,M,RJOM 161000Z 32003KT 9999 -SHRA FEW020 SCT035 BKN045 24/23 Q1010
RJFS,2020-09-16 10:00,130.3000,33.1500,77.00,73.40,88.67,170.00,9.00,0.00,29.80,M,6.21,M,FEW,SCT,BKN,M,500.00,1500.00,4000.00,M,M,M,M,M,M,M,M,M,RJFS 161000Z 17009KT 9999 FEW005 SCT015 BKN040 25/23 Q1009
RJFT,2020-09-16 10:00,130.8553,32.8372,73.40,73.40,100.00,50.00,3.00,0.00,29.85,M,6.21,M,FEW,SCT,BKN,M,100.00,5000.00,M,M,M,M,M,M,M,M,M,M,RJFT 161000Z 05003KT 9999 FEW001 SCT050 BKN/// 23/23 Q1011
RJOT,2020-09-16 10:00,134.0167,34.2167,75.20,71.60,88.59,120.00,3.00,0.00,29.85,M,6.21,M,FEW,SCT,BKN,M,3000.00,6000.00,10000.00,M,M,M,M,M,M,M,M,M,RJOT 161000Z 12003KT 060V160 9999 FEW030 SCT060 BKN100 24/22 Q1011
RJSK,2020-09-16 10:00,140.2167,39.6167,73.40,66.20,78.19,100.00,2.00,0.00,29.88,M,6.21,M,FEW,BKN,M,M,4000.00,M,M,M,M,M,M,M,M,M,M,M,RJSK 161000Z 10002KT 9999 FEW040 BKN/// 23/19 Q1012
RJOO,2020-09-16 10:00,135.4392,34.7844,78.80,73.40,83.55,220.00,6.00,0.00,29.85,M,6.21,M,FEW,BKN,BKN,M,1500.00,5000.00,8000.00,M,M,M,M,M,M,M,M,M,RJOO 161000Z 22006KT 200V260 9999 FEW015 BKN050 BKN080 26/23 Q1011
RJOR,2020-09-16 10:00,134.1650,35.5300,80.60,68.00,65.54,160.00,8.00,0.00,29.83,M,6.21,M,FEW,SCT,BKN,M,2500.00,5000.00,7000.00,M,M,M,M,M,M,M,M,83.29,RJOR 161000Z 16008KT 130V190 9999 FEW025 SCT050 BKN070 27/20 Q1010
RJOW,2020-09-16 10:00,131.7903,34.6764,73.40,71.60,94.10,160.00,7.00,0.00,29.80,M,6.21,M,FEW,SCT,BKN,M,800.00,3000.00,4000.00,M,M,M,M,M,M,M,M,M,RJOW 161000Z 16007KT 9999 FEW008 SCT030 BKN040 23/22 Q1009
RJOY,2020-09-16 10:00,135.6006,34.5967,78.80,73.40,83.55,290.00,4.00,0.00,29.85,M,6.21,M,FEW,BKN,BKN,M,5000.00,7000.00,M,M,M,M,M,M,M,M,M,M,RJOY 161000Z 29004KT 9999 FEW050 BKN070 BKN/// 26/23 Q1011
RJSN,2020-09-16 10:00,139.1117,37.9558,75.20,71.60,88.59,70.00,3.00,0.00,29.85,M,6.21,M,FEW,SCT,M,M,5000.00,15000.00,M,M,M,M,M,M,M,M,M,M,RJSN 161000Z 07003KT 9999 FEW050 SCT150 24/22 Q1011
RJSS,2020-09-16 10:00,140.9169,38.1397,73.40,68.00,83.21,190.00,4.00,0.00,29.94,M,6.21,M,FEW,BKN,BKN,M,800.00,1200.00,M,M,M,M,M,M,M,M,M,M,RJSS 161000Z 19004KT 9999 FEW008 BKN012 BKN/// 23/20 Q1014
RJTT,2020-09-16 10:00,139.7811,35.5533,77.00,73.40,88.67,120.00,10.00,0.00,29.91,M,6.21,M,FEW,SCT,BKN,M,1000.00,1500.00,3500.00,M,-SHRA,M,M,M,M,M,M,M,RJTT 161000Z 12010KT 9999 -SHRA FEW010 SCT015 BKN035 25/23 Q1013 NOSIG
RORS,2020-09-16 10:00,125.1447,24.8267,82.40,80.60,94.31,140.00,8.00,0.00,29.85,M,6.21,M,FEW,SCT,BKN,M,1500.00,5000.00,M,M,-SHRA,M,M,M,M,M,M,95.00,RORS 161000Z 14008KT 9999 -SHRA FEW015 SCT050 BKN/// 28/27 Q1011
RJNS,2020-09-16 10:00,138.1894,34.7961,75.20,73.40,94.14,150.00,4.00,0.00,29.91,M,6.21,M,FEW,SCT,BKN,M,1500.00,2000.00,6000.00,M,VCSH,M,M,M,M,M,M,M,RJNS 161000Z 15004KT 9999 VCSH FEW015 SCT020 BKN060 24/23 Q1013
RJBD,2020-09-16 10:00,135.3644,33.6622,75.20,73.40,94.14,M,2.00,0.00,29.88,M,6.21,M,FEW,BKN,BKN,M,600.00,2500.00,5000.00,M,VCSH,M,M,M,M,M,M,M,RJBD 161000Z VRB02KT 9999 VCSH FEW006 BKN025 BKN050 24/23 Q1012
RJOS,2020-09-16 10:00,134.6092,34.1322,78.80,69.80,73.95,190.00,13.00,0.00,29.85,M,6.21,M,FEW,SCT,BKN,M,2500.00,4500.00,8000.00,M,M,M,M,M,M,M,M,M,RJOS 161000Z 19013KT 9999 FEW025 SCT045 BKN080 26/21 Q1011
RJSY,2020-09-16 10:00,139.7872,38.8122,73.40,66.20,78.19,110.00,9.00,0.00,29.88,M,6.21,M,FEW,BKN,M,M,2000.00,18000.00,M,M,M,M,M,M,M,M,M,M,RJSY 161000Z 11009KT 9999 FEW020 BKN180 23/19 Q1012
RORK,2020-09-16 10:00,131.3333,25.9167,84.20,77.00,79.04,100.00,2.00,0.00,29.91,M,6.21,M,NCD,M,M,M,M,M,M,M,M,M,M,M,M,M,M,94.16,RORK 161000Z AUTO 10002KT 9999 NCD 29/25 Q1013
ROYN,2020-09-16 10:00,122.9780,24.4670,84.20,78.80,83.88,160.00,7.00,0.00,29.80,M,6.21,M,FEW,M,M,M,2000.00,M,M,M,M,M,M,M,M,M,M,96.10,ROYN 161000Z AUTO 16007KT 9999 FEW020 29/26 Q1009
ROAH,2020-09-16 10:00,127.6458,26.1958,84.20,78.80,83.88,190.00,8.00,0.00,29.88,M,6.21,M,FEW,BKN,M,M,1400.00,M,M,M,M,M,M,M,M,M,M,96.10,ROAH 161000Z 19008KT 9999 FEW014 BKN/// 29/26 Q1012
RJCC,2020-09-16 10:04,141.6926,42.7742,68.00,68.00,100.00,130.00,10.00,0.00,29.94,M,4.97,M,FEW,SCT,BKN,M,500.00,800.00,1500.00,M,-SHRA,M,M,M,M,M,M,M,RJCC 161004Z 13010KT 8000 -SHRA FEW005 SCT008 BKN015 20/20 Q1014 RMK 1ST005 4ST008 6ST015 A2997
RJTR,2020-09-16 10:04,139.3937,35.5138,75.20,66.20,73.61,180.00,4.00,0.00,29.92,1013.20,9.00,M,FEW,OVC,M,M,7500.00,10000.00,M,M,-RA,M,M,M,M,M,M,M,RJTR 161004Z AUTO 18004KT 9SM -RA FEW075 OVC100 24/19 A2992 RMK AO2 RAB04 SLP132 $
RJFK,2020-09-16 10:05,130.7194,31.8033,71.60,71.60,100.00,M,2.00,0.00,29.88,M,3.11,M,FEW,SCT,BKN,M,200.00,800.00,1500.00,M,-SHRA BCFG BR,M,M,M,M,M,M,M,RJFK 161005Z VRB02KT 5000 -SHRA BCFG BR FEW002 SCT008 BKN015 22/22 Q1012 RMK 1ST002 4ST008 5CU015 A2990 FG SE-NW
RJFY,2020-09-16 10:06,130.8381,31.3681,75.20,71.60,88.59,100.00,1.00,0.00,29.88,M,1.93,M,FEW,SCT,OVC,M,300.00,800.00,2000.00,M,+SHRA BR,M,M,M,M,M,M,M,RJFY 161006Z 10001KT 3100 +SHRA BR FEW003 SCT008 OVC020 24/22 Q1012 RMK 2ST003 4ST008 8CU020 A2989 VIS VRB
RJDT,2020-09-16 10:07,129.3306,34.2850,73.40,71.60,94.10,M,5.00,0.00,29.77,M,5.59,M,FEW,SCT,BKN,M,300.00,400.00,700.00,M,-RA,M,M,M,M,M,M,M,RJDT 161007Z VRB05KT 9000 -RA FEW003 SCT004 BKN007 23/22 Q1008 RMK 1ST003 4ST004 7ST007 A2979
RJDT,2020-09-16 10:17,129.3306,34.2850,73.40,73.40,100.00,M,4.00,0.00,29.77,M,6.21,M,FEW,SCT,BKN,M,400.00,700.00,900.00,M,M,M,M,M,M,M,M,M,RJDT 161017Z VRB04KT 9999 FEW004 SCT007 BKN009 23/23 Q1008 RMK 1ST004 4ST007 6ST009 A2978
RJTR,2020-09-16 10:17,139.3937,35.5138,75.20,66.20,73.61,180.00,4.00,0.00,29.92,1013.20,10.00,M,OVC,M,M,M,9500.00,M,M,M,M,M,M,M,M,M,M,M,RJTR 161017Z AUTO 18004KT 10SM OVC095 24/19 A2992 RMK AO2 RAB04E17 SLP132 $
RJDT,2020-09-16 10:24,129.3306,34.2850,73.40,73.40,100.00,M,4.00,0.00,29.77,M,2.80,M,FEW,SCT,BKN,M,400.00,700.00,900.00,M,-RA BR,M,M,M,M,M,M,M,RJDT 161024Z VRB04KT 4500 -RA BR FEW004 SCT007 BKN009 23/23 Q1008 RMK 2ST004 4ST007 7ST009 A2978
RJFY,2020-09-16 10:24,130.8381,31.3681,75.20,71.60,88.59,110.00,1.00,0.00,29.88,M,1.99,M,FEW,SCT,OVC,M,300.00,800.00,2000.00,M,SHRA BR,M,M,M,M,M,M,M,RJFY 161024Z 11001KT 3200 SHRA BR FEW003 SCT008 OVC020 24/22 Q1012 RMK 2ST003 4ST008 8CU020 A2990
RJTU,2020-09-16 10:26,139.8708,36.5144,73.40,64.40,73.44,100.00,3.00,0.00,29.94,M,6.21,M,FEW,SCT,M,M,2000.00,5000.00,M,M,M,M,M,M,M,M,M,M,RJTU 161026Z 10003KT 9999 FEW020 SCT050 23/18 Q1014 RMK 1CU020 3SC050 A2997
RJAA,2020-09-16 10:30,140.3856,35.7653,73.40,71.60,94.10,30.00,6.00,0.00,29.91,M,6.21,M,FEW,BKN,M,M,1500.00,18000.00,M,M,M,M,M,M,M,M,M,M,RJAA 161030Z 03006KT 9999 FEW015 BKN180 23/22 Q1013 NOSIG
RJCC,2020-09-16 10:30,141.6926,42.7742,68.00,66.20,93.97,140.00,11.00,0.00,29.97,M,6.21,M,FEW,SCT,BKN,M,800.00,1000.00,3000.00,M,-SHRA,M,M,M,M,M,M,M,RJCC 161030Z 14011KT 9999 -SHRA FEW008 SCT010 BKN030 20/19 Q1015
RJFF,2020-09-16 10:30,130.4517,33.5844,75.20,71.60,88.59,140.00,13.00,0.00,29.80,M,6.21,M,FEW,BKN,BKN,M,1000.00,5000.00,10000.00,M,M,M,M,M,M,M,M,M,RJFF 161030Z 14013KT 9999 FEW010 BKN050 BKN100 24/22 Q1009 NOSIG
RJBB,2020-09-16 10:30,135.2328,34.4342,77.00,71.60,83.44,220.00,7.00,0.00,29.85,M,6.21,M,FEW,SCT,BKN,M,2500.00,9000.00,M,M,M,M,M,M,M,M,M,M,RJBB 161030Z 22007KT 9999 FEW025 SCT090 BKN/// 25/22 Q1011 NOSIG
RJGG,2020-09-16 10:30,136.8054,34.8584,78.80,71.60,78.62,140.00,9.00,0.00,29.88,M,6.21,M,FEW,BKN,M,M,1000.00,6000.00,M,M,M,M,M,M,M,M,M,M,RJGG 161030Z 14009KT 9999 FEW010 BKN060 26/22 Q1012 NOSIG
RJTT,2020-09-16 10:30,139.7811,35.5533,77.00,73.40,88.67,140.00,9.00,0.00,29.91,M,6.21,M,FEW,SCT,BKN,M,1000.00,1300.00,7000.00,M,-SHRA,M,M,M,M,M,M,M,RJTT 161030Z 14009KT 9999 -SHRA FEW010 SCT013 BKN070 25/23 Q1013 NOSIG
ROAH,2020-09-16 10:30,127.6458,26.1958,82.40,77.00,83.77,170.00,7.00,0.00,29.88,M,6.21,M,FEW,BKN,M,M,1400.00,M,M,M,M,M,M,M,M,M,M,90.85,ROAH 161030Z 17007KT 9999 FEW014 BKN/// 28/25 Q1012
RJFY,2020-09-16 10:34,130.8381,31.3681,75.20,71.60,88.59,130.00,2.00,0.00,29.88,M,2.80,M,FEW,SCT,BKN,M,300.00,800.00,2000.00,M,-SHRA BR,M,M,M,M,M,M,M,RJFY 161034Z 13002KT 4500 -SHRA BR FEW003 SCT008 BKN020 24/22 Q1012 RMK 2ST003 4ST008 6CU020 A2990 VIS VRB
RJNY,2020-09-16 10:40,138.2981,34.8128,78.80,71.60,78.62,130.00,6.00,0.00,29.91,M,6.21,M,FEW,BKN,BKN,M,1500.00,2000.00,7000.00,M,M,M,M,M,M,M,M,M,RJNY 161040Z 13006KT 100V170 9999 FEW015 BKN020 BKN070 26/22 Q1013 RMK 1CU015 5CU020 7AC070 A2991
RJFY,2020-09-16 10:54,130.8381,31.3681,75.20,71.60,88.59,60.00,3.00,0.00,29.88,M,3.11,M,FEW,SCT,BKN,M,100.00,500.00,2000.00,M,-SHRA BR,M,M,M,M,M,M,M,RJFY 161054Z 06003KT 030V090 5000 -SHRA BR FEW001 SCT005 BKN020 24/22 Q1012 RMK 2ST001 4ST005 5CU020 A2989
RJOI,2020-09-16 10:55,132.2357,34.1439,77.00,70.00,79.02,210.00,7.00,0.00,29.85,1010.70,6.21,M,FEW,BKN,OVC,M,1000.00,2500.00,5000.00,M,M,M,M,M,M,M,M,M,RJOI 161055Z 21007KT 9999 FEW010 BKN025 OVC050 25/21 A2985 RMK SLP107 T02500211
RJTY,2020-09-16 10:56,139.3485,35.7485,75.60,68.90,79.72,0.00,0.00,0.00,29.98,1015.10,10.00,M,FEW,FEW,M,M,3700.00,4800.00,M,M,M,M,M,M,M,M,M,M,RJTY 161056Z AUTO 00000KT 10SM FEW037 FEW048 24/21 A2998 RMK AO2 SLP151 T02420205 FZRANO $
RODN,2020-09-16 10:56,127.7676,26.3556,82.00,76.60,83.75,150.00,5.00,0.00,29.90,1013.00,10.00,M,CLR,M,M,M,M,M,M,M,M,M,M,M,M,M,M,89.76,RODN 161056Z AUTO 15005KT 10SM CLR 28/25 A2990 RMK AO2 SLP130 T02780248 $
ROTM,2020-09-16 10:56,127.7565,26.2743,82.90,78.10,85.48,180.00,6.00,0.00,29.92,1011.50,6.21,M,SCT,BKN,BKN,M,3000.00,6500.00,12000.00,M,M,M,M,M,M,M,M,92.84,ROTM 161056Z 18006KT 9999 SCT030 BKN065 BKN120 28/26 A2992 RMK SLP115 T02830256
RJSA,2020-09-16 11:00,140.6886,40.7333,62.60,60.80,93.83,M,2.00,0.00,29.94,M,6.21,M,FEW,M,M,M,1000.00,M,M,M,M,M,M,M,M,M,M,M,RJSA 161100Z VRB02KT 9999 FEW010 17/16 Q1014
RJSD,2020-09-16 11:00,138.4139,38.0602,71.60,68.00,88.43,M,2.00,0.00,29.88,M,6.21,M,NSC,M,M,M,M,M,M,M,M,M,M,M,M,M,M,M,RJSD 161100Z AUTO VRB02KT 9999 NSC 22/20 Q1012
RJSF,2020-09-16 11:00,140.4281,37.2275,69.80,64.40,82.98,120.00,4.00,0.00,29.97,M,6.21,M,FEW,BKN,M,M,1500.00,15000.00,M,M,M,M,M,M,M,M,M,M,RJSF 161100Z 12004KT 090V150 9999 FEW015 BKN150 21/18 Q1015
RJFR,2020-09-16 11:00,131.0350,33.8456,77.00,71.60,83.44,150.00,6.00,0.00,29.83,M,6.21,M,FEW,BKN,BKN,M,1000.00,3000.00,5000.00,M,M,M,M,M,M,M,M,M,RJFR 161100Z 15006KT 9999 FEW010 BKN030 BKN050 25/22 Q1010
RJAA,2020-09-16 11:00,140.3856,35.7653,73.40,71.60,94.10,50.00,5.00,0.00,29.94,M,6.21,M,FEW,SCT,BKN,M,1500.00,6000.00,12000.00,M,-SHRA,M,M,M,M,M,M,M,RJAA 161100Z 05005KT 020V090 9999 -SHRA FEW015 SCT060 BKN120 23/22 Q1014 NOSIG
RJAH,2020-09-16 11:00,140.4147,36.1817,71.60,68.00,88.43,30.00,4.00,0.00,29.94,M,6.21,M,FEW,SCT,BKN,M,6000.00,10000.00,15000.00,M,M,M,M,M,M,M,M,M,RJAH 161100Z 03004KT 9999 FEW060 SCT100 BKN150 22/20 Q1014
RJCB,2020-09-16 11:00,143.2172,42.7333,64.40,62.60,93.88,150.00,4.00,0.00,30.03,M,6.21,M,FEW,BKN,M,M,900.00,1500.00,M,M,M,M,M,M,M,M,M,M,RJCB 161100Z 15004KT 9999 FEW009 BKN015 18/17 Q1017
RJCC,2020-09-16 11:00,141.6926,42.7742,68.00,66.20,93.97,140.00,9.00,0.00,29.97,M,6.21,M,FEW,BKN,M,M,700.00,4500.00,M,M,M,M,M,M,M,M,M,M,RJCC 161100Z 14009KT 9999 FEW007 BKN045 20/19 Q1015
RJCH,2020-09-16 11:00,140.8219,41.7700,71.60,68.00,88.43,120.00,14.00,0.00,29.94,M,6.21,M,FEW,SCT,M,M,1500.00,3000.00,M,M,M,M,M,M,M,M,M,M,RJCH 161100Z 12014KT 9999 FEW015 SCT030 22/20 Q1014
RJCK,2020-09-16 11:00,144.1931,43.0408,64.40,64.40,100.00,80.00,2.00,0.00,30.06,M,4.35,M,FEW,BKN,BKN,M,200.00,400.00,500.00,M,M,M,M,M,M,M,M,M,RJCK 161100Z 08002KT 7000 FEW002 BKN004 BKN005 18/18 Q1018
RJCM,2020-09-16 11:00,144.1642,43.8806,66.20,57.20,72.74,190.00,9.00,0.00,30.00,M,6.21,M,FEW,M,M,M,2000.00,M,M,M,M,M,M,M,M,M,M,M,RJCM 161100Z 19009KT 9999 FEW020 19/14 Q1016
RJCO,2020-09-16 11:00,141.3814,43.1175,68.00,66.20,93.97,130.00,11.00,0.00,29.97,M,6.21,M,FEW,BKN,M,M,800.00,7000.00,M,M,M,M,M,M,M,M,M,M,RJCO 161100Z 13011KT 9999 FEW008 BKN070 20/19 Q1015
RJDT,2020-09-16 11:00,129.3306,34.2850,73.40,73.40,100.00,170.00,3.00,0.00,29.80,M,3.73,M,FEW,SCT,BKN,M,200.00,500.00,1500.00,M,M,M,M,M,M,M,M,M,RJDT 161100Z 17003KT 130V270 6000 FEW002 SCT005 BKN015 23/23 Q1009
RJEC,2020-09-16 11:00,142.4475,43.6708,66.20,53.60,63.82,150.00,8.00,0.00,29.97,M,6.21,M,FEW,SCT,BKN,M,1500.00,3000.00,5000.00,M,M,M,M,M,M,M,M,M,RJEC 161100Z 15008KT 9999 FEW015 SCT030 BKN050 19/12 Q1015
RJFF,2020-09-16 11:00,130.4517,33.5844,75.20,73.40,94.14,150.00,13.00,0.00,29.80,M,6.21,M,FEW,BKN,M,M,1000.00,5000.00,M,M,M,M,M,M,M,M,M,M,RJFF 161100Z 15013KT 9999 FEW010 BKN050 24/23 Q1009 NOSIG
RJFK,2020-09-16 11:00,130.7194,31.8033,71.60,71.60,100.00,M,2.00,0.00,29.91,M,4.97,M,FEW,BKN,BKN,M,400.00,600.00,1500.00,M,M,M,M,M,M,M,M,M,RJFK 161100Z VRB02KT 8000 FEW004 BKN006 BKN015 22/22 Q1013 RMK 1ST004 5ST006 6CU015 A2992
RJFM,2020-09-16 11:00,131.4486,31.8772,75.20,75.20,100.00,170.00,9.00,0.00,29.85,M,3.73,M,FEW,SCT,BKN,M,200.00,300.00,1000.00,M,-SHRA,M,M,M,M,M,M,M,RJFM 161100Z 17009KT 6000 -SHRA FEW002 SCT003 BKN010 24/24 Q1011
RJFO,2020-09-16 11:00,131.7372,33.4794,75.20,71.60,88.59,150.00,9.00,0.00,29.83,M,6.21,M,FEW,SCT,BKN,M,3000.00,13000.00,15000.00,M,M,M,M,M,M,M,M,M,RJFO 161100Z 15009KT 9999 FEW030 SCT130 BKN150 24/22 Q1010
RJBB,2020-09-16 11:00,135.2328,34.4342,78.80,71.60,78.62,200.00,9.00,0.00,29.85,M,6.21,M,FEW,SCT,BKN,M,2500.00,9000.00,M,M,M,M,M,M,M,M,M,M,RJBB 161100Z 20009KT 9999 FEW025 SCT090 BKN/// 26/22 Q1011 NOSIG
RJBE,2020-09-16 11:00,135.2239,34.6328,78.80,73.40,83.55,220.00,11.00,0.00,29.85,M,6.21,M,FEW,SCT,BKN,M,1500.00,8000.00,M,M,M,M,M,M,M,M,M,M,RJBE 161100Z 22011KT 9999 FEW015 SCT080 BKN/// 26/23 Q1011
RJNK,2020-09-16 11:00,136.4075,36.3939,75.20,69.80,83.32,140.00,5.00,0.00,29.85,M,6.21,M,FEW,BKN,BKN,M,5000.00,12000.00,M,M,M,M,M,M,M,M,M,M,RJNK 161100Z 14005KT 9999 FEW050 BKN120 BKN/// 24/21 Q1011
RJNT,2020-09-16 11:00,137.1875,36.6483,75.20,68.00,78.34,170.00,3.00,0.00,29.85,M,6.21,M,FEW,SCT,M,M,5000.00,9000.00,M,M,M,M,M,M,M,M,M,M,RJNT 161100Z 17003KT 130V220 9999 FEW050 SCT090 24/20 Q1011
RJOA,2020-09-16 11:00,132.9194,34.4361,71.60,68.00,88.43,M,1.00,0.00,29.88,M,6.21,M,FEW,BKN,M,M,1000.00,1500.00,M,M,M,M,M,M,M,M,M,M,RJOA 161100Z VRB01KT 9999 FEW010 BKN015 22/20 Q1012
RJOB,2020-09-16 11:00,133.8553,34.7569,73.40,69.80,88.51,70.00,5.00,0.00,29.85,M,6.21,M,FEW,SCT,BKN,M,1500.00,3500.00,7000.00,M,M,M,M,M,M,M,M,M,RJOB 161100Z 07005KT 9999 FEW015 SCT035 BKN070 23/21 Q1011
RJOC,2020-09-16 11:00,132.8900,35.4136,75.20,71.60,88.59,M,1.00,0.00,29.80,M,6.21,M,FEW,BKN,M,M,3500.00,4500.00,M,M,M,M,M,M,M,M,M,M,RJOC 161100Z VRB01KT 9999 FEW035 BKN045 24/22 Q1009
RJOH,2020-09-16 11:00,133.2392,35.4933,75.20,69.80,83.32,90.00,4.00,0.00,29.83,M,6.21,M,FEW,SCT,BKN,M,3000.00,5000.00,8000.00,M,M,M,M,M,M,M,M,M,RJOH 161100Z 09004KT 060V120 9999 FEW030 SCT050 BKN080 24/21 Q1010
RJOK,2020-09-16 11:00,133.6694,33.5461,73.40,71.60,94.10,350.00,4.00,0.00,29.88,M,6.21,M,FEW,SCT,BKN,M,300.00,2000.00,3000.00,M,-SHRA,M,M,M,M,M,M,M,RJOK 161100Z 35004KT 320V020 9999 -SHRA FEW003 SCT020 BKN030 23/22 Q1012
RJFU,2020-09-16 11:00,129.9136,32.9169,77.00,73.40,88.67,130.00,10.00,0.00,29.83,M,6.21,M,FEW,SCT,BKN,M,500.00,1000.00,1500.00,M,M,M,M,M,M,M,M,M,RJFU 161100Z 13010KT 9999 FEW005 SCT010 BKN015 25/23 Q1010
RJGG,2020-09-16 11:00,136.8054,34.8584,77.00,71.60,83.44,130.00,8.00,0.00,29.88,M,6.21,M,FEW,BKN,M,M,1000.00,6000.00,M,M,M,M,M,M,M,M,M,M,RJGG 161100Z 13008KT 9999 FEW010 BKN060 25/22 Q1012 NOSIG
RJKI,2020-09-16 11:00,129.9281,28.3213,82.40,78.80,88.90,210.00,5.00,0.00,29.88,M,6.21,M,FEW,SCT,M,M,1300.00,24000.00,M,M,M,M,M,M,M,M,M,92.76,RJKI 161100Z AUTO 21005KT 140V230 9999 FEW013 SCT240 28/26 Q1012
RJSM,2020-09-16 11:00,141.3684,40.7032,69.80,68.00,94.01,130.00,9.00,0.00,29.94,M,6.21,M,FEW,BKN,M,M,500.00,700.00,M,M,M,M,M,M,M,M,M,M,RJSM 161100Z 13009KT 9999 FEW005 BKN007 21/20 Q1014
ROIG,2020-09-16 11:00,124.1633,24.3367,84.20,80.60,88.98,150.00,6.00,0.00,29.83,M,6.21,M,FEW,BKN,M,M,1700.00,M,M,M,M,M,M,M,M,M,M,98.50,ROIG 161100Z 15006KT 9999 FEW017 BKN/// 29/27 Q1010
ROMD,2020-09-16 11:00,131.2286,25.8289,82.40,77.00,83.77,120.00,2.00,0.00,29.91,M,6.21,M,NCD,M,M,M,M,M,M,M,M,M,M,M,M,M,M,90.85,ROMD 161100Z AUTO 12002KT 9999 NCD 28/25 Q1013
ROMY,2020-09-16 11:00,125.2767,24.7933,80.60,78.80,94.27,140.00,5.00,0.00,29.85,M,6.21,M,FEW,SCT,BKN,M,1000.00,1800.00,4500.00,M,-SHRA,M,M,M,M,M,M,89.33,ROMY 161100Z 14005KT 9999 -SHRA FEW010 SCT018 BKN045 27/26 Q1011
RORY,2020-09-16 11:00,128.4020,27.0440,80.60,78.80,94.27,210.00,7.00,0.00,29.88,M,6.21,M,FEW,SCT,BKN,///,900.00,2400.00,3000.00,M,-RA,M,M,M,M,M,M,89.33,RORY 161100Z AUTO 21007KT 9999 -RA FEW009 SCT024 BKN030 //////TCU 27/26 Q1012
RJDC,2020-09-16 11:00,131.2786,33.9300,77.00,73.40,88.67,110.00,6.00,0.00,29.83,M,6.21,M,FEW,SCT,BKN,M,600.00,1000.00,3000.00,M,M,M,M,M,M,M,M,M,RJDC 161100Z 11006KT 9999 FEW006 SCT010 BKN030 25/23 Q1010
RJOM,2020-09-16 11:00,132.6997,33.8272,75.20,73.40,94.14,M,1.00,0.00,29.83,M,6.21,M,FEW,SCT,BKN,M,2000.00,3500.00,5000.00,M,M,M,M,M,M,M,M,M,RJOM 161100Z VRB01KT 9999 FEW020 SCT035 BKN050 24/23 Q1010
RJFS,2020-09-16 11:00,130.3000,33.1500,77.00,73.40,88.67,170.00,8.00,0.00,29.83,M,6.21,M,FEW,SCT,BKN,M,1000.00,2000.00,3500.00,M,M,M,M,M,M,M,M,M,RJFS 161100Z 17008KT 9999 FEW010 SCT020 BKN035 25/23 Q1010
RJFT,2020-09-16 11:00,130.8553,32.8372,73.40,73.40,100.00,240.00,2.00,0.00,29.85,M,6.21,M,FEW,SCT,BKN,M,100.00,5000.00,M,M,VCFG,M,M,M,M,M,M,M,RJFT 161100Z 24002KT 9999 VCFG FEW001 SCT050 BKN/// 23/23 Q1011
RJOT,2020-09-16 11:00,134.0167,34.2167,73.40,71.60,94.10,150.00,3.00,0.00,29.85,M,6.21,M,FEW,SCT,BKN,M,3000.00,10000.00,M,M,M,M,M,M,M,M,M,M,RJOT 161100Z 15003KT 130V210 9999 FEW030 SCT100 BKN/// 23/22 Q1011
RJSK,2020-09-16 11:00,140.2167,39.6167,69.80,68.00,94.01,M,2.00,0.00,29.91,M,6.21,M,FEW,BKN,M,M,4000.00,M,M,M,M,M,M,M,M,M,M,M,RJSK 161100Z VRB02KT 9999 FEW040 BKN/// 21/20 Q1013
RJOO,2020-09-16 11:00,135.4392,34.7844,78.80,73.40,83.55,220.00,4.00,0.00,29.85,M,6.21,M,FEW,BKN,BKN,M,2500.00,4500.00,6000.00,M,M,M,M,M,M,M,M,M,RJOO 161100Z 22004KT 160V260 9999 FEW025 BKN045 BKN060 26/23 Q1011 RMK 1CU025 5CU045 6SC060 A2988
RJOR,2020-09-16 11:00,134.1650,35.5300,78.80,68.00,69.52,150.00,9.00,0.00,29.83,M,6.21,M,FEW,SCT,BKN,M,2500.00,5000.00,12000.00,M,M,M,M,M,M,M,M,M,RJOR 161100Z 15009KT 9999 FEW025 SCT050 BKN120 26/20 Q1010
RJSN,2020-09-16 11:00,139.1117,37.9558,75.20,71.60,88.59,M,1.00,0.00,29.88,M,6.21,M,FEW,SCT,M,M,5000.00,15000.00,M,M,M,M,M,M,M,M,M,M,RJSN 161100Z VRB01KT 9999 FEW050 SCT150 24/22 Q1012
RJSS,2020-09-16 11:00,140.9169,38.1397,73.40,69.80,88.51,130.00,7.00,0.00,29.94,M,6.21,M,FEW,SCT,BKN,M,800.00,1200.00,2000.00,M,M,M,M,M,M,M,M,M,RJSS 161100Z 13007KT 9999 FEW008 SCT012 BKN020 23/21 Q1014
RJTT,2020-09-16 11:00,139.7811,35.5533,75.20,73.40,94.14,140.00,8.00,0.00,29.91,M,6.21,M,FEW,BKN,M,M,900.00,7000.00,M,M,-SHRA,M,M,M,M,M,M,M,RJTT 161100Z 14008KT 9999 -SHRA FEW009 BKN070 24/23 Q1013 NOSIG RMK 1ST009 7AC070 A2993
RJNS,2020-09-16 11:00,138.1894,34.7961,75.20,73.40,94.14,120.00,5.00,0.00,29.91,M,6.21,M,FEW,SCT,BKN,M,1300.00,1500.00,6000.00,M,M,M,M,M,M,M,M,M,RJNS 161100Z 12005KT 9999 FEW013 SCT015 BKN060 24/23 Q1013
RJOS,2020-09-16 11:00,134.6092,34.1322,77.00,69.80,78.48,180.00,15.00,0.00,29.85,M,6.21,M,FEW,BKN,M,M,2500.00,8000.00,M,M,M,M,M,M,M,M,M,M,RJOS 161100Z 18015KT 9999 FEW025 BKN080 25/21 Q1011
RJSY,2020-09-16 11:00,139.7872,38.8122,71.60,66.20,83.09,110.00,9.00,0.00,29.88,M,6.21,M,FEW,M,M,M,2000.00,M,M,M,M,M,M,M,M,M,M,M,RJSY 161100Z 11009KT 9999 FEW020 22/19 Q1012
RORK,2020-09-16 11:00,131.3333,25.9167,84.20,77.00,79.04,130.00,2.00,0.00,29.91,M,6.21,M,NCD,M,M,M,M,M,M,M,M,M,M,M,M,M,M,94.16,RORK 161100Z AUTO 13002KT 9999 NCD 29/25 Q1013
ROYN,2020-09-16 11:00,122.9780,24.4670,84.20,80.60,88.98,150.00,7.00,0.00,29.83,M,6.21,M,SCT,SCT,M,M,1700.00,2600.00,M,M,M,M,M,M,M,M,M,98.50,ROYN 161100Z AUTO 15007KT 9999 SCT017 SCT026 29/27 Q1010
ROAH,2020-09-16 11:00,127.6458,26.1958,82.40,77.00,83.77,170.00,7.00,0.00,29.88,M,6.21,M,FEW,BKN,M,M,1400.00,M,M,M,M,M,M,M,M,M,M,90.85,ROAH 161100Z 17007KT 9999 FEW014 BKN/// 28/25 Q1012
RJFK,2020-09-16 11:24,130.7194,31.8033,73.40,73.40,100.00,150.00,4.00,0.00,29.91,M,6.21,M,FEW,SCT,BKN,M,600.00,900.00,4000.00,M,M,M,M,M,M,M,M,M,RJFK 161124Z 15004KT 9999 FEW006 SCT009 BKN040 23/23 Q1013 RMK 2ST006 4ST009 5CU040 A2992
RJAA,2020-09-16 11:30,140.3856,35.7653,73.40,71.60,94.10,60.00,5.00,0.00,29.91,M,6.21,M,FEW,BKN,M,M,1000.00,10000.00,M,M,-SHRA,M,M,M,M,M,M,M,RJAA 161130Z 06005KT 030V090 9999 -SHRA FEW010 BKN100 23/22 Q1013 BECMG 03005KT RMK 1CU010 7AC100 A2994
RJCC,2020-09-16 11:30,141.6926,42.7742,66.20,66.20,100.00,150.00,9.00,0.00,29.97,M,6.21,M,FEW,BKN,M,M,500.00,4000.00,M,M,M,M,M,M,M,M,M,M,RJCC 161130Z 15009KT 9999 FEW005 BKN040 19/19 Q1015 RMK 1ST005 5CU040 A2998
RJFF,2020-09-16 11:30,130.4517,33.5844,77.00,71.60,83.44,140.00,13.00,0.00,29.83,M,6.21,M,FEW,SCT,BKN,M,1000.00,5000.00,7000.00,M,M,M,M,M,M,M,M,M,RJFF 161130Z 14013KT 9999 FEW010 SCT050 BKN070 25/22 Q1010 NOSIG RMK 1CU010 4SC050 6AC070 A2983
RJBB,2020-09-16 11:30,135.2328,34.4342,78.80,71.60,78.62,180.00,10.00,0.00,29.85,M,6.21,M,FEW,BKN,BKN,M,2500.00,12000.00,M,M,M,M,M,M,M,M,M,M,RJBB 161130Z 18010KT 9999 FEW025 BKN120 BKN/// 26/22 Q1011 NOSIG
RJGG,2020-09-16 11:30,136.8054,34.8584,77.00,71.60,83.44,140.00,8.00,0.00,29.88,M,6.21,M,FEW,BKN,M,M,1000.00,5000.00,M,M,M,M,M,M,M,M,M,M,RJGG 161130Z 14008KT 9999 FEW010 BKN050 25/22 Q1012 NOSIG
RJTT,2020-09-16 11:30,139.7811,35.5533,75.20,71.60,88.59,140.00,7.00,0.00,29.91,M,6.21,M,FEW,SCT,BKN,M,1000.00,7000.00,10000.00,M,-SHRA,M,M,M,M,M,M,M,RJTT 161130Z 14007KT 9999 -SHRA FEW010 SCT070 BKN100 24/22 Q1013 NOSIG RMK 1CU010 4AC070 7AC100 A2993
ROAH,2020-09-16 11:30,127.6458,26.1958,82.40,77.00,83.77,170.00,7.00,0.00,29.91,M,6.21,M,FEW,BKN,M,M,1400.00,M,M,M,M,M,M,M,M,M,M,90.85,ROAH 161130Z 17007KT 9999 FEW014 BKN/// 28/25 Q1013 RMK 1CU014 A2992
RJNY,2020-09-16 11:40,138.2981,34.8128,78.80,71.60,78.62,140.00,8.00,0.00,29.91,M,6.21,M,FEW,SCT,BKN,M,1500.00,2000.00,7000.00,M,M,M,M,M,M,M,M,M,RJNY 161140Z 14008KT 9999 FEW015 SCT020 BKN070 26/22 Q1013 RMK 1CU015 3CU020 7AC070 A2993
RJOI,2020-09-16 11:55,132.2357,34.1439,77.00,71.10,82.03,200.00,9.00,0.00,29.87,1011.40,6.21,M,SCT,BKN,OVC,M,1000.00,2000.00,5000.00,M,M,M,M,M,M,M,M,M,RJOI 161155Z 20009KT 9999 SCT010 BKN020 OVC050 25/22 A2987 RMK SLP114 VIS LWR S 60000 T02500217 10261 20244 53007
RJTY,2020-09-16 11:56,139.3485,35.7485,75.40,69.40,81.64,0.00,0.00,0.00,29.99,1015.40,10.00,M,BKN,M,M,M,4700.00,M,M,M,M,M,M,M,M,M,M,M,RJTY 161156Z AUTO 00000KT 10SM BKN047 24/21 A2999 RMK AO2 SLP154 60000 T02410208 10263 20238 52007 FZRANO $
RODN,2020-09-16 11:56,127.7676,26.3556,81.50,76.80,85.69,150.00,5.00,0.00,29.92,1013.70,10.00,M,CLR,M,M,M,M,M,M,M,M,M,M,M,M,M,M,88.98,RODN 161156Z AUTO 15005KT 10SM CLR 28/25 A2992 RMK AO2 SLP137 T02750249 10305 20275 52019 $
ROTM,2020-09-16 11:56,127.7565,26.2743,82.90,78.10,85.48,180.00,5.00,0.00,29.95,1012.50,6.21,M,SCT,M,M,M,3000.00,M,M,M,M,M,M,M,M,M,M,92.84,ROTM 161156Z 18005KT 9999 SCT030 28/26 A2995 RMK SLP125 T02830256 10300 20283 52020
RJSA,2020-09-16 12:00,140.6886,40.7333,64.40,62.60,93.88,M,1.00,0.00,29.91,M,6.21,M,FEW,BKN,M,M,4000.00,M,M,M,M,M,M,M,M,M,M,M,RJSA 161200Z VRB01KT 9999 FEW040 BKN/// 18/17 Q1013
RJSD,2020-09-16 12:00,138.4139,38.0602,69.80,66.20,88.34,M,2.00,0.00,29.85,M,6.21,M,NSC,M,M,M,M,M,M,M,M,M,M,M,M,M,M,M,RJSD 161200Z AUTO VRB02KT 9999 NSC 21/19 Q1011
RJFR,2020-09-16 12:00,131.0350,33.8456,77.00,73.40,88.67,130.00,5.00,0.00,29.83,M,6.21,M,FEW,SCT,BKN,M,1500.00,4000.00,6000.00,M,M,M,M,M,M,M,M,M,RJFR 161200Z 13005KT 100V180 9999 FEW015 SCT040 BKN060 25/23 Q1010
RJAA,2020-09-16 12:00,140.3856,35.7653,73.40,71.60,94.10,70.00,5.00,0.00,29.94,M,6.21,M,FEW,SCT,BKN,M,900.00,5000.00,15000.00,M,-SHRA,M,M,M,M,M,M,M,RJAA 161200Z 07005KT 020V100 9999 -SHRA FEW009 SCT050 BKN150 23/22 Q1014 BECMG 03005KT
RJAH,2020-09-16 12:00,140.4147,36.1817,69.80,68.00,94.01,10.00,3.00,0.00,29.91,M,6.21,M,FEW,BKN,BKN,M,1200.00,15000.00,M,M,M,M,M,M,M,M,M,M,RJAH 161200Z 01003KT 9999 FEW012 BKN150 BKN/// 21/20 Q1013
RJCC,2020-09-16 12:00,141.6926,42.7742,66.20,66.20,100.00,150.00,8.00,0.00,29.97,M,6.21,M,FEW,BKN,M,M,1000.00,4000.00,M,M,M,M,M,M,M,M,M,M,RJCC 161200Z 15008KT 9999 FEW010 BKN040 19/19 Q1015 RMK 1ST010 7CU040 A2998
RJFF,2020-09-16 12:00,130.4517,33.5844,75.20,71.60,88.59,140.00,12.00,0.00,29.83,M,6.21,M,FEW,SCT,BKN,M,1000.00,2000.00,6000.00,M,M,M,M,M,M,M,M,M,RJFF 161200Z 14012KT 9999 FEW010 SCT020 BKN060 24/22 Q1010 NOSIG
RJFK,2020-09-16 12:00,130.7194,31.8033,73.40,73.40,100.00,M,1.00,0.00,29.94,M,4.97,M,FEW,SCT,BKN,M,300.00,900.00,3000.00,M,-SHRA BCFG,M,M,M,M,M,M,M,RJFK 161200Z VRB01KT 8000 -SHRA BCFG FEW003 SCT009 BKN030 23/23 Q1014
RJFM,2020-09-16 12:00,131.4486,31.8772,75.20,75.20,100.00,250.00,3.00,0.00,29.88,M,3.73,M,FEW,SCT,BKN,M,200.00,300.00,1000.00,M,M,M,M,M,M,M,M,M,RJFM 161200Z 25003KT 210V280 6000 FEW002 SCT003 BKN010 24/24 Q1012
RJFO,2020-09-16 12:00,131.7372,33.4794,75.20,71.60,88.59,180.00,4.00,0.00,29.85,M,6.21,M,FEW,BKN,BKN,M,1500.00,7000.00,13000.00,M,M,M,M,M,M,M,M,M,RJFO 161200Z 18004KT 140V220 9999 FEW015 BKN070 BKN130 24/22 Q1011
RJAW,2020-09-16 12:00,141.3227,24.7840,82.40,75.20,78.90,110.00,5.00,0.00,29.97,M,6.21,M,FEW,M,M,M,1500.00,M,M,M,M,M,M,M,M,M,M,89.48,RJAW 161200Z 11005KT 9999 FEW015 28/24 Q1015 RMK 2CU015 A2998
RJBB,2020-09-16 12:00,135.2328,34.4342,78.80,71.60,78.62,190.00,7.00,0.00,29.85,M,6.21,M,FEW,SCT,BKN,M,2500.00,5000.00,12000.00,M,M,M,M,M,M,M,M,M,RJBB 161200Z 19007KT 9999 FEW025 SCT050 BKN120 26/22 Q1011 NOSIG
RJBE,2020-09-16 12:00,135.2239,34.6328,78.80,73.40,83.55,210.00,11.00,0.00,29.85,M,6.21,M,FEW,SCT,BKN,M,1500.00,4500.00,M,M,M,M,M,M,M,M,M,M,RJBE 161200Z 21011KT 9999 FEW015 SCT045 BKN/// 26/23 Q1011
RJNK,2020-09-16 12:00,136.4075,36.3939,75.20,69.80,83.32,M,2.00,0.00,29.83,M,6.21,M,FEW,SCT,BKN,M,5000.00,10000.00,12000.00,M,M,M,M,M,M,M,M,M,RJNK 161200Z VRB02KT 9999 FEW050 SCT100 BKN120 24/21 Q1010
RJNT,2020-09-16 12:00,137.1875,36.6483,73.40,68.00,83.21,M,2.00,0.00,29.85,M,6.21,M,FEW,SCT,M,M,5000.00,15000.00,M,M,M,M,M,M,M,M,M,M,RJNT 161200Z VRB02KT 9999 FEW050 SCT150 23/20 Q1011
RJOA,2020-09-16 12:00,132.9194,34.4361,71.60,68.00,88.43,M,1.00,0.00,29.91,M,6.21,M,FEW,BKN,M,M,1500.00,2000.00,M,M,M,M,M,M,M,M,M,M,RJOA 161200Z VRB01KT 9999 FEW015 BKN020 22/20 Q1013
RJOB,2020-09-16 12:00,133.8553,34.7569,73.40,69.80,88.51,60.00,4.00,0.00,29.88,M,6.21,M,FEW,SCT,BKN,M,1000.00,3000.00,5000.00,M,M,M,M,M,M,M,M,M,RJOB 161200Z 06004KT 9999 FEW010 SCT030 BKN050 23/21 Q1012
RJOH,2020-09-16 12:00,133.2392,35.4933,77.00,69.80,78.48,130.00,3.00,0.00,29.83,M,6.21,M,FEW,BKN,BKN,M,3000.00,5000.00,8000.00,M,M,M,M,M,M,M,M,M,RJOH 161200Z 13003KT 100V190 9999 FEW030 BKN050 BKN080 25/21 Q1010
RJFU,2020-09-16 12:00,129.9136,32.9169,75.20,75.20,100.00,130.00,10.00,0.00,29.83,M,6.21,M,FEW,SCT,BKN,M,500.00,1000.00,1500.00,M,-SHRA,M,M,M,M,M,M,M,RJFU 161200Z 13010KT 9999 -SHRA FEW005 SCT010 BKN015 24/24 Q1010
RJGG,2020-09-16 12:00,136.8054,34.8584,77.00,71.60,83.44,140.00,7.00,0.00,29.88,M,6.21,M,FEW,BKN,M,M,1000.00,5000.00,M,M,M,M,M,M,M,M,M,M,RJGG 161200Z 14007KT 9999 FEW010 BKN050 25/22 Q1012 NOSIG
RJKI,2020-09-16 12:00,129.9281,28.3213,82.40,78.80,88.90,190.00,4.00,0.00,29.91,M,6.21,M,NCD,M,M,M,M,M,M,M,M,M,M,M,M,M,M,92.76,RJKI 161200Z AUTO 19004KT 140V220 9999 NCD 28/26 Q1013
RJSM,2020-09-16 12:00,141.3684,40.7032,69.80,68.00,94.01,130.00,10.00,0.00,29.94,M,6.21,M,FEW,BKN,M,M,700.00,1500.00,M,M,M,M,M,M,M,M,M,M,RJSM 161200Z 13010KT 9999 FEW007 BKN015 21/20 Q1014
ROMD,2020-09-16 12:00,131.2286,25.8289,82.40,78.80,88.90,M,2.00,0.00,29.94,M,6.21,M,NCD,M,M,M,M,M,M,M,M,M,M,M,M,M,M,92.76,ROMD 161200Z AUTO VRB02KT 9999 NCD 28/26 Q1014
RORY,2020-09-16 12:00,128.4020,27.0440,82.40,78.80,88.90,200.00,6.00,0.00,29.91,M,6.21,M,FEW,BKN,///,M,1400.00,24000.00,M,M,M,M,M,M,M,M,M,92.76,RORY 161200Z AUTO 20006KT 160V240 9999 FEW014 BKN240 //////TCU 28/26 Q1013
RJDC,2020-09-16 12:00,131.2786,33.9300,77.00,73.40,88.67,150.00,5.00,0.00,29.85,M,6.21,M,FEW,SCT,BKN,M,600.00,1000.00,5000.00,M,M,M,M,M,M,M,M,M,RJDC 161200Z 15005KT 9999 FEW006 SCT010 BKN050 25/23 Q1011
RJOM,2020-09-16 12:00,132.6997,33.8272,75.20,73.40,94.14,330.00,3.00,0.00,29.85,M,6.21,M,FEW,SCT,BKN,M,2500.00,3500.00,5000.00,M,M,M,M,M,M,M,M,M,RJOM 161200Z 33003KT 9999 FEW025 SCT035 BKN050 24/23 Q1011
RJFS,2020-09-16 12:00,130.3000,33.1500,77.00,73.40,88.67,180.00,10.00,0.00,29.85,M,6.21,M,FEW,SCT,BKN,M,1000.00,2000.00,4000.00,M,M,M,M,M,M,M,M,M,RJFS 161200Z 18010KT 9999 FEW010 SCT020 BKN040 25/23 Q1011
RJFT,2020-09-16 12:00,130.8553,32.8372,73.40,73.40,100.00,M,1.00,0.00,29.88,M,2.49,M,FEW,SCT,BKN,M,100.00,3000.00,M,M,PRFG,M,M,M,M,M,M,M,RJFT 161200Z VRB01KT 4000 R07/P1800N PRFG FEW001 SCT030 BKN/// 23/23 Q1012
RJOT,2020-09-16 12:00,134.0167,34.2167,71.60,69.80,94.06,140.00,4.00,0.00,29.88,M,6.21,M,FEW,SCT,BKN,M,3000.00,6000.00,17000.00,M,M,M,M,M,M,M,M,M,RJOT 161200Z 14004KT 9999 FEW030 SCT060 BKN170 22/21 Q1012
RJSK,2020-09-16 12:00,140.2167,39.6167,71.60,68.00,88.43,100.00,6.00,0.00,29.91,M,6.21,M,FEW,SCT,BKN,M,4000.00,18000.00,M,M,M,M,M,M,M,M,M,M,RJSK 161200Z 10006KT 9999 FEW040 SCT180 BKN/// 22/20 Q1013
RJOR,2020-09-16 12:00,134.1650,35.5300,78.80,68.00,69.52,150.00,7.00,0.00,29.83,M,6.21,M,FEW,SCT,BKN,M,2500.00,7000.00,M,M,M,M,M,M,M,M,M,M,RJOR 161200Z 15007KT 9999 FEW025 SCT070 BKN/// 26/20 Q1010
RJSN,2020-09-16 12:00,139.1117,37.9558,75.20,69.80,83.32,120.00,2.00,0.00,29.85,M,6.21,M,FEW,SCT,M,M,5000.00,15000.00,M,M,M,M,M,M,M,M,M,M,RJSN 161200Z 12002KT 9999 FEW050 SCT150 24/21 Q1011
RJSS,2020-09-16 12:00,140.9169,38.1397,73.40,68.00,83.21,150.00,6.00,0.00,29.94,M,6.21,M,FEW,BKN,BKN,M,800.00,1200.00,2000.00,M,M,M,M,M,M,M,M,M,RJSS 161200Z 15006KT 9999 FEW008 BKN012 BKN020 23/20 Q1014
RJTT,2020-09-16 12:00,139.7811,35.5533,75.20,73.40,94.14,140.00,6.00,0.00,29.91,M,6.21,M,FEW,BKN,BKN,M,1000.00,9000.00,11000.00,M,VCSH,M,M,M,M,M,M,M,RJTT 161200Z 14006KT 9999 VCSH FEW010 BKN090 BKN110 24/23 Q1013 NOSIG
RJNS,2020-09-16 12:00,138.1894,34.7961,75.20,71.60,88.59,130.00,5.00,0.00,29.91,M,6.21,M,FEW,SCT,BKN,M,1300.00,2000.00,5000.00,M,VCSH,M,M,M,M,M,M,M,RJNS 161200Z 13005KT 9999 VCSH FEW013 SCT020 BKN050 24/22 Q1013
RJOS,2020-09-16 12:00,134.6092,34.1322,77.00,69.80,78.48,180.00,15.00,0.00,29.85,M,6.21,M,FEW,BKN,M,M,2500.00,10000.00,M,M,M,M,M,M,M,M,M,M,RJOS 161200Z 18015KT 9999 FEW025 BKN100 25/21 Q1011
RJSY,2020-09-16 12:00,139.7872,38.8122,71.60,66.20,83.09,110.00,10.00,0.00,29.88,M,6.21,M,FEW,M,M,M,2000.00,M,M,M,M,M,M,M,M,M,M,M,RJSY 161200Z 11010KT 9999 FEW020 22/19 Q1012
RORK,2020-09-16 12:00,131.3333,25.9167,84.20,77.00,79.04,120.00,2.00,0.00,29.94,M,2.67,M,NCD,M,M,M,M,M,M,M,BR,M,M,M,M,M,M,94.16,RORK 161200Z AUTO 12002KT 4300 BR NCD 29/25 Q1014
ROYN,2020-09-16 12:00,122.9780,24.4670,84.20,78.80,83.88,150.00,9.00,0.00,29.85,M,6.21,M,FEW,SCT,M,M,1700.00,3500.00,M,M,M,M,M,M,M,M,M,96.10,ROYN 161200Z AUTO 15009KT 9999 FEW017 SCT035 29/26 Q1011
ROAH,2020-09-16 12:00,127.6458,26.1958,84.20,77.00,79.04,170.00,7.00,0.00,29.91,M,6.21,M,FEW,BKN,M,M,1500.00,M,M,M,M,M,M,M,M,M,M,94.16,ROAH 161200Z 17007KT 9999 FEW015 BKN/// 29/25 Q1013
RJOF,2020-09-16 12:11,131.5464,34.0344,75.20,71.60,88.59,120.00,6.00,0.00,29.85,M,6.21,M,FEW,BKN,BKN,M,700.00,1000.00,4000.00,M,M,M,M,M,M,M,M,M,RJOF 161211Z 12006KT 9999 FEW007 BKN010 BKN040 24/22 Q1011 RMK 1ST007 5CU010 7CU040 A2986
RJFY,2020-09-16 12:13,130.8381,31.3681,75.20,71.60,88.59,200.00,2.00,0.00,29.91,M,3.11,M,FEW,SCT,OVC,M,100.00,500.00,3000.00,M,SHRA BR,M,M,M,M,M,M,M,RJFY 161213Z 20002KT 5000 SHRA BR FEW001 SCT005 OVC030 24/22 Q1013 RMK 1ST001 3ST005 8CU030 A2992
RJFY,2020-09-16 12:17,130.8381,31.3681,75.20,71.60,88.59,210.00,2.00,0.00,29.91,M,3.73,M,FEW,SCT,OVC,M,100.00,500.00,3000.00,M,-SHRA,M,M,M,M,M,M,M,RJFY 161217Z 21002KT 6000 -SHRA FEW001 SCT005 OVC030 24/22 Q1013 RMK 1ST001 3ST005 8CU030 A2992
RJNY,2020-09-16 12:25,138.2981,34.8128,78.80,71.60,78.62,140.00,7.00,0.00,29.91,M,6.21,M,FEW,BKN,BKN,M,1500.00,2500.00,7000.00,M,M,M,M,M,M,M,M,M,RJNY 161225Z 14007KT 9999 FEW015 BKN025 BKN070 26/22 Q1013 RMK 2CU015 5CU025 7AC070 A2992
RJAH,2020-09-16 12:26,140.4147,36.1817,71.60,68.00,88.43,350.00,3.00,0.00,29.91,M,6.21,M,FEW,BKN,BKN,M,1000.00,1200.00,15000.00,M,M,M,M,M,M,M,M,M,RJAH 161226Z 35003KT 9999 FEW010 BKN012 BKN150 22/20 Q1013 RMK 1ST010 5SC012 7AC150 A2993
RJOF,2020-09-16 12:28,131.5464,34.0344,75.20,71.60,88.59,130.00,6.00,0.00,29.85,M,6.21,M,FEW,SCT,BKN,M,700.00,1000.00,4000.00,M,M,M,M,M,M,M,M,M,RJOF 161228Z 13006KT 090V150 9999 FEW007 SCT010 BKN040 24/22 Q1011 RMK 1ST007 3CU010 5CU040 A2986
RJAA,2020-09-16 12:30,140.3856,35.7653,73.40,71.60,94.10,60.00,4.00,0.00,29.91,M,6.21,M,SCT,BKN,M,M,900.00,10000.00,M,M,-SHRA,M,M,M,M,M,M,M,RJAA 161230Z 06004KT 340V080 9999 -SHRA SCT009 BKN100 23/22 Q1013 TEMPO FEW004 BKN007 BECMG 01005KT
RJCC,2020-09-16 12:30,141.6926,42.7742,66.20,66.20,100.00,150.00,9.00,0.00,29.97,M,6.21,M,FEW,BKN,M,M,1000.00,4500.00,M,M,M,M,M,M,M,M,M,M,RJCC 161230Z 15009KT 9999 FEW010 BKN045 19/19 Q1015
RJFF,2020-09-16 12:30,130.4517,33.5844,75.20,73.40,94.14,140.00,13.00,0.00,29.83,M,6.21,M,FEW,SCT,BKN,M,800.00,2000.00,5000.00,M,-SHRA,M,M,M,M,M,M,M,RJFF 161230Z 14013KT 9999 -SHRA FEW008 SCT020 BKN050 24/23 Q1010 TEMPO FM1400 4000 -SHRA BR
RJBB,2020-09-16 12:30,135.2328,34.4342,78.80,71.60,78.62,190.00,4.00,0.00,29.85,M,6.21,M,FEW,SCT,BKN,M,2500.00,5000.00,12000.00,M,M,M,M,M,M,M,M,M,RJBB 161230Z 19004KT 9999 FEW025 SCT050 BKN120 26/22 Q1011 NOSIG
RJGG,2020-09-16 12:30,136.8054,34.8584,77.00,71.60,83.44,130.00,8.00,0.00,29.88,M,6.21,M,FEW,BKN,M,M,1500.00,5000.00,M,M,M,M,M,M,M,M,M,M,RJGG 161230Z 13008KT 9999 FEW015 BKN050 25/22 Q1012 NOSIG
RJTT,2020-09-16 12:30,139.7811,35.5533,75.20,73.40,94.14,150.00,5.00,0.00,29.91,M,6.21,M,FEW,BKN,M,M,900.00,9000.00,M,M,VCSH,M,M,M,M,M,M,M,RJTT 161230Z 15005KT 9999 VCSH FEW009 BKN090 24/23 Q1013 NOSIG
ROAH,2020-09-16 12:30,127.6458,26.1958,82.40,77.00,83.77,170.00,6.00,0.00,29.91,M,6.21,M,FEW,BKN,M,M,1500.00,M,M,M,M,M,M,M,M,M,M,90.85,ROAH 161230Z 17006KT 9999 FEW015 BKN/// 28/25 Q1013
RJOF,2020-09-16 12:41,131.5464,34.0344,75.20,71.60,88.59,150.00,4.00,0.00,29.85,M,6.21,M,FEW,BKN,BKN,M,700.00,4000.00,6000.00,M,-SHRA,M,M,M,M,M,M,M,RJOF 161241Z 15004KT 100V190 9999 -SHRA FEW007 BKN040 BKN060 24/22 Q1011 RMK 1ST007 6CU040 7SC060 A2986
RJAA,2020-09-16 12:48,140.3856,35.7653,73.40,71.60,94.10,20.00,4.00,0.00,29.91,M,6.21,M,FEW,BKN,BKN,M,400.00,800.00,9000.00,M,-SHRA,M,M,M,M,M,M,M,RJAA 161248Z 02004KT 9999 -SHRA FEW004 BKN008 BKN090 23/22 Q1013 RMK 1ST004 5ST008 7AC090 A2994
RJOI,2020-09-16 12:55,132.2357,34.1439,77.00,71.10,82.03,200.00,9.00,0.00,29.87,1011.40,6.21,M,FEW,BKN,OVC,M,1200.00,2000.00,5000.00,M,M,M,M,M,M,M,M,M,RJOI 161255Z 200009KT 9999 FEW012 BKN020 OVC050 25/22 A2987 RMK SLP114 T02500217
RJTY,2020-09-16 12:56,139.3485,35.7485,73.80,70.50,89.44,170.00,3.00,0.00,29.98,1015.00,10.00,M,FEW,BKN,M,M,3100.00,9000.00,M,M,M,M,M,M,M,M,M,M,RJTY 161256Z AUTO 17003KT 10SM FEW031 BKN090 23/21 A2998 RMK AO2 SLP150 T02320214 FZRANO $
RODN,2020-09-16 12:56,127.7676,26.3556,81.30,76.60,85.68,140.00,5.00,0.00,29.93,1014.00,10.00,M,CLR,M,M,M,M,M,M,M,M,M,M,M,M,M,M,88.44,RODN 161256Z AUTO 14005KT 10SM CLR 27/25 A2993 RMK AO2 SLP140 T02740248 $
RJSD,2020-09-16 13:00,138.4139,38.0602,69.80,66.20,88.34,M,1.00,0.00,29.85,M,6.21,M,NSC,M,M,M,M,M,M,M,M,M,M,M,M,M,M,M,RJSD 161300Z AUTO VRB01KT 9999 NSC 21/19 Q1011
RJFR,2020-09-16 13:00,131.0350,33.8456,77.00,73.40,88.67,140.00,7.00,0.00,29.83,M,6.21,M,FEW,SCT,BKN,M,1500.00,6000.00,8000.00,M,M,M,M,M,M,M,M,M,RJFR 161300Z 14007KT 9999 FEW015 SCT060 BKN080 25/23 Q1010
RJAA,2020-09-16 13:00,140.3856,35.7653,73.40,71.60,94.10,10.00,5.00,0.00,29.91,M,6.21,M,FEW,SCT,BKN,M,400.00,800.00,9000.00,M,M,M,M,M,M,M,M,M,RJAA 161300Z 01005KT 340V040 9999 FEW004 SCT008 BKN090 23/22 Q1013 TEMPO FEW004 BKN007
RJAH,2020-09-16 13:00,140.4147,36.1817,71.60,68.00,88.43,340.00,4.00,0.00,29.91,M,6.21,M,FEW,BKN,BKN,M,1000.00,1200.00,13000.00,M,M,M,M,M,M,M,M,M,RJAH 161300Z 34004KT 9999 FEW010 BKN012 BKN130 22/20 Q1013
RJCC,2020-09-16 13:00,141.6926,42.7742,66.20,64.40,93.92,140.00,9.00,0.00,29.97,M,6.21,M,FEW,BKN,BKN,M,1000.00,4500.00,8000.00,M,M,M,M,M,M,M,M,M,RJCC 161300Z 14009KT 9999 FEW010 BKN045 BKN080 19/18 Q1015
RJFF,2020-09-16 13:00,130.4517,33.5844,75.20,73.40,94.14,130.00,11.00,0.00,29.83,M,6.21,M,FEW,BKN,BKN,M,1000.00,5000.00,7000.00,M,M,M,M,M,M,M,M,M,RJFF 161300Z 13011KT 9999 FEW010 BKN050 BKN070 24/23 Q1010 TEMPO FM1400 4000 -SHRA BR
RJFO,2020-09-16 13:00,131.7372,33.4794,75.20,71.60,88.59,250.00,4.00,0.00,29.85,M,6.21,M,FEW,BKN,BKN,M,2000.00,7000.00,10000.00,M,M,M,M,M,M,M,M,M,RJFO 161300Z 25004KT 9999 FEW020 BKN070 BKN100 24/22 Q1011
RJBB,2020-09-16 13:00,135.2328,34.4342,78.80,71.60,78.62,170.00,4.00,0.00,29.88,M,6.21,M,FEW,BKN,BKN,M,2500.00,5000.00,M,M,M,M,M,M,M,M,M,M,RJBB 161300Z 17004KT 9999 FEW025 BKN050 BKN/// 26/22 Q1012 NOSIG
RJBE,2020-09-16 13:00,135.2239,34.6328,78.80,73.40,83.55,200.00,9.00,0.00,29.85,M,6.21,M,FEW,SCT,BKN,M,1500.00,4000.00,M,M,M,M,M,M,M,M,M,M,RJBE 161300Z 20009KT 170V240 9999 FEW015 SCT040 BKN/// 26/23 Q1011
RJNK,2020-09-16 13:00,136.4075,36.3939,73.40,69.80,88.51,M,1.00,0.00,29.83,M,6.21,M,FEW,SCT,M,M,5000.00,12000.00,M,M,M,M,M,M,M,M,M,M,RJNK 161300Z VRB01KT 9999 FEW050 SCT120 23/21 Q1010
RJOA,2020-09-16 13:00,132.9194,34.4361,71.60,68.00,88.43,M,1.00,0.00,29.91,M,6.21,M,FEW,BKN,M,M,1300.00,2000.00,M,M,M,M,M,M,M,M,M,M,RJOA 161300Z VRB01KT 9999 FEW013 BKN020 22/20 Q1013
RJOH,2020-09-16 13:00,133.2392,35.4933,75.20,69.80,83.32,200.00,4.00,0.00,29.83,M,6.21,M,FEW,BKN,BKN,M,2500.00,4500.00,8000.00,M,M,M,M,M,M,M,M,M,RJOH 161300Z 20004KT 9999 FEW025 BKN045 BKN080 24/21 Q1010
RJGG,2020-09-16 13:00,136.8054,34.8584,77.00,71.60,83.44,130.00,9.00,0.00,29.88,M,6.21,M,FEW,BKN,BKN,M,1500.00,5000.00,M,M,M,M,M,M,M,M,M,M,RJGG 161300Z 13009KT 9999 FEW015 BKN050 BKN/// 25/22 Q1012 NOSIG
RJKI,2020-09-16 13:00,129.9281,28.3213,82.40,80.60,94.31,200.00,4.00,0.00,29.91,M,6.21,M,BKN,BKN,M,M,1300.00,3100.00,M,M,M,M,M,M,M,M,M,95.00,RJKI 161300Z AUTO 20004KT 170V240 9999 BKN013 BKN031 28/27 Q1013
RJSM,2020-09-16 13:00,141.3684,40.7032,69.80,68.00,94.01,140.00,8.00,0.00,29.94,M,6.21,M,FEW,BKN,M,M,700.00,1500.00,M,M,M,M,M,M,M,M,M,M,RJSM 161300Z 14008KT 110V170 9999 FEW007 BKN015 21/20 Q1014
ROMD,2020-09-16 13:00,131.2286,25.8289,82.40,78.80,88.90,M,2.00,0.00,29.94,M,6.21,M,FEW,M,M,M,1700.00,M,M,M,M,M,M,M,M,M,M,92.76,ROMD 161300Z AUTO VRB02KT 9999 FEW017 28/26 Q1014
RORY,2020-09-16 13:00,128.4020,27.0440,80.60,78.80,94.27,280.00,5.00,0.00,29.91,M,6.21,M,FEW,M,M,M,1500.00,M,M,M,M,M,M,M,M,M,M,89.33,RORY 161300Z AUTO 28005KT 9999 FEW015 27/26 Q1013
RJFS,2020-09-16 13:00,130.3000,33.1500,77.00,73.40,88.67,170.00,5.00,0.00,29.83,M,6.21,M,FEW,SCT,BKN,M,800.00,1500.00,2000.00,M,-SHRA,M,M,M,M,M,M,M,RJFS 161300Z 17005KT 9999 -SHRA FEW008 SCT015 BKN020 25/23 Q1010
RJTT,2020-09-16 13:00,139.7811,35.5533,75.20,71.60,88.59,140.00,3.00,0.00,29.91,M,6.21,M,FEW,BKN,M,M,1000.00,8000.00,M,M,VCSH,M,M,M,M,M,M,M,RJTT 161300Z 14003KT 9999 VCSH FEW010 BKN080 24/22 Q1013 NOSIG
RJOS,2020-09-16 13:00,134.6092,34.1322,77.00,69.80,78.48,180.00,13.00,0.00,29.85,M,6.21,M,FEW,BKN,M,M,2500.00,14000.00,M,M,M,M,M,M,M,M,M,M,RJOS 161300Z 18013KT 9999 FEW025 BKN140 25/21 Q1011
RORK,2020-09-16 13:00,131.3333,25.9167,84.20,77.00,79.04,110.00,5.00,0.00,29.94,M,3.11,M,NCD,M,M,M,M,M,M,M,BR,M,M,M,M,M,M,94.16,RORK 161300Z AUTO 11005KT 5000 BR NCD 29/25 Q1014
ROYN,2020-09-16 13:00,122.9780,24.4670,84.20,78.80,83.88,150.00,11.00,0.00,29.85,M,6.21,M,SCT,M,M,M,1700.00,M,M,M,M,M,M,M,M,M,M,96.10,ROYN 161300Z AUTO 15011KT 9999 SCT017 29/26 Q1011
ROAH,2020-09-16 13:00,127.6458,26.1958,82.40,77.00,83.77,130.00,5.00,0.00,29.91,M,6.21,M,FEW,BKN,M,M,1500.00,M,M,M,M,M,M,M,M,M,M,90.85,ROAH 161300Z 13005KT 9999 FEW015 BKN/// 28/25 Q1013
RJTR,2020-09-16 13:07,139.3937,35.5138,73.40,68.00,83.21,0.00,0.00,0.00,29.92,1013.20,10.00,M,SCT,BKN,M,M,3800.00,8000.00,M,M,-RA,M,M,M,M,M,M,M,RJTR 161307Z AUTO 00000KT 10SM -RA SCT038 BKN080 23/20 A2992 RMK AO2 RAB07 SLP132 $
RJAH,2020-09-16 13:12,140.4147,36.1817,71.60,68.00,88.43,340.00,3.00,0.00,29.91,M,6.21,M,FEW,BKN,BKN,M,1000.00,1200.00,10000.00,M,-SHRA,M,M,M,M,M,M,M,RJAH 161312Z 34003KT 9999 -SHRA FEW010 BKN012 BKN100 22/20 Q1013 RMK 2ST010 5SC012 7AC100 A2994
RJTR,2020-09-16 13:17,139.3937,35.5138,73.40,68.00,83.21,0.00,0.00,0.00,29.92,1013.20,10.00,M,FEW,BKN,M,M,3900.00,7500.00,M,M,M,M,M,M,M,M,M,M,RJTR 161317Z AUTO 00000KT 10SM FEW039 BKN075 23/20 A2992 RMK AO2 RAB07E17 SLP132 $
RJAA,2020-09-16 13:30,140.3856,35.7653,73.40,71.60,94.10,360.00,7.00,0.00,29.91,M,6.21,M,FEW,BKN,BKN,M,400.00,600.00,9000.00,M,M,M,M,M,M,M,M,M,RJAA 161330Z 36007KT 9999 FEW004 BKN006 BKN090 23/22 Q1013 NOSIG RMK 1ST004 6ST006 7AC090 A2993
RJCC,2020-09-16 13:30,141.6926,42.7742,66.20,64.40,93.92,140.00,8.00,0.00,29.94,M,6.21,M,FEW,BKN,M,M,1500.00,8000.00,M,M,M,M,M,M,M,M,M,M,RJCC 161330Z 14008KT 9999 FEW015 BKN080 19/18 Q1014 RMK 1ST015 5AC080 A2997
RJFF,2020-09-16 13:30,130.4517,33.5844,77.00,73.40,88.67,140.00,9.00,0.00,29.83,M,6.21,M,FEW,SCT,BKN,M,1000.00,2000.00,5000.00,M,M,M,M,M,M,M,M,M,RJFF 161330Z 14009KT 9999 FEW010 SCT020 BKN050 25/23 Q1010 TEMPO FM1400 4000 -SHRA BR RMK 1CU010 4CU020 5SC050 A2982
RJBB,2020-09-16 13:30,135.2328,34.4342,78.80,71.60,78.62,160.00,6.00,0.00,29.88,M,6.21,M,FEW,SCT,BKN,M,2500.00,5000.00,7000.00,M,M,M,M,M,M,M,M,M,RJBB 161330Z 16006KT 9999 FEW025 SCT050 BKN070 26/22 Q1012 NOSIG
RJGG,2020-09-16 13:30,136.8054,34.8584,77.00,69.80,78.48,120.00,6.00,0.00,29.88,M,6.21,M,FEW,BKN,BKN,M,1500.00,5000.00,M,M,VCSH,M,M,M,M,M,M,M,RJGG 161330Z 12006KT 9999 VCSH FEW015 BKN050 BKN/// 25/21 Q1012 NOSIG
RJTT,2020-09-16 13:30,139.7811,35.5533,75.20,71.60,88.59,120.00,3.00,0.00,29.91,M,6.21,M,FEW,BKN,M,M,1000.00,8000.00,M,M,VCSH,M,M,M,M,M,M,M,RJTT 161330Z 12003KT 9999 VCSH FEW010 BKN080 24/22 Q1013 BECMG 04006KT RMK 1CU010 7AC080 A2992
ROAH,2020-09-16 13:30,127.6458,26.1958,82.40,77.00,83.77,140.00,5.00,0.00,29.91,M,6.21,M,FEW,BKN,M,M,1500.00,M,M,M,M,M,M,M,M,M,M,90.85,ROAH 161330Z 14005KT 9999 FEW015 BKN/// 28/25 Q1013 RMK 1CU015 A2993
RJOF,2020-09-16 13:31,131.5464,34.0344,75.20,73.40,94.14,150.00,4.00,0.00,29.85,M,6.21,M,FEW,SCT,BKN,M,700.00,2500.00,4000.00,M,M,M,M,M,M,M,M,M,RJOF 161331Z 15004KT 070V220 9999 FEW007 SCT025 BKN040 24/23 Q1011 RMK 1ST007 3CU025 7CU040 A2986
RJOI,2020-09-16 13:55,132.2357,34.1439,78.10,71.10,79.10,190.00,11.00,0.00,29.86,1011.10,6.21,M,FEW,BKN,OVC,M,1000.00,2000.00,4500.00,M,M,M,M,M,M,M,M,M,RJOI 161355Z 19011KT 9999 FEW010 BKN020 OVC045 26/22 A2986 RMK SLP111 T02560217
RJTY,2020-09-16 13:56,139.3485,35.7485,73.40,69.30,87.01,0.00,0.00,0.00,29.96,1014.30,10.00,M,BKN,M,M,M,8000.00,M,M,M,M,M,M,M,M,M,M,M,RJTY 161356Z AUTO 00000KT 10SM BKN080 23/21 A2996 RMK AO2 SLP143 T02300207 FZRANO $
RODN,2020-09-16 13:56,127.7676,26.3556,81.00,76.60,86.52,140.00,4.00,0.00,29.93,1014.00,10.00,M,CLR,M,M,M,M,M,M,M,M,M,M,M,M,M,M,87.92,RODN 161356Z AUTO 14004KT 10SM CLR 27/25 A2993 RMK AO2 SLP140 T02720248 $
RJSD,2020-09-16 14:00,138.4139,38.0602,69.80,66.20,88.34,M,2.00,0.00,29.83,M,6.21,M,NSC,M,M,M,M,M,M,M,M,M,M,M,M,M,M,M,RJSD 161400Z AUTO VRB02KT 9999 NSC 21/19 Q1010
RJFR,2020-09-16 14:00,131.0350,33.8456,77.00,73.40,88.67,160.00,6.00,0.00,29.83,M,6.21,M,FEW,BKN,BKN,M,1500.00,5000.00,8000.00,M,M,M,M,M,M,M,M,M,RJFR 161400Z 16006KT 9999 FEW015 BKN050 BKN080 25/23 Q1010
RJAA,2020-09-16 14:00,140.3856,35.7653,73.40,71.60,94.10,10.00,6.00,0.00,29.91,M,6.21,M,FEW,BKN,BKN,M,400.00,600.00,800.00,M,M,M,M,M,M,M,M,M,RJAA 161400Z 01006KT 9999 FEW004 BKN006 BKN008 23/22 Q1013 TEMPO FEW003 BKN005
RJAH,2020-09-16 14:00,140.4147,36.1817,69.80,68.00,94.01,20.00,3.00,0.00,29.91,M,6.21,M,FEW,BKN,BKN,M,1000.00,1200.00,10000.00,M,-SHRA,M,M,M,M,M,M,M,RJAH 161400Z 02003KT 9999 -SHRA FEW010 BKN012 BKN100 21/20 Q1013
RJCC,2020-09-16 14:00,141.6926,42.7742,64.40,64.40,100.00,150.00,7.00,0.00,29.94,M,6.21,M,FEW,BKN,M,M,1500.00,8000.00,M,M,M,M,M,M,M,M,M,M,RJCC 161400Z 15007KT 9999 FEW015 BKN080 18/18 Q1014
RJFF,2020-09-16 14:00,130.4517,33.5844,77.00,73.40,88.67,130.00,10.00,0.00,29.80,M,6.21,M,FEW,BKN,BKN,///,1300.00,5000.00,6000.00,M,M,M,M,M,M,M,M,M,RJFF 161400Z AUTO 13010KT 9999 FEW013 BKN050 BKN060 //////TCU 25/23 Q1009 TEMPO 4000 -SHRA BR
RJBB,2020-09-16 14:00,135.2328,34.4342,78.80,71.60,78.62,150.00,6.00,0.00,29.85,M,6.21,M,FEW,SCT,OVC,M,4100.00,6000.00,7000.00,M,M,M,M,M,M,M,M,M,RJBB 161400Z AUTO 15006KT 9999 FEW041 SCT060 OVC070 26/22 Q1011 NOSIG
RJNK,2020-09-16 14:00,136.4075,36.3939,73.40,68.00,83.21,130.00,4.00,0.00,29.83,M,6.21,M,FEW,SCT,BKN,M,5000.00,10000.00,12000.00,M,M,M,M,M,M,M,M,M,RJNK 161400Z 13004KT 9999 FEW050 SCT100 BKN120 23/20 Q1010
RJOH,2020-09-16 14:00,133.2392,35.4933,75.20,71.60,88.59,190.00,4.00,0.00,29.83,M,6.21,M,FEW,BKN,BKN,M,3000.00,5000.00,8000.00,M,M,M,M,M,M,M,M,M,RJOH 161400Z 19004KT 9999 FEW030 BKN050 BKN080 24/22 Q1010
RJGG,2020-09-16 14:00,136.8054,34.8584,75.20,71.60,88.59,160.00,10.00,0.00,29.88,M,6.21,M,FEW,SCT,BKN,M,1500.00,2500.00,5000.00,M,SHRA,M,M,M,M,M,M,M,RJGG 161400Z 16010KT 9999 SHRA FEW015 SCT025 BKN050 24/22 Q1012 NOSIG
RJKI,2020-09-16 14:00,129.9281,28.3213,80.60,78.80,94.27,190.00,4.00,0.00,29.91,M,6.21,M,NCD,M,M,M,M,M,M,M,M,M,M,M,M,M,M,89.33,RJKI 161400Z AUTO 19004KT 140V230 9999 NCD 27/26 Q1013
ROMD,2020-09-16 14:00,131.2286,25.8289,82.40,78.80,88.90,M,3.00,0.00,29.94,M,6.21,M,NCD,M,M,M,M,M,M,M,M,M,M,M,M,M,M,92.76,ROMD 161400Z AUTO VRB03KT 9999 NCD 28/26 Q1014
RORY,2020-09-16 14:00,128.4020,27.0440,80.60,78.80,94.27,M,2.00,0.00,29.91,M,6.21,M,NSC,M,M,M,M,M,M,M,M,M,M,M,M,M,M,89.33,RORY 161400Z AUTO VRB02KT 9999 NSC 27/26 Q1013
RJSM,2020-09-16 14:00,141.3684,40.7032,68.00,68.00,100.00,140.00,9.00,0.00,29.91,M,6.21,M,SCT,SCT,M,M,600.00,1500.00,M,M,M,M,M,M,M,M,M,M,RJSM 161400Z 14009KT 9999 SCT006 SCT015 20/20 Q1013
RJFS,2020-09-16 14:00,130.3000,33.1500,77.00,73.40,88.67,170.00,10.00,0.00,29.83,M,6.21,M,FEW,SCT,BKN,M,500.00,1500.00,2500.00,M,M,M,M,M,M,M,M,M,RJFS 161400Z 17010KT 9999 FEW005 SCT015 BKN025 25/23 Q1010
RJTT,2020-09-16 14:00,139.7811,35.5533,77.00,71.60,83.44,100.00,3.00,0.00,29.88,M,6.21,M,FEW,BKN,M,M,1000.00,8000.00,M,M,-SHRA,M,M,M,M,M,M,M,RJTT 161400Z 10003KT 9999 -SHRA FEW010 BKN080 25/22 Q1012 BECMG 04006KT
RJOS,2020-09-16 14:00,134.6092,34.1322,77.00,69.80,78.48,190.00,11.00,0.00,29.85,M,6.21,M,FEW,SCT,BKN,M,2500.00,6000.00,14000.00,M,M,M,M,M,M,M,M,M,RJOS 161400Z 19011KT 9999 FEW025 SCT060 BKN140 25/21 Q1011
RORK,2020-09-16 14:00,131.3333,25.9167,84.20,78.80,83.88,100.00,4.00,0.00,29.94,M,6.21,M,NCD,M,M,M,M,M,M,M,M,M,M,M,M,M,M,96.10,RORK 161400Z AUTO 10004KT 9999 NCD 29/26 Q1014
ROYN,2020-09-16 14:00,122.9780,24.4670,84.20,78.80,83.88,160.00,10.00,0.00,29.85,M,6.21,M,FEW,M,M,M,1600.00,M,M,M,M,M,M,M,M,M,M,96.10,ROYN 161400Z AUTO 16010KT 9999 FEW016 29/26 Q1011
ROAH,2020-09-16 14:00,127.6458,26.1958,82.40,77.00,83.77,130.00,4.00,0.00,29.91,M,6.21,M,FEW,BKN,M,M,1500.00,M,M,M,M,M,M,M,M,M,M,90.85,ROAH 161400Z 13004KT 9999 FEW015 BKN/// 28/25 Q1013
RJOZ,2020-09-16 14:10,131.0522,34.0469,75.20,73.40,94.14,110.00,4.00,0.00,29.83,M,6.21,M,FEW,BKN,BKN,M,1500.00,2000.00,4000.00,M,-SHRA,M,M,M,M,M,M,M,RJOZ 161410Z 11004KT 9999 -SHRA FEW015 BKN020 BKN040 24/23 Q1010 RMK 1CU015 5CU020 7SC040 A2983
RJFF,2020-09-16 14:22,130.4517,33.5844,75.20,73.40,94.14,150.00,12.00,0.00,29.80,M,0.87,M,FEW,SCT,BKN,///,1000.00,1700.00,2300.00,M,-RA BR,M,M,M,M,M,M,M,RJFF 161422Z AUTO 15012KT 1400 R34/P2000N -RA BR FEW010 SCT017 BKN023 //////TCU 24/23 Q1009 RMK A2982 TCU OHD MOV UNKNOWN
RJFF,2020-09-16 14:24,130.4517,33.5844,75.20,73.40,94.14,150.00,12.00,0.00,29.80,M,0.68,M,FEW,SCT,BKN,///,1000.00,1700.00,2100.00,M,+RA BR,M,M,M,M,M,M,M,RJFF 161424Z AUTO 15012KT 1100 R34/P2000N +RA BR FEW010 SCT017 BKN021 //////TCU 24/23 Q1009 RMK A2982 RI018 TCU OHD MOV UNKNOWN
RJOS,2020-09-16 14:27,134.6092,34.1322,75.20,69.80,83.32,250.00,5.00,0.00,29.85,M,6.21,M,FEW,SCT,BKN,M,2500.00,6000.00,14000.00,M,M,M,M,M,M,M,M,M,RJOS 161427Z 25005KT 210V300 9999 FEW025 SCT060 BKN140 24/21 Q1011 RMK 1CU025 4SC060 7AC140 A2986
RJFF,2020-09-16 14:29,130.4517,33.5844,75.20,73.40,94.14,150.00,13.00,0.00,29.80,M,4.35,M,FEW,SCT,BKN,///,1000.00,2100.00,3500.00,M,RA,M,M,M,M,M,M,M,RJFF 161429Z AUTO 15013KT 7000 R34/P2000N RA FEW010 SCT021 BKN035 //////TCU 24/23 Q1009 RMK A2982 RI008 TCU OHD MOV UNKNOWN
RJAA,2020-09-16 14:30,140.3856,35.7653,73.40,71.60,94.10,30.00,6.00,0.00,29.88,M,6.21,M,FEW,BKN,BKN,M,300.00,500.00,700.00,M,M,M,M,M,M,M,M,M,RJAA 161430Z 03006KT 9999 FEW003 BKN005 BKN007 23/22 Q1012 NOSIG RMK 1ST003 5ST005 7ST007 A2990
RJCC,2020-09-16 14:30,141.6926,42.7742,66.20,66.20,100.00,140.00,5.00,0.00,29.94,M,6.21,M,FEW,BKN,M,M,1000.00,5000.00,M,M,M,M,M,M,M,M,M,M,RJCC 161430Z 14005KT 9999 FEW010 BKN050 19/19 Q1014 RMK 1ST010 7CU050 A2997
RJFF,2020-09-16 14:30,130.4517,33.5844,75.20,73.40,94.14,150.00,13.00,0.00,29.80,M,3.73,M,FEW,SCT,BKN,///,1000.00,2100.00,3600.00,M,RA,M,M,M,M,M,M,M,RJFF 161430Z AUTO 15013KT 6000 R34/P2000N RA FEW010 SCT021 BKN036 //////TCU 24/23 Q1009 TEMPO 4000 SHRA BR RMK A2982 RI006 TCU OHD MOV NE
RJBB,2020-09-16 14:30,135.2328,34.4342,77.00,71.60,83.44,190.00,4.00,0.00,29.85,M,6.21,M,FEW,SCT,OVC,M,3300.00,6000.00,7000.00,M,-RA,M,M,M,M,M,M,M,RJBB 161430Z AUTO 19004KT 9999 -RA FEW033 SCT060 OVC070 25/22 Q1011 NOSIG
RJGG,2020-09-16 14:30,136.8054,34.8584,75.20,71.60,88.59,100.00,5.00,0.00,29.88,M,6.21,M,FEW,SCT,BKN,M,1500.00,4000.00,M,M,-SHRA,M,M,M,M,M,M,M,RJGG 161430Z 10005KT 9999 -SHRA FEW015 SCT040 BKN/// 24/22 Q1012 NOSIG
RJTT,2020-09-16 14:30,139.7811,35.5533,77.00,71.60,83.44,110.00,6.00,0.00,29.88,M,6.21,M,FEW,SCT,BKN,M,1000.00,10000.00,M,M,M,M,M,M,M,M,M,M,RJTT 161430Z 11006KT 9999 FEW010 SCT100 BKN/// 25/22 Q1012 BECMG 04006KT RMK 1CU010 4AC100 A2990
ROAH,2020-09-16 14:30,127.6458,26.1958,82.40,77.00,83.77,130.00,4.00,0.00,29.91,M,6.21,M,FEW,BKN,M,M,1500.00,M,M,M,M,M,M,M,M,M,M,90.85,ROAH 161430Z 13004KT 9999 FEW015 BKN/// 28/25 Q1013 RMK 1CU015 A2993
RJNY,2020-09-16 14:38,138.2981,34.8128,75.20,71.60,88.59,10.00,3.00,0.00,29.88,M,6.21,M,FEW,BKN,BKN,M,1500.00,2500.00,4500.00,M,-SHRA,M,M,M,M,M,M,M,RJNY 161438Z 01003KT 9999 -SHRA FEW015 BKN025 BKN045 24/22 Q1012 RMK 1CU015 5CU025 5SC045 A2991
RJFF,2020-09-16 14:40,130.4517,33.5844,75.20,73.40,94.14,150.00,12.00,0.00,29.80,M,5.59,M,FEW,SCT,BKN,///,1000.00,1700.00,2100.00,M,-RA,M,M,M,M,M,M,M,RJFF 161440Z AUTO 15012KT 9000 -RA FEW010 SCT017 BKN021 //////TCU 24/23 Q1009 RMK A2981 TCU OHD MOV E
RJAA,2020-09-16 14:41,140.3856,35.7653,71.60,71.60,100.00,50.00,5.00,0.00,29.88,M,6.21,M,FEW,BKN,BKN,M,300.00,400.00,9000.00,M,M,M,M,M,M,M,M,M,RJAA 161441Z 05005KT 9999 FEW003 BKN004 BKN090 22/22 Q1012 RMK 1ST003 5ST004 7AC090 A2989
RJTY,2020-09-16 14:51,139.3485,35.7485,73.40,69.80,88.51,0.00,0.00,0.00,29.96,1014.30,10.00,M,FEW,BKN,M,M,5500.00,7000.00,M,M,-RA,M,M,M,M,M,M,M,RJTY 161451Z AUTO 00000KT 10SM -RA FEW055 BKN070 23/21 A2996 RMK AO2 RAB51 SLP143 FZRANO $
RJOI,2020-09-16 14:55,132.2357,34.1439,78.10,72.00,81.55,220.00,8.00,0.00,29.85,1010.60,6.21,M,FEW,BKN,OVC,M,1500.00,2500.00,5000.00,M,M,M,M,M,M,M,M,M,RJOI 161455Z 22008KT 9999 FEW015 BKN025 OVC050 26/22 A2985 RMK SLP106 T02560222 402670233 58007
RJTY,2020-09-16 14:56,139.3485,35.7485,73.40,70.00,89.11,0.00,0.00,T,29.96,1014.30,10.00,M,FEW,SCT,M,M,5500.00,7000.00,M,M,-RA,M,M,M,M,M,M,M,RJTY 161456Z AUTO 00000KT 10SM -RA FEW055 SCT070 23/21 A2996 RMK AO2 RAB51 SLP143 P0000 60000 T02300211 402630202 55008 FZRANO $
RODN,2020-09-16 14:56,127.7676,26.3556,80.10,76.50,88.81,0.00,0.00,0.00,29.93,1014.00,10.00,M,CLR,M,M,M,M,M,M,M,M,M,M,M,M,M,M,86.26,RODN 161456Z AUTO 00000KT 10SM CLR 27/25 A2993 RMK AO2 SLP140 T02670247 403110237 50000 $
RJSD,2020-09-16 15:00,138.4139,38.0602,69.80,66.20,88.34,M,2.00,0.00,29.83,M,6.21,M,NSC,M,M,M,M,M,M,M,M,M,M,M,M,M,M,M,RJSD 161500Z AUTO VRB02KT 9999 NSC 21/19 Q1010
RJFR,2020-09-16 15:00,131.0350,33.8456,77.00,73.40,88.67,140.00,6.00,0.00,29.80,M,6.21,M,FEW,SCT,BKN,M,1500.00,3500.00,6000.00,M,M,M,M,M,M,M,M,M,RJFR 161500Z 14006KT 110V180 9999 FEW015 SCT035 BKN060 25/23 Q1009
RJAA,2020-09-16 15:00,140.3856,35.7653,73.40,71.60,94.10,50.00,5.00,0.00,29.88,M,6.21,M,FEW,BKN,BKN,M,300.00,400.00,9000.00,M,M,M,M,M,M,M,M,M,RJAA 161500Z 05005KT 360V080 9999 FEW003 BKN004 BKN090 23/22 Q1012 NOSIG
RJAH,2020-09-16 15:00,140.4147,36.1817,69.80,68.00,94.01,70.00,3.00,0.00,29.88,M,6.21,M,FEW,BKN,BKN,M,1000.00,1200.00,10000.00,M,M,M,M,M,M,M,M,M,RJAH 161500Z 07003KT 9999 FEW010 BKN012 BKN100 21/20 Q1012
RJCC,2020-09-16 15:00,141.6926,42.7742,66.20,64.40,93.92,140.00,6.00,0.00,29.94,M,6.21,M,FEW,SCT,BKN,M,1000.00,1500.00,4500.00,M,M,M,M,M,M,M,M,M,RJCC 161500Z 14006KT 9999 FEW010 SCT015 BKN045 19/18 Q1014
RJFF,2020-09-16 15:00,130.4517,33.5844,75.20,73.40,94.14,140.00,14.00,0.00,29.80,M,6.21,M,FEW,SCT,BKN,///,1200.00,1800.00,3000.00,M,M,M,M,M,M,M,M,M,RJFF 161500Z AUTO 14014KT 9999 FEW012 SCT018 BKN030 //////TCU 24/23 Q1009 TEMPO 4000 -SHRA BR
RJAW,2020-09-16 15:00,141.3227,24.7840,82.40,75.20,78.90,110.00,6.00,0.00,29.94,M,6.21,M,SCT,M,M,M,1500.00,M,M,M,M,M,M,M,M,M,M,89.48,RJAW 161500Z 11006KT 9999 SCT015 28/24 Q1014 RMK 3CU015 A2997
RJBB,2020-09-16 15:00,135.2328,34.4342,77.00,73.40,88.67,200.00,5.00,0.00,29.85,M,6.21,M,FEW,SCT,BKN,M,2200.00,2600.00,2800.00,M,M,M,M,M,M,M,M,M,RJBB 161500Z AUTO 20005KT 150V220 9999 FEW022 SCT026 BKN028 25/23 Q1011 NOSIG
RJNK,2020-09-16 15:00,136.4075,36.3939,73.40,68.00,83.21,M,2.00,0.00,29.80,M,6.21,M,SCT,SCT,BKN,M,5000.00,10000.00,12000.00,M,M,M,M,M,M,M,M,M,RJNK 161500Z VRB02KT 9999 SCT050 SCT100 BKN120 23/20 Q1009
RJOH,2020-09-16 15:00,133.2392,35.4933,75.20,71.60,88.59,200.00,2.00,0.00,29.80,M,6.21,M,FEW,SCT,BKN,M,2500.00,3000.00,4500.00,M,M,M,M,M,M,M,M,M,RJOH 161500Z 20002KT 9999 FEW025 SCT030 BKN045 24/22 Q1009
RJGG,2020-09-16 15:00,136.8054,34.8584,77.00,71.60,83.44,90.00,5.00,0.00,29.85,M,6.21,M,FEW,SCT,BKN,M,1500.00,4000.00,M,M,-SHRA,M,M,M,M,M,M,M,RJGG 161500Z 09005KT 9999 -SHRA FEW015 SCT040 BKN/// 25/22 Q1011 NOSIG
RJKI,2020-09-16 15:00,129.9281,28.3213,82.40,78.80,88.90,200.00,6.00,0.00,29.91,M,6.21,M,NSC,M,M,M,M,M,M,M,M,M,M,M,M,M,M,92.76,RJKI 161500Z AUTO 20006KT 160V240 9999 NSC 28/26 Q1013
ROMD,2020-09-16 15:00,131.2286,25.8289,82.40,78.80,88.90,90.00,3.00,0.00,29.94,M,6.21,M,FEW,M,M,M,1500.00,M,M,M,M,M,M,M,M,M,M,92.76,ROMD 161500Z AUTO 09003KT 030V140 9999 FEW015 28/26 Q1014
RORY,2020-09-16 15:00,128.4020,27.0440,80.60,78.80,94.27,200.00,4.00,0.00,29.91,M,6.21,M,NSC,M,M,M,M,M,M,M,M,M,M,M,M,M,M,89.33,RORY 161500Z AUTO 20004KT 9999 NSC 27/26 Q1013
RJSM,2020-09-16 15:00,141.3684,40.7032,68.00,68.00,100.00,130.00,8.00,0.00,29.91,M,6.21,M,FEW,BKN,M,M,300.00,500.00,M,M,M,M,M,M,M,M,M,M,RJSM 161500Z 13008KT 9999 FEW003 BKN005 20/20 Q1013
RJTT,2020-09-16 15:00,139.7811,35.5533,77.00,73.40,88.67,70.00,4.00,0.00,29.88,M,6.21,M,FEW,SCT,BKN,M,900.00,1100.00,8000.00,M,M,M,M,M,M,M,M,M,RJTT 161500Z 07004KT 030V100 9999 FEW009 SCT011 BKN080 25/23 Q1012 NOSIG
RJOS,2020-09-16 15:00,134.6092,34.1322,75.20,69.80,83.32,230.00,4.00,0.00,29.85,M,6.21,M,FEW,SCT,BKN,M,2500.00,6000.00,14000.00,M,M,M,M,M,M,M,M,M,RJOS 161500Z 23004KT 200V260 9999 FEW025 SCT060 BKN140 24/21 Q1011
RORK,2020-09-16 15:00,131.3333,25.9167,84.20,78.80,83.88,100.00,5.00,0.00,29.94,M,6.21,M,NCD,M,M,M,M,M,M,M,M,M,M,M,M,M,M,96.10,RORK 161500Z AUTO 10005KT 9999 NCD 29/26 Q1014
ROYN,2020-09-16 15:00,122.9780,24.4670,84.20,80.60,88.98,160.00,10.00,0.00,29.85,M,6.21,M,FEW,M,M,M,1100.00,M,M,M,M,M,M,M,M,M,M,98.50,ROYN 161500Z AUTO 16010KT 9999 FEW011 29/27 Q1011
ROAH,2020-09-16 15:00,127.6458,26.1958,82.40,77.00,83.77,140.00,5.00,0.00,29.91,M,6.21,M,FEW,BKN,M,M,1500.00,M,M,M,M,M,M,M,M,M,M,90.85,ROAH 161500Z 14005KT 9999 FEW015 BKN/// 28/25 Q1013
RJTY,2020-09-16 15:02,139.3485,35.7485,73.40,69.80,88.51,0.00,0.00,0.00,29.97,1014.70,10.00,M,FEW,SCT,M,M,5500.00,7000.00,M,M,M,M,M,M,M,M,M,M,RJTY 161502Z AUTO 00000KT 10SM FEW055 SCT070 23/21 A2997 RMK AO2 RAE00DZB00E02 SLP147 FZRANO $
RJNY,2020-09-16 15:21,138.2981,34.8128,75.20,71.60,88.59,20.00,4.00,0.00,29.88,M,6.21,M,FEW,SCT,BKN,M,1500.00,2500.00,4500.00,M,M,M,M,M,M,M,M,M,RJNY 161521Z 02004KT 9999 FEW015 SCT025 BKN045 24/22 Q1012 RMK 1CU015 4CU025 5SC045 A2991
RJFR,2020-09-16 15:28,131.0350,33.8456,77.00,73.40,88.67,200.00,5.00,0.00,29.83,M,1.24,M,FEW,SCT,BKN,M,1000.00,2000.00,3000.00,M,+SHRA,M,M,M,M,M,M,M,RJFR 161528Z 20005KT 140V220 2000 R18/1100VP1800D +SHRA FEW010 SCT020 BKN030 25/23 Q1010 RMK 1CU010 3CU020 5CU030 A2982 RI++
RJAA,2020-09-16 15:30,140.3856,35.7653,71.60,71.60,100.00,M,2.00,0.00,29.91,M,6.21,M,FEW,SCT,BKN,M,300.00,400.00,8000.00,M,M,M,M,M,M,M,M,M,RJAA 161530Z VRB02KT 9999 FEW003 SCT004 BKN080 22/22 Q1013 TEMPO FEW003 BKN004
RJCC,2020-09-16 15:30,141.6926,42.7742,64.40,64.40,100.00,130.00,6.00,0.00,29.94,M,6.21,M,FEW,BKN,M,M,1000.00,4500.00,M,M,M,M,M,M,M,M,M,M,RJCC 161530Z 13006KT 9999 FEW010 BKN045 18/18 Q1014
RJFF,2020-09-16 15:30,130.4517,33.5844,75.20,73.40,94.14,160.00,11.00,0.00,29.80,M,3.11,M,FEW,SCT,BKN,///,1100.00,1900.00,2300.00,M,-RA BR,M,M,M,M,M,M,M,RJFF 161530Z AUTO 16011KT 5000 -RA BR FEW011 SCT019 BKN023 //////CB 24/23 Q1009 TEMPO TL1700 4000 -SHRA BR
RJBB,2020-09-16 15:30,135.2328,34.4342,77.00,73.40,88.67,190.00,7.00,0.00,29.85,M,6.21,M,OVC,M,M,M,2200.00,M,M,M,M,M,M,M,M,M,M,M,RJBB 161530Z AUTO 19007KT 9999 OVC022 25/23 Q1011 NOSIG
RJGG,2020-09-16 15:30,136.8054,34.8584,77.00,71.60,83.44,140.00,9.00,0.00,29.85,M,6.21,M,FEW,SCT,BKN,M,1500.00,3500.00,M,M,-SHRA,M,M,M,M,M,M,M,RJGG 161530Z 14009KT 9999 -SHRA FEW015 SCT035 BKN/// 25/22 Q1011 NOSIG
RJTT,2020-09-16 15:30,139.7811,35.5533,75.20,73.40,94.14,60.00,4.00,0.00,29.91,M,6.21,M,FEW,SCT,BKN,M,900.00,1100.00,7000.00,M,M,M,M,M,M,M,M,M,RJTT 161530Z 06004KT 360V100 9999 FEW009 SCT011 BKN070 24/23 Q1013 BECMG 04005KT
ROAH,2020-09-16 15:30,127.6458,26.1958,82.40,77.00,83.77,130.00,4.00,0.00,29.91,M,6.21,M,FEW,BKN,M,M,1500.00,M,M,M,M,M,M,M,M,M,M,90.85,ROAH 161530Z 13004KT 9999 FEW015 BKN/// 28/25 Q1013
RJFR,2020-09-16 15:32,131.0350,33.8456,77.00,73.40,88.67,200.00,6.00,0.00,29.80,M,0.93,M,FEW,SCT,BKN,M,700.00,1500.00,3000.00,M,+SHRA,M,M,M,M,M,M,M,RJFR 161532Z 20006KT 1500 R18/0500VP1800D +SHRA FEW007 SCT015 BKN030 25/23 Q1009 RMK 1ST007 3CU015 5CU030 A2982 RI++
RJFF,2020-09-16 15:32,130.4517,33.5844,75.20,73.40,94.14,160.00,11.00,0.00,29.80,M,0.87,M,FEW,SCT,BKN,///,1100.00,1700.00,1900.00,M,-RA BR,M,M,M,M,M,M,M,RJFF 161532Z AUTO 16011KT 1400 R16/P2000N -RA BR FEW011 SCT017 BKN019 //////CB 24/23 Q1009 RMK A2982 CB OHD MOV E
RJFF,2020-09-16 15:35,130.4517,33.5844,75.20,73.40,94.14,170.00,11.00,0.00,29.80,M,1.06,M,FEW,SCT,BKN,///,1100.00,1900.00,2300.00,M,+RA BR,M,M,M,M,M,M,M,RJFF 161535Z AUTO 17011KT 1700 +RA BR FEW011 SCT019 BKN023 //////CB 24/23 Q1009 RMK A2981 RI030 CB OHD MOV E
RJFR,2020-09-16 15:37,131.0350,33.8456,75.20,73.40,94.14,180.00,5.00,0.00,29.80,M,1.86,M,FEW,SCT,BKN,M,700.00,1500.00,3000.00,M,SHRA,M,M,M,M,M,M,M,RJFR 161537Z 18005KT 140V220 3000 R18/0500VP1800U SHRA FEW007 SCT015 BKN030 24/23 Q1009 RMK 1ST007 3CU015 5CU030 A2981
RJNG,2020-09-16 15:42,136.8694,35.3944,75.20,71.60,88.59,90.00,2.00,0.00,29.88,M,6.21,M,FEW,BKN,BKN,M,1500.00,2500.00,5000.00,M,M,M,M,M,M,M,M,M,RJNG 161542Z 09002KT 9999 FEW015 BKN025 BKN050 24/22 Q1012 RMK 1CU015 5CU025 7SC050 A2989
RJFR,2020-09-16 15:43,131.0350,33.8456,75.20,73.40,94.14,150.00,3.00,0.00,29.80,M,3.73,M,FEW,SCT,BKN,M,700.00,1500.00,3000.00,M,SHRA,M,M,M,M,M,M,M,RJFR 161543Z 15003KT 6000 R18/0900VP1800U SHRA FEW007 SCT015 BKN030 24/23 Q1009 RMK 1ST007 3CU015 5CU030 A2981
RJAA,2020-09-16 15:45,140.3856,35.7653,73.40,71.60,94.10,340.00,4.00,0.00,29.91,M,6.21,M,FEW,BKN,BKN,M,300.00,500.00,8000.00,M,M,M,M,M,M,M,M,M,RJAA 161545Z 34004KT 9999 FEW003 BKN005 BKN080 23/22 Q1013 RMK 1ST003 5ST005 7AC080 A2992
RJFF,2020-09-16 15:47,130.4517,33.5844,75.20,73.40,94.14,170.00,10.00,0.00,29.80,M,1.74,M,FEW,SCT,BKN,///,1100.00,1700.00,1900.00,M,RA BR,M,M,M,M,M,M,M,RJFF 161547Z AUTO 17010KT 2800 RA BR FEW011 SCT017 BKN019 //////TCU 24/23 Q1009 RMK A2982 RI008 TCU OHD MOV NE AND 35KM NE MOV E
RJSO,2020-09-16 15:48,141.1322,41.2328,69.80,66.20,88.34,90.00,4.00,0.00,29.91,M,6.21,M,FEW,BKN,M,M,800.00,1400.00,M,M,M,M,M,M,M,M,M,M,RJSO 161548Z 09004KT 060V140 9999 FEW008 BKN014 21/19 Q1013 RMK 1ST008 7SC014 A2992
RJFF,2020-09-16 15:49,130.4517,33.5844,75.20,73.40,94.14,170.00,10.00,0.00,29.80,M,0.68,M,FEW,SCT,BKN,///,1100.00,1700.00,1900.00,M,+RA BR,M,M,M,M,M,M,M,RJFF 161549Z AUTO 17010KT 1100 R16/P2000N +RA BR FEW011 SCT017 BKN019 //////TCU 24/23 Q1009 RMK A2982 RI037 TCU OHD MOV NE AND 35KM NE MOV E
RJOZ,2020-09-16 15:49,131.0522,34.0469,75.20,73.40,94.14,90.00,5.00,0.00,29.80,M,4.97,M,FEW,SCT,BKN,FEW,600.00,1000.00,2000.00,2000.00,SHRA,M,M,M,M,M,M,M,RJOZ 161549Z 09005KT 8000 SHRA FEW006 SCT010 BKN020 FEW020TCU 24/23 Q1009 RMK 2ST006 3CU010 7CU020 2TCU020 A2981 TCU OHD MOV NE
RJNG,2020-09-16 15:52,136.8694,35.3944,75.20,71.60,88.59,110.00,1.00,0.00,29.88,M,6.21,M,FEW,BKN,BKN,M,1500.00,2500.00,4500.00,M,-SHRA,M,M,M,M,M,M,M,RJNG 161552Z 11001KT 9999 -SHRA FEW015 BKN025 BKN045 24/22 Q1012 RMK 1CU015 5CU025 7SC045 A2990
RJOI,2020-09-16 15:55,132.2357,34.1439,78.10,72.00,81.55,200.00,8.00,T,29.83,1010.20,6.21,M,FEW,BKN,OVC,M,1500.00,2500.00,5000.00,M,M,M,M,M,M,M,M,M,RJOI 161555Z 20008KT 9999 FEW015 BKN025 OVC050 26/22 A2983 RMK SHRAB26E36 SLP102 P0000 T02560222
RJTY,2020-09-16 15:56,139.3485,35.7485,73.40,70.00,89.11,0.00,0.00,T,29.97,1014.60,10.00,M,BKN,M,M,M,7000.00,M,M,M,M,M,M,M,M,M,M,M,RJTY 161556Z AUTO 00000KT 10SM BKN070 23/21 A2997 RMK AO2 RAE00DZB00E02 SLP146 P0000 T02300211 FZRANO $
RODN,2020-09-16 15:56,127.7676,26.3556,79.90,76.30,88.80,130.00,5.00,0.00,29.91,1013.30,10.00,M,CLR,M,M,M,M,M,M,M,M,M,M,M,M,M,M,M,RODN 161556Z AUTO 13005KT 10SM CLR 27/25 A2991 RMK AO2 SLP133 T02660246 $
ROTM,2020-09-16 15:56,127.7565,26.2743,82.00,79.00,90.66,150.00,5.00,0.00,29.94,1016.10,6.21,M,SCT,M,M,M,3000.00,M,M,M,M,M,M,M,M,M,M,92.25,ROTM 161556Z 15005KT 9999 SCT030 28/26 A2994 RMK SLP161 T02780261
RJSD,2020-09-16 16:00,138.4139,38.0602,69.80,66.20,88.34,M,1.00,0.00,29.83,M,6.21,M,NSC,M,M,M,M,M,M,M,M,M,M,M,M,M,M,M,RJSD 161600Z AUTO VRB01KT 9999 NSC 21/19 Q1010
RJFR,2020-09-16 16:00,131.0350,33.8456,75.20,73.40,94.14,80.00,3.00,0.00,29.80,M,4.35,M,FEW,SCT,BKN,M,1000.00,2500.00,3500.00,M,-SHRA,M,M,M,M,M,M,M,RJFR 161600Z 08003KT 020V160 7000 -SHRA FEW010 SCT025 BKN035 24/23 Q1009
RJAA,2020-09-16 16:00,140.3856,35.7653,71.60,71.60,100.00,330.00,6.00,0.00,29.91,M,6.21,M,FEW,BKN,BKN,M,400.00,600.00,8000.00,M,M,M,M,M,M,M,M,M,RJAA 161600Z 33006KT 9999 FEW004 BKN006 BKN080 22/22 Q1013 TEMPO FEW003 BKN005
RJAH,2020-09-16 16:00,140.4147,36.1817,69.80,68.00,94.01,M,1.00,0.00,29.88,M,6.21,M,FEW,SCT,BKN,M,1000.00,1200.00,10000.00,M,M,M,M,M,M,M,M,M,RJAH 161600Z VRB01KT 9999 FEW010 SCT012 BKN100 21/20 Q1012
RJCC,2020-09-16 16:00,141.6926,42.7742,64.40,64.40,100.00,140.00,3.00,0.00,29.94,M,6.21,M,FEW,SCT,M,M,1000.00,4500.00,M,M,M,M,M,M,M,M,M,M,RJCC 161600Z 14003KT 9999 FEW010 SCT045 18/18 Q1014
RJFF,2020-09-16 16:00,130.4517,33.5844,75.20,73.40,94.14,150.00,9.00,0.00,29.80,M,3.04,M,FEW,SCT,BKN,///,1300.00,1600.00,2600.00,M,+RA BR,M,M,M,M,M,M,M,RJFF 161600Z AUTO 15009KT 4900 R16/P2000N +RA BR FEW013 SCT016 BKN026 //////TCU 24/23 Q1009 TEMPO TL1700 3000 +TSRA BR
RJBB,2020-09-16 16:00,135.2328,34.4342,78.80,71.60,78.62,190.00,9.00,0.00,29.85,M,6.21,M,FEW,OVC,M,M,2000.00,7000.00,M,M,M,M,M,M,M,M,M,M,RJBB 161600Z AUTO 19009KT 120V260 9999 FEW020 OVC070 26/22 Q1011 NOSIG
RJNK,2020-09-16 16:00,136.4075,36.3939,73.40,68.00,83.21,M,1.00,0.00,29.83,M,6.21,M,FEW,BKN,M,M,3000.00,5000.00,M,M,M,M,M,M,M,M,M,M,RJNK 161600Z VRB01KT 9999 FEW030 BKN050 23/20 Q1010
RJOH,2020-09-16 16:00,133.2392,35.4933,75.20,71.60,88.59,240.00,7.00,0.00,29.83,M,6.21,M,FEW,BKN,BKN,M,1500.00,3000.00,4500.00,M,-SHRA,M,M,M,M,M,M,M,RJOH 161600Z 24007KT 9999 -SHRA FEW015 BKN030 BKN045 24/22 Q1010
RJGG,2020-09-16 16:00,136.8054,34.8584,75.20,71.60,88.59,150.00,5.00,0.00,29.85,M,6.21,M,FEW,SCT,BKN,M,1500.00,2000.00,M,M,VCSH,M,M,M,M,M,M,M,RJGG 161600Z 15005KT 9999 VCSH FEW015 SCT020 BKN/// 24/22 Q1011 NOSIG
RJKI,2020-09-16 16:00,129.9281,28.3213,82.40,78.80,88.90,200.00,5.00,0.00,29.88,M,6.21,M,FEW,BKN,OVC,M,1300.00,19000.00,20000.00,M,M,M,M,M,M,M,M,92.76,RJKI 161600Z AUTO 20005KT 9999 FEW013 BKN190 OVC200 28/26 Q1012
ROMD,2020-09-16 16:00,131.2286,25.8289,82.40,78.80,88.90,110.00,3.00,0.00,29.91,M,6.21,M,FEW,M,M,M,1700.00,M,M,M,M,M,M,M,M,M,M,92.76,ROMD 161600Z AUTO 11003KT 050V170 9999 FEW017 28/26 Q1013
RORY,2020-09-16 16:00,128.4020,27.0440,82.40,78.80,88.90,180.00,5.00,0.00,29.88,M,6.21,M,FEW,M,M,M,1100.00,M,M,M,M,M,M,M,M,M,M,92.76,RORY 161600Z AUTO 18005KT 9999 FEW011 28/26 Q1012
RJSM,2020-09-16 16:00,141.3684,40.7032,68.00,68.00,100.00,140.00,9.00,0.00,29.88,M,6.21,M,FEW,BKN,BKN,M,200.00,300.00,500.00,M,M,M,M,M,M,M,M,M,RJSM 161600Z 14009KT 9999 FEW002 BKN003 BKN005 20/20 Q1012
RJTT,2020-09-16 16:00,139.7811,35.5533,75.20,71.60,88.59,30.00,4.00,0.00,29.91,M,6.21,M,FEW,SCT,BKN,M,900.00,5000.00,7000.00,M,M,M,M,M,M,M,M,M,RJTT 161600Z 03004KT 9999 FEW009 SCT050 BKN070 24/22 Q1013 NOSIG
RJOS,2020-09-16 16:00,134.6092,34.1322,75.20,69.80,83.32,180.00,3.00,0.00,29.85,M,6.21,M,FEW,BKN,M,M,2500.00,14000.00,M,M,M,M,M,M,M,M,M,M,RJOS 161600Z 18003KT 9999 FEW025 BKN140 24/21 Q1011
RORK,2020-09-16 16:00,131.3333,25.9167,84.20,78.80,83.88,110.00,6.00,0.00,29.91,M,2.98,M,FEW,M,M,M,1500.00,M,M,M,BR,M,M,M,M,M,M,96.10,RORK 161600Z AUTO 11006KT 4800 BR FEW015 29/26 Q1013
ROYN,2020-09-16 16:00,122.9780,24.4670,84.20,78.80,83.88,160.00,12.00,0.00,29.83,M,6.21,M,FEW,SCT,M,M,1600.00,1700.00,M,M,M,M,M,M,M,M,M,96.10,ROYN 161600Z AUTO 16012KT 9999 FEW016 SCT017 29/26 Q1010
ROAH,2020-09-16 16:00,127.6458,26.1958,82.40,77.00,83.77,130.00,5.00,0.00,29.88,M,6.21,M,FEW,SCT,M,M,1500.00,M,M,M,M,M,M,M,M,M,M,90.85,ROAH 161600Z 13005KT 9999 FEW015 SCT/// 28/25 Q1012
RJOF,2020-09-16 16:02,131.5464,34.0344,75.20,73.40,94.14,120.00,7.00,0.00,29.80,M,6.21,M,FEW,FEW,BKN,M,700.00,3500.00,4000.00,M,-SHRA,M,M,M,M,M,M,M,RJOF 161602Z 12007KT 9999 -SHRA FEW007 FEW035TCU BKN040 24/23 Q1009 RMK 1ST007 1TCU035 7CU040 A2981 TCU SW APCHG STN
RJFF,2020-09-16 16:05,130.4517,33.5844,75.20,73.40,94.14,150.00,8.00,0.00,29.80,M,6.21,M,SCT,BKN,BKN,///,1300.00,1700.00,2700.00,M,-RA,M,M,M,M,M,M,M,RJFF 161605Z AUTO 15008KT 9999 R16/P2000N -RA SCT013 BKN017 BKN027 //////TCU 24/23 Q1009 RMK A2981 TCU OHD MOV UNKNOWN
RJFF,2020-09-16 16:08,130.4517,33.5844,75.20,73.40,94.14,160.00,7.00,0.00,29.80,M,1.99,M,BKN,BKN,BKN,///,1300.00,2200.00,2700.00,M,-RA BR,M,M,M,M,M,M,M,RJFF 161608Z AUTO 16007KT 3200 -RA BR BKN013 BKN022 BKN027 //////TCU 24/23 Q1009 RMK A2982 TCU OHD MOV UNKNOWN
RJFF,2020-09-16 16:11,130.4517,33.5844,75.20,73.40,94.14,160.00,7.00,0.00,29.80,M,1.68,M,BKN,BKN,BKN,///,1300.00,1700.00,2700.00,M,+RA BR,M,M,M,M,M,M,M,RJFF 161611Z AUTO 16007KT 2700 +RA BR BKN013 BKN017 BKN027 //////CB 24/23 Q1009 RMK A2982 RI027 CB OHD MOV NE
RJFF,2020-09-16 16:16,130.4517,33.5844,75.20,73.40,94.14,180.00,5.00,0.00,29.80,M,6.21,M,SCT,BKN,BKN,///,1300.00,1700.00,2700.00,M,RA,M,M,M,M,M,M,M,RJFF 161616Z AUTO 18005KT 9999 RA SCT013 BKN017 BKN027 //////CB 24/23 Q1009 RMK A2982 RI004 CB OHD MOV NE
RJSH,2020-09-16 16:19,141.4672,40.5519,68.00,68.00,100.00,140.00,4.00,0.00,29.88,M,4.97,M,FEW,BKN,BKN,M,300.00,500.00,20000.00,M,M,M,M,M,M,M,M,M,RJSH 161619Z 14004KT 100V170 8000 FEW003 BKN005 BKN200 20/20 Q1012 RMK 1ST003 5ST005 A2990
RJFF,2020-09-16 16:22,130.4517,33.5844,75.20,73.40,94.14,200.00,4.00,0.00,29.80,M,1.62,M,FEW,SCT,BKN,///,1000.00,1300.00,1700.00,M,+RA BR,M,M,M,M,M,M,M,RJFF 161622Z AUTO 20004KT 160V240 2600 +RA BR FEW010 SCT013 BKN017 //////CB 24/23 Q1009 RMK A2982 RI033 CB OHD MOV NE TCU 35KM NE MOV NE
RJOZ,2020-09-16 16:23,131.0522,34.0469,75.20,73.40,94.14,110.00,3.00,0.00,29.80,M,3.11,M,FEW,SCT,BKN,SCT,600.00,1000.00,2000.00,2000.00,+SHRA BR,M,M,M,M,M,M,M,RJOZ 161623Z 11003KT 080V150 5000 +SHRA BR FEW006 SCT010 BKN020 SCT020CB 24/23 Q1009 RMK 2ST006 4CU010 7CU020 3CB020 A2981 CB OHD AND 20KM SW MOV NE
RJFF,2020-09-16 16:24,130.4517,33.5844,75.20,73.40,94.14,210.00,3.00,0.00,29.80,M,0.99,M,FEW,SCT,BKN,///,1000.00,1300.00,1700.00,M,+RA BR,M,M,M,M,M,M,M,RJFF 161624Z AUTO 21003KT 170V240 1600 +RA BR FEW010 SCT013 BKN017 //////CB 24/23 Q1009 RMK A2982 RI033 CB OHD MOV NE TCU 35KM NE MOV NE
RJOF,2020-09-16 16:24,131.5464,34.0344,75.20,73.40,94.14,150.00,5.00,0.00,29.83,M,2.49,M,FEW,BKN,BKN,M,700.00,1200.00,3500.00,M,+SHRA,M,M,M,M,M,M,M,RJOF 161624Z 15005KT 110V190 4000 +SHRA FEW007 BKN012 BKN035TCU 24/23 Q1010 RMK 1ST007 5CU012 7TCU035 A2983 TCU OHD MOV NE
RJAA,2020-09-16 16:30,140.3856,35.7653,73.40,71.60,94.10,360.00,6.00,0.00,29.91,M,6.21,M,FEW,BKN,M,M,600.00,8000.00,M,M,M,M,M,M,M,M,M,M,RJAA 161630Z 36006KT 9999 FEW006 BKN080 23/22 Q1013 NOSIG
RJCC,2020-09-16 16:30,141.6926,42.7742,62.60,62.60,100.00,170.00,4.00,0.00,29.91,M,6.21,M,FEW,SCT,BKN,M,1000.00,5000.00,M,M,M,M,M,M,M,M,M,M,RJCC 161630Z 17004KT 9999 FEW010 SCT050 BKN/// 17/17 Q1013
RJFF,2020-09-16 16:30,130.4517,33.5844,75.20,73.40,94.14,220.00,3.00,0.00,29.80,M,1.93,M,FEW,SCT,BKN,///,500.00,1300.00,1700.00,M,+RA BR,M,M,M,M,M,M,M,RJFF 161630Z AUTO 22003KT 3100 +RA BR FEW005 SCT013 BKN017 //////TCU 24/23 Q1009 NOSIG
RJBB,2020-09-16 16:30,135.2328,34.4342,78.80,71.60,78.62,190.00,10.00,0.00,29.85,M,6.21,M,NSC,M,M,M,M,M,M,M,M,M,M,M,M,M,M,M,RJBB 161630Z AUTO 19010KT 110V210 9999 NSC 26/22 Q1011 NOSIG
RJGG,2020-09-16 16:30,136.8054,34.8584,77.00,71.60,83.44,150.00,4.00,0.00,29.85,M,6.21,M,FEW,SCT,BKN,M,1500.00,2000.00,4000.00,M,-SHRA,M,M,M,M,M,M,M,RJGG 161630Z 15004KT 9999 -SHRA FEW015 SCT020 BKN040 25/22 Q1011 NOSIG
RJTT,2020-09-16 16:30,139.7811,35.5533,75.20,73.40,94.14,40.00,4.00,0.00,29.91,M,6.21,M,FEW,SCT,BKN,M,1000.00,4500.00,11000.00,M,M,M,M,M,M,M,M,M,RJTT 161630Z 04004KT 9999 FEW010 SCT045 BKN110 24/23 Q1013 NOSIG
ROAH,2020-09-16 16:30,127.6458,26.1958,82.40,77.00,83.77,140.00,5.00,0.00,29.88,M,6.21,M,FEW,SCT,M,M,1500.00,M,M,M,M,M,M,M,M,M,M,90.85,ROAH 161630Z 14005KT 9999 FEW015 SCT/// 28/25 Q1012
RJNY,2020-09-16 16:32,138.2981,34.8128,75.20,71.60,88.59,M,2.00,0.00,29.88,M,6.21,M,FEW,SCT,BKN,M,1500.00,4500.00,M,M,M,M,M,M,M,M,M,M,RJNY 161632Z VRB02KT 9999 FEW015 SCT045 BKN/// 24/22 Q1012 RMK 1CU015 3SC045 A2990
RJFF,2020-09-16 16:35,130.4517,33.5844,75.20,73.40,94.14,210.00,4.00,0.00,29.80,M,3.11,M,SCT,BKN,BKN,///,500.00,1300.00,2500.00,M,RA BR,M,M,M,M,M,M,M,RJFF 161635Z AUTO 21004KT 5000 RA BR SCT005 BKN013 BKN025 //////CB 24/23 Q1009 RMK A2982 RI013 CB 30KM SW MOV E TCU OHD AND 40KM NE MOV NE
RJFF,2020-09-16 16:37,130.4517,33.5844,75.20,73.40,94.14,220.00,4.00,0.00,29.80,M,2.86,M,BKN,BKN,BKN,///,500.00,1300.00,2700.00,M,+RA BR,M,M,M,M,M,M,M,RJFF 161637Z AUTO 22004KT 190V260 4600 R16/P2000N +RA BR BKN005 BKN013 BKN027 //////CB 24/23 Q1009 RMK A2982 RI027 CB 30KM SW MOV E TCU OHD AND 40KM NE MOV NE
RJNG,2020-09-16 16:38,136.8694,35.3944,75.20,73.40,94.14,M,2.00,0.00,29.88,M,6.21,M,FEW,BKN,BKN,M,1000.00,2000.00,4000.00,M,-SHRA,M,M,M,M,M,M,M,RJNG 161638Z VRB02KT 9999 -SHRA FEW010 BKN020 BKN040 24/23 Q1012 RMK 1CU010 6CU020 7SC040 A2990
RJFF,2020-09-16 16:43,130.4517,33.5844,75.20,73.40,94.14,250.00,4.00,0.00,29.80,M,2.73,M,BKN,OVC,///,M,500.00,3800.00,M,M,RA BR,M,M,M,M,M,M,M,RJFF 161643Z AUTO 25004KT 4400 R16/P2000N RA BR BKN005 OVC038 //////TCU 24/23 Q1009 RMK A2982 RI011 TCU OHD MOV E AND 25KM SW MOV NE
RJOF,2020-09-16 16:43,131.5464,34.0344,75.20,73.40,94.14,M,2.00,0.00,29.83,M,6.21,M,FEW,BKN,BKN,FEW,700.00,1200.00,3500.00,3500.00,-SHRA,M,M,M,M,M,M,M,RJOF 161643Z VRB02KT 9999 -SHRA FEW007 BKN012 BKN035 FEW035CB 24/23 Q1010 RMK 2ST007 6CU012 7CU035 1CB035 A2983 CB N-NE MOV NE
RJSH,2020-09-16 16:48,141.4672,40.5519,68.00,68.00,100.00,140.00,3.00,0.00,29.88,M,6.21,M,SCT,BKN,M,M,500.00,20000.00,M,M,M,M,M,M,M,M,M,M,RJSH 161648Z 14003KT 120V180 9999 SCT005 BKN200 20/20 Q1012 RMK 4ST005 A2990
RJFF,2020-09-16 16:48,130.4517,33.5844,75.20,73.40,94.14,260.00,3.00,0.00,29.80,M,1.68,M,SCT,BKN,///,M,500.00,700.00,M,M,RA BR,M,M,M,M,M,M,M,RJFF 161648Z AUTO 26003KT 210V270 2700 RA BR SCT005 BKN007 //////TCU 24/23 Q1009 RMK A2982 RI006 TCU OHD MOV E AND 25KM SW MOV NE
RJNY,2020-09-16 16:50,138.2981,34.8128,75.20,71.60,88.59,M,2.00,0.00,29.88,M,6.21,M,FEW,BKN,BKN,M,1500.00,4000.00,M,M,M,M,M,M,M,M,M,M,RJNY 161650Z VRB02KT 9999 FEW015 BKN040 BKN/// 24/22 Q1012 RMK 1CU015 5SC040 A2990
RJTY,2020-09-16 16:51,139.3485,35.7485,71.60,69.80,94.06,300.00,3.00,0.00,29.96,1014.30,10.00,M,FEW,SCT,M,M,1100.00,9000.00,M,M,M,M,M,M,M,M,M,M,RJTY 161651Z AUTO 30003KT 10SM FEW011 SCT090 22/21 A2996 RMK AO2 SLP143 FZRANO $
RJTR,2020-09-16 16:53,139.3937,35.5138,73.40,69.80,88.51,0.00,0.00,0.00,29.89,1012.10,9.00,M,SCT,BKN,BKN,M,8500.00,10000.00,20000.00,M,-RA,M,M,M,M,M,M,M,RJTR 161653Z AUTO 00000KT 9SM -RA SCT085 BKN100 BKN200 23/21 A2989 RMK AO2 RAB53 SLP121 $
RJTY,2020-09-16 16:54,139.3485,35.7485,71.60,69.80,94.06,0.00,0.00,0.00,29.96,1014.30,10.00,M,FEW,SCT,M,M,1100.00,9000.00,M,M,-RA,M,M,M,M,M,M,M,RJTY 161654Z AUTO 00000KT 10SM -RA FEW011 SCT090 22/21 A2996 RMK AO2 RAB54 SLP143 FZRANO $
RJOI,2020-09-16 16:55,132.2357,34.1439,78.10,72.00,81.55,210.00,6.00,0.00,29.83,1010.20,6.21,M,FEW,BKN,OVC,M,1500.00,4000.00,6000.00,M,M,M,M,M,M,M,M,M,RJOI 161655Z 21006KT 9999 FEW015 BKN040 OVC060 26/22 A2983 RMK SLP102 T02560222
RJTY,2020-09-16 16:56,139.3485,35.7485,72.30,69.80,91.85,0.00,0.00,T,29.96,1014.30,10.00,M,SCT,SCT,M,M,1100.00,9000.00,M,M,-RA,M,M,M,M,M,M,M,RJTY 161656Z AUTO 00000KT 10SM -RA SCT011 SCT090 22/21 A2996 RMK AO2 RAB54 SLP143 P0000 T02240210 FZRANO $
RODN,2020-09-16 16:56,127.7676,26.3556,80.40,76.80,88.82,150.00,5.00,0.00,29.90,1013.00,10.00,M,CLR,M,M,M,M,M,M,M,M,M,M,M,M,M,M,87.05,RODN 161656Z AUTO 15005KT 10SM CLR 27/25 A2990 RMK AO2 SLP130 T02690249 $
ROTM,2020-09-16 16:56,127.7565,26.2743,82.00,79.00,90.66,150.00,5.00,0.00,29.92,1011.60,6.21,M,FEW,M,M,M,1500.00,M,M,M,M,M,M,M,M,M,M,92.25,ROTM 161656Z 15005KT 9999 FEW015 28/26 A2992 RMK SLP116 T02780261
RJSD,2020-09-16 17:00,138.4139,38.0602,71.60,68.00,88.43,M,1.00,0.00,29.83,M,6.21,M,FEW,BKN,BKN,///,7000.00,11000.00,12000.00,M,M,M,M,M,M,M,M,M,RJSD 161700Z AUTO VRB01KT 9999 FEW070 BKN110 BKN120 //////TCU 22/20 Q1010
RJFR,2020-09-16 17:00,131.0350,33.8456,75.20,73.40,94.14,10.00,2.00,0.00,29.80,M,6.21,M,FEW,SCT,BKN,M,1500.00,4000.00,8000.00,M,M,M,M,M,M,M,M,M,RJFR 161700Z 01002KT 9999 FEW015 SCT040 BKN080 24/23 Q1009
RJAA,2020-09-16 17:00,140.3856,35.7653,71.60,69.80,94.06,10.00,4.00,0.00,29.91,M,6.21,M,FEW,BKN,M,M,800.00,12000.00,M,M,M,M,M,M,M,M,M,M,RJAA 161700Z 01004KT 9999 FEW008 BKN120 22/21 Q1013 NOSIG
RJAH,2020-09-16 17:00,140.4147,36.1817,69.80,68.00,94.01,340.00,4.00,0.00,29.91,M,6.21,M,SCT,BKN,M,M,1200.00,10000.00,M,M,M,M,M,M,M,M,M,M,RJAH 161700Z 34004KT 9999 SCT012 BKN100 21/20 Q1013
RJCC,2020-09-16 17:00,141.6926,42.7742,62.60,62.60,100.00,120.00,4.00,0.00,29.91,M,6.21,M,FEW,SCT,BKN,M,1000.00,5000.00,15000.00,M,M,M,M,M,M,M,M,M,RJCC 161700Z 12004KT 090V170 9999 FEW010 SCT050 BKN150 17/17 Q1013
RJFF,2020-09-16 17:00,130.4517,33.5844,75.20,73.40,94.14,M,1.00,0.00,29.80,M,6.21,M,FEW,BKN,OVC,///,500.00,700.00,1100.00,M,M,M,M,M,M,M,M,M,RJFF 161700Z AUTO VRB01KT 9999 FEW005 BKN007 OVC011 //////CB 24/23 Q1009 BECMG 14007KT FEW010 SCT015 BKN020 FEW020CB TEMPO TL1800 3000 TSRA BR
RJBB,2020-09-16 17:00,135.2328,34.4342,78.80,71.60,78.62,180.00,10.00,0.00,29.85,M,6.21,M,FEW,OVC,M,M,1900.00,6000.00,M,M,M,M,M,M,M,M,M,M,RJBB 161700Z AUTO 18010KT 9999 FEW019 OVC060 26/22 Q1011 NOSIG
RJNK,2020-09-16 17:00,136.4075,36.3939,73.40,68.00,83.21,M,2.00,0.00,29.83,M,6.21,M,FEW,BKN,BKN,M,3000.00,5000.00,8000.00,M,M,M,M,M,M,M,M,M,RJNK 161700Z VRB02KT 9999 FEW030CB BKN050 BKN080 23/20 Q1010
RJOH,2020-09-16 17:00,133.2392,35.4933,73.40,71.60,94.10,M,2.00,0.00,29.80,M,6.21,M,FEW,SCT,BKN,M,1500.00,3000.00,4500.00,M,M,M,M,M,M,M,M,M,RJOH 161700Z VRB02KT 9999 FEW015 SCT030 BKN045 23/22 Q1009 RERA
RJGG,2020-09-16 17:00,136.8054,34.8584,75.20,71.60,88.59,170.00,6.00,0.00,29.85,M,4.35,M,FEW,SCT,BKN,M,1000.00,1500.00,2500.00,M,-SHRA,M,M,M,M,M,M,M,RJGG 161700Z 17006KT 7000 -SHRA FEW010 SCT015 BKN025 24/22 Q1011 NOSIG
RJKI,2020-09-16 17:00,129.9281,28.3213,82.40,78.80,88.90,200.00,7.00,0.00,29.88,M,6.21,M,SCT,M,M,M,1300.00,M,M,M,M,M,M,M,M,M,M,92.76,RJKI 161700Z AUTO 20007KT 170V240 9999 SCT013 28/26 Q1012
ROMD,2020-09-16 17:00,131.2286,25.8289,82.40,78.80,88.90,M,2.00,0.00,29.91,M,6.21,M,SCT,M,M,M,1600.00,M,M,M,M,M,M,M,M,M,M,92.76,ROMD 161700Z AUTO VRB02KT 9999 SCT016 28/26 Q1013
RORY,2020-09-16 17:00,128.4020,27.0440,80.60,77.00,88.83,180.00,6.00,0.00,29.88,M,6.21,M,FEW,M,M,M,1300.00,M,M,M,M,M,M,M,M,M,M,87.59,RORY 161700Z AUTO 18006KT 9999 FEW013 27/25 Q1012
RJSM,2020-09-16 17:00,141.3684,40.7032,68.00,68.00,100.00,150.00,6.00,0.00,29.88,M,1.86,M,FEW,BKN,M,M,100.00,200.00,M,M,BR,M,M,M,M,M,M,M,RJSM 161700Z 15006KT 120V180 3000 BR FEW001 BKN002 20/20 Q1012
RJTR,2020-09-16 17:00,139.3937,35.5138,71.60,69.80,94.06,0.00,0.00,0.00,29.89,1012.10,9.00,M,SCT,SCT,BKN,M,9000.00,10000.00,20000.00,M,M,M,M,M,M,M,M,M,RJTR 161700Z AUTO 00000KT 9SM SCT090 SCT100 BKN200 22/21 A2989 RMK AO2 RAE00 SLP121 $
RJTT,2020-09-16 17:00,139.7811,35.5533,75.20,73.40,94.14,50.00,5.00,0.00,29.88,M,6.21,M,FEW,SCT,BKN,M,800.00,4000.00,11000.00,M,M,M,M,M,M,M,M,M,RJTT 161700Z 05005KT 9999 FEW008 SCT040 BKN110 24/23 Q1012 NOSIG
RJOS,2020-09-16 17:00,134.6092,34.1322,75.20,69.80,83.32,280.00,4.00,0.00,29.85,M,6.21,M,FEW,BKN,M,M,2500.00,14000.00,M,M,M,M,M,M,M,M,M,M,RJOS 161700Z 28004KT 9999 FEW025 BKN140 24/21 Q1011
RORK,2020-09-16 17:00,131.3333,25.9167,84.20,77.00,79.04,110.00,6.00,0.00,29.91,M,6.21,M,FEW,M,M,M,1600.00,M,M,M,M,M,M,M,M,M,M,94.16,RORK 161700Z AUTO 11006KT 9999 FEW016 29/25 Q1013
ROYN,2020-09-16 17:00,122.9780,24.4670,84.20,78.80,83.88,160.00,12.00,0.00,29.83,M,6.21,M,FEW,BKN,BKN,M,1800.00,2500.00,3100.00,M,M,M,M,M,M,M,M,96.10,ROYN 161700Z AUTO 16012KT 9999 FEW018 BKN025 BKN031 29/26 Q1010
ROAH,2020-09-16 17:00,127.6458,26.1958,82.40,77.00,83.77,130.00,4.00,0.00,29.88,M,6.21,M,FEW,SCT,M,M,1300.00,M,M,M,M,M,M,M,M,M,M,90.85,ROAH 161700Z 13004KT 9999 FEW013 SCT/// 28/25 Q1012
RJFY,2020-09-16 17:04,130.8381,31.3681,75.20,71.60,88.59,M,2.00,0.00,29.88,M,3.04,M,FEW,SCT,OVC,M,100.00,500.00,2000.00,M,SHRA BR,M,M,M,M,M,M,M,RJFY 161704Z VRB02KT 4900 SHRA BR FEW001 SCT005 OVC020 24/22 Q1012 RMK 1ST001 3ST005 8CU020 A2989 FBL LIGHTNING SW-W
RJFF,2020-09-16 17:06,130.4517,33.5844,75.20,73.40,94.14,M,1.00,0.00,29.80,M,4.35,M,FEW,SCT,BKN,///,400.00,700.00,800.00,M,M,M,M,M,M,M,M,M,RJFF 161706Z AUTO VRB01KT 7000 FEW004 SCT007 BKN008 //////CB 24/23 Q1009 RMK A2981 CB 30KM SW MOV NE TCU OHD MOV NE
RJTY,2020-09-16 17:07,139.3485,35.7485,73.40,69.80,88.51,0.00,0.00,0.00,29.95,1013.90,10.00,M,FEW,FEW,M,M,1100.00,9000.00,M,M,M,M,M,M,M,M,M,M,RJTY 161707Z AUTO 00000KT 10SM FEW011 FEW090 23/21 A2995 RMK AO2 RAE03DZB03E07 SLP139 FZRANO $
RJFF,2020-09-16 17:11,130.4517,33.5844,75.20,73.40,94.14,130.00,2.00,0.00,29.80,M,6.21,M,FEW,SCT,BKN,///,500.00,800.00,1100.00,M,M,M,M,M,M,M,M,M,RJFF 161711Z AUTO 13002KT 9999 FEW005 SCT008 BKN011 //////CB 24/23 Q1009 RMK A2981 CB 25KM SW MOV NE
RJOZ,2020-09-16 17:11,131.0522,34.0469,73.40,73.40,100.00,90.00,5.00,0.00,29.80,M,4.35,M,FEW,SCT,BKN,FEW,600.00,1000.00,2000.00,2000.00,-SHRA,M,M,M,M,M,M,M,RJOZ 161711Z 09005KT 7000 -SHRA FEW006 SCT010 BKN020 FEW020CB 23/23 Q1009 RMK 1ST006 4CU010 7CU020 1CB020 A2981 CB 15KM NE MOV NE
RJNG,2020-09-16 17:25,136.8694,35.3944,73.40,73.40,100.00,360.00,3.00,0.00,29.88,M,6.21,M,FEW,BKN,BKN,M,1000.00,2000.00,4000.00,M,-SHRA,M,M,M,M,M,M,M,RJNG 161725Z 36003KT 9999 -SHRA FEW010 BKN020 BKN040 23/23 Q1012 RMK 2CU010 5CU020 7SC040 A2990 VIS S 8KM
RJFF,2020-09-16 17:28,130.4517,33.5844,75.20,73.40,94.14,130.00,3.00,0.00,29.80,M,2.92,M,FEW,OVC,///,M,1100.00,1400.00,M,M,-RA BR,M,M,M,M,M,M,M,RJFF 161728Z AUTO 13003KT 4700 -RA BR FEW011 OVC014 //////TCU 24/23 Q1009 RMK A2981 TCU 15KM SW MOV NE
RJAA,2020-09-16 17:30,140.3856,35.7653,71.60,69.80,94.06,M,2.00,0.00,29.88,M,6.21,M,FEW,BKN,M,M,1000.00,M,M,M,M,M,M,M,M,M,M,M,RJAA 161730Z VRB02KT 9999 FEW010 BKN/// 22/21 Q1012 NOSIG RMK 1ST010 A2990
RJCC,2020-09-16 17:30,141.6926,42.7742,64.40,64.40,100.00,160.00,3.00,0.00,29.91,M,6.21,M,FEW,SCT,BKN,M,1000.00,1800.00,15000.00,M,M,M,M,M,M,M,M,M,RJCC 161730Z 16003KT 9999 FEW010 SCT018 BKN150 18/18 Q1013 RMK 1ST010 3ST018 7AC150 A2992
RJFF,2020-09-16 17:30,130.4517,33.5844,75.20,73.40,94.14,130.00,3.00,0.00,29.80,M,3.04,M,FEW,OVC,///,M,700.00,1400.00,M,M,BR,M,M,M,M,M,M,M,RJFF 161730Z AUTO 13003KT 4900 BR FEW007 OVC014 //////TCU 24/23 Q1009 BECMG 8000 -SHRA FEW010 SCT020 BKN030 RMK A2981 TCU 15KM S MOV NE
RJBB,2020-09-16 17:30,135.2328,34.4342,78.80,71.60,78.62,180.00,8.00,0.00,29.85,M,6.21,M,NSC,M,M,M,M,M,M,M,M,M,M,M,M,M,M,M,RJBB 161730Z AUTO 18008KT 160V230 9999 NSC 26/22 Q1011 NOSIG
RJGG,2020-09-16 17:30,136.8054,34.8584,75.20,71.60,88.59,130.00,3.00,0.00,29.85,M,6.21,M,FEW,SCT,BKN,M,1000.00,2000.00,2500.00,M,-SHRA,M,M,M,M,M,M,M,RJGG 161730Z 13003KT 9999 -SHRA FEW010 SCT020 BKN025 24/22 Q1011 NOSIG
RJTT,2020-09-16 17:30,139.7811,35.5533,75.20,73.40,94.14,50.00,5.00,0.00,29.88,M,6.21,M,FEW,BKN,M,M,1500.00,19000.00,M,M,M,M,M,M,M,M,M,M,RJTT 161730Z 05005KT 9999 FEW015 BKN190 24/23 Q1012 NOSIG RMK 1CU015 7AC190 A2990
ROAH,2020-09-16 17:30,127.6458,26.1958,82.40,77.00,83.77,130.00,5.00,0.00,29.88,M,6.21,M,FEW,BKN,M,M,1500.00,M,M,M,M,M,M,M,M,M,M,90.85,ROAH 161730Z 13005KT 9999 FEW015 BKN/// 28/25 Q1012 RMK 1CU015 A2989
RJAH,2020-09-16 17:32,140.4147,36.1817,69.80,68.00,94.01,M,2.00,0.00,29.88,M,6.21,M,SCT,BKN,M,M,1200.00,10000.00,M,M,-SHRA,M,M,M,M,M,M,M,RJAH 161732Z VRB02KT 9999 -SHRA SCT012 BKN100 21/20 Q1012 RMK 3SC012 7AC100 A2989
RJOI,2020-09-16 17:33,132.2357,34.1439,78.80,71.60,78.62,220.00,5.00,0.00,29.83,1010.20,6.21,M,FEW,BKN,OVC,M,1500.00,2500.00,6000.00,M,TS,M,M,M,M,M,M,M,RJOI 161733Z 22005KT 9999 TS FEW015CB BKN025 OVC060 26/22 A2983 RMK TS NW MOV NE SLP102
RJFF,2020-09-16 17:35,130.4517,33.5844,75.20,73.40,94.14,130.00,3.00,0.00,29.80,M,6.21,M,FEW,BKN,OVC,///,700.00,1400.00,2000.00,M,M,M,M,M,M,M,M,M,RJFF 161735Z AUTO 13003KT 9999 FEW007 BKN014 OVC020 //////TCU 24/23 Q1009 RMK A2981 TCU 15KM S MOV NE
RJAH,2020-09-16 17:50,140.4147,36.1817,69.80,68.00,94.01,M,2.00,0.00,29.88,M,6.21,M,FEW,SCT,BKN,M,1200.00,18000.00,M,M,M,M,M,M,M,M,M,M,RJAH 161750Z VRB02KT 9999 FEW012 SCT180 BKN/// 21/20 Q1012 RMK 2SC012 3AC180 A2989
RJOI,2020-09-16 17:55,132.2357,34.1439,79.00,72.00,79.17,210.00,6.00,0.00,29.83,1010.00,6.21,M,FEW,BKN,OVC,M,1500.00,2500.00,6000.00,M,TS,M,M,M,M,M,M,M,RJOI 161755Z 21006KT 9999 TS FEW015CB BKN025 OVC060 26/22 A2983 RMK OCNL LTGCG N TSB032 N MOV NE SLP100 60000 T02610222 10261 20250 56003
RJTY,2020-09-16 17:56,139.3485,35.7485,72.30,69.40,90.61,290.00,3.00,T,29.95,1013.90,10.00,M,SCT,M,M,M,1100.00,M,M,M,M,M,M,M,M,M,M,M,RJTY 161756Z AUTO 29003KT 10SM SCT011 22/21 A2995 RMK AO2 RAE03DZB03E07 SLP139 P0000 60000 T02240208 10242 20221 58005 FZRANO $
RODN,2020-09-16 17:56,127.7676,26.3556,80.40,77.20,90.00,140.00,6.00,0.00,29.88,1012.30,10.00,M,CLR,M,M,M,M,M,M,M,M,M,M,M,M,M,M,87.42,RODN 161756Z AUTO 14006KT 10SM CLR 27/25 A2988 RMK AO2 SLP123 T02690251 10276 20265 57014 $
ROTM,2020-09-16 17:56,127.7565,26.2743,82.00,79.00,90.66,150.00,5.00,0.00,29.90,1011.10,6.21,M,FEW,M,M,M,1500.00,M,M,M,M,M,M,M,M,M,M,92.25,ROTM 161756Z 15005KT 9999 FEW015 28/26 A2990 RMK SLP111 T02780261 10283 20278 57014
RJSD,2020-09-16 18:00,138.4139,38.0602,71.60,68.00,88.43,M,1.00,0.00,29.83,M,6.21,M,SCT,BKN,BKN,///,10000.00,11000.00,12000.00,M,M,M,M,M,M,M,M,M,RJSD 161800Z AUTO VRB01KT 9999 SCT100 BKN110 BKN120 //////TCU 22/20 Q1010
RJFR,2020-09-16 18:00,131.0350,33.8456,77.00,73.40,88.67,40.00,8.00,0.00,29.77,M,6.21,M,FEW,SCT,BKN,M,600.00,3000.00,4000.00,M,-SHRA,M,M,M,M,M,M,M,RJFR 161800Z 04008KT 9999 -SHRA FEW006 SCT030 BKN040 25/23 Q1008
RJAA,2020-09-16 18:00,140.3856,35.7653,71.60,69.80,94.06,M,2.00,0.00,29.88,M,6.21,M,FEW,BKN,M,M,1000.00,M,M,M,M,M,M,M,M,M,M,M,RJAA 161800Z VRB02KT 9999 FEW010 BKN/// 22/21 Q1012 NOSIG
RJAH,2020-09-16 18:00,140.4147,36.1817,69.80,68.00,94.01,90.00,1.00,0.00,29.88,M,6.21,M,FEW,SCT,BKN,M,1200.00,18000.00,M,M,M,M,M,M,M,M,M,M,RJAH 161800Z 09001KT 9999 FEW012 SCT180 BKN/// 21/20 Q1012
RJCC,2020-09-16 18:00,141.6926,42.7742,64.40,64.40,100.00,140.00,4.00,0.00,29.91,M,6.21,M,FEW,BKN,BKN,M,1000.00,1800.00,4000.00,M,M,M,M,M,M,M,M,M,RJCC 161800Z 14004KT 9999 FEW010 BKN018 BKN040 18/18 Q1013
RJFF,2020-09-16 18:00,130.4517,33.5844,75.20,73.40,94.14,130.00,2.00,0.00,29.80,M,6.21,M,FEW,SCT,BKN,///,700.00,2300.00,3600.00,M,M,M,M,M,M,M,M,M,RJFF 161800Z AUTO 13002KT 9999 FEW007 SCT023 BKN036 //////CB 24/23 Q1009 NOSIG
RJAW,2020-09-16 18:00,141.3227,24.7840,82.40,75.20,78.90,120.00,5.00,0.00,29.94,M,6.21,M,FEW,M,M,M,1500.00,M,M,M,M,M,M,M,M,M,M,89.48,RJAW 161800Z 12005KT 9999 FEW015 28/24 Q1014 RMK 1CU015 A2995
RJBB,2020-09-16 18:00,135.2328,34.4342,78.80,71.60,78.62,190.00,10.00,0.00,29.85,M,6.21,M,NSC,M,M,M,M,M,M,M,M,M,M,M,M,M,M,M,RJBB 161800Z AUTO 19010KT 9999 NSC 26/22 Q1011 NOSIG
RJNK,2020-09-16 18:00,136.4075,36.3939,73.40,68.00,83.21,M,1.00,0.00,29.80,M,6.21,M,FEW,BKN,BKN,M,3000.00,5000.00,8000.00,M,M,M,M,M,M,M,M,M,RJNK 161800Z VRB01KT 9999 FEW030 BKN050 BKN080 23/20 Q1009
RJOH,2020-09-16 18:00,133.2392,35.4933,73.40,71.60,94.10,340.00,3.00,0.00,29.80,M,6.21,M,FEW,SCT,BKN,M,1500.00,3000.00,4500.00,M,M,M,M,M,M,M,M,M,RJOH 161800Z 34003KT 9999 FEW015 SCT030 BKN045 23/22 Q1009
RJGG,2020-09-16 18:00,136.8054,34.8584,75.20,73.40,94.14,90.00,5.00,0.00,29.85,M,6.21,M,FEW,SCT,BKN,M,1500.00,2500.00,M,M,VCSH,M,M,M,M,M,M,M,RJGG 161800Z 09005KT 9999 VCSH FEW015 SCT025 BKN/// 24/23 Q1011 NOSIG
RJKI,2020-09-16 18:00,129.9281,28.3213,82.40,80.60,94.31,200.00,5.00,0.00,29.88,M,6.21,M,BKN,BKN,M,M,1200.00,2600.00,M,M,M,M,M,M,M,M,M,95.00,RJKI 161800Z AUTO 20005KT 160V240 9999 BKN012 BKN026 28/27 Q1012
ROMD,2020-09-16 18:00,131.2286,25.8289,82.40,78.80,88.90,M,2.00,0.00,29.91,M,6.21,M,FEW,SCT,M,M,1400.00,2100.00,M,M,M,M,M,M,M,M,M,92.76,ROMD 161800Z AUTO VRB02KT 9999 FEW014 SCT021 28/26 Q1013
RORY,2020-09-16 18:00,128.4020,27.0440,80.60,77.00,88.83,180.00,7.00,0.00,29.85,M,6.21,M,FEW,M,M,M,1200.00,M,M,M,M,M,M,M,M,M,M,87.59,RORY 161800Z AUTO 18007KT 9999 FEW012 27/25 Q1011
RJSM,2020-09-16 18:00,141.3684,40.7032,68.00,68.00,100.00,140.00,5.00,0.00,29.88,M,1.86,M,FEW,BKN,BKN,M,100.00,200.00,300.00,M,BR,M,M,M,M,M,M,M,RJSM 161800Z 14005KT 3000 BR FEW001 BKN002 BKN003 20/20 Q1012
RJTT,2020-09-16 18:00,139.7811,35.5533,75.20,73.40,94.14,80.00,6.00,0.00,29.85,M,6.21,M,FEW,BKN,M,M,1000.00,19000.00,M,M,-SHRA,M,M,M,M,M,M,M,RJTT 161800Z 08006KT 9999 -SHRA FEW010 BKN190 24/23 Q1011 BECMG 05006KT
RJOS,2020-09-16 18:00,134.6092,34.1322,73.40,69.80,88.51,M,2.00,0.00,29.85,M,6.21,M,FEW,SCT,BKN,M,2500.00,6000.00,14000.00,M,M,M,M,M,M,M,M,M,RJOS 161800Z VRB02KT 9999 FEW025 SCT060 BKN140 23/21 Q1011
RORK,2020-09-16 18:00,131.3333,25.9167,84.20,78.80,83.88,130.00,5.00,0.00,29.91,M,6.21,M,SCT,SCT,M,M,1500.00,1700.00,M,M,M,M,M,M,M,M,M,96.10,RORK 161800Z AUTO 13005KT 9999 SCT015 SCT017 29/26 Q1013
ROYN,2020-09-16 18:00,122.9780,24.4670,84.20,80.60,88.98,160.00,11.00,0.00,29.83,M,6.21,M,BKN,BKN,M,M,1600.00,1900.00,M,M,M,M,M,M,M,M,M,98.50,ROYN 161800Z AUTO 16011KT 9999 BKN016 BKN019 29/27 Q1010
ROAH,2020-09-16 18:00,127.6458,26.1958,82.40,77.00,83.77,140.00,5.00,0.00,29.85,M,6.21,M,FEW,BKN,M,M,1500.00,M,M,M,M,M,M,M,M,M,M,90.85,ROAH 161800Z 14005KT 9999 FEW015 BKN/// 28/25 Q1011
RJOI,2020-09-16 18:16,132.2357,34.1439,78.80,71.60,78.62,210.00,8.00,0.00,29.82,1009.80,6.21,M,FEW,BKN,OVC,M,1500.00,2500.00,5500.00,M,M,M,M,M,M,M,M,M,RJOI 161816Z 21008KT 9999 FEW015 BKN025 OVC055 26/22 A2982 RMK TS MOVD NE SLP098
RJNG,2020-09-16 18:23,136.8694,35.3944,73.40,71.60,94.10,M,2.00,0.00,29.88,M,6.21,M,FEW,SCT,BKN,M,500.00,1000.00,3000.00,M,-RA,M,M,M,M,M,M,M,RJNG 161823Z VRB02KT 9999 -RA FEW005 SCT010 BKN030 23/22 Q1012 RMK 2ST005 3CU010 5SC030 A2990
RJAA,2020-09-16 18:30,140.3856,35.7653,71.60,69.80,94.06,20.00,3.00,0.00,29.85,M,6.21,M,FEW,BKN,M,M,2000.00,M,M,M,M,M,M,M,M,M,M,M,RJAA 161830Z 02003KT 9999 FEW020 BKN/// 22/21 Q1011 NOSIG
RJCC,2020-09-16 18:30,141.6926,42.7742,64.40,64.40,100.00,140.00,4.00,0.00,29.91,M,6.21,M,FEW,BKN,BKN,M,1000.00,1800.00,3500.00,M,M,M,M,M,M,M,M,M,RJCC 161830Z 14004KT 9999 FEW010 BKN018 BKN035 18/18 Q1013
RJFF,2020-09-16 18:30,130.4517,33.5844,75.20,73.40,94.14,M,1.00,0.00,29.80,M,6.21,M,FEW,SCT,BKN,///,500.00,2300.00,3400.00,M,M,M,M,M,M,M,M,M,RJFF 161830Z AUTO VRB01KT 9999 FEW005 SCT023 BKN034 //////TCU 24/23 Q1009 BECMG 14005KT
RJBB,2020-09-16 18:30,135.2328,34.4342,78.80,71.60,78.62,170.00,5.00,0.00,29.85,M,6.21,M,NSC,M,M,M,M,M,M,M,M,M,M,M,M,M,M,M,RJBB 161830Z AUTO 17005KT 110V200 9999 NSC 26/22 Q1011 NOSIG
RJGG,2020-09-16 18:30,136.8054,34.8584,75.20,71.60,88.59,70.00,4.00,0.00,29.85,M,6.21,M,FEW,SCT,BKN,M,1500.00,6000.00,M,M,M,M,M,M,M,M,M,M,RJGG 161830Z 07004KT 9999 FEW015 SCT060 BKN/// 24/22 Q1011 NOSIG
RJTT,2020-09-16 18:30,139.7811,35.5533,75.20,73.40,94.14,30.00,3.00,0.00,29.85,M,6.21,M,FEW,BKN,BKN,M,700.00,1000.00,19000.00,M,-SHRA,M,M,M,M,M,M,M,RJTT 161830Z 03003KT 360V070 9999 -SHRA FEW007 BKN010 BKN190 24/23 Q1011 NOSIG
ROAH,2020-09-16 18:30,127.6458,26.1958,82.40,77.00,83.77,140.00,5.00,0.00,29.88,M,6.21,M,FEW,SCT,M,M,1500.00,M,M,M,M,M,M,M,M,M,M,90.85,ROAH 161830Z 14005KT 9999 FEW015 SCT/// 28/25 Q1012
RJAH,2020-09-16 18:36,140.4147,36.1817,69.80,66.20,88.34,330.00,4.00,0.00,29.85,M,6.21,M,FEW,BKN,BKN,M,1000.00,1200.00,M,M,M,M,M,M,M,M,M,M,RJAH 161836Z 33004KT 9999 FEW010 BKN012 BKN/// 21/19 Q1011 RMK 1ST010 5SC012 A2988
RJFR,2020-09-16 18:37,131.0350,33.8456,75.20,73.40,94.14,50.00,7.00,0.00,29.80,M,4.35,M,FEW,SCT,BKN,M,400.00,2000.00,3000.00,M,SHRA,M,M,M,M,M,M,M,RJFR 161837Z 05007KT 7000 R18/1800D SHRA FEW004 SCT020 BKN030 24/23 Q1009 RMK 1ST004 3CU020 5CU030 A2980
RJTY,2020-09-16 18:41,139.3485,35.7485,71.60,69.80,94.06,20.00,6.00,0.00,29.94,1013.60,10.00,M,BKN,BKN,M,M,1200.00,18000.00,M,M,M,M,M,M,M,M,M,M,RJTY 161841Z AUTO 02006KT 10SM BKN012 BKN180 22/21 A2994 RMK AO2 CIG 012V180 SLP136 FZRANO $
RJFR,2020-09-16 18:45,131.0350,33.8456,75.20,73.40,94.14,40.00,5.00,0.00,29.80,M,6.21,M,FEW,SCT,BKN,M,300.00,2000.00,2500.00,M,-SHRA,M,M,M,M,M,M,M,RJFR 161845Z 04005KT 9999 -SHRA FEW003 SCT020 BKN025 24/23 Q1009 RMK 1ST003 3CU020 5CU025 A2980
RJOI,2020-09-16 18:55,132.2357,34.1439,78.10,72.00,81.55,250.00,6.00,T,29.82,1009.90,6.21,M,FEW,BKN,OVC,M,1500.00,2500.00,5000.00,M,M,M,M,M,M,M,M,M,RJOI 161855Z 25006KT 9999 FEW015 BKN025 OVC050 26/22 A2982 RMK SHRAB19E41 TSE16 SLP099 P0000 T02560222
RJTY,2020-09-16 18:56,139.3485,35.7485,71.10,69.40,94.37,20.00,6.00,0.00,29.93,1013.30,10.00,M,BKN,BKN,M,M,1200.00,18000.00,M,M,M,M,M,M,M,M,M,M,RJTY 161856Z AUTO 02006KT 10SM BKN012 BKN180 22/21 A2993 RMK AO2 SLP133 T02170208 FZRANO $
RODN,2020-09-16 18:56,127.7676,26.3556,80.20,76.60,88.81,140.00,6.00,0.00,29.89,1012.70,10.00,M,CLR,M,M,M,M,M,M,M,M,M,M,M,M,M,M,86.52,RODN 161856Z AUTO 14006KT 10SM CLR 27/25 A2989 RMK AO2 SLP127 T02680248 $
ROTM,2020-09-16 18:56,127.7565,26.2743,82.00,79.00,90.66,160.00,6.00,0.00,29.91,1011.20,6.21,M,FEW,SCT,M,M,1700.00,2400.00,M,M,M,M,M,M,M,M,M,92.25,ROTM 161856Z 16006KT 9999 FEW017 SCT024 28/26 A2991 RMK SLP112 T02780261
RJSD,2020-09-16 19:00,138.4139,38.0602,71.60,69.80,94.06,0.00,0.00,0.00,29.83,M,6.21,M,NSC,M,M,M,M,M,M,M,-RA,M,M,M,M,M,M,M,RJSD 161900Z AUTO 00000KT 9999 -RA NSC 22/21 Q1010
RJFR,2020-09-16 19:00,131.0350,33.8456,75.20,73.40,94.14,40.00,4.00,0.00,29.80,M,6.21,M,FEW,SCT,BKN,M,300.00,1500.00,2500.00,M,-SHRA,M,M,M,M,M,M,M,RJFR 161900Z 04004KT 9999 -SHRA FEW003 SCT015 BKN025 24/23 Q1009
RJAA,2020-09-16 19:00,140.3856,35.7653,71.60,69.80,94.06,40.00,3.00,0.00,29.85,M,6.21,M,FEW,SCT,BKN,M,2000.00,19000.00,M,M,M,M,M,M,M,M,M,M,RJAA 161900Z 04003KT 9999 FEW020 SCT190 BKN/// 22/21 Q1011 NOSIG
RJAH,2020-09-16 19:00,140.4147,36.1817,68.00,66.20,93.97,20.00,3.00,0.00,29.85,M,6.21,M,FEW,BKN,BKN,M,1000.00,1200.00,M,M,M,M,M,M,M,M,M,M,RJAH 161900Z 02003KT 9999 FEW010 BKN012 BKN/// 20/19 Q1011
RJCC,2020-09-16 19:00,141.6926,42.7742,64.40,64.40,100.00,130.00,6.00,0.00,29.88,M,6.21,M,FEW,BKN,M,M,1000.00,1500.00,M,M,-SHRA,M,M,M,M,M,M,M,RJCC 161900Z 13006KT 9999 -SHRA FEW010 BKN015 18/18 Q1012
RJFF,2020-09-16 19:00,130.4517,33.5844,75.20,73.40,94.14,140.00,2.00,0.00,29.80,M,6.21,M,FEW,BKN,BKN,///,1700.00,1900.00,3100.00,M,M,M,M,M,M,M,M,M,RJFF 161900Z AUTO 14002KT 9999 FEW017 BKN019 BKN031 //////TCU 24/23 Q1009 NOSIG
RJBB,2020-09-16 19:00,135.2328,34.4342,78.80,71.60,78.62,120.00,4.00,0.00,29.83,M,6.21,M,NSC,M,M,M,M,M,M,M,M,M,M,M,M,M,M,M,RJBB 161900Z AUTO 12004KT 9999 NSC 26/22 Q1010 NOSIG
RJNK,2020-09-16 19:00,136.4075,36.3939,73.40,68.00,83.21,M,2.00,0.00,29.80,M,6.21,M,FEW,BKN,BKN,M,3000.00,5000.00,8000.00,M,M,M,M,M,M,M,M,M,RJNK 161900Z VRB02KT 9999 FEW030 BKN050 BKN080 23/20 Q1009
RJOH,2020-09-16 19:00,133.2392,35.4933,73.40,71.60,94.10,300.00,2.00,0.00,29.80,M,6.21,M,FEW,BKN,BKN,M,1500.00,3000.00,4500.00,M,M,M,M,M,M,M,M,M,RJOH 161900Z 30002KT 9999 FEW015 BKN030 BKN045 23/22 Q1009
RJGG,2020-09-16 19:00,136.8054,34.8584,75.20,73.40,94.14,50.00,4.00,0.00,29.85,M,6.21,M,FEW,SCT,BKN,M,1000.00,2000.00,3000.00,M,M,M,M,M,M,M,M,M,RJGG 161900Z 05004KT 9999 FEW010 SCT020 BKN030 24/23 Q1011 NOSIG
RJKI,2020-09-16 19:00,129.9281,28.3213,82.40,78.80,88.90,200.00,6.00,0.00,29.88,M,6.21,M,FEW,M,M,M,1300.00,M,M,M,M,M,M,M,M,M,M,92.76,RJKI 161900Z AUTO 20006KT 170V240 9999 FEW013 28/26 Q1012
ROMD,2020-09-16 19:00,131.2286,25.8289,82.40,80.60,94.31,140.00,3.00,0.00,29.91,M,6.21,M,FEW,M,M,M,1100.00,M,M,M,M,M,M,M,M,M,M,95.00,ROMD 161900Z AUTO 14003KT 9999 FEW011 28/27 Q1013
RORY,2020-09-16 19:00,128.4020,27.0440,82.40,78.80,88.90,190.00,7.00,0.00,29.88,M,6.21,M,SCT,M,M,M,1300.00,M,M,M,M,M,M,M,M,M,M,92.76,RORY 161900Z AUTO 19007KT 9999 SCT013 28/26 Q1012
RJSM,2020-09-16 19:00,141.3684,40.7032,68.00,66.20,93.97,150.00,5.00,0.00,29.88,M,1.86,M,FEW,BKN,BKN,M,100.00,200.00,300.00,M,BR,M,M,M,M,M,M,M,RJSM 161900Z 15005KT 3000 BR FEW001 BKN002 BKN003 20/19 Q1012
RJTT,2020-09-16 19:00,139.7811,35.5533,75.20,73.40,94.14,30.00,5.00,0.00,29.85,M,6.21,M,FEW,SCT,BKN,M,700.00,1000.00,1500.00,M,M,M,M,M,M,M,M,M,RJTT 161900Z 03005KT 9999 FEW007 SCT010 BKN015 24/23 Q1011 NOSIG
RJOS,2020-09-16 19:00,134.6092,34.1322,73.40,69.80,88.51,280.00,4.00,0.00,29.83,M,6.21,M,FEW,M,M,M,2500.00,M,M,M,M,M,M,M,M,M,M,M,RJOS 161900Z 28004KT 250V310 9999 FEW025 23/21 Q1010
RORK,2020-09-16 19:00,131.3333,25.9167,82.40,78.80,88.90,140.00,7.00,0.00,29.91,M,6.21,M,FEW,SCT,M,M,1300.00,3500.00,M,M,M,M,M,M,M,M,M,92.76,RORK 161900Z AUTO 14007KT 9999 FEW013 SCT035 28/26 Q1013
ROYN,2020-09-16 19:00,122.9780,24.4670,84.20,80.60,88.98,160.00,12.00,0.00,29.83,M,6.21,M,SCT,SCT,M,M,1600.00,3200.00,M,M,M,M,M,M,M,M,M,98.50,ROYN 161900Z AUTO 16012KT 9999 SCT016 SCT032 29/27 Q1010
ROAH,2020-09-16 19:00,127.6458,26.1958,82.40,77.00,83.77,140.00,5.00,0.00,29.88,M,6.21,M,FEW,SCT,M,M,1500.00,M,M,M,M,M,M,M,M,M,M,90.85,ROAH 161900Z 14005KT 9999 FEW015 SCT/// 28/25 Q1012
RJTY,2020-09-16 19:11,139.3485,35.7485,71.60,69.80,94.06,10.00,6.00,0.00,29.93,1013.30,10.00,M,FEW,SCT,M,M,1300.00,18000.00,M,M,M,M,M,M,M,M,M,M,RJTY 161911Z AUTO 01006KT 10SM FEW013 SCT180 22/21 A2993 RMK AO2 SLP133 FZRANO $
RJOZ,2020-09-16 19:20,131.0522,34.0469,73.40,73.40,100.00,0.00,0.00,0.00,29.80,M,3.04,M,FEW,BKN,BKN,M,300.00,800.00,1500.00,M,-SHRA BR,M,M,M,M,M,M,M,RJOZ 161920Z 00000KT 4900 -SHRA BR FEW003 BKN008 BKN015 23/23 Q1009 RMK 1ST003 5ST008 7CU015 A2982
RJAA,2020-09-16 19:30,140.3856,35.7653,71.60,69.80,94.06,360.00,5.00,0.00,29.88,M,6.21,M,FEW,BKN,M,M,1500.00,M,M,M,M,M,M,M,M,M,M,M,RJAA 161930Z 36005KT 9999 FEW015 BKN/// 22/21 Q1012 NOSIG RMK 1CU015 A2989
RJCC,2020-09-16 19:30,141.6926,42.7742,64.40,62.60,93.88,130.00,5.00,0.00,29.91,M,6.21,M,FEW,SCT,BKN,M,1000.00,1500.00,4000.00,M,M,M,M,M,M,M,M,M,RJCC 161930Z 13005KT 9999 FEW010 SCT015 BKN040 18/17 Q1013 RMK 1ST010 3ST015 6CU040 A2991
RJFF,2020-09-16 19:30,130.4517,33.5844,75.20,73.40,94.14,M,2.00,0.00,29.83,M,6.21,M,BKN,OVC,///,M,1700.00,5000.00,M,M,M,M,M,M,M,M,M,M,RJFF 161930Z AUTO VRB02KT 9999 BKN017 OVC050 //////TCU 24/23 Q1010 NOSIG RMK A2982 TCU 25KM SE MOV SE
RJBB,2020-09-16 19:30,135.2328,34.4342,78.80,71.60,78.62,150.00,5.00,0.00,29.85,M,6.21,M,FEW,OVC,M,M,2300.00,7000.00,M,M,M,M,M,M,M,M,M,M,RJBB 161930Z AUTO 15005KT 9999 FEW023 OVC070 26/22 Q1011 NOSIG
RJGG,2020-09-16 19:30,136.8054,34.8584,75.20,73.40,94.14,100.00,5.00,0.00,29.85,M,6.21,M,FEW,SCT,BKN,M,1000.00,2500.00,5000.00,M,M,M,M,M,M,M,M,M,RJGG 161930Z 10005KT 9999 FEW010 SCT025 BKN050 24/23 Q1011 NOSIG
RJTT,2020-09-16 19:30,139.7811,35.5533,75.20,73.40,94.14,40.00,6.00,0.00,29.85,M,6.21,M,FEW,BKN,M,M,700.00,18000.00,M,M,M,M,M,M,M,M,M,M,RJTT 161930Z 04006KT 9999 FEW007 BKN180 24/23 Q1011 NOSIG RMK 1ST007 7AC180 A2987
RJTY,2020-09-16 19:30,139.3485,35.7485,69.80,69.80,100.00,20.00,5.00,0.00,29.94,1013.70,10.00,M,FEW,SCT,M,M,600.00,17000.00,M,M,M,M,M,M,M,M,M,M,RJTY 161930Z AUTO 02005KT 10SM FEW006 SCT170 21/21 A2994 RMK AO2 SLP137 FZRANO $
ROAH,2020-09-16 19:30,127.6458,26.1958,82.40,77.00,83.77,140.00,6.00,0.00,29.85,M,6.21,M,FEW,SCT,M,M,1500.00,M,M,M,M,M,M,M,M,M,M,90.85,ROAH 161930Z 14006KT 9999 FEW015 SCT/// 28/25 Q1011 RMK 1CU015 A2988
RJFY,2020-09-16 19:34,130.8381,31.3681,75.20,71.60,88.59,270.00,6.00,0.00,29.88,M,2.49,M,FEW,BKN,OVC,FEW,200.00,1000.00,2000.00,2000.00,SHRA BR,M,M,M,M,M,M,M,RJFY 161934Z 27006KT 4000 SHRA BR FEW002 BKN010 OVC020 FEW020CB 24/22 Q1012 RMK 2ST002 5ST010 8CU020 1CB020 A2989 CB 5KM W MOV E
RJTY,2020-09-16 19:45,139.3485,35.7485,71.60,69.80,94.06,10.00,4.00,0.00,29.94,1013.60,8.00,M,BKN,BKN,M,M,600.00,17000.00,M,M,M,M,M,M,M,M,M,M,RJTY 161945Z AUTO 01004KT 8SM BKN006 BKN170 22/21 A2994 RMK AO2 CIG 006V170 CIG 004 RWY18 SLP136 FZRANO $
RJOI,2020-09-16 19:55,132.2357,34.1439,78.10,73.00,84.36,200.00,9.00,T,29.83,1010.20,6.21,M,FEW,BKN,OVC,M,1000.00,2500.00,4500.00,M,-SHRA,M,M,M,M,M,M,M,RJOI 161955Z 20009KT 9999 -SHRA FEW010 BKN025 OVC045 26/23 A2983 RMK SHRAB48 SLP102 P0000 T02560228
RJTY,2020-09-16 19:56,139.3485,35.7485,70.90,70.50,98.65,20.00,3.00,0.00,29.94,1013.60,7.00,M,OVC,M,M,M,500.00,M,M,M,M,M,M,M,M,M,M,M,RJTY 161956Z AUTO 02003KT 7SM OVC005 22/21 A2994 RMK AO2 SLP136 T02160214 FZRANO $
RODN,2020-09-16 19:56,127.7676,26.3556,80.10,76.50,88.81,140.00,4.00,0.00,29.89,1012.70,10.00,M,CLR,M,M,M,M,M,M,M,M,M,M,M,M,M,M,86.26,RODN 161956Z AUTO 14004KT 10SM CLR 27/25 A2989 RMK AO2 SLP127 T02670247 $
ROTM,2020-09-16 19:56,127.7565,26.2743,82.00,78.10,88.01,150.00,6.00,0.00,29.91,1011.20,6.21,M,FEW,SCT,M,M,1600.00,2100.00,M,M,M,M,M,M,M,M,M,91.23,ROTM 161956Z 15006KT 9999 FEW016 SCT021 28/26 A2991 RMK SLP112 T02780256
RJSD,2020-09-16 20:00,138.4139,38.0602,71.60,69.80,94.06,310.00,2.00,0.00,29.85,M,2.05,M,FEW,SCT,BKN,///,1600.00,6000.00,7000.00,M,-RA BR,M,M,M,M,M,M,M,RJSD 162000Z AUTO 31002KT 3300 -RA BR FEW016 SCT060 BKN070 //////CB 22/21 Q1011
RJFR,2020-09-16 20:00,131.0350,33.8456,77.00,73.40,88.67,50.00,4.00,0.00,29.80,M,6.21,M,FEW,SCT,BKN,M,400.00,2000.00,3000.00,M,M,M,M,M,M,M,M,M,RJFR 162000Z 05004KT 9999 FEW004 SCT020 BKN030 25/23 Q1009
RJAA,2020-09-16 20:00,140.3856,35.7653,69.80,69.80,100.00,340.00,5.00,0.00,29.88,M,6.21,M,FEW,SCT,M,M,600.00,19000.00,M,M,M,M,M,M,M,M,M,M,RJAA 162000Z 34005KT 9999 FEW006 SCT190 21/21 Q1012 NOSIG
RJAH,2020-09-16 20:00,140.4147,36.1817,68.00,66.20,93.97,20.00,3.00,0.00,29.85,M,6.21,M,SCT,SCT,M,M,1200.00,18000.00,M,M,M,M,M,M,M,M,M,M,RJAH 162000Z 02003KT 9999 SCT012 SCT180 20/19 Q1011
RJCC,2020-09-16 20:00,141.6926,42.7742,64.40,64.40,100.00,140.00,4.00,0.00,29.91,M,6.21,M,FEW,BKN,BKN,M,800.00,1000.00,3000.00,M,M,M,M,M,M,M,M,M,RJCC 162000Z 14004KT 9999 FEW008 BKN010 BKN030 18/18 Q1013
RJFF,2020-09-16 20:00,130.4517,33.5844,75.20,73.40,94.14,80.00,1.00,0.00,29.80,M,6.21,M,BKN,BKN,OVC,///,2900.00,3400.00,4800.00,M,M,M,M,M,M,M,M,M,RJFF 162000Z AUTO 08001KT 9999 BKN029 BKN034 OVC048 //////TCU 24/23 Q1009 NOSIG
RJAW,2020-09-16 20:00,141.3227,24.7840,80.60,75.20,83.66,110.00,6.00,0.00,29.94,M,6.21,M,FEW,M,M,M,1500.00,M,M,M,M,M,M,M,M,M,M,86.17,RJAW 162000Z 11006KT 9999 FEW015 27/24 Q1014 RMK 1CU015 A2995
RJBB,2020-09-16 20:00,135.2328,34.4342,78.80,71.60,78.62,140.00,6.00,0.00,29.85,M,6.21,M,BKN,OVC,M,M,2200.00,7000.00,M,M,M,M,M,M,M,M,M,M,RJBB 162000Z AUTO 14006KT 9999 BKN022 OVC070 26/22 Q1011 BECMG 19006KT
RJNK,2020-09-16 20:00,136.4075,36.3939,73.40,68.00,83.21,60.00,2.00,0.00,29.80,M,6.21,M,FEW,SCT,BKN,M,3000.00,5000.00,8000.00,M,M,M,M,M,M,M,M,M,RJNK 162000Z 06002KT 9999 FEW030 SCT050 BKN080 23/20 Q1009
RJOH,2020-09-16 20:00,133.2392,35.4933,73.40,73.40,100.00,230.00,3.00,0.00,29.83,M,6.21,M,FEW,SCT,BKN,M,1500.00,3000.00,5000.00,M,-SHRA,M,M,M,M,M,M,M,RJOH 162000Z 23003KT 180V290 9999 -SHRA FEW015 SCT030 BKN050 23/23 Q1010
RJGG,2020-09-16 20:00,136.8054,34.8584,75.20,71.60,88.59,80.00,5.00,0.00,29.85,M,6.21,M,FEW,SCT,BKN,M,1000.00,2500.00,5000.00,M,M,M,M,M,M,M,M,M,RJGG 162000Z 08005KT 9999 FEW010 SCT025 BKN050 24/22 Q1011 BECMG 10005KT
RJKI,2020-09-16 20:00,129.9281,28.3213,80.60,78.80,94.27,200.00,6.00,0.00,29.88,M,6.21,M,FEW,M,M,M,1300.00,M,M,M,M,M,M,M,M,M,M,89.33,RJKI 162000Z AUTO 20006KT 150V270 9999 FEW013 27/26 Q1012
ROMD,2020-09-16 20:00,131.2286,25.8289,82.40,78.80,88.90,150.00,6.00,0.00,29.91,M,6.21,M,FEW,M,M,M,1300.00,M,M,M,M,M,M,M,M,M,M,92.76,ROMD 162000Z AUTO 15006KT 120V200 9999 FEW013 28/26 Q1013
RORY,2020-09-16 20:00,128.4020,27.0440,82.40,78.80,88.90,180.00,8.00,0.00,29.88,M,6.21,M,FEW,M,M,M,1300.00,M,M,M,M,M,M,M,M,M,M,92.76,RORY 162000Z AUTO 18008KT 9999 FEW013 28/26 Q1012
RJOO,2020-09-16 20:00,135.4392,34.7844,77.00,73.40,88.67,80.00,4.00,0.00,29.85,M,6.21,M,FEW,SCT,BKN,M,1500.00,2500.00,7000.00,M,M,M,M,M,M,M,M,M,RJOO 162000Z 08004KT 9999 FEW015 SCT025 BKN070 25/23 Q1011
RJSM,2020-09-16 20:00,141.3684,40.7032,66.20,66.20,100.00,150.00,6.00,0.00,29.88,M,1.86,M,FEW,BKN,BKN,M,100.00,200.00,300.00,M,BR,M,M,M,M,M,M,M,RJSM 162000Z 15006KT 120V180 3000 BR FEW001 BKN002 BKN003 19/19 Q1012
RJTT,2020-09-16 20:00,139.7811,35.5533,75.20,71.60,88.59,40.00,5.00,0.00,29.88,M,6.21,M,FEW,SCT,M,M,700.00,18000.00,M,M,M,M,M,M,M,M,M,M,RJTT 162000Z 04005KT 9999 FEW007 SCT180 24/22 Q1012 NOSIG
RJOS,2020-09-16 20:00,134.6092,34.1322,73.40,69.80,88.51,270.00,3.00,0.00,29.83,M,6.21,M,FEW,SCT,M,M,2500.00,6000.00,M,M,M,M,M,M,M,M,M,M,RJOS 162000Z 27003KT 240V300 9999 FEW025 SCT060 23/21 Q1010
RORK,2020-09-16 20:00,131.3333,25.9167,82.40,78.80,88.90,120.00,14.00,0.00,29.91,M,6.21,M,FEW,M,M,M,1200.00,M,M,M,M,M,M,M,M,M,M,92.76,RORK 162000Z AUTO 12014KT 9999 FEW012 28/26 Q1013
ROYN,2020-09-16 20:00,122.9780,24.4670,84.20,78.80,83.88,160.00,12.00,0.00,29.83,M,6.21,M,BKN,BKN,M,M,1700.00,2500.00,M,M,M,M,M,M,M,M,M,96.10,ROYN 162000Z AUTO 16012KT 9999 BKN017 BKN025 29/26 Q1010
ROAH,2020-09-16 20:00,127.6458,26.1958,82.40,77.00,83.77,140.00,6.00,0.00,29.88,M,6.21,M,FEW,M,M,M,1500.00,M,M,M,M,M,M,M,M,M,M,90.85,ROAH 162000Z 14006KT 9999 FEW015 28/25 Q1012
RJOZ,2020-09-16 20:09,131.0522,34.0469,73.40,73.40,100.00,350.00,3.00,0.00,29.80,M,3.11,M,FEW,BKN,BKN,M,300.00,800.00,1500.00,M,-SHRA BR,M,M,M,M,M,M,M,RJOZ 162009Z 35003KT 5000 -SHRA BR FEW003 BKN008 BKN015 23/23 Q1009 RMK 2ST003 5ST008 7CU015 A2982
RJFY,2020-09-16 20:10,130.8381,31.3681,77.00,71.60,83.44,230.00,6.00,0.00,29.88,M,2.80,M,FEW,BKN,OVC,FEW,200.00,1000.00,2000.00,2000.00,-SHRA BR,M,M,M,M,M,M,M,RJFY 162010Z 23006KT 4500 -SHRA BR FEW002 BKN010 OVC020 FEW020CB 25/22 Q1012 RMK 2ST002 5ST010 8CU020 1CB020 A2989 CB 10KM E MOV E
RJTY,2020-09-16 20:11,139.3485,35.7485,71.60,69.80,94.06,10.00,3.00,0.00,29.95,1013.90,6.00,M,OVC,M,M,M,700.00,M,M,M,BR,M,M,M,M,M,M,M,RJTY 162011Z AUTO 01003KT 6SM BR OVC007 22/21 A2995 RMK AO2 CIG 005V007 CIG 005 RWY18 SLP139 FZRANO $
RJTY,2020-09-16 20:26,139.3485,35.7485,71.60,69.80,94.06,20.00,4.00,0.00,29.96,1014.30,5.00,M,SCT,OVC,M,M,800.00,1700.00,M,M,BR,M,M,M,M,M,M,M,RJTY 162026Z AUTO 02004KT 5SM BR SCT008 OVC017 22/21 A2996 RMK AO2 CIG 007V017 CIG 014 RWY18 SLP143 FZRANO $
RJOZ,2020-09-16 20:28,131.0522,34.0469,73.40,73.40,100.00,40.00,4.00,0.00,29.80,M,4.97,M,FEW,SCT,BKN,M,300.00,800.00,2000.00,M,M,M,M,M,M,M,M,M,RJOZ 162028Z 04004KT 8000 FEW003 SCT008 BKN020 23/23 Q1009 RMK 1ST003 4ST008 7CU020 A2981
RJAA,2020-09-16 20:30,140.3856,35.7653,71.60,69.80,94.06,360.00,4.00,0.00,29.91,M,4.97,M,SCT,BKN,BKN,M,600.00,18000.00,M,M,M,M,M,M,M,M,M,M,RJAA 162030Z 36004KT 8000 SCT006 BKN180 BKN/// 22/21 Q1013 NOSIG RMK 3ST006 5AC180 A2991
RJCC,2020-09-16 20:30,141.6926,42.7742,64.40,64.40,100.00,140.00,5.00,0.00,29.91,M,4.97,M,FEW,BKN,BKN,M,500.00,900.00,3000.00,M,-SHRA,M,M,M,M,M,M,M,RJCC 162030Z 14005KT 8000 -SHRA FEW005 BKN009 BKN030 18/18 Q1013 RMK 1ST005 5ST009 6CU030 A2991
RJFF,2020-09-16 20:30,130.4517,33.5844,75.20,73.40,94.14,320.00,2.00,0.00,29.83,M,6.21,M,FEW,BKN,OVC,M,3200.00,3400.00,4800.00,M,M,M,M,M,M,M,M,M,RJFF 162030Z AUTO 32002KT 9999 FEW032 BKN034 OVC048 24/23 Q1010 BECMG 15006KT RMK A2983
RJBB,2020-09-16 20:30,135.2328,34.4342,78.80,71.60,78.62,120.00,4.00,0.00,29.85,M,6.21,M,FEW,SCT,BKN,M,2100.00,2400.00,8000.00,M,M,M,M,M,M,M,M,M,RJBB 162030Z AUTO 12004KT 9999 FEW021 SCT024 BKN080 26/22 Q1011 BECMG 19006KT
RJGG,2020-09-16 20:30,136.8054,34.8584,75.20,71.60,88.59,70.00,5.00,0.00,29.85,M,6.21,M,FEW,SCT,BKN,M,1000.00,2500.00,5000.00,M,M,M,M,M,M,M,M,M,RJGG 162030Z 07005KT 9999 FEW010 SCT025 BKN050 24/22 Q1011 BECMG 10005KT
RJSS,2020-09-16 20:30,140.9169,38.1397,69.80,68.00,94.01,270.00,4.00,0.00,29.88,M,6.21,M,FEW,SCT,BKN,M,100.00,2000.00,3000.00,M,M,M,M,M,M,M,M,M,RJSS 162030Z 27004KT 9999 FEW001 SCT020 BKN030 21/20 Q1012 RMK 1ST001 4SC020 7SC030 A2991
RJTT,2020-09-16 20:30,139.7811,35.5533,75.20,71.60,88.59,50.00,6.00,0.00,29.88,M,6.21,M,FEW,BKN,M,M,700.00,16000.00,M,M,M,M,M,M,M,M,M,M,RJTT 162030Z 05006KT 9999 FEW007 BKN160 24/22 Q1012 NOSIG RMK 1ST007 6AC160 A2990
ROAH,2020-09-16 20:30,127.6458,26.1958,80.60,77.00,88.83,140.00,5.00,0.00,29.88,M,6.21,M,FEW,M,M,M,1500.00,M,M,M,M,M,M,M,M,M,M,87.59,ROAH 162030Z 14005KT 9999 FEW015 27/25 Q1012 RMK 1CU015 A2988
RJNY,2020-09-16 20:31,138.2981,34.8128,73.40,69.80,88.51,M,2.00,0.00,29.88,M,6.21,M,FEW,SCT,M,M,1500.00,3500.00,M,M,M,M,M,M,M,M,M,M,RJNY 162031Z VRB02KT 9999 FEW015 SCT035 23/21 Q1012 RMK 1CU015 4SC035 A2989 ACLEN NE
RJNY,2020-09-16 20:36,138.2981,34.8128,73.40,69.80,88.51,M,2.00,0.00,29.88,M,6.21,M,FEW,SCT,BKN,M,1500.00,3500.00,12000.00,M,M,M,M,M,M,M,M,M,RJNY 162036Z VRB02KT 9999 FEW015 SCT035 BKN120 23/21 Q1012 RMK 1CU015 4SC035 5AC120 A2990 ACLEN NE
RJNG,2020-09-16 20:39,136.8694,35.3944,73.40,71.60,94.10,70.00,3.00,0.00,29.88,M,6.21,M,FEW,SCT,BKN,M,500.00,1500.00,2500.00,M,M,M,M,M,M,M,M,M,RJNG 162039Z 07003KT 9999 FEW005 SCT015 BKN025 23/22 Q1012 RMK 1ST005 3CU015 5CU025 A2990
RJAH,2020-09-16 20:45,140.4147,36.1817,68.00,66.20,93.97,90.00,2.00,0.00,29.88,M,6.21,M,FEW,BKN,BKN,M,1200.00,18000.00,25000.00,M,M,M,M,M,M,M,M,M,RJAH 162045Z 09002KT 9999 FEW012 BKN180 BKN250 20/19 Q1012 RMK 2SC012 5AC180 A2990
RJFY,2020-09-16 20:51,130.8381,31.3681,77.00,71.60,83.44,240.00,9.00,0.00,29.88,M,3.11,M,FEW,BKN,OVC,M,200.00,1000.00,2000.00,M,-SHRA BR,M,M,M,M,M,M,M,RJFY 162051Z 24009KT 5000 -SHRA BR FEW002 BKN010 OVC020 25/22 Q1012 RMK 2ST002 5ST010 8CU020 A2990
RJOF,2020-09-16 20:52,131.5464,34.0344,75.20,73.40,94.14,130.00,3.00,0.00,29.83,M,6.21,M,FEW,BKN,BKN,M,600.00,1200.00,3500.00,M,-SHRA,M,M,M,M,M,M,M,RJOF 162052Z 13003KT 090V150 9999 -SHRA FEW006 BKN012 BKN035 24/23 Q1010 RMK 1ST006 5CU012 6CU035 A2983
RJOI,2020-09-16 20:55,132.2357,34.1439,78.10,73.00,84.36,200.00,9.00,T,29.83,1010.10,6.21,M,FEW,BKN,OVC,M,1000.00,2500.00,4500.00,M,M,M,M,M,M,M,M,M,RJOI 162055Z 20009KT 9999 FEW010 BKN025 OVC045 26/23 A2983 RMK SHRAE1959B26E40 SLP101 P0000 60000 T02560228 55000
RJTY,2020-09-16 20:56,139.3485,35.7485,70.70,70.70,100.00,0.00,0.00,0.00,29.96,1014.30,5.00,M,FEW,SCT,M,M,600.00,1100.00,M,M,BR,M,M,M,M,M,M,M,RJTY 162056Z AUTO 00000KT 5SM BR FEW006 SCT011 22/22 A2996 RMK AO2 SLP143 T02150215 53004 FZRANO $
RODN,2020-09-16 20:56,127.7676,26.3556,80.20,77.00,90.00,140.00,5.00,0.00,29.89,1012.70,10.00,M,CLR,M,M,M,M,M,M,M,M,M,M,M,M,M,M,86.87,RODN 162056Z AUTO 14005KT 10SM CLR 27/25 A2989 RMK AO2 SLP127 T02680250 50002 $
ROTM,2020-09-16 20:56,127.7565,26.2743,82.00,79.00,90.66,150.00,6.00,0.00,29.91,1011.20,6.21,M,SCT,SCT,M,M,1500.00,12000.00,M,M,M,M,M,M,M,M,M,92.25,ROTM 162056Z 15006KT 9999 SCT015 SCT120 28/26 A2991 RMK SLP112 T02780261 51002
RJSD,2020-09-16 21:00,138.4139,38.0602,69.80,69.80,100.00,M,2.00,0.00,29.85,M,6.21,M,FEW,BKN,OVC,///,1500.00,5000.00,6000.00,M,-RA,M,M,M,M,M,M,M,RJSD 162100Z AUTO VRB02KT 9999 -RA FEW015 BKN050 OVC060 //////TCU 21/21 Q1011
RJFR,2020-09-16 21:00,131.0350,33.8456,75.20,73.40,94.14,10.00,5.00,0.00,29.80,M,6.21,M,FEW,SCT,OVC,M,400.00,2000.00,M,M,M,M,M,M,M,M,M,M,RJFR 162100Z 01005KT 9999 FEW004 SCT020 OVC/// 24/23 Q1009
RJAA,2020-09-16 21:00,140.3856,35.7653,71.60,69.80,94.06,30.00,3.00,0.00,29.91,M,6.21,M,FEW,BKN,M,M,600.00,17000.00,M,M,M,M,M,M,M,M,M,M,RJAA 162100Z 03003KT 360V060 9999 FEW006 BKN170 22/21 Q1013 NOSIG
RJAH,2020-09-16 21:00,140.4147,36.1817,68.00,66.20,93.97,M,2.00,0.00,29.88,M,6.21,M,FEW,BKN,BKN,M,1200.00,18000.00,25000.00,M,M,M,M,M,M,M,M,M,RJAH 162100Z VRB02KT 9999 FEW012 BKN180 BKN250 20/19 Q1012
RJCC,2020-09-16 21:00,141.6926,42.7742,64.40,64.40,100.00,190.00,4.00,0.00,29.91,M,3.73,M,FEW,BKN,BKN,M,500.00,900.00,3000.00,M,-SHRA,M,M,M,M,M,M,M,RJCC 162100Z 19004KT 6000 -SHRA FEW005 BKN009 BKN030 18/18 Q1013
RJCO,2020-09-16 21:00,141.3814,43.1175,66.20,64.40,93.92,140.00,8.00,0.00,29.91,M,6.21,M,FEW,SCT,BKN,M,500.00,900.00,1500.00,M,M,M,M,M,M,M,M,M,RJCO 162100Z 14008KT 9999 FEW005 SCT009 BKN015 19/18 Q1013
RJFF,2020-09-16 21:00,130.4517,33.5844,75.20,73.40,94.14,150.00,4.00,0.00,29.83,M,6.21,M,FEW,SCT,BKN,M,500.00,3000.00,4000.00,M,M,M,M,M,M,M,M,M,RJFF 162100Z 15004KT 9999 FEW005 SCT030 BKN040 24/23 Q1010 NOSIG
RJFK,2020-09-16 21:00,130.7194,31.8033,73.40,73.40,100.00,250.00,3.00,0.00,29.91,M,4.97,M,FEW,BKN,BKN,M,100.00,600.00,1500.00,M,BCFG,M,M,M,M,M,M,M,RJFK 162100Z 25003KT 8000 BCFG FEW001 BKN006 BKN015 23/23 Q1013
RJAW,2020-09-16 21:00,141.3227,24.7840,80.60,75.20,83.66,110.00,6.00,0.00,29.94,M,6.21,M,FEW,M,M,M,1500.00,M,M,M,M,M,M,M,M,M,M,86.17,RJAW 162100Z 11006KT 9999 FEW015 27/24 Q1014 RMK 2CU015 A2996
RJBB,2020-09-16 21:00,135.2328,34.4342,78.80,71.60,78.62,120.00,6.00,0.00,29.85,M,6.21,M,FEW,SCT,BKN,M,2000.00,6000.00,M,M,M,M,M,M,M,M,M,M,RJBB 162100Z 12006KT 9999 FEW020 SCT060 BKN/// 26/22 Q1011 BECMG 19006KT
RJNK,2020-09-16 21:00,136.4075,36.3939,75.20,68.00,78.34,0.00,0.00,0.00,29.83,M,6.21,M,FEW,BKN,BKN,M,3000.00,5000.00,8000.00,M,M,M,M,M,M,M,M,M,RJNK 162100Z 00000KT 9999 FEW030 BKN050 BKN080 24/20 Q1010
RJOH,2020-09-16 21:00,133.2392,35.4933,73.40,73.40,100.00,190.00,3.00,0.00,29.83,M,6.21,M,FEW,SCT,BKN,M,500.00,3000.00,4500.00,M,M,M,M,M,M,M,M,M,RJOH 162100Z 19003KT 160V230 9999 FEW005 SCT030 BKN045 23/23 Q1010
RJGG,2020-09-16 21:00,136.8054,34.8584,75.20,71.60,88.59,70.00,4.00,0.00,29.85,M,6.21,M,FEW,SCT,BKN,M,1000.00,2500.00,4500.00,M,M,M,M,M,M,M,M,M,RJGG 162100Z 07004KT 9999 FEW010 SCT025 BKN045 24/22 Q1011 BECMG 10005KT
RJKI,2020-09-16 21:00,129.9281,28.3213,80.60,78.80,94.27,190.00,7.00,0.00,29.88,M,6.21,M,FEW,M,M,M,1300.00,M,M,M,M,M,M,M,M,M,M,89.33,RJKI 162100Z AUTO 19007KT 150V230 9999 FEW013 27/26 Q1012
ROIG,2020-09-16 21:00,124.1633,24.3367,82.40,80.60,94.31,160.00,5.00,0.00,29.83,M,6.21,M,FEW,SCT,M,M,1400.00,2500.00,M,M,-SHRA,M,M,M,M,M,M,95.00,ROIG 162100Z 16005KT 9999 -SHRA FEW014 SCT025 28/27 Q1010
ROMD,2020-09-16 21:00,131.2286,25.8289,82.40,80.60,94.31,M,3.00,0.00,29.91,M,6.21,M,FEW,M,M,M,1100.00,M,M,M,M,M,M,M,M,M,M,95.00,ROMD 162100Z AUTO VRB03KT 9999 FEW011 28/27 Q1013
RORY,2020-09-16 21:00,128.4020,27.0440,82.40,78.80,88.90,170.00,9.00,0.00,29.88,M,6.21,M,SCT,SCT,BKN,M,1200.00,1900.00,2700.00,M,M,M,M,M,M,M,M,92.76,RORY 162100Z AUTO 17009KT 9999 SCT012 SCT019 BKN027 28/26 Q1012
RJOO,2020-09-16 21:00,135.4392,34.7844,75.20,71.60,88.59,110.00,4.00,0.00,29.85,M,6.21,M,FEW,SCT,BKN,M,1500.00,2500.00,7000.00,M,M,M,M,M,M,M,M,M,RJOO 162100Z 11004KT 9999 FEW015 SCT025 BKN070 24/22 Q1011
RJSM,2020-09-16 21:00,141.3684,40.7032,66.20,66.20,100.00,180.00,3.00,0.00,29.88,M,4.97,M,FEW,BKN,M,M,200.00,25000.00,M,M,M,M,M,M,M,M,M,M,RJSM 162100Z 18003KT 150V220 8000 FEW002 BKN250 19/19 Q1012
RJSS,2020-09-16 21:00,140.9169,38.1397,69.80,68.00,94.01,0.00,0.00,0.00,29.91,M,6.21,M,FEW,BKN,BKN,M,100.00,900.00,2000.00,M,VCFG,M,M,M,M,M,M,M,RJSS 162100Z 00000KT 9999 VCFG FEW001 BKN009 BKN020 21/20 Q1013
RJTT,2020-09-16 21:00,139.7811,35.5533,73.40,71.60,94.10,50.00,7.00,0.00,29.91,M,6.21,M,FEW,BKN,BKN,M,800.00,1500.00,16000.00,M,M,M,M,M,M,M,M,M,RJTT 162100Z 05007KT 9999 FEW008 BKN015 BKN160 23/22 Q1013 NOSIG
RJOS,2020-09-16 21:00,134.6092,34.1322,73.40,69.80,88.51,M,1.00,0.00,29.85,M,6.21,M,FEW,BKN,BKN,M,2500.00,6000.00,M,M,M,M,M,M,M,M,M,M,RJOS 162100Z VRB01KT 9999 FEW025 BKN060 BKN/// 23/21 Q1011
RORK,2020-09-16 21:00,131.3333,25.9167,82.40,78.80,88.90,120.00,8.00,0.00,29.91,M,6.21,M,NCD,M,M,M,M,M,M,M,M,M,M,M,M,M,M,92.76,RORK 162100Z AUTO 12008KT 9999 NCD 28/26 Q1013
ROYN,2020-09-16 21:00,122.9780,24.4670,84.20,78.80,83.88,170.00,10.00,0.00,29.83,M,6.21,M,FEW,M,M,M,1700.00,M,M,M,M,M,M,M,M,M,M,96.10,ROYN 162100Z AUTO 17010KT 140V200 9999 FEW017 29/26 Q1010
ROAH,2020-09-16 21:00,127.6458,26.1958,82.40,78.80,88.90,130.00,5.00,0.00,29.88,M,6.21,M,FEW,SCT,M,M,1500.00,M,M,M,M,M,M,M,M,M,M,92.76,ROAH 162100Z 13005KT 9999 FEW015 SCT/// 28/26 Q1012
RJCH,2020-09-16 21:10,140.8219,41.7700,69.80,66.20,88.34,120.00,10.00,0.00,29.88,M,6.21,M,FEW,SCT,BKN,M,700.00,1200.00,2500.00,M,M,M,M,M,M,M,M,M,RJCH 162110Z 12010KT 9999 FEW007 SCT012 BKN025 21/19 Q1012 RMK 1ST007 3ST012 5CU025 A2990
RJFM,2020-09-16 21:10,131.4486,31.8772,75.20,75.20,100.00,100.00,3.00,0.00,29.85,M,6.21,M,FEW,BKN,BKN,M,300.00,3500.00,15000.00,M,-SHRA,M,M,M,M,M,M,M,RJFM 162110Z 10003KT 030V130 9999 -SHRA FEW003 BKN035 BKN150 24/24 Q1011 RMK 1ST003 5CU035 7AC150 A2986
RJNT,2020-09-16 21:10,137.1875,36.6483,78.80,66.20,65.33,200.00,5.00,0.00,29.83,M,6.21,M,FEW,SCT,M,M,3000.00,9000.00,M,M,M,M,M,M,M,M,M,M,RJNT 162110Z 20005KT 160V250 9999 FEW030 SCT090 26/19 Q1010 RMK 1SC030 3AC090 A2984
RJOA,2020-09-16 21:10,132.9194,34.4361,71.60,69.80,94.06,130.00,3.00,0.00,29.88,M,6.21,M,FEW,BKN,M,M,0.00,2000.00,M,M,PRFG,M,M,M,M,M,M,M,RJOA 162110Z 13003KT 100V160 9999 PRFG FEW000 BKN020 22/21 Q1012 RMK 1ST000 7CU020 A2989 FG BANK SE
RJOC,2020-09-16 21:10,132.8900,35.4136,73.40,71.60,94.10,M,1.00,0.00,29.80,M,6.21,M,FEW,SCT,BKN,M,100.00,2000.00,5000.00,M,-SHRA,M,M,M,M,M,M,M,RJOC 162110Z VRB01KT 9999 -SHRA FEW001 SCT020 BKN050 23/22 Q1009 RMK 1ST001 3CU020 6SC050 A2982
RJOK,2020-09-16 21:10,133.6694,33.5461,73.40,73.40,100.00,330.00,5.00,0.00,29.88,M,2.49,M,FEW,SCT,BKN,M,200.00,1000.00,2000.00,M,-SHRA BR,M,M,M,M,M,M,M,RJOK 162110Z 33005KT 4000 -SHRA BR FEW002 SCT010 BKN020 23/23 Q1012 RMK 1ST002 3ST010 5CU020 A2989
RJFU,2020-09-16 21:10,129.9136,32.9169,75.20,75.20,100.00,150.00,4.00,0.00,29.83,M,6.21,M,FEW,SCT,BKN,M,200.00,3000.00,4000.00,M,M,M,M,M,M,M,M,M,RJFU 162110Z 15004KT 9999 FEW002 SCT030 BKN040 24/24 Q1010 RMK 1ST002 3CU030 5CU040 A2985
RJOM,2020-09-16 21:10,132.6997,33.8272,77.00,73.40,88.67,30.00,4.00,0.00,29.83,M,6.21,M,FEW,SCT,BKN,M,2500.00,4000.00,6000.00,M,M,M,M,M,M,M,M,M,RJOM 162110Z 03004KT 9999 FEW025 SCT040 BKN060 25/23 Q1010 RMK 1CU025 3CU040 6SC060 A2983
RJFS,2020-09-16 21:10,130.3000,33.1500,77.00,75.20,94.19,150.00,3.00,0.00,29.83,M,6.21,M,FEW,SCT,BKN,M,1000.00,4000.00,15000.00,M,M,M,M,M,M,M,M,M,RJFS 162110Z 15003KT 9999 FEW010 SCT040 BKN150 25/24 Q1010 RMK 1CU010 4CU040 5AC150 A2984
RJFT,2020-09-16 21:10,130.8553,32.8372,73.40,73.40,100.00,M,2.00,0.00,29.88,M,4.97,M,FEW,SCT,BKN,M,100.00,1000.00,2000.00,M,-SHRA,M,M,M,M,M,M,M,RJFT 162110Z VRB02KT 8000 -SHRA FEW001 SCT010 BKN020 23/23 Q1012 RMK 1ST001 3ST010 7CU020 A2989
RJOR,2020-09-16 21:10,134.1650,35.5300,75.20,71.60,88.59,200.00,2.00,0.00,29.83,M,6.21,M,FEW,SCT,BKN,M,3000.00,4500.00,9000.00,M,VCSH,M,M,M,M,M,M,M,RJOR 162110Z 20002KT 9999 VCSH FEW030 SCT045 BKN090 24/22 Q1010 RMK 1CU030 4SC045 5AC090 A2983
RJSN,2020-09-16 21:10,139.1117,37.9558,75.20,68.00,78.34,200.00,4.00,0.00,29.85,M,6.21,M,FEW,SCT,BKN,M,3000.00,5000.00,7000.00,M,VCSH,M,M,M,M,M,M,M,RJSN 162110Z 20004KT 9999 VCSH FEW030 SCT050 BKN070 24/20 Q1011 RMK 1CU030 3CU050 7AC070 A2987
RJTY,2020-09-16 21:11,139.3485,35.7485,71.60,71.60,100.00,0.00,0.00,0.00,29.96,1014.30,2.50,M,SCT,BKN,M,M,500.00,1200.00,M,M,BR,M,M,M,M,M,M,M,RJTY 162111Z 00000KT 2 1/2SM BR SCT005 BKN012 22/22 A2996 RMK AO2A TWR VIS 2SM SLP143 FZRANO $
RJAH,2020-09-16 21:15,140.4147,36.1817,69.80,68.00,94.01,M,2.00,0.00,29.91,M,6.21,M,FEW,BKN,BKN,M,1200.00,1500.00,18000.00,M,M,M,M,M,M,M,M,M,RJAH 162115Z VRB02KT 9999 FEW012 BKN015 BKN180 21/20 Q1013 RMK 1SC012 5SC015 5AC180 A2992
RJOB,2020-09-16 21:15,133.8553,34.7569,73.40,71.60,94.10,80.00,4.00,0.00,29.88,M,6.21,M,FEW,SCT,BKN,M,0.00,900.00,5000.00,M,BCFG,M,M,M,M,M,M,M,RJOB 162115Z 08004KT 9999 BCFG FEW000 SCT009 BKN050 23/22 Q1012 RMK 1ST000 3ST009 5SC050 A2988 FG NE-SE AND SW
RJNG,2020-09-16 21:18,136.8694,35.3944,73.40,71.60,94.10,M,2.00,0.00,29.88,M,6.21,M,FEW,SCT,BKN,M,500.00,1500.00,2500.00,M,-SHRA,M,M,M,M,M,M,M,RJNG 162118Z VRB02KT 9999 -SHRA FEW005 SCT015 BKN025 23/22 Q1012 RMK 1ST005 3CU015 5CU025 A2991
RJOE,2020-09-16 21:19,136.6722,34.5333,73.40,69.80,88.51,240.00,3.00,0.00,29.91,M,6.21,M,FEW,SCT,BKN,M,1000.00,2000.00,5000.00,M,M,M,M,M,M,M,M,M,RJOE 162119Z 24003KT 9999 FEW010 SCT020 BKN050 23/21 Q1013 RMK 1ST010 3CU020 5SC050 A2992
RJOF,2020-09-16 21:20,131.5464,34.0344,75.20,73.40,94.14,M,2.00,0.00,29.83,M,6.21,M,FEW,SCT,BKN,M,500.00,1200.00,2500.00,M,-SHRA,M,M,M,M,M,M,M,RJOF 162120Z VRB02KT 9999 -SHRA FEW005 SCT012 BKN025 24/23 Q1010 RMK 1ST005 3CU012 6CU025 A2984
RJOT,2020-09-16 21:20,134.0167,34.2167,71.60,69.80,94.06,130.00,6.00,0.00,29.85,M,6.21,M,FEW,SCT,BKN,M,2000.00,7000.00,M,M,M,M,M,M,M,M,M,M,RJOT 162120Z 13006KT 9999 FEW020 SCT070 BKN/// 22/21 Q1011 RMK 1CU020 3AC070 A2988
RJFY,2020-09-16 21:25,130.8381,31.3681,77.00,73.40,88.67,240.00,7.00,0.00,29.88,M,3.11,M,FEW,BKN,OVC,M,200.00,900.00,2000.00,M,SHRA BR,M,M,M,M,M,M,M,RJFY 162125Z 24007KT 5000 SHRA BR FEW002 BKN009 OVC020 25/23 Q1012 RMK 2ST002 6ST009 8CU020 A2990
RJSO,2020-09-16 21:25,141.1322,41.2328,69.80,66.20,88.34,10.00,3.00,0.00,29.91,M,6.21,M,FEW,SCT,BKN,M,800.00,1200.00,1500.00,M,M,M,M,M,M,M,M,M,RJSO 162125Z 01003KT 9999 FEW008 SCT012 BKN015 21/19 Q1013 RMK 1ST008 4ST012 7CU015 A2992
RJCO,2020-09-16 21:26,141.3814,43.1175,66.20,64.40,93.92,130.00,9.00,0.00,29.91,M,6.21,M,FEW,SCT,BKN,M,700.00,1500.00,20000.00,M,M,M,M,M,M,M,M,M,RJCO 162126Z 13009KT 9999 FEW007 SCT015 BKN200 19/18 Q1013 RMK 1ST007 3ST015 6CI200 A2992
RJAA,2020-09-16 21:30,140.3856,35.7653,71.60,69.80,94.06,20.00,3.00,0.00,29.91,M,6.21,M,FEW,BKN,M,M,1500.00,16000.00,M,M,M,M,M,M,M,M,M,M,RJAA 162130Z 02003KT 340V070 9999 FEW015 BKN160 22/21 Q1013 NOSIG RMK 1CU015 7AC160 A2993
RJCC,2020-09-16 21:30,141.6926,42.7742,64.40,64.40,100.00,160.00,4.00,0.00,29.91,M,3.73,M,FEW,BKN,BKN,M,500.00,900.00,3000.00,M,-SHRA,M,M,M,M,M,M,M,RJCC 162130Z 16004KT 6000 -SHRA FEW005 BKN009 BKN030 18/18 Q1013 RMK 1ST005 5ST009 7CU030 A2992
RJDM,2020-09-16 21:30,130.4136,33.3253,75.20,75.20,100.00,M,1.00,0.00,29.85,M,6.21,M,FEW,SCT,BKN,M,300.00,1500.00,5000.00,M,M,M,M,M,M,M,M,M,RJDM 162130Z VRB01KT 9999 FEW003 SCT015 BKN050 24/24 Q1011 RMK 1ST003 3CU015 6SC050 A2985
RJFF,2020-09-16 21:30,130.4517,33.5844,75.20,73.40,94.14,160.00,4.00,0.00,29.83,M,6.21,M,FEW,SCT,BKN,M,500.00,3000.00,4000.00,M,M,M,M,M,M,M,M,M,RJFF 162130Z 16004KT 9999 FEW005 SCT030 BKN040 24/23 Q1010 NOSIG RMK 1ST005 3CU030 5CU040 A2984
RJBB,2020-09-16 21:30,135.2328,34.4342,78.80,71.60,78.62,130.00,6.00,0.00,29.88,M,6.21,M,FEW,BKN,BKN,M,2000.00,7000.00,M,M,M,M,M,M,M,M,M,M,RJBB 162130Z 13006KT 9999 FEW020 BKN070 BKN/// 26/22 Q1012 NOSIG
RJOC,2020-09-16 21:30,132.8900,35.4136,73.40,73.40,100.00,M,2.00,0.00,29.83,M,6.21,M,FEW,SCT,BKN,M,100.00,2000.00,3500.00,M,-SHRA,M,M,M,M,M,M,M,RJOC 162130Z VRB02KT 9999 -SHRA FEW001 SCT020 BKN035 23/23 Q1010
RJKA,2020-09-16 21:30,129.7125,28.4308,82.40,78.80,88.90,210.00,12.00,0.00,29.88,M,6.21,M,FEW,BKN,M,M,1500.00,M,M,M,M,M,M,M,M,M,M,92.76,RJKA 162130Z 21012KT 9999 FEW015 BKN/// 28/26 Q1012
RJGG,2020-09-16 21:30,136.8054,34.8584,75.20,71.60,88.59,70.00,3.00,0.00,29.88,M,6.21,M,FEW,SCT,BKN,M,1500.00,2500.00,4500.00,M,M,M,M,M,M,M,M,M,RJGG 162130Z 07003KT 9999 FEW015 SCT025 BKN045 24/22 Q1012 BECMG 10005KT
ROMY,2020-09-16 21:30,125.2767,24.7933,80.60,78.80,94.27,160.00,4.00,0.00,29.85,M,6.21,M,FEW,SCT,M,M,1200.00,M,M,M,VCSH,M,M,M,M,M,M,89.33,ROMY 162130Z 16004KT 9999 VCSH FEW012 SCT/// 27/26 Q1011
RJDC,2020-09-16 21:30,131.2786,33.9300,75.20,75.20,100.00,80.00,3.00,0.00,29.83,M,6.21,M,FEW,SCT,BKN,M,300.00,3000.00,4000.00,M,M,M,M,M,M,M,M,M,RJDC 162130Z 08003KT 9999 FEW003 SCT030 BKN040 24/24 Q1010
RJOR,2020-09-16 21:30,134.1650,35.5300,75.20,73.40,94.14,M,2.00,0.00,29.83,M,6.21,M,FEW,SCT,BKN,M,3500.00,4500.00,9000.00,M,-SHRA,M,M,M,M,M,M,M,RJOR 162130Z VRB02KT 9999 -SHRA FEW035 SCT045 BKN090 24/23 Q1010
RJSS,2020-09-16 21:30,140.9169,38.1397,69.80,68.00,94.01,M,2.00,0.00,29.91,M,6.21,M,FEW,SCT,BKN,M,100.00,900.00,2000.00,M,VCFG,M,M,M,M,M,M,M,RJSS 162130Z VRB02KT 9999 VCFG FEW001 SCT009 BKN020 21/20 Q1013 RMK 1ST001 3ST009 7SC020 A2993
RJTT,2020-09-16 21:30,139.7811,35.5533,73.40,71.60,94.10,60.00,8.00,0.00,29.91,M,6.21,M,FEW,BKN,BKN,M,800.00,2000.00,16000.00,M,M,M,M,M,M,M,M,M,RJTT 162130Z 06008KT 9999 FEW008 BKN020 BKN160 23/22 Q1013 NOSIG RMK 1ST008 5SC020 7AC160 A2992
ROAH,2020-09-16 21:30,127.6458,26.1958,82.40,78.80,88.90,130.00,5.00,0.00,29.88,M,6.21,M,FEW,BKN,M,M,1500.00,M,M,M,M,M,M,M,M,M,M,92.76,ROAH 162130Z 13005KT 9999 FEW015 BKN/// 28/26 Q1012 RMK 1CU015 A2990
RJTK,2020-09-16 21:38,139.9097,35.3983,71.60,71.60,100.00,90.00,5.00,0.00,29.91,M,2.80,M,SCT,BKN,M,M,100.00,600.00,M,M,BR,M,M,M,M,M,M,M,RJTK 162138Z 09005KT 4500 BR SCT001 BKN006 22/22 Q1013 RMK 4ST001 6ST006 A2992 1000N-E
RJSA,2020-09-16 21:40,140.6886,40.7333,66.20,64.40,93.92,M,2.00,0.00,29.88,M,4.35,M,FEW,BKN,M,M,200.00,400.00,M,M,M,M,M,M,M,M,M,M,RJSA 162140Z VRB02KT 7000 FEW002 BKN004 19/18 Q1012 RMK 1ST002 7ST004 A2990
RJSF,2020-09-16 21:40,140.4281,37.2275,66.20,66.20,100.00,M,2.00,0.00,29.94,M,6.21,M,FEW,SCT,M,M,200.00,17000.00,M,M,M,M,M,M,M,M,M,M,RJSF 162140Z VRB02KT 9999 FEW002 SCT170 19/19 Q1014 RMK 1ST002 4AC170 A2996
RJEC,2020-09-16 21:40,142.4475,43.6708,62.60,55.40,77.29,M,1.00,0.00,29.94,M,6.21,M,FEW,SCT,BKN,M,500.00,17000.00,M,M,M,M,M,M,M,M,M,M,RJEC 162140Z VRB01KT 9999 FEW005 SCT170 BKN/// 17/13 Q1014 RMK 1ST005 3AC170 A2994
RJSK,2020-09-16 21:40,140.2167,39.6167,66.20,64.40,93.92,170.00,3.00,0.00,29.91,M,6.21,M,FEW,SCT,BKN,M,3000.00,6000.00,9000.00,M,-RA,M,M,M,M,M,M,M,RJSK 162140Z 17003KT 130V230 9999 -RA FEW030 SCT060 BKN090 19/18 Q1013 RMK 1CU030 3SC060 7AC090 A2992
RJCO,2020-09-16 21:41,141.3814,43.1175,66.20,64.40,93.92,120.00,9.00,0.00,29.91,M,6.21,M,FEW,SCT,BKN,M,800.00,1500.00,3000.00,M,M,M,M,M,M,M,M,M,RJCO 162141Z 12009KT 9999 FEW008 SCT015 BKN030 19/18 Q1013 RMK 1ST008 3ST015 6CU030 A2993
RJFY,2020-09-16 21:41,130.8381,31.3681,77.00,73.40,88.67,230.00,5.00,0.00,29.88,M,4.97,M,SCT,BKN,OVC,M,200.00,700.00,2000.00,M,-SHRA,M,M,M,M,M,M,M,RJFY 162141Z 23005KT 190V260 8000 -SHRA SCT002 BKN007 OVC020 25/23 Q1012 RMK 3ST002 6ST007 8CU020 A2991
RJTY,2020-09-16 21:41,139.3485,35.7485,71.60,71.60,100.00,270.00,3.00,0.00,29.98,1015.00,3.00,M,BKN,OVC,M,M,600.00,1200.00,M,M,BR,M,M,M,M,M,M,M,RJTY 162141Z 27003KT 3SM BR BKN006 OVC012 22/22 A2998 RMK AO2A TWR VIS 2SM CIG 005 RWY18 SLP150 FZRANO $
RJOZ,2020-09-16 21:43,131.0522,34.0469,75.20,73.40,94.14,350.00,3.00,0.00,29.83,M,6.21,M,FEW,SCT,BKN,M,800.00,2000.00,3000.00,M,M,M,M,M,M,M,M,M,RJOZ 162143Z 35003KT 9999 FEW008 SCT020 BKN030 24/23 Q1010 RMK 2ST008 4CU020 7CU030 A2983
RJCK,2020-09-16 21:45,144.1931,43.0408,62.60,62.60,100.00,340.00,6.00,0.00,29.97,M,1.24,M,FEW,SCT,BKN,M,100.00,200.00,300.00,M,BCFG -SHRA BR,M,M,M,M,M,M,M,RJCK 162145Z 34006KT 2000 BCFG -SHRA BR FEW001 SCT002 BKN003 17/17 Q1015 RMK 1ST001 3ST002 6ST003 A3000
RJAH,2020-09-16 21:49,140.4147,36.1817,71.60,68.00,88.43,90.00,3.00,0.00,29.91,M,6.21,M,FEW,SCT,BKN,M,1200.00,1500.00,18000.00,M,M,M,M,M,M,M,M,M,RJAH 162149Z 09003KT 9999 FEW012 SCT015 BKN180 22/20 Q1013 RMK 1SC012 3SC015 6AC180 A2993
RJOF,2020-09-16 21:50,131.5464,34.0344,75.20,73.40,94.14,M,2.00,0.00,29.83,M,6.21,M,FEW,SCT,BKN,M,500.00,1200.00,2500.00,M,M,M,M,M,M,M,M,M,RJOF 162150Z VRB02KT 9999 FEW005 SCT012 BKN025 24/23 Q1010 RMK 1ST005 3CU012 5CU025 A2984
RJOI,2020-09-16 21:55,132.2357,34.1439,78.10,73.90,86.95,220.00,4.00,0.00,29.84,1010.50,6.21,M,FEW,BKN,OVC,M,1200.00,2000.00,3000.00,M,M,M,M,M,M,M,M,M,RJOI 162155Z 22004KT 9999 FEW012 BKN020 OVC030 26/23 A2984 RMK SLP105 T02560233
RJTY,2020-09-16 21:56,139.3485,35.7485,72.10,70.90,96.01,0.00,0.00,0.00,29.98,1015.00,4.00,M,SCT,OVC,M,M,700.00,1100.00,M,M,BR,M,M,M,M,M,M,M,RJTY 162156Z 00000KT 4SM BR SCT007 OVC011 22/22 A2998 RMK AO2A SCT V BKN TWR VIS 2SM SLP150 T02230216 FZRANO $
RODN,2020-09-16 21:56,127.7676,26.3556,80.80,77.20,88.84,150.00,7.00,0.00,29.91,1013.30,10.00,M,FEW,SCT,M,M,1400.00,2000.00,M,M,M,M,M,M,M,M,M,88.14,RODN 162156Z AUTO 15007KT 10SM FEW014 SCT020 27/25 A2991 RMK AO2 SLP133 T02710251 $
ROTM,2020-09-16 21:56,127.7565,26.2743,82.00,79.00,90.66,160.00,6.00,0.00,29.93,1011.90,6.21,M,SCT,SCT,M,M,1500.00,3500.00,M,M,M,M,M,M,M,M,M,92.25,ROTM 162156Z 16006KT 9999 SCT015 SCT035 28/26 A2993 RMK SLP119 T02780261
RJSA,2020-09-16 22:00,140.6886,40.7333,66.20,64.40,93.92,M,2.00,0.00,29.88,M,6.21,M,FEW,SCT,BKN,M,200.00,400.00,15000.00,M,M,M,M,M,M,M,M,M,RJSA 162200Z VRB02KT 9999 FEW002 SCT004 BKN150 19/18 Q1012
RJSD,2020-09-16 22:00,138.4139,38.0602,71.60,71.60,100.00,M,1.00,0.00,29.85,M,6.21,M,FEW,OVC,M,M,4900.00,5000.00,M,M,M,M,M,M,M,M,M,M,RJSD 162200Z AUTO VRB01KT 9999 FEW049 OVC050 22/22 Q1011
RJSF,2020-09-16 22:00,140.4281,37.2275,68.00,66.20,93.97,M,1.00,0.00,29.97,M,6.21,M,FEW,SCT,BKN,M,200.00,14000.00,17000.00,M,M,M,M,M,M,M,M,M,RJSF 162200Z VRB01KT 9999 FEW002 SCT140 BKN170 20/19 Q1015
RJFR,2020-09-16 22:00,131.0350,33.8456,77.00,75.20,94.19,10.00,2.00,0.00,29.83,M,6.21,M,FEW,SCT,BKN,M,500.00,2500.00,3500.00,M,M,M,M,M,M,M,M,M,RJFR 162200Z 01002KT 9999 FEW005 SCT025 BKN035 25/24 Q1010
RJAA,2020-09-16 22:00,140.3856,35.7653,73.40,69.80,88.51,20.00,3.00,0.00,29.91,M,6.21,M,FEW,BKN,M,M,1500.00,16000.00,M,M,M,M,M,M,M,M,M,M,RJAA 162200Z 02003KT 320V060 9999 FEW015 BKN160 23/21 Q1013 NOSIG
RJAH,2020-09-16 22:00,140.4147,36.1817,71.60,68.00,88.43,80.00,3.00,0.00,29.91,M,6.21,M,FEW,SCT,BKN,M,1200.00,1500.00,18000.00,M,M,M,M,M,M,M,M,M,RJAH 162200Z 08003KT 050V110 9999 FEW012 SCT015 BKN180 22/20 Q1013
RJCC,2020-09-16 22:00,141.6926,42.7742,64.40,64.40,100.00,140.00,4.00,0.00,29.91,M,3.11,M,FEW,BKN,BKN,M,500.00,900.00,1500.00,M,-SHRA BR,M,M,M,M,M,M,M,RJCC 162200Z 14004KT 5000 -SHRA BR FEW005 BKN009 BKN015 18/18 Q1013
RJCH,2020-09-16 22:00,140.8219,41.7700,69.80,66.20,88.34,100.00,9.00,0.00,29.88,M,6.21,M,FEW,SCT,BKN,M,600.00,1100.00,2000.00,M,M,M,M,M,M,M,M,M,RJCH 162200Z 10009KT 9999 FEW006 SCT011 BKN020 21/19 Q1012
RJCK,2020-09-16 22:00,144.1931,43.0408,62.60,62.60,100.00,330.00,7.00,0.00,29.97,M,1.24,M,FEW,SCT,BKN,M,100.00,200.00,300.00,M,BCFG SHRA BR,M,M,M,M,M,M,M,RJCK 162200Z 33007KT 2000 BCFG SHRA BR FEW001 SCT002 BKN003 17/17 Q1015
RJCO,2020-09-16 22:00,141.3814,43.1175,68.00,66.20,93.97,110.00,8.00,0.00,29.91,M,6.21,M,FEW,SCT,BKN,M,800.00,1500.00,3000.00,M,M,M,M,M,M,M,M,M,RJCO 162200Z 11008KT 9999 FEW008 SCT015 BKN030 20/19 Q1013
RJEC,2020-09-16 22:00,142.4475,43.6708,62.60,55.40,77.29,M,1.00,0.00,29.94,M,6.21,M,FEW,SCT,BKN,M,500.00,17000.00,M,M,M,M,M,M,M,M,M,M,RJEC 162200Z VRB01KT 9999 FEW005 SCT170 BKN/// 17/13 Q1014
RJFF,2020-09-16 22:00,130.4517,33.5844,75.20,75.20,100.00,170.00,3.00,0.00,29.83,M,6.21,M,FEW,BKN,BKN,M,500.00,3000.00,17000.00,M,M,M,M,M,M,M,M,M,RJFF 162200Z 17003KT 9999 FEW005 BKN030 BKN170 24/24 Q1010 NOSIG
RJFK,2020-09-16 22:00,130.7194,31.8033,75.20,75.20,100.00,190.00,5.00,0.00,29.91,M,4.35,M,FEW,BKN,BKN,M,100.00,500.00,1000.00,M,-SHRA BCFG,M,M,M,M,M,M,M,RJFK 162200Z 19005KT 7000 -SHRA BCFG FEW001 BKN005 BKN010 24/24 Q1013
RJFM,2020-09-16 22:00,131.4486,31.8772,75.20,75.20,100.00,M,1.00,0.00,29.85,M,6.21,M,FEW,BKN,BKN,M,300.00,3500.00,13000.00,M,M,M,M,M,M,M,M,M,RJFM 162200Z VRB01KT 9999 FEW003 BKN035 BKN130 24/24 Q1011
RJFO,2020-09-16 22:00,131.7372,33.4794,75.20,73.40,94.14,270.00,2.00,0.00,29.83,M,6.21,M,FEW,SCT,BKN,M,700.00,4500.00,14000.00,M,-SHRA,M,M,M,M,M,M,M,RJFO 162200Z 27002KT 9999 -SHRA FEW007 SCT045 BKN140 24/23 Q1010
RJAW,2020-09-16 22:00,141.3227,24.7840,84.20,77.00,79.04,110.00,7.00,0.00,29.97,M,6.21,M,FEW,M,M,M,1500.00,M,M,M,M,M,M,M,M,M,M,94.16,RJAW 162200Z 11007KT 9999 FEW015 29/25 Q1015 RMK 2CU015 A2997
RJBB,2020-09-16 22:00,135.2328,34.4342,78.80,71.60,78.62,120.00,5.00,0.00,29.88,M,6.21,M,FEW,BKN,BKN,M,2000.00,7000.00,M,M,M,M,M,M,M,M,M,M,RJBB 162200Z 12005KT 9999 FEW020 BKN070 BKN/// 26/22 Q1012 NOSIG
RJBE,2020-09-16 22:00,135.2239,34.6328,78.80,73.40,83.55,70.00,3.00,0.00,29.88,M,6.21,M,FEW,SCT,BKN,M,1000.00,2000.00,7000.00,M,M,M,M,M,M,M,M,M,RJBE 162200Z 07003KT 9999 FEW010 SCT020 BKN070 26/23 Q1012
RJNK,2020-09-16 22:00,136.4075,36.3939,77.00,68.00,73.78,180.00,3.00,0.00,29.83,M,6.21,M,FEW,BKN,BKN,M,3000.00,5000.00,8000.00,M,M,M,M,M,M,M,M,M,RJNK 162200Z 18003KT 9999 FEW030 BKN050 BKN080 25/20 Q1010
RJNT,2020-09-16 22:00,137.1875,36.6483,78.80,68.00,69.52,200.00,4.00,0.00,29.85,M,6.21,M,FEW,BKN,M,M,2000.00,5000.00,M,M,M,M,M,M,M,M,M,M,RJNT 162200Z 20004KT 9999 FEW020 BKN050 26/20 Q1011
RJOA,2020-09-16 22:00,132.9194,34.4361,71.60,69.80,94.06,100.00,2.00,0.00,29.88,M,6.21,M,FEW,SCT,BKN,M,0.00,1000.00,2000.00,M,BCFG,M,M,M,M,M,M,M,RJOA 162200Z 10002KT 9999 BCFG FEW000 SCT010 BKN020 22/21 Q1012
RJOB,2020-09-16 22:00,133.8553,34.7569,73.40,71.60,94.10,60.00,3.00,0.00,29.88,M,6.21,M,FEW,SCT,BKN,M,0.00,4500.00,7000.00,M,PRFG,M,M,M,M,M,M,M,RJOB 162200Z 06003KT 9999 PRFG FEW000 SCT045 BKN070 23/22 Q1012
RJOC,2020-09-16 22:00,132.8900,35.4136,73.40,73.40,100.00,M,2.00,0.00,29.83,M,6.21,M,FEW,SCT,BKN,M,0.00,3000.00,4500.00,M,M,M,M,M,M,M,M,M,RJOC 162200Z VRB02KT 9999 FEW000 SCT030 BKN045 23/23 Q1010
RJOH,2020-09-16 22:00,133.2392,35.4933,73.40,73.40,100.00,240.00,5.00,0.00,29.83,M,6.21,M,FEW,SCT,BKN,M,500.00,1500.00,3000.00,M,-SHRA,M,M,M,M,M,M,M,RJOH 162200Z 24005KT 9999 -SHRA FEW005 SCT015 BKN030 23/23 Q1010
RJKA,2020-09-16 22:00,129.7125,28.4308,82.40,78.80,88.90,210.00,11.00,0.00,29.88,M,6.21,M,FEW,BKN,M,M,1500.00,M,M,M,M,M,M,M,M,M,M,92.76,RJKA 162200Z 21011KT 9999 FEW015 BKN/// 28/26 Q1012
RJOK,2020-09-16 22:00,133.6694,33.5461,73.40,73.40,100.00,360.00,4.00,0.00,29.88,M,2.49,M,FEW,SCT,BKN,M,200.00,1500.00,2000.00,M,-SHRA BR,M,M,M,M,M,M,M,RJOK 162200Z 36004KT 4000 -SHRA BR FEW002 SCT015 BKN020 23/23 Q1012
RJFU,2020-09-16 22:00,129.9136,32.9169,77.00,75.20,94.19,M,1.00,0.00,29.83,M,6.21,M,FEW,SCT,BKN,M,400.00,6000.00,15000.00,M,M,M,M,M,M,M,M,M,RJFU 162200Z VRB01KT 9999 FEW004 SCT060 BKN150 25/24 Q1010
RJGG,2020-09-16 22:00,136.8054,34.8584,77.00,71.60,83.44,110.00,6.00,0.00,29.88,M,6.21,M,FEW,SCT,BKN,M,1500.00,2500.00,4500.00,M,VCSH,M,M,M,M,M,M,M,RJGG 162200Z 11006KT 9999 VCSH FEW015 SCT025 BKN045 25/22 Q1012 NOSIG
RJKI,2020-09-16 22:00,129.9281,28.3213,82.40,78.80,88.90,210.00,6.00,0.00,29.91,M,6.21,M,FEW,M,M,M,1500.00,M,M,M,M,M,M,M,M,M,M,92.76,RJKI 162200Z AUTO 21006KT 170V240 9999 FEW015 28/26 Q1013
ROIG,2020-09-16 22:00,124.1633,24.3367,82.40,80.60,94.31,160.00,4.00,0.00,29.83,M,6.21,M,FEW,BKN,M,M,1400.00,M,M,M,M,M,M,M,M,M,M,95.00,ROIG 162200Z 16004KT 9999 FEW014 BKN/// 28/27 Q1010
ROMD,2020-09-16 22:00,131.2286,25.8289,82.40,80.60,94.31,160.00,6.00,0.00,29.91,M,6.21,M,FEW,M,M,M,1000.00,M,M,M,M,M,M,M,M,M,M,95.00,ROMD 162200Z AUTO 16006KT 120V200 9999 FEW010 28/27 Q1013
ROMY,2020-09-16 22:00,125.2767,24.7933,80.60,78.80,94.27,170.00,3.00,0.00,29.85,M,6.21,M,FEW,BKN,M,M,1000.00,M,M,M,M,M,M,M,M,M,M,89.33,ROMY 162200Z 17003KT 9999 FEW010 BKN/// 27/26 Q1011
RORY,2020-09-16 22:00,128.4020,27.0440,82.40,77.00,83.77,180.00,8.00,0.00,29.88,M,6.21,M,FEW,M,M,M,1400.00,M,M,M,M,M,M,M,M,M,M,90.85,RORY 162200Z AUTO 18008KT 9999 FEW014 28/25 Q1012
RJDC,2020-09-16 22:00,131.2786,33.9300,77.00,75.20,94.19,M,2.00,0.00,29.83,M,6.21,M,FEW,BKN,BKN,M,300.00,1000.00,4500.00,M,M,M,M,M,M,M,M,M,RJDC 162200Z VRB02KT 9999 FEW003 BKN010 BKN045 25/24 Q1010
RJOM,2020-09-16 22:00,132.6997,33.8272,78.80,73.40,83.55,M,2.00,0.00,29.83,M,6.21,M,FEW,SCT,BKN,M,2500.00,4000.00,6000.00,M,VCSH,M,M,M,M,M,M,M,RJOM 162200Z VRB02KT 9999 VCSH FEW025 SCT040 BKN060 26/23 Q1010
RJFS,2020-09-16 22:00,130.3000,33.1500,77.00,73.40,88.67,130.00,3.00,0.00,29.83,M,6.21,M,FEW,SCT,BKN,M,1000.00,3500.00,17000.00,M,M,M,M,M,M,M,M,M,RJFS 162200Z 13003KT 080V160 9999 FEW010 SCT035 BKN170 25/23 Q1010
RJFT,2020-09-16 22:00,130.8553,32.8372,73.40,73.40,100.00,180.00,3.00,0.00,29.88,M,6.21,M,FEW,BKN,M,M,400.00,3000.00,M,M,M,M,M,M,M,M,M,M,RJFT 162200Z 18003KT 9999 FEW004 BKN030 23/23 Q1012
RJOT,2020-09-16 22:00,134.0167,34.2167,73.40,69.80,88.51,140.00,4.00,0.00,29.85,M,6.21,M,FEW,SCT,BKN,M,2000.00,8000.00,M,M,M,M,M,M,M,M,M,M,RJOT 162200Z 14004KT 110V170 9999 FEW020 SCT080 BKN/// 23/21 Q1011
RJSK,2020-09-16 22:00,140.2167,39.6167,66.20,64.40,93.92,120.00,4.00,0.00,29.88,M,6.21,M,FEW,SCT,BKN,M,3000.00,7000.00,11000.00,M,-RA,M,M,M,M,M,M,M,RJSK 162200Z 12004KT 9999 -RA FEW030 SCT070 BKN110 19/18 Q1012
RJOO,2020-09-16 22:00,135.4392,34.7844,77.00,71.60,83.44,90.00,5.00,0.00,29.88,M,6.21,M,FEW,BKN,M,M,1500.00,3000.00,M,M,M,M,M,M,M,M,M,M,RJOO 162200Z 09005KT 9999 FEW015 BKN030 25/22 Q1012
RJOR,2020-09-16 22:00,134.1650,35.5300,75.20,73.40,94.14,M,1.00,0.00,29.83,M,6.21,M,FEW,SCT,BKN,M,3500.00,4500.00,M,M,VCSH,M,M,M,M,M,M,M,RJOR 162200Z VRB01KT 9999 VCSH FEW035 SCT045 BKN/// 24/23 Q1010
RJSM,2020-09-16 22:00,141.3684,40.7032,68.00,66.20,93.97,170.00,3.00,0.00,29.88,M,4.97,M,FEW,SCT,BKN,M,500.00,15000.00,25000.00,M,M,M,M,M,M,M,M,M,RJSM 162200Z 17003KT 140V200 8000 FEW005 SCT150 BKN250 20/19 Q1012
RJSN,2020-09-16 22:00,139.1117,37.9558,73.40,69.80,88.51,160.00,6.00,0.00,29.88,M,6.21,M,FEW,SCT,BKN,M,3000.00,5000.00,7000.00,M,VCSH,M,M,M,M,M,M,M,RJSN 162200Z 16006KT 9999 VCSH FEW030 SCT050 BKN070 23/21 Q1012
RJSS,2020-09-16 22:00,140.9169,38.1397,71.60,68.00,88.43,M,1.00,0.00,29.91,M,6.21,M,FEW,SCT,BKN,M,100.00,900.00,3000.00,M,VCFG,M,M,M,M,M,M,M,RJSS 162200Z VRB01KT 9999 VCFG FEW001 SCT009 BKN030 22/20 Q1013
RJTT,2020-09-16 22:00,139.7811,35.5533,75.20,71.60,88.59,70.00,6.00,0.00,29.91,M,6.21,M,FEW,BKN,BKN,M,800.00,2000.00,14000.00,M,M,M,M,M,M,M,M,M,RJTT 162200Z 07006KT 9999 FEW008 BKN020 BKN140 24/22 Q1013 NOSIG
RORS,2020-09-16 22:00,125.1447,24.8267,82.40,80.60,94.31,170.00,4.00,0.00,29.85,M,6.21,M,SCT,BKN,M,M,1300.00,M,M,M,M,M,M,M,M,M,M,95.00,RORS 162200Z 17004KT 9999 SCT013 BKN/// 28/27 Q1011
RJOS,2020-09-16 22:00,134.6092,34.1322,73.40,69.80,88.51,280.00,3.00,0.00,29.85,M,6.21,M,FEW,BKN,BKN,M,2500.00,6000.00,M,M,M,M,M,M,M,M,M,M,RJOS 162200Z 28003KT 250V310 9999 FEW025 BKN060 BKN/// 23/21 Q1011
RJSY,2020-09-16 22:00,139.7872,38.8122,69.80,68.00,94.01,100.00,7.00,0.00,29.88,M,6.21,M,FEW,SCT,BKN,M,2000.00,5000.00,9000.00,M,-RA,M,M,M,M,M,M,M,RJSY 162200Z 10007KT 9999 -RA FEW020 SCT050 BKN090 21/20 Q1012
RORK,2020-09-16 22:00,131.3333,25.9167,84.20,80.60,88.98,140.00,11.00,0.00,29.91,M,6.21,M,FEW,M,M,M,1100.00,M,M,M,M,M,M,M,M,M,M,98.50,RORK 162200Z AUTO 14011KT 9999 FEW011 29/27 Q1013
ROYN,2020-09-16 22:00,122.9780,24.4670,84.20,78.80,83.88,160.00,11.00,0.00,29.83,M,6.21,M,SCT,M,M,M,1700.00,M,M,M,M,M,M,M,M,M,M,96.10,ROYN 162200Z AUTO 16011KT 9999 SCT017 29/26 Q1010
ROAH,2020-09-16 22:00,127.6458,26.1958,82.40,78.80,88.90,130.00,5.00,0.00,29.88,M,6.21,M,FEW,BKN,M,M,1500.00,M,M,M,M,M,M,M,M,M,M,92.76,ROAH 162200Z 13005KT 9999 FEW015 BKN/// 28/26 Q1012
RODN,2020-09-16 22:06,127.7676,26.3556,80.60,77.00,88.83,140.00,6.00,0.00,29.91,1013.40,10.00,M,BKN,M,M,M,2100.00,M,M,M,M,M,M,M,M,M,M,87.59,RODN 162206Z AUTO 14006KT 10SM BKN021 27/25 A2991 RMK AO2 BKN V SCT SLP134 $
RJCK,2020-09-16 22:12,144.1931,43.0408,62.60,62.60,100.00,330.00,8.00,0.00,29.97,M,1.49,M,FEW,SCT,BKN,M,100.00,200.00,300.00,M,BCFG SHRA BR,M,M,M,M,M,M,M,RJCK 162212Z 33008KT 2400 BCFG SHRA BR FEW001 SCT002 BKN003 17/17 Q1015 RMK 1ST001 3ST002 6ST003 A2999
RJTR,2020-09-16 22:13,139.3937,35.5138,73.40,69.80,88.51,270.00,3.00,0.00,29.92,1013.20,9.00,M,SCT,SCT,M,M,1000.00,13000.00,M,M,M,M,M,M,M,M,M,M,RJTR 162213Z AUTO 27003KT 9SM SCT010 SCT130 23/21 A2992 RMK AO2 SLP132 $
RJCC,2020-09-16 22:16,141.6926,42.7742,66.20,66.20,100.00,120.00,5.00,0.00,29.91,M,3.04,M,FEW,BKN,BKN,M,500.00,1000.00,1500.00,M,-SHRA BR,M,M,M,M,M,M,M,RJCC 162216Z 12005KT 4900 -SHRA BR FEW005 BKN010 BKN015 19/19 Q1013 RMK 1ST005 5ST010 7ST015 A2993
RJCK,2020-09-16 22:16,144.1931,43.0408,62.60,62.60,100.00,330.00,8.00,0.00,29.97,M,1.55,M,FEW,SCT,BKN,M,100.00,200.00,300.00,M,BCFG -SHRA BR,M,M,M,M,M,M,M,RJCK 162216Z 33008KT 2500 BCFG -SHRA BR FEW001 SCT002 BKN003 17/17 Q1015 RMK 1ST001 3ST002 6ST003 A2999
RJSS,2020-09-16 22:16,140.9169,38.1397,71.60,69.80,94.06,260.00,2.00,0.00,29.91,M,6.21,M,FEW,BKN,BKN,M,100.00,900.00,2000.00,M,M,M,M,M,M,M,M,M,RJSS 162216Z 26002KT 9999 FEW001 BKN009 BKN020 22/21 Q1013 RMK 1ST001 5ST009 6SC020 A2994
RJTC,2020-09-16 22:20,139.4031,35.7108,73.40,68.00,83.21,50.00,3.00,0.00,29.94,M,3.73,M,FEW,BKN,BKN,M,600.00,2000.00,15000.00,M,M,M,M,M,M,M,M,M,RJTC 162220Z 05003KT 010V080 6000 FEW006 BKN020 BKN150 23/20 Q1014 RMK 1ST006 5SC020 7AC150 A2995
RJCK,2020-09-16 22:21,144.1931,43.0408,62.60,62.60,100.00,330.00,7.00,0.00,29.97,M,1.86,M,FEW,SCT,BKN,M,100.00,200.00,300.00,M,BCFG SHRA BR,M,M,M,M,M,M,M,RJCK 162221Z 33007KT 3000 BCFG SHRA BR FEW001 SCT002 BKN003 17/17 Q1015 RMK 1ST001 3ST002 6ST003 A2999
RJCO,2020-09-16 22:21,141.3814,43.1175,69.80,66.20,88.34,130.00,10.00,0.00,29.91,M,6.21,M,FEW,SCT,BKN,M,800.00,3000.00,18000.00,M,M,M,M,M,M,M,M,M,RJCO 162221Z 13010KT 9999 FEW008 SCT030 BKN180 21/19 Q1013 RMK 1ST008 3CU030 7AC180 A2992
RJNG,2020-09-16 22:24,136.8694,35.3944,75.20,71.60,88.59,M,1.00,0.00,29.91,M,6.21,M,FEW,SCT,BKN,M,700.00,1500.00,2000.00,M,M,M,M,M,M,M,M,M,RJNG 162224Z VRB01KT 9999 FEW007 SCT015 BKN020 24/22 Q1013 RMK 1ST007 3CU015 5CU020 A2992
RJOF,2020-09-16 22:25,131.5464,34.0344,75.20,75.20,100.00,M,1.00,0.00,29.83,M,6.21,M,FEW,SCT,BKN,M,500.00,2500.00,4500.00,M,M,M,M,M,M,M,M,M,RJOF 162225Z VRB01KT 9999 FEW005 SCT025 BKN045 24/24 Q1010 RMK 1ST005 3CU025 6SC045 A2983
RJNY,2020-09-16 22:28,138.2981,34.8128,75.20,69.80,83.32,360.00,4.00,0.00,29.91,M,6.21,M,FEW,SCT,BKN,M,3000.00,5000.00,25000.00,M,M,M,M,M,M,M,M,M,RJNY 162228Z 36004KT 330V040 9999 FEW030 SCT050 BKN250 24/21 Q1013 RMK 1CU030 3SC050 A2992
RJKN,2020-09-16 22:29,128.8813,27.8364,84.20,78.80,83.88,150.00,4.00,0.00,29.91,M,6.21,M,BKN,M,M,M,1400.00,M,M,M,-RA,M,M,M,M,M,M,96.10,RJKN 162229Z AUTO 15004KT 9999 -RA BKN014 29/26 Q1013 RMK A2992
RJAA,2020-09-16 22:30,140.3856,35.7653,73.40,71.60,94.10,90.00,4.00,0.00,29.91,M,6.21,M,FEW,BKN,M,M,1500.00,15000.00,M,M,M,M,M,M,M,M,M,M,RJAA 162230Z 09004KT 060V140 9999 FEW015 BKN150 23/22 Q1013 NOSIG RMK 1CU015 7AC150 A2994
RJCC,2020-09-16 22:30,141.6926,42.7742,66.20,66.20,100.00,120.00,6.00,0.00,29.91,M,3.11,M,FEW,SCT,BKN,M,700.00,1000.00,1500.00,M,-SHRA BR,M,M,M,M,M,M,M,RJCC 162230Z 12006KT 5000 R19R/1500VP2000U R19L/P2000N -SHRA BR FEW007 SCT010 BKN015 19/19 Q1013 RMK 1ST007 4ST010 6ST015 A2993
RJDT,2020-09-16 22:30,129.3306,34.2850,73.40,71.60,94.10,300.00,6.00,0.00,29.83,M,6.21,M,FEW,SCT,BKN,M,1000.00,10000.00,13000.00,M,M,M,M,M,M,M,M,M,RJDT 162230Z 30006KT 260V330 9999 FEW010 SCT100 BKN130 23/22 Q1010
RJFF,2020-09-16 22:30,130.4517,33.5844,77.00,75.20,94.19,M,2.00,0.00,29.83,M,6.21,M,FEW,SCT,BKN,M,500.00,3000.00,17000.00,M,M,M,M,M,M,M,M,M,RJFF 162230Z VRB02KT 9999 FEW005 SCT030 BKN170 25/24 Q1010 BECMG 15007KT RMK 1ST005 3CU030 6AC170 A2984
RJBB,2020-09-16 22:30,135.2328,34.4342,80.60,71.60,74.11,110.00,4.00,0.00,29.88,M,6.21,M,FEW,BKN,M,M,2000.00,7000.00,M,M,M,M,M,M,M,M,M,84.57,RJBB 162230Z 11004KT 9999 FEW020 BKN070 27/22 Q1012 NOSIG
RJGG,2020-09-16 22:30,136.8054,34.8584,77.00,71.60,83.44,110.00,5.00,0.00,29.88,M,6.21,M,FEW,BKN,BKN,M,1500.00,4000.00,7000.00,M,VCSH,M,M,M,M,M,M,M,RJGG 162230Z 11005KT 9999 VCSH FEW015 BKN040 BKN070 25/22 Q1012 NOSIG
RJTT,2020-09-16 22:30,139.7811,35.5533,75.20,71.60,88.59,80.00,6.00,0.00,29.91,M,6.21,M,FEW,SCT,BKN,M,700.00,2000.00,14000.00,M,M,M,M,M,M,M,M,M,RJTT 162230Z 08006KT 9999 FEW007 SCT020 BKN140 24/22 Q1013 NOSIG RMK 2ST007 3SC020 7AC140 A2993
RJNS,2020-09-16 22:30,138.1894,34.7961,73.40,71.60,94.10,320.00,4.00,0.00,29.91,M,6.21,M,FEW,BKN,M,M,200.00,M,M,M,M,M,M,M,M,M,M,M,RJNS 162230Z 32004KT 9999 FEW002 BKN/// 23/22 Q1013
ROAH,2020-09-16 22:30,127.6458,26.1958,84.20,78.80,83.88,130.00,7.00,0.00,29.88,M,6.21,M,FEW,BKN,M,M,1500.00,M,M,M,VCSH,M,M,M,M,M,M,96.10,ROAH 162230Z 13007KT 9999 VCSH FEW015 BKN/// 29/26 Q1012 RMK 2CU015 A2990
RJFK,2020-09-16 22:31,130.7194,31.8033,75.20,73.40,94.14,210.00,6.00,0.00,29.91,M,5.59,M,FEW,SCT,BKN,M,100.00,600.00,1200.00,M,-SHRA BCFG,M,M,M,M,M,M,M,RJFK 162231Z 21006KT 9000 -SHRA BCFG FEW001 SCT006 BKN012 24/23 Q1013 RMK 1ST001 3ST006 6CU012 A2993 3000W-NW FG W-N
RODN,2020-09-16 22:36,127.7676,26.3556,82.40,78.80,88.90,130.00,10.00,0.00,29.91,1013.30,10.00,M,SCT,SCT,BKN,M,1500.00,2200.00,2900.00,M,M,M,M,M,M,M,M,92.76,RODN 162236Z AUTO 13010KT 10SM SCT015 SCT022 BKN029 28/26 A2991 RMK AO2 CIG 021V029 SLP133 $
RJSC,2020-09-16 22:40,140.3711,38.4119,69.80,68.00,94.01,130.00,3.00,0.00,29.91,M,6.21,M,FEW,SCT,BKN,M,500.00,6000.00,10000.00,M,-RA,M,M,M,M,M,M,M,RJSC 162240Z 13003KT 080V170 9999 -RA FEW005 SCT060 BKN100 21/20 Q1013 RMK 1ST005 3SC060 6AC100 A2994
RJSI,2020-09-16 22:40,141.1353,39.4286,69.80,66.20,88.34,M,1.00,0.00,29.91,M,6.21,M,FEW,BKN,BKN,M,800.00,2000.00,3000.00,M,M,M,M,M,M,M,M,M,RJSI 162240Z VRB01KT 9999 FEW008 BKN020 BKN030 21/19 Q1013 RMK 1ST008 5SC020 6SC030 A2994
RJCB,2020-09-16 22:40,143.2172,42.7333,62.60,62.60,100.00,300.00,2.00,0.00,29.97,M,1.49,M,FEW,BKN,M,M,300.00,400.00,M,M,-SHRA BR,M,M,M,M,M,M,M,RJCB 162240Z 30002KT 2400 -SHRA BR FEW003 BKN004 17/17 Q1015 RMK 1ST003 7ST004 A3000
RJBD,2020-09-16 22:40,135.3644,33.6622,75.20,75.20,100.00,140.00,6.00,0.00,29.91,M,6.21,M,FEW,BKN,FEW,BKN,600.00,900.00,3000.00,4000.00,VCSH,M,M,M,M,M,M,M,RJBD 162240Z 14006KT 9999 VCSH FEW006 BKN009 FEW030CB BKN040 24/24 Q1013 RMK 1ST006 5ST009 1CB030 6CU040 A2992 CB 20KM E MOV NE CB SE
RJCK,2020-09-16 22:45,144.1931,43.0408,62.60,62.60,100.00,340.00,7.00,0.00,29.97,M,1.86,M,FEW,SCT,BKN,M,100.00,200.00,300.00,M,+SHRA BCFG BR,M,M,M,M,M,M,M,RJCK 162245Z 34007KT 3000 R17/2000N +SHRA BCFG BR FEW001 SCT002 BKN003 17/17 Q1015 RMK 1ST001 3ST002 6ST003 A2999
RJCM,2020-09-16 22:45,144.1642,43.8806,66.20,59.00,77.60,190.00,16.00,0.00,29.97,M,6.21,M,FEW,SCT,BKN,M,2000.00,4000.00,5000.00,M,-SHRA,M,M,M,M,M,M,M,RJCM 162245Z 19016KT 9999 -SHRA FEW020 SCT040 BKN050 19/15 Q1015 RMK 1CU020 3CU040 6CU050 A2997
RODN,2020-09-16 22:46,127.7676,26.3556,82.40,78.80,88.90,130.00,8.00,0.00,29.91,1013.30,10.00,M,FEW,SCT,SCT,M,1500.00,2100.00,2900.00,M,M,M,M,M,M,M,M,92.76,RODN 162246Z AUTO 13008KT 10SM FEW015 SCT021 SCT029 28/26 A2991 RMK AO2 SLP133 $
RJCK,2020-09-16 22:47,144.1931,43.0408,62.60,62.60,100.00,340.00,7.00,0.00,29.97,M,1.43,M,FEW,SCT,BKN,M,100.00,200.00,300.00,M,BCFG SHRA BR,M,M,M,M,M,M,M,RJCK 162247Z 34007KT 2300 R17/2000N BCFG SHRA BR FEW001 SCT002 BKN003 17/17 Q1015 RMK 1ST001 3ST002 6ST003 A2999
RJOI,2020-09-16 22:55,132.2357,34.1439,79.00,73.90,84.41,210.00,7.00,T,29.84,1010.40,6.21,M,FEW,BKN,BKN,M,1200.00,2000.00,3000.00,M,M,M,M,M,M,M,M,M,RJOI 162255Z 21007KT 9999 FEW012 BKN020 BKN030 26/23 A2984 RMK RAB2157E14 SLP104 P0000 T02610233
RJTY,2020-09-16 22:56,139.3485,35.7485,72.50,70.70,94.08,0.00,0.00,0.00,29.98,1015.00,6.00,M,BKN,OVC,M,M,800.00,1500.00,M,M,BR,M,M,M,M,M,M,M,RJTY 162256Z 00000KT 6SM BR BKN008 OVC015 23/22 A2998 RMK AO2A BKN V SCT CIG 006 RWY18 SLP150 T02250215 FZRANO $
RODN,2020-09-16 22:56,127.7676,26.3556,83.10,78.40,85.77,130.00,9.00,0.00,29.91,1013.30,9.00,M,FEW,FEW,SCT,BKN,1500.00,2100.00,3000.00,3800.00,M,M,M,M,M,M,M,93.56,RODN 162256Z AUTO 13009KT 9SM FEW015 FEW021 SCT030 BKN038 28/26 A2991 RMK AO2 SLP133 T02840258 $
ROTM,2020-09-16 22:56,127.7565,26.2743,82.90,80.10,91.29,150.00,10.00,0.00,29.93,1011.90,6.21,M,SCT,SCT,M,M,1500.00,3500.00,M,M,M,M,M,M,M,M,M,95.33,ROTM 162256Z 15010KT 9999 SCT015 SCT035 28/26 A2993 RMK SLP119 T02830267
RJSA,2020-09-16 23:00,140.6886,40.7333,66.20,64.40,93.92,110.00,6.00,0.00,29.85,M,6.21,M,FEW,SCT,BKN,M,300.00,5000.00,13000.00,M,-RA,M,M,M,M,M,M,M,RJSA 162300Z 11006KT 9999 -RA FEW003 SCT050 BKN130 19/18 Q1011
RJSC,2020-09-16 23:00,140.3711,38.4119,71.60,68.00,88.43,170.00,4.00,0.00,29.91,M,6.21,M,FEW,SCT,BKN,M,500.00,10000.00,13000.00,M,M,M,M,M,M,M,M,M,RJSC 162300Z 17004KT 130V210 9999 FEW005 SCT100 BKN130 22/20 Q1013
RJSD,2020-09-16 23:00,138.4139,38.0602,71.60,71.60,100.00,M,1.00,0.00,29.85,M,6.21,M,FEW,OVC,M,M,1100.00,3800.00,M,M,M,M,M,M,M,M,M,M,RJSD 162300Z AUTO VRB01KT 9999 FEW011 OVC038 22/22 Q1011
RJSF,2020-09-16 23:00,140.4281,37.2275,68.00,66.20,93.97,M,2.00,0.00,29.97,M,6.21,M,FEW,BKN,M,M,600.00,14000.00,M,M,M,M,M,M,M,M,M,M,RJSF 162300Z VRB02KT 9999 FEW006 BKN140 20/19 Q1015
RJFR,2020-09-16 23:00,131.0350,33.8456,77.00,75.20,94.19,M,2.00,0.00,29.83,M,6.21,M,FEW,SCT,BKN,M,1000.00,2000.00,5000.00,M,M,M,M,M,M,M,M,M,RJFR 162300Z VRB02KT 9999 FEW010 SCT020 BKN050 25/24 Q1010
RJSR,2020-09-16 23:00,140.3714,40.1919,64.40,64.40,100.00,M,1.00,0.00,29.88,M,2.49,M,FEW,SCT,BKN,M,100.00,800.00,8000.00,M,BCFG BR,M,M,M,M,M,M,M,RJSR 162300Z VRB01KT 4000 BCFG BR FEW001 SCT008 BKN080 18/18 Q1012
RJSI,2020-09-16 23:00,141.1353,39.4286,69.80,64.40,82.98,M,1.00,0.00,29.91,M,6.21,M,FEW,BKN,BKN,M,1000.00,2000.00,3000.00,M,M,M,M,M,M,M,M,M,RJSI 162300Z VRB01KT 9999 FEW010 BKN020 BKN030 21/18 Q1013
RJAA,2020-09-16 23:00,140.3856,35.7653,73.40,71.60,94.10,70.00,4.00,0.00,29.91,M,6.21,M,FEW,BKN,M,M,1000.00,14000.00,M,M,M,M,M,M,M,M,M,M,RJAA 162300Z 07004KT 030V100 9999 FEW010 BKN140 23/22 Q1013 NOSIG
RJAH,2020-09-16 23:00,140.4147,36.1817,73.40,69.80,88.51,20.00,3.00,0.00,29.91,M,6.21,M,FEW,BKN,M,M,1200.00,16000.00,M,M,M,M,M,M,M,M,M,M,RJAH 162300Z 02003KT 360V060 9999 FEW012 BKN160 23/21 Q1013
RJCB,2020-09-16 23:00,143.2172,42.7333,62.60,62.60,100.00,300.00,2.00,0.00,29.97,M,1.99,M,SCT,BKN,M,M,300.00,400.00,M,M,-SHRA BR,M,M,M,M,M,M,M,RJCB 162300Z 30002KT 3200 -SHRA BR SCT003 BKN004 17/17 Q1015
RJCC,2020-09-16 23:00,141.6926,42.7742,66.20,66.20,100.00,130.00,6.00,0.00,29.91,M,4.97,M,FEW,SCT,BKN,M,700.00,1000.00,3500.00,M,-SHRA,M,M,M,M,M,M,M,RJCC 162300Z 13006KT 8000 -SHRA FEW007 SCT010 BKN035 19/19 Q1013
RJCH,2020-09-16 23:00,140.8219,41.7700,69.80,68.00,94.01,100.00,6.00,0.00,29.88,M,6.21,M,FEW,SCT,BKN,M,600.00,1100.00,2000.00,M,-SHRA,M,M,M,M,M,M,M,RJCH 162300Z 10006KT 9999 -SHRA FEW006 SCT011 BKN020 21/20 Q1012
RJCK,2020-09-16 23:00,144.1931,43.0408,62.60,62.60,100.00,340.00,8.00,0.00,29.97,M,1.24,M,FEW,SCT,BKN,M,100.00,200.00,300.00,M,BCFG SHRA BR,M,M,M,M,M,M,M,RJCK 162300Z 34008KT 2000 R17/2000N BCFG SHRA BR FEW001 SCT002 BKN003 17/17 Q1015
RJCM,2020-09-16 23:00,144.1642,43.8806,66.20,60.80,82.74,180.00,13.00,0.00,29.97,M,6.21,M,FEW,SCT,BKN,M,2000.00,4000.00,5000.00,M,-SHRA,M,M,M,M,M,M,M,RJCM 162300Z 18013KT 9999 -SHRA FEW020 SCT040 BKN050 19/16 Q1015
RJCO,2020-09-16 23:00,141.3814,43.1175,69.80,66.20,88.34,150.00,12.00,0.00,29.91,M,6.21,M,FEW,SCT,BKN,M,800.00,3500.00,18000.00,M,M,M,M,M,M,M,M,M,RJCO 162300Z 15012KT 9999 FEW008 SCT035 BKN180 21/19 Q1013
RJDT,2020-09-16 23:00,129.3306,34.2850,73.40,71.60,94.10,290.00,5.00,0.00,29.83,M,4.97,M,FEW,SCT,OVC,M,1000.00,10000.00,14000.00,M,-RA,M,M,M,M,M,M,M,RJDT 162300Z 29005KT 8000 -RA FEW010 SCT100 OVC140 23/22 Q1010
RJEC,2020-09-16 23:00,142.4475,43.6708,68.00,50.00,52.51,220.00,3.00,0.00,29.94,M,6.21,M,FEW,BKN,M,M,1500.00,M,M,M,M,M,M,M,M,M,M,M,RJEC 162300Z 22003KT 170V320 9999 FEW015 BKN/// 20/10 Q1014
RJFE,2020-09-16 23:00,128.8328,32.6664,75.20,73.40,94.14,M,1.00,0.00,29.85,M,6.21,M,FEW,SCT,BKN,M,1000.00,5000.00,7000.00,M,-RA,M,M,M,M,M,M,M,RJFE 162300Z VRB01KT 9999 -RA FEW010 SCT050 BKN070 24/23 Q1011
RJFF,2020-09-16 23:00,130.4517,33.5844,77.00,75.20,94.19,140.00,3.00,0.00,29.83,M,6.21,M,FEW,SCT,BKN,M,500.00,15000.00,16000.00,M,M,M,M,M,M,M,M,M,RJFF 162300Z 14003KT 110V170 9999 FEW005 SCT150 BKN160 25/24 Q1010 NOSIG
RJFK,2020-09-16 23:00,130.7194,31.8033,75.20,75.20,100.00,200.00,4.00,0.00,29.91,M,2.49,M,FEW,SCT,BKN,M,0.00,400.00,600.00,M,-SHRA BCFG BR,M,M,M,M,M,M,M,RJFK 162300Z 20004KT 4000 -SHRA BCFG BR FEW000 SCT004 BKN006 24/24 Q1013
RJFM,2020-09-16 23:00,131.4486,31.8772,77.00,75.20,94.19,280.00,4.00,0.00,29.85,M,6.21,M,FEW,SCT,BKN,M,300.00,3500.00,11000.00,M,M,M,M,M,M,M,M,M,RJFM 162300Z 28004KT 9999 FEW003 SCT035 BKN110 25/24 Q1011
RJFO,2020-09-16 23:00,131.7372,33.4794,77.00,73.40,88.67,240.00,3.00,0.00,29.83,M,6.21,M,FEW,SCT,BKN,M,400.00,4500.00,15000.00,M,M,M,M,M,M,M,M,M,RJFO 162300Z 24003KT 9999 FEW004 SCT045 BKN150 25/23 Q1010
RJAW,2020-09-16 23:00,141.3227,24.7840,86.00,75.20,70.27,110.00,9.00,0.00,29.97,M,6.21,M,FEW,M,M,M,1500.00,M,M,M,M,M,M,M,M,M,M,95.19,RJAW 162300Z 11009KT 080V140 9999 FEW015 30/24 Q1015 RMK 2CU015 A2998
RJBB,2020-09-16 23:00,135.2328,34.4342,80.60,71.60,74.11,100.00,4.00,0.00,29.88,M,6.21,M,FEW,SCT,BKN,M,2000.00,4000.00,7000.00,M,M,M,M,M,M,M,M,84.57,RJBB 162300Z 10004KT 9999 FEW020 SCT040 BKN070 27/22 Q1012 BECMG 20006KT
RJBE,2020-09-16 23:00,135.2239,34.6328,78.80,73.40,83.55,90.00,6.00,0.00,29.85,M,6.21,M,FEW,SCT,BKN,M,1000.00,2000.00,8000.00,M,M,M,M,M,M,M,M,M,RJBE 162300Z 09006KT 9999 FEW010 SCT020 BKN080 26/23 Q1011
RJNK,2020-09-16 23:00,136.4075,36.3939,78.80,69.80,73.95,160.00,4.00,0.00,29.85,M,6.21,M,FEW,BKN,BKN,M,3000.00,5000.00,8000.00,M,M,M,M,M,M,M,M,M,RJNK 162300Z 16004KT 130V190 9999 FEW030 BKN050 BKN080 26/21 Q1011
RJNT,2020-09-16 23:00,137.1875,36.6483,82.40,68.00,61.81,180.00,7.00,0.00,29.85,M,6.21,M,FEW,BKN,M,M,2500.00,13000.00,M,M,M,M,M,M,M,M,M,85.38,RJNT 162300Z 18007KT 130V220 9999 FEW025 BKN130 28/20 Q1011
RJNW,2020-09-16 23:00,136.9618,37.2931,77.00,71.60,83.44,230.00,5.00,0.00,29.88,M,6.21,M,FEW,SCT,M,M,2000.00,5000.00,M,M,M,M,M,M,M,M,M,M,RJNW 162300Z 23005KT 9999 FEW020 SCT050 25/22 Q1012
RJOA,2020-09-16 23:00,132.9194,34.4361,71.60,69.80,94.06,110.00,4.00,0.00,29.88,M,6.21,M,FEW,SCT,BKN,M,0.00,1000.00,2000.00,M,PRFG,M,M,M,M,M,M,M,RJOA 162300Z 11004KT 9999 PRFG FEW000 SCT010 BKN020 22/21 Q1012
RJOB,2020-09-16 23:00,133.8553,34.7569,75.20,71.60,88.59,50.00,5.00,0.00,29.85,M,6.21,M,FEW,SCT,BKN,M,500.00,4000.00,5000.00,M,M,M,M,M,M,M,M,M,RJOB 162300Z 05005KT 9999 FEW005 SCT040 BKN050 24/22 Q1011
RJOC,2020-09-16 23:00,132.8900,35.4136,75.20,73.40,94.14,150.00,3.00,0.00,29.83,M,6.21,M,FEW,SCT,BKN,M,0.00,2500.00,7000.00,M,M,M,M,M,M,M,M,M,RJOC 162300Z 15003KT 9999 FEW000 SCT025 BKN070 24/23 Q1010
RJOH,2020-09-16 23:00,133.2392,35.4933,75.20,73.40,94.14,300.00,2.00,0.00,29.83,M,6.21,M,FEW,BKN,BKN,M,500.00,3000.00,4500.00,M,-SHRA,M,M,M,M,M,M,M,RJOH 162300Z 30002KT 9999 -SHRA FEW005 BKN030 BKN045 24/23 Q1010
RJKA,2020-09-16 23:00,129.7125,28.4308,84.20,78.80,83.88,220.00,12.00,0.00,29.91,M,6.21,M,FEW,BKN,M,M,1500.00,M,M,M,M,M,M,M,M,M,M,96.10,RJKA 162300Z 22012KT 9999 FEW015 BKN/// 29/26 Q1013
RJOK,2020-09-16 23:00,133.6694,33.5461,73.40,73.40,100.00,M,2.00,0.00,29.88,M,4.97,M,FEW,SCT,BKN,M,200.00,1500.00,3000.00,M,-SHRA,M,M,M,M,M,M,M,RJOK 162300Z VRB02KT 8000 -SHRA FEW002 SCT015 BKN030 23/23 Q1012
RJFU,2020-09-16 23:00,129.9136,32.9169,77.00,75.20,94.19,140.00,5.00,0.00,29.85,M,6.21,M,FEW,SCT,BKN,M,400.00,6000.00,14000.00,M,M,M,M,M,M,M,M,M,RJFU 162300Z 14005KT 9999 FEW004 SCT060 BKN140 25/24 Q1011
RJGG,2020-09-16 23:00,136.8054,34.8584,77.00,71.60,83.44,130.00,6.00,0.00,29.91,M,6.21,M,FEW,SCT,BKN,M,1500.00,2500.00,7000.00,M,VCSH,M,M,M,M,M,M,M,RJGG 162300Z 13006KT 9999 VCSH FEW015 SCT025 BKN070 25/22 Q1013 NOSIG
RJKI,2020-09-16 23:00,129.9281,28.3213,82.40,80.60,94.31,210.00,6.00,0.00,29.91,M,6.21,M,SCT,M,M,M,1300.00,M,M,M,M,M,M,M,M,M,M,95.00,RJKI 162300Z AUTO 21006KT 160V240 9999 SCT013 28/27 Q1013
ROIG,2020-09-16 23:00,124.1633,24.3367,86.00,80.60,83.99,160.00,8.00,0.00,29.85,M,6.21,M,FEW,BKN,M,M,1400.00,M,M,M,M,M,M,M,M,M,M,101.90,ROIG 162300Z 16008KT 9999 FEW014 BKN/// 30/27 Q1011
ROMD,2020-09-16 23:00,131.2286,25.8289,86.00,80.60,83.99,160.00,5.00,0.00,29.94,M,6.21,M,SCT,BKN,M,M,1200.00,1700.00,M,M,M,M,M,M,M,M,M,101.90,ROMD 162300Z AUTO 16005KT 110V200 9999 SCT012 BKN017 30/27 Q1014
ROMY,2020-09-16 23:00,125.2767,24.7933,84.20,78.80,83.88,170.00,8.00,0.00,29.85,M,6.21,M,FEW,SCT,M,M,1100.00,M,M,M,VCSH,M,M,M,M,M,M,96.10,ROMY 162300Z 17008KT 9999 VCSH FEW011 SCT/// 29/26 Q1011
RORY,2020-09-16 23:00,128.4020,27.0440,84.20,78.80,83.88,180.00,7.00,0.00,29.91,M,6.21,M,FEW,M,M,M,1500.00,M,M,M,M,M,M,M,M,M,M,96.10,RORY 162300Z AUTO 18007KT 140V220 9999 FEW015 29/26 Q1013
RJDC,2020-09-16 23:00,131.2786,33.9300,78.80,75.20,88.75,20.00,3.00,0.00,29.83,M,6.21,M,FEW,SCT,BKN,M,500.00,1000.00,5000.00,M,M,M,M,M,M,M,M,M,RJDC 162300Z 02003KT 350V050 9999 FEW005 SCT010 BKN050 26/24 Q1010
RJOM,2020-09-16 23:00,132.6997,33.8272,77.00,75.20,94.19,360.00,5.00,0.00,29.83,M,6.21,M,FEW,SCT,BKN,M,2000.00,3500.00,5000.00,M,-SHRA,M,M,M,M,M,M,M,RJOM 162300Z 36005KT 9999 -SHRA FEW020 SCT035 BKN050 25/24 Q1010
RJFS,2020-09-16 23:00,130.3000,33.1500,78.80,75.20,88.75,170.00,6.00,0.00,29.83,M,6.21,M,FEW,SCT,BKN,M,1000.00,15000.00,M,M,M,M,M,M,M,M,M,M,RJFS 162300Z 17006KT 9999 FEW010 SCT150 BKN/// 26/24 Q1010
RJFT,2020-09-16 23:00,130.8553,32.8372,75.20,75.20,100.00,190.00,5.00,0.00,29.88,M,6.21,M,FEW,SCT,BKN,M,400.00,4000.00,7000.00,M,M,M,M,M,M,M,M,M,RJFT 162300Z 19005KT 9999 FEW004 SCT040 BKN070 24/24 Q1012
RJOT,2020-09-16 23:00,134.0167,34.2167,75.20,69.80,83.32,100.00,4.00,0.00,29.85,M,6.21,M,FEW,SCT,BKN,M,2000.00,8000.00,M,M,M,M,M,M,M,M,M,M,RJOT 162300Z 10004KT 060V140 9999 FEW020 SCT080 BKN/// 24/21 Q1011
RJSK,2020-09-16 23:00,140.2167,39.6167,68.00,66.20,93.97,140.00,5.00,0.00,29.88,M,6.21,M,FEW,SCT,M,M,100.00,9000.00,M,M,M,M,M,M,M,M,M,M,RJSK 162300Z 14005KT 100V170 9999 FEW001 SCT090 20/19 Q1012
RJOO,2020-09-16 23:00,135.4392,34.7844,78.80,73.40,83.55,80.00,6.00,0.00,29.88,M,6.21,M,FEW,SCT,BKN,M,2000.00,3000.00,8000.00,M,M,M,M,M,M,M,M,M,RJOO 162300Z 08006KT 9999 FEW020 SCT030 BKN080 26/23 Q1012
RJOR,2020-09-16 23:00,134.1650,35.5300,78.80,75.20,88.75,0.00,0.00,0.00,29.83,M,6.21,M,FEW,SCT,BKN,M,2000.00,5000.00,10000.00,M,VCSH,M,M,M,M,M,M,M,RJOR 162300Z 00000KT 9999 VCSH FEW020 SCT050 BKN100 26/24 Q1010
RJOW,2020-09-16 23:00,131.7903,34.6764,75.20,73.40,94.14,140.00,5.00,0.00,29.83,M,6.21,M,FEW,SCT,BKN,M,100.00,1500.00,2500.00,M,-SHRA PRFG,M,M,M,M,M,M,M,RJOW 162300Z 14005KT 9999 -SHRA PRFG FEW001 SCT015 BKN025 24/23 Q1010
RJOY,2020-09-16 23:00,135.6006,34.5967,80.60,71.60,74.11,130.00,4.00,0.00,29.88,M,6.21,M,FEW,BKN,M,M,3000.00,7000.00,M,M,M,M,M,M,M,M,M,84.57,RJOY 162300Z 13004KT 090V180 9999 FEW030 BKN070 27/22 Q1012
RJSM,2020-09-16 23:00,141.3684,40.7032,68.00,64.40,88.26,180.00,5.00,0.00,29.91,M,6.21,M,FEW,SCT,BKN,M,3000.00,8000.00,15000.00,M,M,M,M,M,M,M,M,M,RJSM 162300Z 18005KT 9999 FEW030 SCT080 BKN150 20/18 Q1013
RJSN,2020-09-16 23:00,139.1117,37.9558,75.20,71.60,88.59,130.00,5.00,0.00,29.88,M,6.21,M,FEW,BKN,M,M,3000.00,5000.00,M,M,M,M,M,M,M,M,M,M,RJSN 162300Z 13005KT 9999 FEW030 BKN050 24/22 Q1012
RJSS,2020-09-16 23:00,140.9169,38.1397,73.40,68.00,83.21,260.00,3.00,0.00,29.94,M,6.21,M,FEW,BKN,BKN,M,100.00,900.00,1200.00,M,M,M,M,M,M,M,M,M,RJSS 162300Z 26003KT 210V280 9999 FEW001 BKN009 BKN012 23/20 Q1014
RJTO,2020-09-16 23:00,139.3603,34.7819,77.00,73.40,88.67,50.00,3.00,0.00,29.91,M,6.21,M,FEW,BKN,BKN,M,1500.00,3000.00,12000.00,M,M,M,M,M,M,M,M,M,RJTO 162300Z 05003KT 360V070 9999 FEW015 BKN030 BKN120 25/23 Q1013
RJTT,2020-09-16 23:00,139.7811,35.5533,75.20,73.40,94.14,80.00,6.00,0.00,29.91,M,6.21,M,SCT,BKN,M,M,700.00,14000.00,M,M,M,M,M,M,M,M,M,M,RJTT 162300Z 08006KT 9999 SCT007 BKN140 24/23 Q1013 NOSIG
RORS,2020-09-16 23:00,125.1447,24.8267,84.20,82.40,94.35,170.00,9.00,0.00,29.85,M,6.21,M,SCT,BKN,M,M,1200.00,M,M,M,M,M,M,M,M,M,M,101.27,RORS 162300Z 17009KT 9999 SCT012 BKN/// 29/28 Q1011
RJNS,2020-09-16 23:00,138.1894,34.7961,75.20,71.60,88.59,320.00,3.00,0.00,29.94,M,6.21,M,FEW,SCT,BKN,M,200.00,4000.00,M,M,M,M,M,M,M,M,M,M,RJNS 162300Z 32003KT 290V350 9999 FEW002 SCT040 BKN/// 24/22 Q1014
RJBD,2020-09-16 23:00,135.3644,33.6622,77.00,75.20,94.19,120.00,4.00,0.00,29.91,M,6.21,M,FEW,BKN,FEW,BKN,800.00,1500.00,3000.00,4000.00,M,M,M,M,M,M,M,M,RJBD 162300Z 12004KT 9999 FEW008 BKN015 FEW030CB BKN040 25/24 Q1013
RJOS,2020-09-16 23:00,134.6092,34.1322,73.40,69.80,88.51,290.00,3.00,0.00,29.85,M,6.21,M,FEW,SCT,BKN,M,2500.00,8000.00,M,M,M,M,M,M,M,M,M,M,RJOS 162300Z 29003KT 260V330 9999 FEW025 SCT080 BKN/// 23/21 Q1011
RJSY,2020-09-16 23:00,139.7872,38.8122,71.60,68.00,88.43,130.00,5.00,0.00,29.85,M,6.21,M,FEW,SCT,BKN,M,2000.00,18000.00,M,M,M,M,M,M,M,M,M,M,RJSY 162300Z 13005KT 100V170 9999 FEW020 SCT180 BKN/// 22/20 Q1011
RORK,2020-09-16 23:00,131.3333,25.9167,86.00,78.80,79.18,160.00,8.00,0.00,29.94,M,6.21,M,FEW,M,M,M,1100.00,M,M,M,M,M,M,M,M,M,M,99.38,RORK 162300Z AUTO 16008KT 9999 FEW011 30/26 Q1014
ROYN,2020-09-16 23:00,122.9780,24.4670,86.00,80.60,83.99,170.00,14.00,0.00,29.83,M,6.21,M,FEW,M,M,M,1700.00,M,M,M,M,M,M,M,M,M,M,101.90,ROYN 162300Z AUTO 17014KT 9999 FEW017 30/27 Q1010
ROAH,2020-09-16 23:00,127.6458,26.1958,84.20,78.80,83.88,140.00,11.00,0.00,29.88,M,6.21,M,FEW,BKN,M,M,1500.00,M,M,M,VCSH,M,M,M,M,M,M,96.10,ROAH 162300Z 14011KT 9999 VCSH FEW015 BKN/// 29/26 Q1012
RJCK,2020-09-16 23:06,144.1931,43.0408,62.60,62.60,100.00,340.00,7.00,0.00,29.97,M,1.24,M,FEW,SCT,BKN,M,100.00,200.00,300.00,M,+SHRA BCFG BR,M,M,M,M,M,M,M,RJCK 162306Z 34007KT 2000 +SHRA BCFG BR FEW001 SCT002 BKN003 17/17 Q1015 RMK 1ST001 3ST002 6ST003 A2998
RJTU,2020-09-16 23:07,139.8708,36.5144,73.40,66.20,78.19,0.00,0.00,0.00,29.97,M,6.21,M,FEW,BKN,BKN,M,1000.00,1500.00,16000.00,M,M,M,M,M,M,M,M,M,RJTU 162307Z 00000KT 9999 FEW010 BKN015 BKN160 23/19 Q1015 RMK 1SC010 5SC015 6AC160 A2998
RJCK,2020-09-16 23:08,144.1931,43.0408,62.60,62.60,100.00,340.00,8.00,0.00,29.97,M,1.49,M,FEW,SCT,BKN,M,100.00,200.00,300.00,M,BCFG SHRA BR,M,M,M,M,M,M,M,RJCK 162308Z 34008KT 2400 BCFG SHRA BR FEW001 SCT002 BKN003 17/17 Q1015 RMK 1ST001 3ST002 6ST003 A2999
RJNG,2020-09-16 23:08,136.8694,35.3944,75.20,71.60,88.59,M,2.00,0.00,29.91,M,6.21,M,FEW,BKN,BKN,M,500.00,2000.00,5000.00,M,-SHRA,M,M,M,M,M,M,M,RJNG 162308Z VRB02KT 9999 -SHRA FEW005 BKN020 BKN050 24/22 Q1013 RMK 1ST005 6CU020 7SC050 A2993
RJAF,2020-09-16 23:10,137.9228,36.1667,73.40,64.40,73.44,150.00,11.00,0.00,29.97,M,6.21,M,FEW,SCT,BKN,M,1500.00,4000.00,M,M,M,M,M,M,M,M,M,M,RJAF 162310Z 15011KT 120V180 9999 FEW015 SCT040 BKN/// 23/18 Q1015 RMK 1ST015 3CU040 A2998
RJFG,2020-09-16 23:10,130.9917,30.6050,75.20,73.40,94.14,270.00,5.00,0.00,29.94,M,0.19,M,FEW,SCT,BKN,M,0.00,100.00,200.00,M,-SHRA FG,M,M,M,M,M,M,M,RJFG 162310Z 27005KT 0300 R31/0600VP1800D -SHRA FG FEW000 SCT001 BKN002 24/23 Q1014 RMK 1ST000 3ST001 5ST002 A2995
RJTT,2020-09-16 23:12,139.7811,35.5533,75.20,73.40,94.14,80.00,7.00,0.00,29.91,M,6.21,M,FEW,BKN,BKN,M,700.00,1000.00,14000.00,M,M,M,M,M,M,M,M,M,RJTT 162312Z 08007KT 9999 FEW007 BKN010 BKN140 24/23 Q1013 RMK 2ST007 5ST010 7AC140 A2993
RJNY,2020-09-16 23:13,138.2981,34.8128,77.00,69.80,78.48,290.00,3.00,0.00,29.91,M,6.21,M,FEW,SCT,BKN,M,1500.00,2500.00,5000.00,M,M,M,M,M,M,M,M,M,RJNY 162313Z 29003KT 260V330 9999 FEW015 SCT025 BKN050 25/21 Q1013 RMK 1CU015 3SC025 5SC050 A2993
RJCB,2020-09-16 23:17,143.2172,42.7333,62.60,62.60,100.00,M,2.00,0.00,29.97,M,3.11,M,FEW,BKN,M,M,300.00,400.00,M,M,-SHRA BR,M,M,M,M,M,M,M,RJCB 162317Z VRB02KT 5000 -SHRA BR FEW003 BKN004 17/17 Q1015 RMK 1ST003 7ST004 A3000
RJOF,2020-09-16 23:20,131.5464,34.0344,77.00,75.20,94.19,90.00,3.00,0.00,29.83,M,6.21,M,FEW,BKN,BKN,M,500.00,2500.00,4500.00,M,M,M,M,M,M,M,M,M,RJOF 162320Z 09003KT 050V120 9999 FEW005 BKN025 BKN045 25/24 Q1010 RMK 1ST005 5CU025 7SC045 A2983
RJSR,2020-09-16 23:21,140.3714,40.1919,66.20,66.20,100.00,M,2.00,0.00,29.88,M,4.97,M,FEW,SCT,BKN,M,100.00,800.00,M,M,PRFG,M,M,M,M,M,M,M,RJSR 162321Z VRB02KT 8000 PRFG FEW001 SCT008 BKN/// 19/19 Q1012 RMK 1ST001 3ST008 A2990 3000S-W
RJOA,2020-09-16 23:22,132.9194,34.4361,71.60,69.80,94.06,120.00,3.00,0.00,29.88,M,2.80,M,FEW,SCT,BKN,M,0.00,900.00,1500.00,M,-SHRA BCFG BR,M,M,M,M,M,M,M,RJOA 162322Z 12003KT 090V160 4500 -SHRA BCFG BR FEW000 SCT009 BKN015 22/21 Q1012 RMK 1ST000 3ST009 6CU015 A2990 FG BANK SE AND W
RJFK,2020-09-16 23:23,130.7194,31.8033,75.20,73.40,94.14,180.00,6.00,0.00,29.91,M,3.11,M,FEW,SCT,BKN,M,100.00,500.00,1400.00,M,-SHRA BCFG BR,M,M,M,M,M,M,M,RJFK 162323Z 18006KT 140V200 5000 -SHRA BCFG BR FEW001 SCT005 BKN014 24/23 Q1013 RMK 1ST001 3ST005 6CU014 A2992 FG ALL QUAD
RJCK,2020-09-16 23:25,144.1931,43.0408,62.60,62.60,100.00,350.00,7.00,0.00,29.97,M,1.43,M,FEW,SCT,BKN,M,100.00,200.00,300.00,M,BCFG SHRA BR,M,M,M,M,M,M,M,RJCK 162325Z 35007KT 2300 R17/0650VP2000D BCFG SHRA BR FEW001 SCT002 BKN003 17/17 Q1015 RMK 1ST001 3ST002 6ST003 A2998
RJTY,2020-09-16 23:26,139.3485,35.7485,73.40,69.80,88.51,0.00,0.00,0.00,29.99,1015.30,8.00,M,SCT,BKN,M,M,700.00,1200.00,M,M,M,M,M,M,M,M,M,M,RJTY 162326Z 00000KT 8SM SCT007 BKN012 23/21 A2999 RMK AO2A CIG 007V012 BKN V OVC SLP153 FZRANO $
RJCK,2020-09-16 23:28,144.1931,43.0408,62.60,62.60,100.00,360.00,7.00,0.00,29.97,M,0.93,M,FEW,SCT,BKN,M,100.00,200.00,300.00,M,BCFG SHRA BR,M,M,M,M,M,M,M,RJCK 162328Z 36007KT 1500 R17/0650VP2000D BCFG SHRA BR FEW001 SCT002 BKN003 17/17 Q1015 RMK 2ST001 4ST002 7ST003 A2998
RJAA,2020-09-16 23:30,140.3856,35.7653,75.20,71.60,88.59,40.00,4.00,0.00,29.91,M,6.21,M,FEW,BKN,M,M,700.00,15000.00,M,M,M,M,M,M,M,M,M,M,RJAA 162330Z 04004KT 350V090 9999 FEW007 BKN150 24/22 Q1013 BECMG TL0100 08005KT RMK 1ST007 6AC150 A2993
RJAF,2020-09-16 23:30,137.9228,36.1667,75.20,64.40,69.14,150.00,12.00,0.00,29.97,M,6.21,M,FEW,SCT,BKN,M,2000.00,4000.00,M,M,M,M,M,M,M,M,M,M,RJAF 162330Z 15012KT 9999 FEW020 SCT040 BKN/// 24/18 Q1015
RJBT,2020-09-16 23:30,134.7869,35.5128,77.00,73.40,88.67,M,2.00,0.00,29.85,M,6.21,M,FEW,BKN,M,M,2500.00,7000.00,M,M,M,M,M,M,M,M,M,M,RJBT 162330Z VRB02KT 9999 FEW025 BKN070 25/23 Q1011
RJCC,2020-09-16 23:30,141.6926,42.7742,66.20,66.20,100.00,130.00,8.00,0.00,29.91,M,6.21,M,FEW,BKN,M,M,700.00,3500.00,M,M,-SHRA,M,M,M,M,M,M,M,RJCC 162330Z 13008KT 9999 -SHRA FEW007 BKN035 19/19 Q1013 RMK 1ST007 7CU035 A2993
RJCN,2020-09-16 23:30,144.9600,43.5775,64.40,64.40,100.00,50.00,5.00,0.00,30.00,M,1.99,M,FEW,SCT,BKN,M,200.00,300.00,400.00,M,BR,M,M,M,M,M,M,M,RJCN 162330Z 05005KT 3200 BR FEW002 SCT003 BKN004 18/18 Q1016
RJCW,2020-09-16 23:30,141.8022,45.4044,71.60,66.20,83.09,150.00,4.00,0.00,29.88,M,6.21,M,FEW,SCT,BKN,M,3000.00,9000.00,M,M,M,M,M,M,M,M,M,M,RJCW 162330Z 15004KT 9999 FEW030 SCT090 BKN/// 22/19 Q1012
RJFF,2020-09-16 23:30,130.4517,33.5844,77.00,75.20,94.19,150.00,3.00,0.00,29.83,M,6.21,M,FEW,SCT,BKN,M,500.00,15000.00,16000.00,M,M,M,M,M,M,M,M,M,RJFF 162330Z 15003KT 130V240 9999 FEW005 SCT150 BKN160 25/24 Q1010 NOSIG RMK 1ST005 3AC150 6AC160 A2984
RJBB,2020-09-16 23:30,135.2328,34.4342,80.60,73.40,78.76,140.00,8.00,0.00,29.85,M,6.21,M,FEW,SCT,BKN,M,2000.00,4000.00,8000.00,M,M,M,M,M,M,M,M,85.32,RJBB 162330Z 14008KT 9999 FEW020 SCT040 BKN080 27/23 Q1011 BECMG 20008KT
RJGG,2020-09-16 23:30,136.8054,34.8584,78.80,73.40,83.55,120.00,7.00,0.00,29.91,M,6.21,M,FEW,SCT,BKN,M,1000.00,2000.00,4000.00,M,-SHRA,M,M,M,M,M,M,M,RJGG 162330Z 12007KT 9999 -SHRA FEW010 SCT020 BKN040 26/23 Q1013 NOSIG
RJTF,2020-09-16 23:30,139.5281,35.6717,77.00,71.60,83.44,350.00,3.00,0.00,29.91,M,4.97,M,FEW,BKN,BKN,M,800.00,1000.00,1200.00,M,M,M,M,M,M,M,M,M,RJTF 162330Z 35003KT 310V040 8000 FEW008 BKN010 BKN012 25/22 Q1013
RJTT,2020-09-16 23:30,139.7811,35.5533,75.20,73.40,94.14,70.00,5.00,0.00,29.91,M,6.21,M,FEW,BKN,BKN,M,700.00,1000.00,14000.00,M,M,M,M,M,M,M,M,M,RJTT 162330Z 07005KT 9999 FEW007 BKN010 BKN140 24/23 Q1013 BECMG FEW008 BKN020 RMK 2ST007 5ST010 7AC140 A2993
RJFG,2020-09-16 23:30,130.9917,30.6050,75.20,73.40,94.14,280.00,4.00,0.00,29.91,M,0.62,M,FEW,SCT,BKN,M,100.00,200.00,600.00,M,-SHRA BR,M,M,M,M,M,M,M,RJFG 162330Z 28004KT 1000 R31/0650VP1800U -SHRA BR FEW001 SCT002 BKN006 24/23 Q1013
RJTI,2020-09-16 23:30,139.8500,35.6300,77.00,71.60,83.44,70.00,4.00,0.00,29.91,M,6.21,M,FEW,BKN,BKN,M,800.00,1200.00,15000.00,M,M,M,M,M,M,M,M,M,RJTI 162330Z 07004KT 010V160 9999 FEW008 BKN012 BKN150 25/22 Q1013
ROAH,2020-09-16 23:30,127.6458,26.1958,86.00,78.80,79.18,150.00,12.00,0.00,29.88,M,6.21,M,SCT,BKN,M,M,1500.00,M,M,M,VCSH,M,M,M,M,M,M,99.38,ROAH 162330Z 15012KT 9999 VCSH SCT015 BKN/// 30/26 Q1012 RMK 3CU015 A2991
RJCK,2020-09-16 23:31,144.1931,43.0408,62.60,62.60,100.00,360.00,7.00,0.00,29.97,M,0.87,M,SCT,BKN,BKN,M,100.00,200.00,300.00,M,BCFG SHRA BR,M,M,M,M,M,M,M,RJCK 162331Z 36007KT 1400 R17/0650VP2000D BCFG SHRA BR SCT001 BKN002 BKN003 17/17 Q1015 RMK 3ST001 5ST002 7ST003 A2998
RJOA,2020-09-16 23:31,132.9194,34.4361,71.60,69.80,94.06,140.00,3.00,0.00,29.88,M,1.24,M,FEW,SCT,BKN,M,0.00,800.00,1000.00,M,-SHRA BCFG BR,M,M,M,M,M,M,M,RJOA 162331Z 14003KT 100V170 2000 -SHRA BCFG BR FEW000 SCT008 BKN010 22/21 Q1012 RMK 1ST000 3ST008 6CU010 A2990 FG ALL QUAD
RJNY,2020-09-16 23:32,138.2981,34.8128,78.80,69.80,73.95,M,1.00,0.00,29.91,M,6.21,M,FEW,BKN,BKN,M,1500.00,2500.00,5000.00,M,M,M,M,M,M,M,M,M,RJNY 162332Z VRB01KT 9999 FEW015 BKN025 BKN050 26/21 Q1013 RMK 1CU015 5CU025 6SC050 A2994
RJOA,2020-09-16 23:33,132.9194,34.4361,71.60,69.80,94.06,140.00,4.00,0.00,29.88,M,0.93,M,FEW,SCT,BKN,M,0.00,600.00,1000.00,M,SHRA BCFG BR,M,M,M,M,M,M,M,RJOA 162333Z 14004KT 100V170 1500 R10/1200VP1800D SHRA BCFG BR FEW000 SCT006 BKN010 22/21 Q1012 RMK 1ST000 3ST006 6CU010 A2990 FG ALL QUAD
RJCK,2020-09-16 23:35,144.1931,43.0408,62.60,62.60,100.00,360.00,7.00,0.00,29.97,M,0.93,M,SCT,BKN,BKN,M,100.00,200.00,300.00,M,BCFG -SHRA BR,M,M,M,M,M,M,M,RJCK 162335Z 36007KT 1500 R17/0650V1400U BCFG -SHRA BR SCT001 BKN002 BKN003 17/17 Q1015 RMK 3ST001 5ST002 7ST003 A2999
RJNG,2020-09-16 23:35,136.8694,35.3944,77.00,71.60,83.44,M,1.00,0.00,29.91,M,6.21,M,FEW,BKN,BKN,M,1000.00,2500.00,5000.00,M,M,M,M,M,M,M,M,M,RJNG 162335Z VRB01KT 9999 FEW010 BKN025 BKN050 25/22 Q1013 RMK 1CU010 6CU025 5SC050 A2993
RJOA,2020-09-16 23:35,132.9194,34.4361,71.60,69.80,94.06,130.00,4.00,0.00,29.88,M,0.99,M,FEW,SCT,BKN,M,0.00,600.00,1000.00,M,SHRA BCFG BR,M,M,M,M,M,M,M,RJOA 162335Z 13004KT 100V170 1600 R10/1200VP1800D SHRA BCFG BR FEW000 SCT006 BKN010 22/21 Q1012 RMK 1ST000 3ST006 6CU010 A2990 FG ALL QUAD
RJFG,2020-09-16 23:35,130.9917,30.6050,75.20,73.40,94.14,280.00,4.00,0.00,29.91,M,0.93,M,FEW,SCT,BKN,M,100.00,500.00,1500.00,M,-SHRA BR,M,M,M,M,M,M,M,RJFG 162335Z 28004KT 1500 R31/1300VP1800U -SHRA BR FEW001 SCT005 BKN015 24/23 Q1013 RMK 1ST001 3ST005 5CU015 A2993
RODN,2020-09-16 23:36,127.7676,26.3556,84.20,78.80,83.88,120.00,10.00,0.00,29.91,1013.30,10.00,M,SCT,BKN,M,M,1500.00,2300.00,M,M,M,M,M,M,M,M,M,96.10,RODN 162336Z AUTO 12010KT 10SM SCT015 BKN023 29/26 A2991 RMK AO2 SLP133 $
RJAK,2020-09-16 23:37,140.1928,36.0347,75.20,68.00,78.34,40.00,4.00,0.00,29.94,M,6.21,M,FEW,SCT,M,M,1500.00,15000.00,M,M,M,M,M,M,M,M,M,M,RJAK 162337Z 04004KT 9999 FEW015 SCT150 24/20 Q1014 RMK 1CU015 3AC150 A2995
RJCK,2020-09-16 23:40,144.1931,43.0408,62.60,62.60,100.00,360.00,7.00,0.00,29.97,M,0.87,M,SCT,BKN,BKN,M,100.00,200.00,300.00,M,BCFG -SHRA BR,M,M,M,M,M,M,M,RJCK 162340Z 36007KT 1400 R17/0800VP2000U BCFG -SHRA BR SCT001 BKN002 BKN003 17/17 Q1015 RMK 3ST001 5ST002 7ST003 A2999
RJOA,2020-09-16 23:41,132.9194,34.4361,71.60,69.80,94.06,130.00,3.00,0.00,29.88,M,1.55,M,FEW,SCT,BKN,M,0.00,600.00,1000.00,M,-SHRA BCFG BR,M,M,M,M,M,M,M,RJOA 162341Z 13003KT 090V170 2500 R10/1200VP1800U -SHRA BCFG BR FEW000 SCT006 BKN010 22/21 Q1012 RMK 1ST000 3ST006 6CU010 A2990 1000SW FG ALL QUAD
RJTY,2020-09-16 23:41,139.3485,35.7485,73.40,71.60,94.10,0.00,0.00,0.00,29.99,1015.30,9.00,M,SCT,BKN,BKN,M,1200.00,2400.00,2800.00,M,M,M,M,M,M,M,M,M,RJTY 162341Z AUTO 00000KT 9SM SCT012 BKN024 BKN028 23/22 A2999 RMK AO2 CIG 012V024 SLP153 FZRANO $
RJOF,2020-09-16 23:42,131.5464,34.0344,77.00,75.20,94.19,110.00,4.00,0.00,29.83,M,6.21,M,FEW,BKN,BKN,M,500.00,2000.00,4500.00,M,M,M,M,M,M,M,M,M,RJOF 162342Z 11004KT 9999 FEW005 BKN020 BKN045 25/24 Q1010 RMK 1ST005 6CU020 7SC045 A2983
RJTY,2020-09-16 23:45,139.3485,35.7485,73.40,69.80,88.51,0.00,0.00,0.00,29.99,1015.30,9.00,M,FEW,BKN,BKN,M,1100.00,2200.00,2800.00,M,M,M,M,M,M,M,M,M,RJTY 162345Z AUTO 00000KT 9SM FEW011 BKN022 BKN028 23/21 A2999 RMK AO2 SLP153 FZRANO $
RJCK,2020-09-16 23:46,144.1931,43.0408,62.60,62.60,100.00,350.00,6.00,0.00,29.97,M,0.93,M,SCT,BKN,BKN,M,100.00,200.00,300.00,M,BCFG -SHRA BR,M,M,M,M,M,M,M,RJCK 162346Z 35006KT 1500 R17/1000VP2000U BCFG -SHRA BR SCT001 BKN002 BKN003 17/17 Q1015 RMK 3ST001 5ST002 7ST003 A2998
RJOA,2020-09-16 23:46,132.9194,34.4361,71.60,69.80,94.06,130.00,4.00,0.00,29.88,M,0.87,M,FEW,SCT,BKN,M,0.00,600.00,1000.00,M,SHRA BCFG BR,M,M,M,M,M,M,M,RJOA 162346Z 13004KT 100V170 1400 R10/1200VP1800D SHRA BCFG BR FEW000 SCT006 BKN010 22/21 Q1012 RMK 1ST000 3ST006 6CU010 A2990 FG ALL QUAD
RJOI,2020-09-16 23:55,132.2357,34.1439,80.10,73.90,81.42,200.00,5.00,0.00,29.84,1010.60,6.21,M,FEW,BKN,BKN,M,1200.00,2500.00,3000.00,M,M,M,M,M,M,M,M,84.64,RJOI 162355Z 20005KT 9999 FEW012 BKN025 BKN030 27/23 A2984 RMK SLP106 60000 T02670233 10267 20256 53003
RJTY,2020-09-16 23:56,139.3485,35.7485,74.10,70.70,89.14,50.00,4.00,0.00,30.00,1015.60,8.00,M,FEW,BKN,BKN,M,1100.00,2200.00,2900.00,M,M,M,M,M,M,M,M,M,RJTY 162356Z AUTO 05004KT 8SM FEW011 BKN022 BKN029 23/22 A3000 RMK AO2 SLP156 T02340215 10234 20212 52011 FZRANO $
RODN,2020-09-16 23:56,127.7676,26.3556,84.90,78.80,82.02,130.00,9.00,0.00,29.90,1013.00,10.00,M,SCT,BKN,M,M,1600.00,2300.00,M,M,M,M,M,M,M,M,M,97.42,RODN 162356Z AUTO 13009KT 10SM SCT016 BKN023 29/26 A2990 RMK AO2 SLP130 T02940260 10294 20267 50005 $
ROTM,2020-09-16 23:56,127.7565,26.2743,84.00,79.00,84.98,150.00,11.00,0.00,29.93,1011.80,6.21,M,SCT,BKN,M,M,2300.00,17000.00,M,M,M,M,M,M,M,M,M,95.93,ROTM 162356Z 15011KT 9999 SCT023 BKN170 29/26 A2993 RMK SLP118 T02890261 10289 20278 50005
