station,valid,lon,lat,tmpf,dwpf,relh,drct,sknt,p01i,alti,mslp,vsby,gust,skyc1,skyc2,skyc3,skyc4,skyl1,skyl2,skyl3,skyl4,wxcodes,ice_accretion_1hr,ice_accretion_3hr,ice_accretion_6hr,peak_wind_gust,peak_wind_drct,peak_wind_time,feel,metar
ZGHA,2020-09-16 00:00,112.8667,28.2333,71.60,71.60,100.00,320.00,3.89,0.00,29.83,M,3.73,M,BKN,OVC,M,M,500.00,5000.00,M,M,-RA,M,M,M,M,M,M,M,ZGHA 160000Z 32002MPS 290V350 6000 -RA BKN005 OVC050 22/22 Q1010 NOSIG
ZBYN,2020-09-16 00:00,112.5500,37.7833,57.20,39.20,50.91,120.00,3.89,0.00,29.97,M,6.21,M,M,M,M,M,M,M,M,M,M,M,M,M,M,M,M,M,ZBYN 160000Z 12002MPS 090V160 CAVOK 14/04 Q1015 NOSIG
ZGGG,2020-09-16 00:00,113.3008,23.3964,80.60,75.20,83.66,50.00,3.89,0.00,29.80,M,6.21,M,SCT,M,M,M,2600.00,M,M,M,M,M,M,M,M,M,M,86.17,ZGGG 160000Z 05002MPS 010V080 9999 SCT026 27/24 Q1009 NOSIG
ZGKL,2020-09-16 00:00,110.3000,25.3333,77.00,77.00,100.00,M,1.94,0.00,29.80,M,1.99,M,FEW,BKN,BKN,M,1600.00,3000.00,4600.00,M,PRFG BR,M,M,M,M,M,M,M,ZGKL 160000Z VRB01MPS 3200 PRFG BR FEW016 BKN030 BKN046 25/25 Q1009 NOSIG
ZGOW,2020-09-16 00:00,116.6833,23.4000,84.20,75.20,74.44,70.00,5.83,0.00,29.83,M,6.21,M,FEW,M,M,M,2600.00,M,M,M,M,M,M,M,M,M,M,92.45,ZGOW 160000Z 07003MPS 040V110 9999 FEW026 29/24 Q1010 NOSIG
ZHHH,2020-09-16 00:00,114.1300,30.6200,73.40,71.60,94.10,60.00,3.89,0.00,29.83,M,2.80,M,SCT,M,M,M,500.00,M,M,M,BR,M,M,M,M,M,M,M,ZHHH 160000Z 06002MPS 030V110 4500 BR SCT005 23/22 Q1010 NOSIG
ZJHK,2020-09-16 00:00,110.4590,19.9349,82.40,80.60,94.31,0.00,0.00,0.00,29.77,M,6.21,M,M,M,M,M,M,M,M,M,M,M,M,M,M,M,M,95.00,ZJHK 160000Z 00000MPS CAVOK 28/27 Q1008 NOSIG
ZJSY,2020-09-16 00:00,109.4123,18.3029,86.00,78.80,79.18,M,1.94,0.00,29.74,M,6.21,M,M,M,M,M,M,M,M,M,M,M,M,M,M,M,M,99.38,ZJSY 160000Z VRB01MPS CAVOK 30/26 Q1007 NOSIG
ZUGY,2020-09-16 00:00,106.7333,26.5833,62.60,62.60,100.00,40.00,3.89,0.00,29.94,M,3.73,M,FEW,BKN,OVC,M,700.00,1300.00,3300.00,M,-RA,M,M,M,M,M,M,M,ZUGY 160000Z 04002MPS 6000 -RA FEW007 BKN013 OVC033 17/17 Q1014 NOSIG
ZGSZ,2020-09-16 00:00,114.1000,22.5500,82.40,78.80,88.90,40.00,5.83,0.00,29.80,M,6.21,M,BKN,M,M,M,4600.00,M,M,M,M,M,M,M,M,M,M,92.76,ZGSZ 160000Z 04003MPS 010V120 9999 BKN046 28/26 Q1009 NOSIG
ZHCC,2020-09-16 00:00,113.6500,34.7167,73.40,55.40,53.29,270.00,1.94,0.00,29.85,M,6.21,M,M,M,M,M,M,M,M,M,M,M,M,M,M,M,M,M,ZHCC 160000Z 27001MPS CAVOK 23/13 Q1011 NOSIG
ZGNN,2020-09-16 00:00,108.2167,22.6333,82.40,77.00,83.77,M,1.94,0.00,29.77,M,6.21,M,M,M,M,M,M,M,M,M,M,M,M,M,M,M,M,90.85,ZGNN 160000Z VRB01MPS CAVOK 28/25 Q1008 NOSIG
ZBAA,2020-09-16 00:00,116.5870,40.0741,68.00,37.40,32.43,280.00,9.72,0.00,29.80,M,6.21,M,M,M,M,M,M,M,M,M,M,M,M,M,M,M,M,M,ZBAA 160000Z 28005MPS 250V310 CAVOK 20/03 Q1009 BECMG TL0140 32010G15MPS
ZBHH,2020-09-16 00:00,111.6833,40.8167,46.40,37.40,70.68,100.00,3.89,0.00,30.00,M,6.21,M,M,M,M,M,M,M,M,M,M,M,M,M,M,M,M,44.33,ZBHH 160000Z 10002MPS CAVOK 08/03 Q1016 BECMG TL0130 34006MPS
ZBSJ,2020-09-16 00:00,114.6973,38.2807,66.20,42.80,42.57,280.00,3.89,0.00,29.85,M,6.21,M,M,M,M,M,M,M,M,M,M,M,M,M,M,M,M,M,ZBSJ 160000Z 28002MPS 240V310 CAVOK 19/06 Q1011 NOSIG
ZBTJ,2020-09-16 00:00,117.3462,39.1243,68.00,41.00,37.32,320.00,13.61,0.00,29.80,M,6.21,M,M,M,M,M,M,M,M,M,M,M,M,M,M,M,M,M,ZBTJ 160000Z 32007MPS CAVOK 20/05 Q1009 NOSIG
ZYTL,2020-09-16 00:00,121.6333,38.9000,71.60,64.40,78.04,260.00,13.61,0.00,29.74,M,6.21,M,FEW,M,M,M,2600.00,M,M,M,M,M,M,M,M,M,M,M,ZYTL 160000Z 26007MPS 9999 FEW026 22/18 Q1007 NOSIG
ZYTX,2020-09-16 00:00,123.4000,41.8000,64.40,59.00,82.62,230.00,7.78,0.00,29.65,M,6.21,M,SCT,M,M,M,4000.00,M,M,M,M,M,M,M,M,M,M,M,ZYTX 160000Z 23004MPS 9999 SCT040 18/15 Q1004 NOSIG
ZLLL,2020-09-16 00:00,103.7500,36.0200,50.00,46.40,87.37,340.00,3.89,0.00,30.12,M,6.21,M,M,M,M,M,M,M,M,M,M,M,M,M,M,M,M,M,ZLLL 160000Z 34002MPS CAVOK 10/08 Q1020 NOSIG
ZLXY,2020-09-16 00:00,108.7516,34.4471,64.40,59.00,82.62,M,1.94,0.00,29.94,M,6.21,M,M,M,M,M,M,M,M,M,M,M,M,M,M,M,M,M,ZLXY 160000Z VRB01MPS CAVOK 18/15 Q1014 NOSIG
ZMUB,2020-09-16 00:00,106.7666,47.8431,37.40,33.80,86.69,320.00,5.83,0.00,30.09,M,6.21,M,FEW,FEW,SCT,M,700.00,2000.00,3300.00,M,M,M,M,M,M,M,M,32.16,ZMUB 160000Z 32003MPS 9999 FEW007 FEW020 SCT033 03/01 Q1019 NOSIG RMK QFE656.5 86 SE E CM
ZSAM,2020-09-16 00:00,118.0833,24.4833,84.20,78.80,83.88,M,1.94,0.00,29.83,M,4.35,M,SCT,M,M,M,1500.00,M,M,M,M,M,M,M,M,M,M,96.10,ZSAM 160000Z VRB01MPS 7000 SCT015 29/26 Q1010 NOSIG
ZPPP,2020-09-16 00:00,102.6833,25.0167,64.40,64.40,100.00,210.00,7.78,0.00,30.09,M,6.21,M,SCT,OVC,M,M,2000.00,3600.00,M,M,-SHRA,M,M,M,M,M,M,M,ZPPP 160000Z 21004MPS 9999 -SHRA SCT020 OVC036 18/18 Q1019 NOSIG
ZSFZ,2020-09-16 00:00,119.2833,26.0833,82.40,77.00,83.77,M,1.94,0.00,29.83,M,3.11,M,NSC,M,M,M,M,M,M,M,BR,M,M,M,M,M,M,90.85,ZSFZ 160000Z VRB01MPS 5000 BR NSC 28/25 Q1010 NOSIG
ZSHC,2020-09-16 00:00,120.1667,30.2333,75.20,73.40,94.14,360.00,3.89,0.00,29.83,M,2.49,M,FEW,SCT,BKN,M,400.00,800.00,1700.00,M,-RA BR,M,M,M,M,M,M,M,ZSHC 160000Z 36002MPS 320V030 4000 -RA BR FEW004 SCT008 BKN017 24/23 Q1010 NOSIG
ZSNB,2020-09-16 00:00,121.4619,29.8267,77.00,75.20,94.19,350.00,3.89,0.00,29.83,M,2.80,M,FEW,M,M,M,700.00,M,M,M,BR,M,M,M,M,M,M,M,ZSNB 160000Z 35002MPS 310V030 4500 BR FEW007 25/24 Q1010 NOSIG
ZSOF,2020-09-16 00:00,117.2984,31.7800,75.20,69.80,83.32,320.00,3.89,0.00,29.83,M,4.97,M,NSC,M,M,M,M,M,M,M,M,M,M,M,M,M,M,M,ZSOF 160000Z 32002MPS 270V350 8000 NSC 24/21 Q1010 NOSIG
ZSQD,2020-09-16 00:00,120.3333,36.0667,75.20,68.00,78.34,220.00,3.89,0.00,29.77,M,2.49,M,NSC,M,M,M,M,M,M,M,BR,M,M,M,M,M,M,M,ZSQD 160000Z 22002MPS 190V250 4000 BR NSC 24/20 Q1008 NOSIG
ZSSS,2020-09-16 00:00,121.3363,31.1979,73.40,73.40,100.00,M,1.94,0.00,29.83,M,3.73,M,SCT,OVC,M,M,700.00,4000.00,M,M,M,M,M,M,M,M,M,M,ZSSS 160000Z VRB01MPS 6000 SCT007 OVC040 23/23 Q1010 BECMG TL0030 BKN007 OVC040
ZUCK,2020-09-16 00:00,106.4800,29.5200,69.80,69.80,100.00,0.00,0.00,0.00,29.85,M,0.99,M,FEW,SCT,OVC,M,300.00,500.00,2600.00,M,RA BR BCFG,M,M,M,M,M,M,M,ZUCK 160000Z 00000MPS 1600 RA BR BCFG FEW003 SCT005 OVC026 21/21 Q1011 BECMG TL0040 -RA
ZSNJ,2020-09-16 00:00,118.8667,31.7333,71.60,71.60,100.00,310.00,3.89,0.00,29.85,M,3.11,M,FEW,M,M,M,600.00,M,M,M,BR,M,M,M,M,M,M,M,ZSNJ 160000Z 31002MPS 280V350 5000 BR FEW006 22/22 Q1011 NOSIG
ZSPD,2020-09-16 00:00,121.7667,31.1167,73.40,71.60,94.10,280.00,3.89,0.00,29.83,M,3.73,M,NSC,M,M,M,M,M,M,M,M,M,M,M,M,M,M,M,ZSPD 160000Z 28002MPS 6000 NSC 23/22 Q1010 NOSIG
ZUUU,2020-09-16 00:00,104.0167,30.6667,69.80,69.80,100.00,260.00,3.89,0.00,29.85,M,1.86,M,FEW,FEW,SCT,M,500.00,3300.00,3300.00,M,-SHRA BR,M,M,M,M,M,M,M,ZUUU 160000Z 26002MPS 220V290 3000 -SHRA BR FEW005 FEW033TCU SCT033 21/21 Q1011 NOSIG
ZWWW,2020-09-16 00:00,87.4742,43.9071,62.60,39.20,42.00,160.00,9.72,0.00,30.00,M,6.21,M,M,M,M,M,M,M,M,M,M,M,M,M,M,M,M,M,ZWWW 160000Z 16005MPS 140V200 CAVOK 17/04 Q1016 NOSIG
ZYCC,2020-09-16 00:00,125.2167,43.9000,62.60,59.00,88.00,170.00,9.72,0.00,29.59,M,4.97,M,FEW,BKN,M,M,1000.00,3000.00,M,M,-RA,M,M,M,M,M,M,M,ZYCC 160000Z 17005MPS 8000 -RA FEW010 BKN030 17/15 Q1002 NOSIG
ZYHB,2020-09-16 00:00,126.5800,46.0200,59.00,59.00,100.00,130.00,7.78,0.00,29.59,M,3.73,M,FEW,BKN,M,M,1000.00,3000.00,M,M,-RA,M,M,M,M,M,M,M,ZYHB 160000Z 13004MPS 100V170 6000 -RA FEW010 BKN030 15/15 Q1002 NOSIG
ZWSH,2020-09-16 00:00,75.9833,39.4667,60.80,46.40,59.01,80.00,7.78,0.00,30.03,M,6.21,M,M,M,M,M,M,M,M,M,M,M,M,M,M,M,M,M,ZWSH 160000Z 08004MPS CAVOK 16/08 Q1017 NOSIG
ZBAD,2020-09-16 00:00,116.4106,39.5092,68.00,41.00,37.32,360.00,7.78,0.00,29.80,M,6.21,M,M,M,M,M,M,M,M,M,M,M,M,M,M,M,M,M,ZBAD 160000Z 36004MPS CAVOK 20/05 Q1009 NOSIG
ZBYN,2020-09-16 00:30,112.5500,37.7833,60.80,35.60,38.85,M,1.94,0.00,30.00,M,6.21,M,M,M,M,M,M,M,M,M,M,M,M,M,M,M,M,M,ZBYN 160030Z VRB01MPS CAVOK 16/02 Q1016 NOSIG
ZGGG,2020-09-16 00:30,113.3008,23.3964,80.60,75.20,83.66,70.00,3.89,0.00,29.80,M,6.21,M,SCT,M,M,M,2600.00,M,M,M,M,M,M,M,M,M,M,86.17,ZGGG 160030Z 07002MPS 020V100 9999 SCT026 27/24 Q1009 NOSIG
ZBAA,2020-09-16 00:30,116.5870,40.0741,69.80,37.40,30.49,280.00,11.66,0.00,29.80,M,6.21,M,M,M,M,M,M,M,M,M,M,M,M,M,M,M,M,M,ZBAA 160030Z 28006MPS 250V310 CAVOK 21/03 Q1009 NOSIG
ZBTJ,2020-09-16 00:30,117.3462,39.1243,68.00,39.20,34.80,320.00,13.61,0.00,29.80,M,6.21,M,M,M,M,M,M,M,M,M,M,M,M,M,M,M,M,M,ZBTJ 160030Z 32007MPS CAVOK 20/04 Q1009 NOSIG
ZYTL,2020-09-16 00:30,121.6333,38.9000,73.40,64.40,73.44,270.00,11.66,0.00,29.74,M,6.21,M,M,M,M,M,M,M,M,M,M,M,M,M,M,M,M,M,ZYTL 160030Z 27006MPS CAVOK 23/18 Q1007 NOSIG
ZYTX,2020-09-16 00:30,123.4000,41.8000,66.20,59.00,77.60,230.00,9.72,0.00,29.65,M,6.21,M,SCT,M,M,M,4000.00,M,M,M,M,M,M,M,M,M,M,M,ZYTX 160030Z 23005MPS 9999 SCT040 19/15 Q1004 NOSIG
ZMUB,2020-09-16 00:30,106.7666,47.8431,41.00,33.80,75.33,350.00,5.83,0.00,30.09,M,6.21,M,FEW,FEW,SCT,M,700.00,2000.00,3300.00,M,M,M,M,M,M,M,M,36.48,ZMUB 160030Z 35003MPS 310V030 9999 FEW007 FEW020 SCT033 05/01 Q1019 NOSIG RMK QFE656.6 77 SE E CM
ZSHC,2020-09-16 00:30,120.1667,30.2333,75.20,73.40,94.14,M,3.89,0.00,29.83,M,3.73,M,SCT,BKN,M,M,1000.00,2300.00,M,M,-RA,M,M,M,M,M,M,M,ZSHC 160030Z VRB02MPS 6000 -RA SCT010 BKN023 24/23 Q1010 NOSIG
ZSSS,2020-09-16 00:30,121.3363,31.1979,75.20,71.60,88.59,310.00,3.89,0.00,29.83,M,3.73,M,BKN,OVC,M,M,700.00,4000.00,M,M,M,M,M,M,M,M,M,M,ZSSS 160030Z 31002MPS 270V010 6000 BKN007 OVC040 24/22 Q1010 NOSIG
ZSPD,2020-09-16 00:30,121.7667,31.1167,73.40,71.60,94.10,310.00,3.89,0.00,29.83,M,3.73,M,NSC,M,M,M,M,M,M,M,M,M,M,M,M,M,M,M,ZSPD 160030Z 31002MPS 6000 NSC 23/22 Q1010 NOSIG
ZWWW,2020-09-16 00:30,87.4742,43.9071,62.60,39.20,42.00,160.00,7.78,0.00,30.00,M,6.21,M,M,M,M,M,M,M,M,M,M,M,M,M,M,M,M,M,ZWWW 160030Z 16004MPS CAVOK 17/04 Q1016 NOSIG
ZBAD,2020-09-16 00:30,116.4106,39.5092,69.80,39.20,32.72,20.00,11.66,0.00,29.80,M,6.21,M,M,M,M,M,M,M,M,M,M,M,M,M,M,M,M,M,ZBAD 160030Z 02006MPS CAVOK 21/04 Q1009 NOSIG
ZGHA,2020-09-16 01:00,112.8667,28.2333,71.60,71.60,100.00,320.00,5.83,0.00,29.83,M,4.35,M,BKN,OVC,M,M,700.00,5000.00,M,M,-DZ,M,M,M,M,M,M,M,ZGHA 160100Z 32003MPS 290V350 7000 -DZ BKN007 OVC050 22/22 Q1010 BECMG TL0200 BKN011 OVC050
ZBYN,2020-09-16 01:00,112.5500,37.7833,62.60,35.60,36.45,350.00,3.89,0.00,30.00,M,6.21,M,M,M,M,M,M,M,M,M,M,M,M,M,M,M,M,M,ZBYN 160100Z 35002MPS 300V030 CAVOK 17/02 Q1016 NOSIG
ZGGG,2020-09-16 01:00,113.3008,23.3964,82.40,75.20,78.90,80.00,5.83,0.00,29.80,M,6.21,M,SCT,M,M,M,2600.00,M,M,M,M,M,M,M,M,M,M,89.48,ZGGG 160100Z 08003MPS 9999 SCT026 28/24 Q1009 NOSIG
ZGKL,2020-09-16 01:00,110.3000,25.3333,78.80,77.00,94.23,M,1.94,0.00,29.80,M,3.11,M,FEW,SCT,BKN,M,1600.00,4000.00,6000.00,M,BR,M,M,M,M,M,M,M,ZGKL 160100Z VRB01MPS 5000 BR FEW016 SCT040 BKN060 26/25 Q1009 NOSIG
ZGOW,2020-09-16 01:00,116.6833,23.4000,86.00,77.00,74.61,70.00,5.83,0.00,29.83,M,6.21,M,FEW,M,M,M,2300.00,M,M,M,M,M,M,M,M,M,M,97.15,ZGOW 160100Z 07003MPS 020V110 9999 FEW023 30/25 Q1010 NOSIG
ZHHH,2020-09-16 01:00,114.1300,30.6200,73.40,69.80,88.51,50.00,3.89,0.00,29.83,M,3.11,M,SCT,M,M,M,1000.00,M,M,M,BR,M,M,M,M,M,M,M,ZHHH 160100Z 05002MPS 360V100 5000 BR SCT010 23/21 Q1010 NOSIG
ZJHK,2020-09-16 01:00,110.4590,19.9349,86.00,80.60,83.99,M,1.94,0.00,29.77,M,6.21,M,FEW,M,M,M,1600.00,M,M,M,M,M,M,M,M,M,M,101.90,ZJHK 160100Z VRB01MPS 9999 FEW016 30/27 Q1008 NOSIG
ZJSY,2020-09-16 01:00,109.4123,18.3029,87.80,77.00,70.45,M,1.94,0.00,29.77,M,6.21,M,M,M,M,M,M,M,M,M,M,M,M,M,M,M,M,99.92,ZJSY 160100Z VRB01MPS CAVOK 31/25 Q1008 NOSIG
ZUGY,2020-09-16 01:00,106.7333,26.5833,62.60,62.60,100.00,40.00,3.89,0.00,29.94,M,4.35,M,FEW,BKN,OVC,M,700.00,1300.00,3300.00,M,-RA,M,M,M,M,M,M,M,ZUGY 160100Z 04002MPS 7000 -RA FEW007 BKN013 OVC033 17/17 Q1014 NOSIG
ZGSZ,2020-09-16 01:00,114.1000,22.5500,84.20,80.60,88.98,30.00,5.83,0.00,29.80,M,6.21,M,BKN,M,M,M,5000.00,M,M,M,M,M,M,M,M,M,M,98.50,ZGSZ 160100Z 03003MPS 330V070 9999 BKN050 29/27 Q1009 NOSIG
ZHCC,2020-09-16 01:00,113.6500,34.7167,82.40,53.60,37.07,300.00,5.83,0.00,29.85,M,6.21,M,M,M,M,M,M,M,M,M,M,M,M,M,M,M,M,81.46,ZHCC 160100Z 30003MPS CAVOK 28/12 Q1011 NOSIG
ZGNN,2020-09-16 01:00,108.2167,22.6333,84.20,77.00,79.04,M,1.94,0.00,29.80,M,6.21,M,SCT,M,M,M,1000.00,M,M,M,M,M,M,M,M,M,M,94.16,ZGNN 160100Z VRB01MPS 9999 SCT010 29/25 Q1009 NOSIG
ZBAA,2020-09-16 01:00,116.5870,40.0741,69.80,37.40,30.49,270.00,13.61,0.00,29.80,M,6.21,M,M,M,M,M,M,M,M,M,M,M,M,M,M,M,M,M,ZBAA 160100Z 27007MPS 240V310 CAVOK 21/03 Q1009 NOSIG
ZBHH,2020-09-16 01:00,111.6833,40.8167,53.60,32.00,43.61,M,1.94,0.00,30.00,M,6.21,M,M,M,M,M,M,M,M,M,M,M,M,M,M,M,M,M,ZBHH 160100Z VRB01MPS CAVOK 12/00 Q1016 BECMG TL0200 33006MPS
ZBSJ,2020-09-16 01:00,114.6973,38.2807,69.80,44.60,40.29,340.00,3.89,0.00,29.85,M,6.21,M,M,M,M,M,M,M,M,M,M,M,M,M,M,M,M,M,ZBSJ 160100Z 34002MPS 290V030 CAVOK 21/07 Q1011 NOSIG
ZBTJ,2020-09-16 01:00,117.3462,39.1243,69.80,37.40,30.49,320.00,13.61,0.00,29.80,M,6.21,M,M,M,M,M,M,M,M,M,M,M,M,M,M,M,M,M,ZBTJ 160100Z 32007MPS CAVOK 21/03 Q1009 NOSIG
ZYTL,2020-09-16 01:00,121.6333,38.9000,73.40,62.60,68.94,270.00,15.55,0.00,29.74,M,6.21,M,M,M,M,M,M,M,M,M,M,M,M,M,M,M,M,M,ZYTL 160100Z 27008MPS CAVOK 23/17 Q1007 NOSIG
ZYTX,2020-09-16 01:00,123.4000,41.8000,68.00,57.20,68.35,220.00,11.66,0.00,29.65,M,6.21,M,SCT,M,M,M,4000.00,M,M,M,M,M,M,M,M,M,M,M,ZYTX 160100Z 22006MPS 9999 SCT040 20/14 Q1004 NOSIG
ZLLL,2020-09-16 01:00,103.7500,36.0200,55.40,42.80,62.46,20.00,3.89,0.00,30.15,M,6.21,M,M,M,M,M,M,M,M,M,M,M,M,M,M,M,M,M,ZLLL 160100Z 02002MPS 350V050 CAVOK 13/06 Q1021 NOSIG
ZLXY,2020-09-16 01:00,108.7516,34.4471,68.00,59.00,72.92,20.00,3.89,0.00,29.97,M,6.21,M,M,M,M,M,M,M,M,M,M,M,M,M,M,M,M,M,ZLXY 160100Z 02002MPS 330V050 CAVOK 20/15 Q1015 NOSIG
ZMUB,2020-09-16 01:00,106.7666,47.8431,41.00,33.80,75.33,340.00,5.83,0.00,30.09,M,6.21,M,FEW,SCT,M,M,2000.00,3300.00,M,M,M,M,M,M,M,M,M,36.48,ZMUB 160100Z 34003MPS 9999 FEW020 SCT033 05/01 Q1019 NOSIG RMK QFE656.7 74 E CM
ZSAM,2020-09-16 01:00,118.0833,24.4833,86.00,78.80,79.18,M,1.94,0.00,29.83,M,4.97,M,SCT,M,M,M,1300.00,M,M,M,M,M,M,M,M,M,M,99.38,ZSAM 160100Z VRB01MPS 8000 SCT013 30/26 Q1010 NOSIG
ZPPP,2020-09-16 01:00,102.6833,25.0167,64.40,64.40,100.00,220.00,7.78,0.00,30.12,M,6.21,M,SCT,BKN,M,M,2000.00,4000.00,M,M,M,M,M,M,M,M,M,M,ZPPP 160100Z 22004MPS 9999 SCT020 BKN040 18/18 Q1020 NOSIG
ZSFZ,2020-09-16 01:00,119.2833,26.0833,86.00,77.00,74.61,260.00,3.89,0.00,29.83,M,4.35,M,FEW,M,M,M,2600.00,M,M,M,M,M,M,M,M,M,M,97.15,ZSFZ 160100Z 26002MPS 210V300 7000 FEW026 30/25 Q1010 NOSIG
ZSHC,2020-09-16 01:00,120.1667,30.2333,75.20,73.40,94.14,350.00,3.89,0.00,29.83,M,3.73,M,SCT,BKN,M,M,1000.00,2600.00,M,M,-RA,M,M,M,M,M,M,M,ZSHC 160100Z 35002MPS 320V030 6000 -RA SCT010 BKN026 24/23 Q1010 NOSIG
ZSNB,2020-09-16 01:00,121.4619,29.8267,78.80,75.20,88.75,340.00,5.83,0.00,29.83,M,2.80,M,FEW,SCT,M,M,700.00,2000.00,M,M,BR,M,M,M,M,M,M,M,ZSNB 160100Z 34003MPS 310V020 4500 BR FEW007 SCT020 26/24 Q1010 NOSIG
ZSOF,2020-09-16 01:00,117.2984,31.7800,77.00,69.80,78.48,310.00,5.83,0.00,29.83,M,6.21,M,FEW,M,M,M,1000.00,M,M,M,M,M,M,M,M,M,M,M,ZSOF 160100Z 31003MPS 260V340 9999 FEW010 25/21 Q1010 NOSIG
ZSQD,2020-09-16 01:00,120.3333,36.0667,77.00,69.80,78.48,M,1.94,0.00,29.80,M,2.49,M,NSC,M,M,M,M,M,M,M,BR,M,M,M,M,M,M,M,ZSQD 160100Z VRB01MPS 4000 BR NSC 25/21 Q1009 NOSIG
ZSSS,2020-09-16 01:00,121.3363,31.1979,75.20,71.60,88.59,320.00,3.89,0.00,29.83,M,3.73,M,BKN,M,M,M,900.00,M,M,M,M,M,M,M,M,M,M,M,ZSSS 160100Z 32002MPS 290V350 6000 BKN009 24/22 Q1010 NOSIG
ZUCK,2020-09-16 01:00,106.4800,29.5200,69.80,69.80,100.00,200.00,1.94,0.00,29.85,M,1.43,M,FEW,SCT,OVC,M,300.00,600.00,4000.00,M,-SHRA BR,M,M,M,M,M,M,M,ZUCK 160100Z 20001MPS 2300 -SHRA BR FEW003 SCT006 OVC040 21/21 Q1011 RERA BECMG TL0140 3000
ZSNJ,2020-09-16 01:00,118.8667,31.7333,77.00,71.60,83.44,M,1.94,0.00,29.83,M,4.97,M,FEW,M,M,M,1000.00,M,M,M,M,M,M,M,M,M,M,M,ZSNJ 160100Z VRB01MPS 8000 FEW010 25/22 Q1010 NOSIG
ZSPD,2020-09-16 01:00,121.7667,31.1167,75.20,73.40,94.14,310.00,5.83,0.00,29.83,M,3.73,M,NSC,M,M,M,M,M,M,M,M,M,M,M,M,M,M,M,ZSPD 160100Z 31003MPS 6000 NSC 24/23 Q1010 NOSIG
ZUUU,2020-09-16 01:00,104.0167,30.6667,69.80,69.80,100.00,M,1.94,0.00,29.88,M,2.49,M,SCT,FEW,SCT,M,500.00,3300.00,3300.00,M,-SHRA BR,M,M,M,M,M,M,M,ZUUU 160100Z VRB01MPS 4000 -SHRA BR SCT005 FEW033TCU SCT033 21/21 Q1012 NOSIG
ZWWW,2020-09-16 01:00,87.4742,43.9071,64.40,39.20,39.43,160.00,9.72,0.00,30.00,M,6.21,M,M,M,M,M,M,M,M,M,M,M,M,M,M,M,M,M,ZWWW 160100Z 16005MPS CAVOK 18/04 Q1016 NOSIG
ZYCC,2020-09-16 01:00,125.2167,43.9000,62.60,59.00,88.00,190.00,9.72,0.00,29.59,M,4.97,M,FEW,OVC,M,M,1000.00,2600.00,M,M,-RA,M,M,M,M,M,M,M,ZYCC 160100Z 19005MPS 150V220 8000 -RA FEW010 OVC026 17/15 Q1002 NOSIG
ZYHB,2020-09-16 01:00,126.5800,46.0200,60.80,59.00,93.79,130.00,9.72,0.00,29.59,M,4.97,M,FEW,BKN,M,M,1000.00,4000.00,M,M,-RA,M,M,M,M,M,M,M,ZYHB 160100Z 13005MPS 090V160 8000 -RA FEW010 BKN040 16/15 Q1002 NOSIG
ZWSH,2020-09-16 01:00,75.9833,39.4667,60.80,46.40,59.01,40.00,7.78,0.00,30.06,M,6.21,M,M,M,M,M,M,M,M,M,M,M,M,M,M,M,M,M,ZWSH 160100Z 04004MPS CAVOK 16/08 Q1018 NOSIG
ZBAD,2020-09-16 01:00,116.4106,39.5092,71.60,39.20,30.77,360.00,13.61,0.00,29.80,M,6.21,M,M,M,M,M,M,M,M,M,M,M,M,M,M,M,M,M,ZBAD 160100Z 36007MPS CAVOK 22/04 Q1009 NOSIG
ZBYN,2020-09-16 01:30,112.5500,37.7833,62.60,32.00,31.56,280.00,3.89,0.00,30.00,M,6.21,M,M,M,M,M,M,M,M,M,M,M,M,M,M,M,M,M,ZBYN 160130Z 28002MPS CAVOK 17/00 Q1016 NOSIG
ZGGG,2020-09-16 01:30,113.3008,23.3964,82.40,75.20,78.90,90.00,5.83,0.00,29.80,M,6.21,M,FEW,SCT,M,M,1300.00,3300.00,M,M,M,M,M,M,M,M,M,89.48,ZGGG 160130Z 09003MPS 060V120 9999 FEW013 SCT033 28/24 Q1009 NOSIG
ZBAA,2020-09-16 01:30,116.5870,40.0741,71.60,37.40,28.68,290.00,13.61,0.00,29.80,M,6.21,M,M,M,M,M,M,M,M,M,M,M,M,M,M,M,M,M,ZBAA 160130Z 29007MPS CAVOK 22/03 Q1009 NOSIG
ZBTJ,2020-09-16 01:30,117.3462,39.1243,71.60,37.40,28.68,330.00,11.66,0.00,29.80,M,6.21,M,M,M,M,M,M,M,M,M,M,M,M,M,M,M,M,M,ZBTJ 160130Z 33006MPS 300V360 CAVOK 22/03 Q1009 NOSIG
ZYTL,2020-09-16 01:30,121.6333,38.9000,73.40,62.60,68.94,280.00,11.66,0.00,29.74,M,6.21,M,FEW,M,M,M,3300.00,M,M,M,M,M,M,M,M,M,M,M,ZYTL 160130Z 28006MPS 9999 FEW033 23/17 Q1007 NOSIG
ZYTX,2020-09-16 01:30,123.4000,41.8000,68.00,57.20,68.35,230.00,11.66,0.00,29.65,M,6.21,M,FEW,M,M,M,4000.00,M,M,M,M,M,M,M,M,M,M,M,ZYTX 160130Z 23006MPS 9999 FEW040 20/14 Q1004 NOSIG
ZMUB,2020-09-16 01:30,106.7666,47.8431,42.80,33.80,70.28,10.00,5.83,0.00,30.09,M,6.21,M,FEW,SCT,M,M,2000.00,3300.00,M,M,M,M,M,M,M,M,M,38.65,ZMUB 160130Z 01003MPS 9999 FEW020 SCT033 06/01 Q1019 NOSIG RMK QFE656.6 65 E CM
ZSHC,2020-09-16 01:30,120.1667,30.2333,75.20,73.40,94.14,10.00,3.89,0.00,29.85,M,4.35,M,SCT,BKN,M,M,1000.00,2600.00,M,M,-RA,M,M,M,M,M,M,M,ZSHC 160130Z 01002MPS 340V050 7000 -RA SCT010 BKN026 24/23 Q1011 NOSIG
ZSSS,2020-09-16 01:30,121.3363,31.1979,77.00,73.40,88.67,350.00,5.83,0.00,29.85,M,4.35,M,BKN,M,M,M,900.00,M,M,M,M,M,M,M,M,M,M,M,ZSSS 160130Z 35003MPS 7000 BKN009 25/23 Q1011 NOSIG
ZSPD,2020-09-16 01:30,121.7667,31.1167,75.20,71.60,88.59,300.00,3.89,0.00,29.83,M,3.73,M,NSC,M,M,M,M,M,M,M,M,M,M,M,M,M,M,M,ZSPD 160130Z 30002MPS 260V330 6000 NSC 24/22 Q1010 NOSIG
ZWWW,2020-09-16 01:30,87.4742,43.9071,66.20,39.20,37.03,160.00,7.78,0.00,30.00,M,6.21,M,M,M,M,M,M,M,M,M,M,M,M,M,M,M,M,M,ZWWW 160130Z 16004MPS CAVOK 19/04 Q1016 NOSIG
ZBAD,2020-09-16 01:30,116.4106,39.5092,73.40,35.60,25.13,340.00,9.72,0.00,29.80,M,6.21,M,M,M,M,M,M,M,M,M,M,M,M,M,M,M,M,M,ZBAD 160130Z 34005MPS CAVOK 23/02 Q1009 NOSIG
ZGHA,2020-09-16 02:00,112.8667,28.2333,71.60,71.60,100.00,350.00,5.83,0.00,29.83,M,3.11,M,FEW,BKN,OVC,M,400.00,700.00,5000.00,M,-DZ BR,M,M,M,M,M,M,M,ZGHA 160200Z 35003MPS 5000 -DZ BR FEW004 BKN007 OVC050 22/22 Q1010 BECMG TL0300 BKN010 OVC050
ZBYN,2020-09-16 02:00,112.5500,37.7833,66.20,33.80,29.92,340.00,5.83,0.00,30.00,M,6.21,M,M,M,M,M,M,M,M,M,M,M,M,M,M,M,M,M,ZBYN 160200Z 34003MPS 300V020 CAVOK 19/01 Q1016 NOSIG
ZGGG,2020-09-16 02:00,113.3008,23.3964,84.20,75.20,74.44,100.00,7.78,0.00,29.80,M,6.21,M,FEW,SCT,M,M,1300.00,3300.00,M,M,M,M,M,M,M,M,M,92.45,ZGGG 160200Z 10004MPS 9999 FEW013 SCT033 29/24 Q1009 NOSIG
ZGKL,2020-09-16 02:00,110.3000,25.3333,84.20,77.00,79.04,120.00,3.89,0.00,29.80,M,6.21,M,FEW,SCT,M,M,2000.00,3000.00,M,M,M,M,M,M,M,M,M,94.16,ZGKL 160200Z 12002MPS 060V150 9999 FEW020 SCT030 29/25 Q1009 NOSIG
ZGOW,2020-09-16 02:00,116.6833,23.4000,87.80,77.00,70.45,140.00,3.89,0.00,29.83,M,6.21,M,SCT,M,M,M,2300.00,M,M,M,M,M,M,M,M,M,M,99.92,ZGOW 160200Z 14002MPS 080V180 9999 SCT023 31/25 Q1010 NOSIG
ZHHH,2020-09-16 02:00,114.1300,30.6200,75.20,71.60,88.59,20.00,3.89,0.00,29.85,M,3.73,M,SCT,M,M,M,1000.00,M,M,M,M,M,M,M,M,M,M,M,ZHHH 160200Z 02002MPS 320V060 6000 SCT010 24/22 Q1011 NOSIG
ZJHK,2020-09-16 02:00,110.4590,19.9349,87.80,78.80,74.77,180.00,3.89,0.00,29.80,M,6.21,M,SCT,M,M,M,2000.00,M,M,M,M,M,M,M,M,M,M,102.37,ZJHK 160200Z 18002MPS 130V250 9999 SCT020 31/26 Q1009 NOSIG
ZJSY,2020-09-16 02:00,109.4123,18.3029,87.80,78.80,74.77,210.00,3.89,0.00,29.77,M,6.21,M,FEW,M,M,M,2000.00,M,M,M,M,M,M,M,M,M,M,102.37,ZJSY 160200Z 21002MPS 180V240 9999 FEW020 31/26 Q1008 NOSIG
ZUGY,2020-09-16 02:00,106.7333,26.5833,64.40,62.60,93.88,30.00,5.83,0.00,29.94,M,4.35,M,FEW,BKN,OVC,M,700.00,1300.00,3300.00,M,-RA,M,M,M,M,M,M,M,ZUGY 160200Z 03003MPS 7000 -RA FEW007 BKN013 OVC033 18/17 Q1014 BECMG TL0330 FEW010 BKN015 OVC033
ZGSZ,2020-09-16 02:00,114.1000,22.5500,87.80,78.80,74.77,90.00,5.83,0.00,29.80,M,6.21,M,SCT,SCT,M,M,1700.00,5300.00,M,M,M,M,M,M,M,M,M,102.37,ZGSZ 160200Z 09003MPS 060V130 9999 SCT017 SCT053 31/26 Q1009 NOSIG
ZHCC,2020-09-16 02:00,113.6500,34.7167,86.00,50.00,28.90,310.00,7.78,0.00,29.85,M,6.21,M,M,M,M,M,M,M,M,M,M,M,M,M,M,M,M,83.62,ZHCC 160200Z 31004MPS CAVOK 30/10 Q1011 NOSIG
ZGNN,2020-09-16 02:00,108.2167,22.6333,87.80,77.00,70.45,140.00,3.89,0.00,29.80,M,6.21,M,SCT,M,M,M,1600.00,M,M,M,M,M,M,M,M,M,M,99.92,ZGNN 160200Z 14002MPS 080V230 9999 SCT016 31/25 Q1009 NOSIG
ZBAA,2020-09-16 02:00,116.5870,40.0741,71.60,35.60,26.71,280.00,15.55,0.00,29.80,M,6.21,27.21,M,M,M,M,M,M,M,M,M,M,M,M,M,M,M,M,ZBAA 160200Z 28008G14MPS CAVOK 22/02 Q1009 NOSIG
ZBHH,2020-09-16 02:00,111.6833,40.8167,57.20,30.20,35.57,320.00,17.49,0.00,30.00,M,6.21,M,FEW,M,M,M,4000.00,M,M,M,M,M,M,M,M,M,M,M,ZBHH 160200Z 32009MPS 9999 FEW040 14/M01 Q1016 NOSIG
ZBSJ,2020-09-16 02:00,114.6973,38.2807,73.40,42.80,33.29,330.00,5.83,0.00,29.85,M,6.21,M,M,M,M,M,M,M,M,M,M,M,M,M,M,M,M,M,ZBSJ 160200Z 33003MPS 300V360 CAVOK 23/06 Q1011 NOSIG
ZBTJ,2020-09-16 02:00,117.3462,39.1243,73.40,37.40,26.98,340.00,15.55,0.00,29.80,M,6.21,M,M,M,M,M,M,M,M,M,M,M,M,M,M,M,M,M,ZBTJ 160200Z 34008MPS CAVOK 23/03 Q1009 NOSIG
ZYTL,2020-09-16 02:00,121.6333,38.9000,75.20,60.80,60.90,260.00,13.61,0.00,29.74,M,6.21,M,SCT,M,M,M,3300.00,M,M,M,M,M,M,M,M,M,M,M,ZYTL 160200Z 26007MPS 220V290 9999 SCT033 24/16 Q1007 NOSIG
ZYTX,2020-09-16 02:00,123.4000,41.8000,69.80,55.40,60.21,220.00,11.66,0.00,29.62,M,6.21,M,FEW,M,M,M,4000.00,M,M,M,M,M,M,M,M,M,M,M,ZYTX 160200Z 22006MPS 9999 FEW040 21/13 Q1003 NOSIG
ZLLL,2020-09-16 02:00,103.7500,36.0200,59.00,37.40,44.47,40.00,5.83,0.00,30.18,M,6.21,M,M,M,M,M,M,M,M,M,M,M,M,M,M,M,M,M,ZLLL 160200Z 04003MPS 010V070 CAVOK 15/03 Q1022 NOSIG
ZLXY,2020-09-16 02:00,108.7516,34.4471,71.60,59.00,64.48,30.00,3.89,0.00,29.97,M,6.21,M,M,M,M,M,M,M,M,M,M,M,M,M,M,M,M,M,ZLXY 160200Z 03002MPS 360V070 CAVOK 22/15 Q1015 NOSIG
ZMUB,2020-09-16 02:00,106.7666,47.8431,44.60,33.80,65.61,330.00,5.83,0.00,30.09,M,6.21,M,SCT,M,M,M,3300.00,M,M,M,M,M,M,M,M,M,M,40.81,ZMUB 160200Z 33003MPS 9999 SCT033 07/01 Q1019 NOSIG RMK QFE656.6 66 MOP
ZSAM,2020-09-16 02:00,118.0833,24.4833,87.80,77.00,70.45,M,1.94,0.00,29.83,M,5.59,M,SCT,M,M,M,2100.00,M,M,M,M,M,M,M,M,M,M,99.92,ZSAM 160200Z VRB01MPS 9000 SCT021 31/25 Q1010 NOSIG
ZPPP,2020-09-16 02:00,102.6833,25.0167,68.00,66.20,93.97,210.00,9.72,0.00,30.12,M,6.21,M,FEW,SCT,BKN,M,2000.00,2000.00,4000.00,M,M,M,M,M,M,M,M,M,ZPPP 160200Z 21005MPS 9999 FEW020TCU SCT020 BKN040 20/19 Q1020 NOSIG
ZSFZ,2020-09-16 02:00,119.2833,26.0833,87.80,77.00,70.45,130.00,5.83,0.00,29.83,M,4.97,M,FEW,M,M,M,2300.00,M,M,M,M,M,M,M,M,M,M,99.92,ZSFZ 160200Z 13003MPS 090V180 8000 FEW023 31/25 Q1010 NOSIG
ZSHC,2020-09-16 02:00,120.1667,30.2333,75.20,73.40,94.14,10.00,3.89,0.00,29.85,M,4.35,M,SCT,BKN,M,M,900.00,2600.00,M,M,-RA,M,M,M,M,M,M,M,ZSHC 160200Z 01002MPS 7000 -RA SCT009 BKN026 24/23 Q1011 NOSIG
ZSNB,2020-09-16 02:00,121.4619,29.8267,78.80,75.20,88.75,360.00,5.83,0.00,29.83,M,2.17,M,SCT,M,M,M,2000.00,M,M,M,BR,M,M,M,M,M,M,M,ZSNB 160200Z 36003MPS 320V050 3500 BR SCT020 26/24 Q1010 NOSIG
ZSOF,2020-09-16 02:00,117.2984,31.7800,77.00,69.80,78.48,330.00,5.83,0.00,29.85,M,6.21,M,SCT,M,M,M,1300.00,M,M,M,M,M,M,M,M,M,M,M,ZSOF 160200Z 33003MPS 290V030 9999 SCT013 25/21 Q1011 NOSIG
ZSQD,2020-09-16 02:00,120.3333,36.0667,80.60,68.00,65.54,M,1.94,0.00,29.80,M,3.11,M,NSC,M,M,M,M,M,M,M,HZ,M,M,M,M,M,M,83.29,ZSQD 160200Z VRB01MPS 5000 HZ NSC 27/20 Q1009 NOSIG
ZSSS,2020-09-16 02:00,121.3363,31.1979,77.00,71.60,83.44,320.00,7.78,0.00,29.85,M,4.35,M,BKN,M,M,M,900.00,M,M,M,M,M,M,M,M,M,M,M,ZSSS 160200Z 32004MPS 7000 BKN009 25/22 Q1011 BECMG TL0250 BKN011
ZUCK,2020-09-16 02:00,106.4800,29.5200,71.60,69.80,94.06,170.00,1.94,0.00,29.85,M,2.17,M,FEW,SCT,OVC,M,300.00,600.00,3300.00,M,-RA BCFG BR,M,M,M,M,M,M,M,ZUCK 160200Z 17001MPS 3500 -RA BCFG BR FEW003 SCT006 OVC033 22/21 Q1011 NOSIG
ZSNJ,2020-09-16 02:00,118.8667,31.7333,78.80,69.80,73.95,M,1.94,0.00,29.85,M,6.21,M,BKN,M,M,M,1700.00,M,M,M,M,M,M,M,M,M,M,M,ZSNJ 160200Z VRB01MPS 9999 BKN017 26/21 Q1011 NOSIG
ZSPD,2020-09-16 02:00,121.7667,31.1167,77.00,71.60,83.44,320.00,5.83,0.00,29.83,M,3.73,M,SCT,M,M,M,1500.00,M,M,M,M,M,M,M,M,M,M,M,ZSPD 160200Z 32003MPS 290V350 6000 SCT015 25/22 Q1010 BECMG TL0230 BKN012
ZUUU,2020-09-16 02:00,104.0167,30.6667,71.60,71.60,100.00,M,1.94,0.00,29.91,M,2.80,M,FEW,FEW,SCT,M,500.00,3000.00,3000.00,M,-SHRA BR,M,M,M,M,M,M,M,ZUUU 160200Z VRB01MPS 4500 -SHRA BR FEW005 FEW030TCU SCT030 22/22 Q1013 NOSIG
ZWWW,2020-09-16 02:00,87.4742,43.9071,68.00,39.20,34.80,160.00,9.72,0.00,30.03,M,6.21,M,M,M,M,M,M,M,M,M,M,M,M,M,M,M,M,M,ZWWW 160200Z 16005MPS CAVOK 20/04 Q1017 NOSIG
ZYCC,2020-09-16 02:00,125.2167,43.9000,66.20,59.00,77.60,200.00,13.61,0.00,29.59,M,6.21,M,BKN,M,M,M,2600.00,M,M,M,M,M,M,M,M,M,M,M,ZYCC 160200Z 20007MPS 9999 BKN026 19/15 Q1002 NOSIG
ZYHB,2020-09-16 02:00,126.5800,46.0200,60.80,60.80,100.00,140.00,7.78,0.00,29.56,M,3.11,M,FEW,BKN,M,M,1000.00,3300.00,M,M,-RA,M,M,M,M,M,M,M,ZYHB 160200Z 14004MPS 100V180 5000 -RA FEW010 BKN033 16/16 Q1001 NOSIG
ZWSH,2020-09-16 02:00,75.9833,39.4667,64.40,44.60,48.55,30.00,5.83,0.00,30.09,M,6.21,M,M,M,M,M,M,M,M,M,M,M,M,M,M,M,M,M,ZWSH 160200Z 03003MPS 010V100 CAVOK 18/07 Q1019 NOSIG
ZBAD,2020-09-16 02:00,116.4106,39.5092,71.60,41.00,33.00,260.00,7.78,0.00,29.83,M,6.21,M,M,M,M,M,M,M,M,M,M,M,M,M,M,M,M,M,ZBAD 160200Z 26004MPS CAVOK 22/05 Q1010 BECMG TL0310 33005MPS
ZBYN,2020-09-16 02:30,112.5500,37.7833,66.20,28.40,24.04,360.00,5.83,0.00,30.00,M,6.21,M,M,M,M,M,M,M,M,M,M,M,M,M,M,M,M,M,ZBYN 160230Z 36003MPS 320V040 CAVOK 19/M02 Q1016 NOSIG
ZGGG,2020-09-16 02:30,113.3008,23.3964,86.00,75.20,70.27,100.00,9.72,0.00,29.80,M,6.21,M,SCT,BKN,M,M,2300.00,4000.00,M,M,M,M,M,M,M,M,M,95.19,ZGGG 160230Z 10005MPS 9999 SCT023 BKN040 30/24 Q1009 NOSIG
ZBAA,2020-09-16 02:30,116.5870,40.0741,73.40,35.60,25.13,270.00,19.44,0.00,29.80,M,6.21,29.16,M,M,M,M,M,M,M,M,M,M,M,M,M,M,M,M,ZBAA 160230Z 27010G15MPS CAVOK 23/02 Q1009 NOSIG
ZBTJ,2020-09-16 02:30,117.3462,39.1243,73.40,35.60,25.13,320.00,15.55,0.00,29.80,M,6.21,M,M,M,M,M,M,M,M,M,M,M,M,M,M,M,M,M,ZBTJ 160230Z 32008MPS CAVOK 23/02 Q1009 NOSIG
ZYTL,2020-09-16 02:30,121.6333,38.9000,75.20,60.80,60.90,280.00,11.66,0.00,29.74,M,6.21,M,SCT,M,M,M,3300.00,M,M,M,M,M,M,M,M,M,M,M,ZYTL 160230Z 28006MPS 9999 SCT033 24/16 Q1007 NOSIG
ZYTX,2020-09-16 02:30,123.4000,41.8000,71.60,59.00,64.48,220.00,13.61,0.00,29.62,M,6.21,M,SCT,M,M,M,4000.00,M,M,M,M,M,M,M,M,M,M,M,ZYTX 160230Z 22007MPS 190V250 9999 SCT040 22/15 Q1003 NOSIG
ZMUB,2020-09-16 02:30,106.7666,47.8431,46.40,32.00,57.00,M,3.89,0.00,30.09,M,6.21,M,SCT,M,M,M,3300.00,M,M,M,M,M,M,M,M,M,M,44.33,ZMUB 160230Z VRB02MPS 9999 SCT033 08/00 Q1019 NOSIG RMK QFE656.5 59 MOP
ZSHC,2020-09-16 02:30,120.1667,30.2333,75.20,73.40,94.14,350.00,3.89,0.00,29.85,M,4.35,M,SCT,BKN,M,M,900.00,2600.00,M,M,-RA,M,M,M,M,M,M,M,ZSHC 160230Z 35002MPS 310V040 7000 -RA SCT009 BKN026 24/23 Q1011 NOSIG
ZSSS,2020-09-16 02:30,121.3363,31.1979,78.80,71.60,78.62,330.00,7.78,0.00,29.85,M,4.35,M,FEW,M,M,M,1200.00,M,M,M,M,M,M,M,M,M,M,M,ZSSS 160230Z 33004MPS 300V360 7000 FEW012 26/22 Q1011 NOSIG
ZSPD,2020-09-16 02:30,121.7667,31.1167,77.00,73.40,88.67,340.00,5.83,0.00,29.83,M,3.73,M,BKN,M,M,M,1300.00,M,M,M,M,M,M,M,M,M,M,M,ZSPD 160230Z 34003MPS 6000 BKN013 25/23 Q1010 NOSIG
ZWWW,2020-09-16 02:30,87.4742,43.9071,71.60,39.20,30.77,170.00,7.78,0.00,30.03,M,6.21,M,M,M,M,M,M,M,M,M,M,M,M,M,M,M,M,M,ZWWW 160230Z 17004MPS CAVOK 22/04 Q1017 NOSIG
ZBAD,2020-09-16 02:30,116.4106,39.5092,73.40,39.20,28.96,280.00,5.83,0.00,29.83,M,6.21,M,M,M,M,M,M,M,M,M,M,M,M,M,M,M,M,M,ZBAD 160230Z 28003MPS 240V320 CAVOK 23/04 Q1010 NOSIG
ZGHA,2020-09-16 03:00,112.8667,28.2333,73.40,71.60,94.10,360.00,5.83,0.00,29.83,M,6.21,M,BKN,OVC,M,M,1000.00,5000.00,M,M,M,M,M,M,M,M,M,M,ZGHA 160300Z 36003MPS 9999 BKN010 OVC050 23/22 Q1010 BECMG TL0400 BKN015 OVC050
ZBYN,2020-09-16 03:00,112.5500,37.7833,68.00,33.80,28.11,290.00,7.78,0.00,30.00,M,6.21,M,M,M,M,M,M,M,M,M,M,M,M,M,M,M,M,M,ZBYN 160300Z 29004MPS 220V360 CAVOK 20/01 Q1016 NOSIG
ZGGG,2020-09-16 03:00,113.3008,23.3964,86.00,75.20,70.27,90.00,7.78,0.00,29.80,M,6.21,M,FEW,SCT,M,M,2300.00,4600.00,M,M,M,M,M,M,M,M,M,95.19,ZGGG 160300Z 09004MPS 9999 FEW023 SCT046 30/24 Q1009 NOSIG
ZGKL,2020-09-16 03:00,110.3000,25.3333,86.00,75.20,70.27,170.00,5.83,0.00,29.80,M,6.21,M,FEW,SCT,M,M,3000.00,6600.00,M,M,M,M,M,M,M,M,M,95.19,ZGKL 160300Z 17003MPS 140V200 9999 FEW030 SCT066 30/24 Q1009 NOSIG
ZGOW,2020-09-16 03:00,116.6833,23.4000,87.80,77.00,70.45,M,3.89,0.00,29.83,M,6.21,M,SCT,M,M,M,2300.00,M,M,M,M,M,M,M,M,M,M,99.92,ZGOW 160300Z VRB02MPS 9999 SCT023 31/25 Q1010 NOSIG
ZHHH,2020-09-16 03:00,114.1300,30.6200,77.00,71.60,83.44,90.00,3.89,0.00,29.85,M,6.21,M,SCT,M,M,M,1500.00,M,M,M,M,M,M,M,M,M,M,M,ZHHH 160300Z 09002MPS 040V150 9999 SCT015 25/22 Q1011 NOSIG
ZJHK,2020-09-16 03:00,110.4590,19.9349,89.60,75.20,62.68,M,1.94,0.00,29.77,M,6.21,M,SCT,M,M,M,2600.00,M,M,M,M,M,M,M,M,M,M,100.23,ZJHK 160300Z VRB01MPS 9999 SCT026 32/24 Q1008 NOSIG
ZJSY,2020-09-16 03:00,109.4123,18.3029,89.60,78.80,70.63,230.00,5.83,0.00,29.77,M,6.21,M,FEW,FEW,M,M,2000.00,2300.00,M,M,M,M,M,M,M,M,M,105.15,ZJSY 160300Z 23003MPS 190V310 9999 FEW020 FEW023TCU 32/26 Q1008 BECMG AT0450 SCT020 FEW025CB
ZUGY,2020-09-16 03:00,106.7333,26.5833,64.40,62.60,93.88,10.00,3.89,0.00,29.94,M,4.35,M,FEW,BKN,OVC,M,700.00,1300.00,3300.00,M,-RA,M,M,M,M,M,M,M,ZUGY 160300Z 01002MPS 7000 -RA FEW007 BKN013 OVC033 18/17 Q1014 BECMG TL0330 FEW010 BKN015 OVC033
ZGSZ,2020-09-16 03:00,114.1000,22.5500,89.60,78.80,70.63,120.00,9.72,0.00,29.80,M,6.21,M,SCT,M,M,M,2000.00,M,M,M,M,M,M,M,M,M,M,105.15,ZGSZ 160300Z 12005MPS 9999 SCT020 32/26 Q1009 BECMG AT0450 SHRA
ZHCC,2020-09-16 03:00,113.6500,34.7167,91.40,50.00,24.37,320.00,7.78,0.00,29.85,M,6.21,M,FEW,M,M,M,2000.00,M,M,M,M,M,M,M,M,M,M,88.36,ZHCC 160300Z 32004MPS 290V360 9999 FEW020 33/10 Q1011 NOSIG
ZGNN,2020-09-16 03:00,108.2167,22.6333,89.60,75.20,62.68,140.00,5.83,0.00,29.80,M,6.21,M,SCT,M,M,M,2300.00,M,M,M,M,M,M,M,M,M,M,100.23,ZGNN 160300Z 14003MPS 090V190 9999 SCT023 32/24 Q1009 NOSIG
ZBAA,2020-09-16 03:00,116.5870,40.0741,75.20,35.60,23.66,290.00,15.55,0.00,29.80,M,6.21,M,M,M,M,M,M,M,M,M,M,M,M,M,M,M,M,M,ZBAA 160300Z 29008MPS CAVOK 24/02 Q1009 NOSIG
ZBHH,2020-09-16 03:00,111.6833,40.8167,59.00,30.20,33.35,320.00,15.55,0.00,30.03,M,6.21,M,FEW,M,M,M,4000.00,M,M,M,M,M,M,M,M,M,M,M,ZBHH 160300Z 32008MPS 9999 FEW040 15/M01 Q1017 NOSIG
ZBSJ,2020-09-16 03:00,114.6973,38.2807,75.20,39.20,27.26,280.00,7.78,0.00,29.85,M,6.21,M,M,M,M,M,M,M,M,M,M,M,M,M,M,M,M,M,ZBSJ 160300Z 28004MPS 240V310 CAVOK 24/04 Q1011 NOSIG
ZBTJ,2020-09-16 03:00,117.3462,39.1243,75.20,35.60,23.66,320.00,13.61,0.00,29.80,M,6.21,M,M,M,M,M,M,M,M,M,M,M,M,M,M,M,M,M,ZBTJ 160300Z 32007MPS CAVOK 24/02 Q1009 NOSIG
ZYTL,2020-09-16 03:00,121.6333,38.9000,77.00,51.80,41.42,280.00,15.55,0.00,29.74,M,6.21,M,SCT,M,M,M,4000.00,M,M,M,M,M,M,M,M,M,M,M,ZYTL 160300Z 28008MPS 230V310 9999 SCT040 25/11 Q1007 NOSIG
ZYTX,2020-09-16 03:00,123.4000,41.8000,71.60,60.80,68.75,240.00,11.66,0.00,29.62,M,6.21,M,FEW,BKN,M,M,3300.00,3300.00,M,M,M,M,M,M,M,M,M,M,ZYTX 160300Z 24006MPS 210V270 9999 FEW033TCU BKN033 22/16 Q1003 NOSIG
ZLLL,2020-09-16 03:00,103.7500,36.0200,60.80,41.00,48.00,90.00,5.83,0.00,30.18,M,6.21,M,M,M,M,M,M,M,M,M,M,M,M,M,M,M,M,M,ZLLL 160300Z 09003MPS 060V120 CAVOK 16/05 Q1022 NOSIG
ZLXY,2020-09-16 03:00,108.7516,34.4471,77.00,59.00,53.80,80.00,3.89,0.00,29.97,M,6.21,M,M,M,M,M,M,M,M,M,M,M,M,M,M,M,M,M,ZLXY 160300Z 08002MPS 010V140 CAVOK 25/15 Q1015 NOSIG
ZMUB,2020-09-16 03:00,106.7666,47.8431,46.40,32.00,57.00,320.00,5.83,0.00,30.09,M,6.21,M,SCT,M,M,M,3300.00,M,M,M,M,M,M,M,M,M,M,42.97,ZMUB 160300Z 32003MPS 9999 SCT033 08/M00 Q1019 NOSIG RMK QFE656.5 51 MOP
ZSAM,2020-09-16 03:00,118.0833,24.4833,91.40,77.00,62.90,M,3.89,0.00,29.83,M,6.21,M,SCT,M,M,M,2300.00,M,M,M,M,M,M,M,M,M,M,105.06,ZSAM 160300Z VRB02MPS 9999 SCT023 33/25 Q1010 NOSIG
ZPPP,2020-09-16 03:00,102.6833,25.0167,69.80,66.20,88.34,220.00,11.66,0.00,30.12,M,6.21,M,FEW,SCT,BKN,M,2000.00,2000.00,4000.00,M,M,M,M,M,M,M,M,M,ZPPP 160300Z 22006MPS 9999 FEW020TCU SCT020 BKN040 21/19 Q1020 NOSIG
ZSFZ,2020-09-16 03:00,119.2833,26.0833,87.80,77.00,70.45,120.00,5.83,0.00,29.83,M,4.35,M,NSC,M,M,M,M,M,M,M,M,M,M,M,M,M,M,99.92,ZSFZ 160300Z 12003MPS 080V150 7000 NSC 31/25 Q1010 NOSIG
ZSHC,2020-09-16 03:00,120.1667,30.2333,75.20,73.40,94.14,M,1.94,0.00,29.85,M,4.35,M,SCT,BKN,M,M,900.00,3000.00,M,M,-RA,M,M,M,M,M,M,M,ZSHC 160300Z VRB01MPS 7000 -RA SCT009 BKN030 24/23 Q1011 NOSIG
ZSNB,2020-09-16 03:00,121.4619,29.8267,78.80,75.20,88.75,360.00,7.78,0.00,29.83,M,2.17,M,FEW,BKN,M,M,700.00,1600.00,M,M,BR,M,M,M,M,M,M,M,ZSNB 160300Z 36004MPS 320V040 3500 BR FEW007 BKN016 26/24 Q1010 NOSIG
ZSOF,2020-09-16 03:00,117.2984,31.7800,78.80,69.80,73.95,320.00,3.89,0.00,29.83,M,6.21,M,BKN,M,M,M,1600.00,M,M,M,M,M,M,M,M,M,M,M,ZSOF 160300Z 32002MPS 270V360 9999 BKN016 26/21 Q1010 NOSIG
ZSQD,2020-09-16 03:00,120.3333,36.0667,82.40,66.20,58.08,310.00,5.83,0.00,29.77,M,4.97,M,NSC,M,M,M,M,M,M,M,M,M,M,M,M,M,M,84.63,ZSQD 160300Z 31003MPS 240V340 8000 NSC 28/19 Q1008 NOSIG
ZSSS,2020-09-16 03:00,121.3363,31.1979,78.80,71.60,78.62,350.00,5.83,0.00,29.83,M,4.35,M,FEW,M,M,M,1600.00,M,M,M,M,M,M,M,M,M,M,M,ZSSS 160300Z 35003MPS 320V030 7000 FEW016 26/22 Q1010 NOSIG
ZUCK,2020-09-16 03:00,106.4800,29.5200,71.60,69.80,94.06,M,1.94,0.00,29.85,M,2.61,M,FEW,SCT,OVC,M,500.00,1300.00,3300.00,M,BR BCFG,M,M,M,M,M,M,M,ZUCK 160300Z VRB01MPS 4200 BR BCFG FEW005 SCT013 OVC033 22/21 Q1011 NOSIG
ZSNJ,2020-09-16 03:00,118.8667,31.7333,80.60,69.80,69.71,280.00,3.89,0.00,29.85,M,6.21,M,BKN,M,M,M,2100.00,M,M,M,M,M,M,M,M,M,M,83.90,ZSNJ 160300Z 28002MPS 240V330 9999 BKN021 27/21 Q1011 NOSIG
ZSPD,2020-09-16 03:00,121.7667,31.1167,78.80,73.40,83.55,350.00,5.83,0.00,29.83,M,3.11,M,BKN,M,M,M,1300.00,M,M,M,BR,M,M,M,M,M,M,M,ZSPD 160300Z 35003MPS 5000 BR BKN013 26/23 Q1010 BECMG TL0330 BKN015
ZUUU,2020-09-16 03:00,104.0167,30.6667,71.60,69.80,94.06,10.00,5.83,0.00,29.91,M,4.97,M,FEW,SCT,M,M,1000.00,2600.00,M,M,-SHRA,M,M,M,M,M,M,M,ZUUU 160300Z 01003MPS 340V060 8000 -SHRA FEW010 SCT026 22/21 Q1013 NOSIG
ZWWW,2020-09-16 03:00,87.4742,43.9071,73.40,39.20,28.96,170.00,5.83,0.00,30.03,M,6.21,M,M,M,M,M,M,M,M,M,M,M,M,M,M,M,M,M,ZWWW 160300Z 17003MPS 140V200 CAVOK 23/04 Q1017 NOSIG
ZYCC,2020-09-16 03:00,125.2167,43.9000,69.80,59.00,68.55,220.00,15.55,0.00,29.56,M,6.21,M,BKN,M,M,M,2600.00,M,M,M,M,M,M,M,M,M,M,M,ZYCC 160300Z 22008MPS 9999 BKN026 21/15 Q1001 NOSIG
ZYHB,2020-09-16 03:00,126.5800,46.0200,62.60,60.80,93.83,140.00,9.72,0.00,29.56,M,6.21,19.44,SCT,BKN,M,M,1000.00,2000.00,M,M,M,M,M,M,M,M,M,M,ZYHB 160300Z 14005G10MPS 9999 SCT010 BKN020 17/16 Q1001 NOSIG
ZWSH,2020-09-16 03:00,75.9833,39.4667,66.20,44.60,45.60,40.00,7.78,0.00,30.09,M,6.21,M,M,M,M,M,M,M,M,M,M,M,M,M,M,M,M,M,ZWSH 160300Z 04004MPS CAVOK 19/07 Q1019 NOSIG
ZBAD,2020-09-16 03:00,116.4106,39.5092,73.40,37.40,26.98,260.00,7.78,0.00,29.80,M,6.21,17.49,M,M,M,M,M,M,M,M,M,M,M,M,M,M,M,M,ZBAD 160300Z 26004G09MPS 210V290 CAVOK 23/03 Q1009 NOSIG
ZBYN,2020-09-16 03:30,112.5500,37.7833,69.80,30.20,22.86,310.00,5.83,0.00,29.97,M,6.21,M,M,M,M,M,M,M,M,M,M,M,M,M,M,M,M,M,ZBYN 160330Z 31003MPS 260V350 CAVOK 21/M01 Q1015 NOSIG
ZGGG,2020-09-16 03:30,113.3008,23.3964,87.80,75.20,66.35,100.00,5.83,0.00,29.80,M,6.21,M,FEW,SCT,M,M,2300.00,4600.00,M,M,M,M,M,M,M,M,M,97.76,ZGGG 160330Z 10003MPS 030V150 9999 FEW023 SCT046 31/24 Q1009 NOSIG
ZBAA,2020-09-16 03:30,116.5870,40.0741,75.20,33.80,22.02,280.00,19.44,0.00,29.80,M,6.21,M,M,M,M,M,M,M,M,M,M,M,M,M,M,M,M,M,ZBAA 160330Z 28010MPS 250V310 CAVOK 24/01 Q1009 NOSIG
ZBTJ,2020-09-16 03:30,117.3462,39.1243,75.20,33.80,22.02,320.00,11.66,0.00,29.80,M,6.21,M,M,M,M,M,M,M,M,M,M,M,M,M,M,M,M,M,ZBTJ 160330Z 32006MPS CAVOK 24/01 Q1009 NOSIG
ZYTL,2020-09-16 03:30,121.6333,38.9000,77.00,60.80,57.36,280.00,13.61,0.00,29.71,M,6.21,M,SCT,M,M,M,4000.00,M,M,M,M,M,M,M,M,M,M,M,ZYTL 160330Z 28007MPS 9999 SCT040 25/16 Q1006 NOSIG
ZYTX,2020-09-16 03:30,123.4000,41.8000,71.60,59.00,64.48,220.00,11.66,0.00,29.59,M,6.21,M,FEW,BKN,M,M,3300.00,3300.00,M,M,M,M,M,M,M,M,M,M,ZYTX 160330Z 22006MPS 9999 FEW033TCU BKN033 22/15 Q1002 NOSIG
ZMUB,2020-09-16 03:30,106.7666,47.8431,48.20,32.00,53.27,310.00,9.72,0.00,30.09,M,6.21,M,SCT,M,M,M,3300.00,M,M,M,M,M,M,M,M,M,M,43.38,ZMUB 160330Z 31005MPS 280V350 9999 SCT033 09/M00 Q1019 NOSIG RMK QFE656.4 54 MOP
ZSHC,2020-09-16 03:30,120.1667,30.2333,77.00,73.40,88.67,M,1.94,0.00,29.85,M,4.35,M,SCT,BKN,M,M,900.00,3000.00,M,M,-RA,M,M,M,M,M,M,M,ZSHC 160330Z VRB01MPS 7000 -RA SCT009 BKN030 25/23 Q1011 NOSIG
ZSSS,2020-09-16 03:30,121.3363,31.1979,80.60,69.80,69.71,310.00,5.83,0.00,29.83,M,4.97,M,SCT,M,M,M,2000.00,M,M,M,M,M,M,M,M,M,M,83.90,ZSSS 160330Z 31003MPS 260V350 8000 SCT020 27/21 Q1010 NOSIG
ZSPD,2020-09-16 03:30,121.7667,31.1167,80.60,73.40,78.76,340.00,3.89,0.00,29.83,M,3.11,M,BKN,M,M,M,1600.00,M,M,M,BR,M,M,M,M,M,M,85.32,ZSPD 160330Z 34002MPS 280V030 5000 BR BKN016 27/23 Q1010 NOSIG
ZWWW,2020-09-16 03:30,87.4742,43.9071,75.20,37.40,25.40,190.00,3.89,0.00,30.00,M,6.21,M,M,M,M,M,M,M,M,M,M,M,M,M,M,M,M,M,ZWWW 160330Z 19002MPS 160V230 CAVOK 24/03 Q1016 NOSIG
ZBAD,2020-09-16 03:30,116.4106,39.5092,75.20,42.80,31.34,210.00,7.78,0.00,29.80,M,6.21,M,M,M,M,M,M,M,M,M,M,M,M,M,M,M,M,M,ZBAD 160330Z 21004MPS 180V240 CAVOK 24/06 Q1009 NOSIG
ZGHA,2020-09-16 04:00,112.8667,28.2333,75.20,73.40,94.14,360.00,3.89,0.00,29.83,M,6.21,M,BKN,OVC,M,M,1000.00,5000.00,M,M,M,M,M,M,M,M,M,M,ZGHA 160400Z 36002MPS 330V030 9999 BKN010 OVC050 24/23 Q1010 BECMG TL0500 BKN015 OVC050
ZBYN,2020-09-16 04:00,112.5500,37.7833,69.80,33.80,26.43,M,3.89,0.00,29.97,M,6.21,M,M,M,M,M,M,M,M,M,M,M,M,M,M,M,M,M,ZBYN 160400Z VRB02MPS CAVOK 21/01 Q1015 BECMG TL0530 33005MPS
ZGGG,2020-09-16 04:00,113.3008,23.3964,87.80,75.20,66.35,80.00,5.83,0.00,29.77,M,6.21,M,BKN,M,M,M,2600.00,M,M,M,M,M,M,M,M,M,M,97.76,ZGGG 160400Z 08003MPS 040V110 9999 BKN026 31/24 Q1008 NOSIG
ZGKL,2020-09-16 04:00,110.3000,25.3333,89.60,77.00,66.55,180.00,5.83,0.00,29.80,M,6.21,M,SCT,BKN,M,M,3000.00,6600.00,M,M,M,M,M,M,M,M,M,102.54,ZGKL 160400Z 18003MPS 140V230 9999 SCT030 BKN066 32/25 Q1009 NOSIG
ZGOW,2020-09-16 04:00,116.6833,23.4000,89.60,77.00,66.55,90.00,3.89,0.00,29.80,M,6.21,M,SCT,M,M,M,3000.00,M,M,M,M,M,M,M,M,M,M,102.54,ZGOW 160400Z 09002MPS 040V150 9999 SCT030 32/25 Q1009 NOSIG
ZHHH,2020-09-16 04:00,114.1300,30.6200,77.00,69.80,78.48,M,1.94,0.00,29.83,M,6.21,M,SCT,M,M,M,2000.00,M,M,M,M,M,M,M,M,M,M,M,ZHHH 160400Z VRB01MPS 9999 SCT020 25/21 Q1010 NOSIG
ZJHK,2020-09-16 04:00,110.4590,19.9349,89.60,77.00,66.55,100.00,1.94,0.00,29.77,M,6.21,M,FEW,BKN,M,M,2600.00,2600.00,M,M,M,M,M,M,M,M,M,102.54,ZJHK 160400Z 10001MPS 9999 FEW026TCU BKN026 32/25 Q1008 NOSIG
ZJSY,2020-09-16 04:00,109.4123,18.3029,89.60,78.80,70.63,230.00,5.83,0.00,29.77,M,6.21,M,FEW,FEW,M,M,2000.00,2500.00,M,M,M,M,M,M,M,M,M,105.15,ZJSY 160400Z 23003MPS 180V270 9999 FEW020 FEW025CB 32/26 Q1008 BECMG AT0450 SCT020
ZUGY,2020-09-16 04:00,106.7333,26.5833,66.20,64.40,93.92,350.00,5.83,0.00,29.94,M,4.35,M,FEW,BKN,OVC,M,600.00,1500.00,3300.00,M,-RA,M,M,M,M,M,M,M,ZUGY 160400Z 35003MPS 320V020 7000 -RA FEW006 BKN015 OVC033 19/18 Q1014 NOSIG
ZGSZ,2020-09-16 04:00,114.1000,22.5500,87.80,80.60,79.31,190.00,7.78,0.00,29.77,M,6.21,M,SCT,FEW,M,M,2400.00,3000.00,M,M,M,M,M,M,M,M,M,105.14,ZGSZ 160400Z 19004MPS 9999 SCT024 FEW030TCU 31/27 Q1008 BECMG AT0450 SHRA
ZHCC,2020-09-16 04:00,113.6500,34.7167,89.60,42.80,19.64,310.00,5.83,0.00,29.83,M,6.21,M,FEW,M,M,M,2000.00,M,M,M,M,M,M,M,M,M,M,85.93,ZHCC 160400Z 31003MPS 270V360 9999 FEW020 32/06 Q1010 NOSIG
ZGNN,2020-09-16 04:00,108.2167,22.6333,89.60,75.20,62.68,150.00,5.83,0.00,29.77,M,6.21,M,SCT,M,M,M,2600.00,M,M,M,M,M,M,M,M,M,M,100.23,ZGNN 160400Z 15003MPS 100V200 9999 SCT026 32/24 Q1008 NOSIG
ZBAA,2020-09-16 04:00,116.5870,40.0741,75.20,33.80,22.02,280.00,19.44,0.00,29.77,M,6.21,29.16,M,M,M,M,M,M,M,M,M,M,M,M,M,M,M,M,ZBAA 160400Z 28010G15MPS CAVOK 24/01 Q1008 NOSIG
ZBHH,2020-09-16 04:00,111.6833,40.8167,59.00,28.40,30.98,320.00,15.55,0.00,30.03,M,6.21,M,FEW,M,M,M,4000.00,M,M,M,M,M,M,M,M,M,M,M,ZBHH 160400Z 32008MPS 9999 FEW040 15/M02 Q1017 NOSIG
ZBSJ,2020-09-16 04:00,114.6973,38.2807,78.80,42.80,27.81,300.00,7.78,0.00,29.83,M,6.21,M,M,M,M,M,M,M,M,M,M,M,M,M,M,M,M,M,ZBSJ 160400Z 30004MPS 260V330 CAVOK 26/06 Q1010 NOSIG
ZBTJ,2020-09-16 04:00,117.3462,39.1243,75.20,35.60,23.66,290.00,9.72,0.00,29.80,M,6.21,M,M,M,M,M,M,M,M,M,M,M,M,M,M,M,M,M,ZBTJ 160400Z 29005MPS 230V340 CAVOK 24/02 Q1009 NOSIG
ZYTL,2020-09-16 04:00,121.6333,38.9000,75.20,60.80,60.90,280.00,15.55,0.00,29.71,M,6.21,M,SCT,M,M,M,4000.00,M,M,M,M,M,M,M,M,M,M,M,ZYTL 160400Z 28008MPS 9999 SCT040 24/16 Q1006 NOSIG
ZYTX,2020-09-16 04:00,123.4000,41.8000,75.20,55.40,50.17,230.00,15.55,0.00,29.59,M,6.21,25.27,FEW,SCT,M,M,3300.00,3300.00,M,M,M,M,M,M,M,M,M,M,ZYTX 160400Z 23008G13MPS 210V270 9999 FEW033TCU SCT033 24/13 Q1002 NOSIG
ZLLL,2020-09-16 04:00,103.7500,36.0200,60.80,41.00,48.00,110.00,5.83,0.00,30.18,M,6.21,M,M,M,M,M,M,M,M,M,M,M,M,M,M,M,M,M,ZLLL 160400Z 11003MPS 080V140 CAVOK 16/05 Q1022 NOSIG
ZLXY,2020-09-16 04:00,108.7516,34.4471,75.20,59.00,57.12,30.00,5.83,0.00,29.97,M,6.21,M,M,M,M,M,M,M,M,M,M,M,M,M,M,M,M,M,ZLXY 160400Z 03003MPS 350V060 CAVOK 24/15 Q1015 NOSIG
ZMUB,2020-09-16 04:00,106.7666,47.8431,50.00,33.80,53.54,300.00,9.72,0.00,30.06,M,6.21,M,FEW,M,M,M,3300.00,M,M,M,M,M,M,M,M,M,M,M,ZMUB 160400Z 30005MPS 270V010 9999 FEW033 10/01 Q1018 NOSIG RMK QFE656.4 51 MOP
ZSAM,2020-09-16 04:00,118.0833,24.4833,91.40,77.00,62.90,190.00,3.89,0.00,29.80,M,6.21,M,SCT,M,M,M,3000.00,M,M,M,M,M,M,M,M,M,M,105.06,ZSAM 160400Z 19002MPS 080V250 9999 SCT030 33/25 Q1009 NOSIG
ZPPP,2020-09-16 04:00,102.6833,25.0167,69.80,64.40,82.98,230.00,9.72,0.00,30.12,M,6.21,M,FEW,SCT,BKN,M,2300.00,2300.00,4000.00,M,M,M,M,M,M,M,M,M,ZPPP 160400Z 23005MPS 9999 FEW023TCU SCT023 BKN040 21/18 Q1020 NOSIG
ZSFZ,2020-09-16 04:00,119.2833,26.0833,87.80,77.00,70.45,130.00,7.78,0.00,29.80,M,5.59,M,NSC,M,M,M,M,M,M,M,M,M,M,M,M,M,M,99.92,ZSFZ 160400Z 13004MPS 9000 NSC 31/25 Q1009 NOSIG
ZSHC,2020-09-16 04:00,120.1667,30.2333,75.20,71.60,88.59,M,1.94,0.00,29.85,M,4.35,M,SCT,BKN,M,M,900.00,3000.00,M,M,-RA,M,M,M,M,M,M,M,ZSHC 160400Z VRB01MPS 7000 -RA SCT009 BKN030 24/22 Q1011 NOSIG
ZSNB,2020-09-16 04:00,121.4619,29.8267,77.00,75.20,94.19,360.00,7.78,0.00,29.83,M,2.80,M,SCT,BKN,M,M,700.00,1600.00,M,M,BR,M,M,M,M,M,M,M,ZSNB 160400Z 36004MPS 320V050 4500 BR SCT007 BKN016 25/24 Q1010 NOSIG
ZSOF,2020-09-16 04:00,117.2984,31.7800,80.60,66.20,61.58,M,1.94,0.00,29.83,M,6.21,M,BKN,M,M,M,2300.00,M,M,M,M,M,M,M,M,M,M,82.75,ZSOF 160400Z VRB01MPS 9999 BKN023 27/19 Q1010 NOSIG
ZSQD,2020-09-16 04:00,120.3333,36.0667,84.20,68.00,58.32,340.00,7.78,0.00,29.77,M,4.97,M,FEW,M,M,M,3300.00,M,M,M,M,M,M,M,M,M,M,87.40,ZSQD 160400Z 34004MPS 260V020 8000 FEW033 29/20 Q1008 NOSIG
ZSSS,2020-09-16 04:00,121.3363,31.1979,82.40,71.60,69.90,M,1.94,0.00,29.83,M,4.97,M,SCT,M,M,M,2300.00,M,M,M,M,M,M,M,M,M,M,87.18,ZSSS 160400Z VRB01MPS 8000 SCT023 28/22 Q1010 NOSIG
ZUCK,2020-09-16 04:00,106.4800,29.5200,71.60,71.60,100.00,M,1.94,0.00,29.85,M,2.49,M,FEW,SCT,OVC,M,300.00,700.00,3000.00,M,BR BCFG,M,M,M,M,M,M,M,ZUCK 160400Z VRB01MPS 4000 BR BCFG FEW003 SCT007 OVC030 22/22 Q1011 NOSIG
ZSNJ,2020-09-16 04:00,118.8667,31.7333,82.40,69.80,65.74,M,1.94,0.00,29.83,M,6.21,M,BKN,M,M,M,3000.00,M,M,M,M,M,M,M,M,M,M,86.22,ZSNJ 160400Z VRB01MPS 9999 BKN030 28/21 Q1010 NOSIG
ZSPD,2020-09-16 04:00,121.7667,31.1167,78.80,71.60,78.62,300.00,3.89,0.00,29.83,M,3.11,M,BKN,M,M,M,1600.00,M,M,M,BR,M,M,M,M,M,M,M,ZSPD 160400Z 30002MPS 250V350 5000 BR BKN016 26/22 Q1010 NOSIG
ZUUU,2020-09-16 04:00,104.0167,30.6667,71.60,69.80,94.06,10.00,3.89,0.00,29.88,M,6.21,M,FEW,SCT,M,M,1000.00,2000.00,M,M,-SHRA,M,M,M,M,M,M,M,ZUUU 160400Z 01002MPS 330V050 9999 -SHRA FEW010 SCT020 22/21 Q1012 NOSIG
ZWWW,2020-09-16 04:00,87.4742,43.9071,77.00,33.80,20.74,220.00,3.89,0.00,30.00,M,6.21,M,M,M,M,M,M,M,M,M,M,M,M,M,M,M,M,M,ZWWW 160400Z 22002MPS 180V260 CAVOK 25/01 Q1016 NOSIG
ZYCC,2020-09-16 04:00,125.2167,43.9000,71.60,55.40,56.63,220.00,13.61,0.00,29.56,M,6.21,M,SCT,M,M,M,2600.00,M,M,M,M,M,M,M,M,M,M,M,ZYCC 160400Z 22007MPS 9999 SCT026 22/13 Q1001 NOSIG
ZYHB,2020-09-16 04:00,126.5800,46.0200,66.20,62.60,88.18,160.00,13.61,0.00,29.53,M,6.21,M,SCT,BKN,M,M,1300.00,2000.00,M,M,M,M,M,M,M,M,M,M,ZYHB 160400Z 16007MPS 9999 SCT013 BKN020 19/17 Q1000 NOSIG
ZWSH,2020-09-16 04:00,75.9833,39.4667,66.20,46.40,48.83,M,5.83,0.00,30.09,M,6.21,M,M,M,M,M,M,M,M,M,M,M,M,M,M,M,M,M,ZWSH 160400Z VRB03MPS CAVOK 19/08 Q1019 NOSIG
ZBAD,2020-09-16 04:00,116.4106,39.5092,75.20,39.20,27.26,240.00,3.89,0.00,29.80,M,6.21,M,M,M,M,M,M,M,M,M,M,M,M,M,M,M,M,M,ZBAD 160400Z 24002MPS 190V290 CAVOK 24/04 Q1009 NOSIG
ZBYN,2020-09-16 04:30,112.5500,37.7833,71.60,35.60,26.71,300.00,9.72,0.00,29.97,M,6.21,M,M,M,M,M,M,M,M,M,M,M,M,M,M,M,M,M,ZBYN 160430Z 30005MPS 280V350 CAVOK 22/02 Q1015 NOSIG
ZGGG,2020-09-16 04:30,113.3008,23.3964,89.60,75.20,62.68,140.00,5.83,0.00,29.77,M,6.21,M,BKN,M,M,M,2600.00,M,M,M,M,M,M,M,M,M,M,100.23,ZGGG 160430Z 14003MPS 070V190 9999 BKN026 32/24 Q1008 NOSIG
ZBAA,2020-09-16 04:30,116.5870,40.0741,77.00,33.80,20.74,280.00,21.38,0.00,29.77,M,6.21,31.10,M,M,M,M,M,M,M,M,M,M,M,M,M,M,M,M,ZBAA 160430Z 28011G16MPS CAVOK 25/01 Q1008 NOSIG
ZBTJ,2020-09-16 04:30,117.3462,39.1243,75.20,37.40,25.40,270.00,11.66,0.00,29.80,M,6.21,M,M,M,M,M,M,M,M,M,M,M,M,M,M,M,M,M,ZBTJ 160430Z 27006MPS 220V310 CAVOK 24/03 Q1009 NOSIG
ZYTL,2020-09-16 04:30,121.6333,38.9000,77.00,59.00,53.80,280.00,13.61,0.00,29.71,M,6.21,M,FEW,M,M,M,4000.00,M,M,M,M,M,M,M,M,M,M,M,ZYTL 160430Z 28007MPS 9999 FEW040 25/15 Q1006 NOSIG
ZYTX,2020-09-16 04:30,123.4000,41.8000,73.40,55.40,53.29,240.00,15.55,0.00,29.59,M,6.21,M,FEW,FEW,M,M,3300.00,3300.00,M,M,M,M,M,M,M,M,M,M,ZYTX 160430Z 24008MPS 210V270 9999 FEW033TCU FEW033 23/13 Q1002 NOSIG
ZMUB,2020-09-16 04:30,106.7666,47.8431,50.00,32.00,49.81,320.00,9.72,0.00,30.06,M,6.21,M,FEW,M,M,M,3300.00,M,M,M,M,M,M,M,M,M,M,M,ZMUB 160430Z 32005MPS 290V350 9999 FEW033 10/00 Q1018 NOSIG RMK QFE656.3 50 MOP
ZSHC,2020-09-16 04:30,120.1667,30.2333,77.00,73.40,88.67,M,1.94,0.00,29.83,M,4.35,M,SCT,BKN,M,M,900.00,3000.00,M,M,-RA,M,M,M,M,M,M,M,ZSHC 160430Z VRB01MPS 7000 -RA SCT009 BKN030 25/23 Q1010 NOSIG
ZSSS,2020-09-16 04:30,121.3363,31.1979,80.60,69.80,69.71,350.00,3.89,0.00,29.83,M,4.97,M,BKN,M,M,M,2300.00,M,M,M,M,M,M,M,M,M,M,83.90,ZSSS 160430Z 35002MPS 290V030 8000 BKN023 27/21 Q1010 NOSIG
ZSPD,2020-09-16 04:30,121.7667,31.1167,78.80,73.40,83.55,M,3.89,0.00,29.83,M,3.11,M,BKN,M,M,M,1600.00,M,M,M,BR,M,M,M,M,M,M,M,ZSPD 160430Z VRB02MPS 5000 BR BKN016 26/23 Q1010 NOSIG
ZWWW,2020-09-16 04:30,87.4742,43.9071,77.00,32.00,19.30,M,3.89,0.00,30.00,M,6.21,M,M,M,M,M,M,M,M,M,M,M,M,M,M,M,M,M,ZWWW 160430Z VRB02MPS CAVOK 25/00 Q1016 NOSIG
ZBAD,2020-09-16 04:30,116.4106,39.5092,75.20,39.20,27.26,230.00,7.78,0.00,29.80,M,6.21,M,M,M,M,M,M,M,M,M,M,M,M,M,M,M,M,M,ZBAD 160430Z 23004MPS 200V270 CAVOK 24/04 Q1009 NOSIG
ZGHA,2020-09-16 05:00,112.8667,28.2333,75.20,73.40,94.14,320.00,3.89,0.00,29.83,M,6.21,M,FEW,BKN,OVC,M,700.00,1100.00,5000.00,M,M,M,M,M,M,M,M,M,ZGHA 160500Z 32002MPS 280V360 9999 FEW007 BKN011 OVC050 24/23 Q1010 BECMG TL0600 BKN009 OVC050
ZBYN,2020-09-16 05:00,112.5500,37.7833,73.40,33.80,23.39,310.00,9.72,0.00,29.94,M,6.21,M,M,M,M,M,M,M,M,M,M,M,M,M,M,M,M,M,ZBYN 160500Z 31005MPS 260V350 CAVOK 23/01 Q1014 NOSIG
ZGGG,2020-09-16 05:00,113.3008,23.3964,91.40,75.20,59.24,120.00,5.83,0.00,29.74,M,6.21,M,BKN,M,M,M,2600.00,M,M,M,M,M,M,M,M,M,M,102.65,ZGGG 160500Z 12003MPS 060V220 9999 BKN026 33/24 Q1007 NOSIG
ZGKL,2020-09-16 05:00,110.3000,25.3333,91.40,75.20,59.24,180.00,7.78,0.00,29.77,M,6.21,M,FEW,FEW,SCT,M,3000.00,3000.00,4600.00,M,M,M,M,M,M,M,M,102.65,ZGKL 160500Z 18004MPS 140V210 9999 FEW030 FEW030TCU SCT046 33/24 Q1008 NOSIG
ZGOW,2020-09-16 05:00,116.6833,23.4000,91.40,77.00,62.90,150.00,5.83,0.00,29.80,M,6.21,M,SCT,M,M,M,3000.00,M,M,M,M,M,M,M,M,M,M,105.06,ZGOW 160500Z 15003MPS 100V200 9999 SCT030 33/25 Q1009 NOSIG
ZHHH,2020-09-16 05:00,114.1300,30.6200,77.00,71.60,83.44,60.00,3.89,0.00,29.80,M,6.21,M,SCT,M,M,M,1600.00,M,M,M,-RA,M,M,M,M,M,M,M,ZHHH 160500Z 06002MPS 010V130 9999 -RA SCT016 25/22 Q1009 NOSIG
ZJHK,2020-09-16 05:00,110.4590,19.9349,91.40,78.80,66.75,30.00,5.83,0.00,29.74,M,6.21,M,FEW,SCT,M,M,2600.00,2600.00,M,M,M,M,M,M,M,M,M,107.79,ZJHK 160500Z 03003MPS 340V100 9999 FEW026TCU SCT026 33/26 Q1007 NOSIG
ZJSY,2020-09-16 05:00,109.4123,18.3029,89.60,78.80,70.63,230.00,7.78,0.00,29.74,M,6.21,M,SCT,FEW,M,M,2000.00,2500.00,M,M,M,M,M,M,M,M,M,105.15,ZJSY 160500Z 23004MPS 180V260 9999 SCT020 FEW025TCU 32/26 Q1007 NOSIG
ZUGY,2020-09-16 05:00,106.7333,26.5833,66.20,64.40,93.92,350.00,3.89,0.00,29.91,M,4.97,M,FEW,BKN,OVC,M,700.00,1500.00,3300.00,M,M,M,M,M,M,M,M,M,ZUGY 160500Z 35002MPS 270V040 8000 FEW007 BKN015 OVC033 19/18 Q1013 BECMG TL0630 FEW005 BKN012 OVC030
ZGSZ,2020-09-16 05:00,114.1000,22.5500,89.60,80.60,74.93,210.00,7.78,0.00,29.77,M,6.21,M,SCT,M,M,M,3000.00,M,M,M,M,M,M,M,M,M,M,108.11,ZGSZ 160500Z 21004MPS 9999 SCT030 32/27 Q1008 NOSIG
ZHCC,2020-09-16 05:00,113.6500,34.7167,89.60,48.20,24.11,320.00,3.89,0.00,29.83,M,6.21,M,FEW,M,M,M,3000.00,M,M,M,M,M,M,M,M,M,M,86.44,ZHCC 160500Z 32002MPS 260V040 9999 FEW030 32/09 Q1010 NOSIG
ZGNN,2020-09-16 05:00,108.2167,22.6333,93.20,75.20,56.01,M,3.89,0.00,29.74,M,6.21,M,BKN,M,M,M,3000.00,M,M,M,M,M,M,M,M,M,M,105.02,ZGNN 160500Z VRB02MPS 9999 BKN030 34/24 Q1007 NOSIG
ZBAA,2020-09-16 05:00,116.5870,40.0741,77.00,33.80,20.74,270.00,21.38,0.00,29.77,M,6.21,34.99,M,M,M,M,M,M,M,M,M,M,M,M,M,M,M,M,ZBAA 160500Z 27011G18MPS CAVOK 25/01 Q1008 NOSIG
ZBHH,2020-09-16 05:00,111.6833,40.8167,60.80,26.60,26.98,320.00,13.61,0.00,30.00,M,6.21,M,FEW,M,M,M,4000.00,M,M,M,M,M,M,M,M,M,M,M,ZBHH 160500Z 32007MPS 9999 FEW040 16/M03 Q1016 NOSIG
ZBSJ,2020-09-16 05:00,114.6973,38.2807,78.80,41.00,25.95,270.00,7.78,0.00,29.83,M,6.21,M,M,M,M,M,M,M,M,M,M,M,M,M,M,M,M,M,ZBSJ 160500Z 27004MPS 220V340 CAVOK 26/05 Q1010 NOSIG
ZBTJ,2020-09-16 05:00,117.3462,39.1243,75.20,35.60,23.66,270.00,11.66,0.00,29.80,M,6.21,M,M,M,M,M,M,M,M,M,M,M,M,M,M,M,M,M,ZBTJ 160500Z 27006MPS 240V300 CAVOK 24/02 Q1009 NOSIG
ZYTL,2020-09-16 05:00,121.6333,38.9000,75.20,57.20,53.55,290.00,13.61,0.00,29.71,M,6.21,M,M,M,M,M,M,M,M,M,M,M,M,M,M,M,M,M,ZYTL 160500Z 29007MPS CAVOK 24/14 Q1006 NOSIG
ZYTX,2020-09-16 05:00,123.4000,41.8000,73.40,53.60,49.90,250.00,13.61,0.00,29.59,M,6.21,M,FEW,M,M,M,5000.00,M,M,M,M,M,M,M,M,M,M,M,ZYTX 160500Z 25007MPS 9999 FEW050TCU 23/12 Q1002 NOSIG
ZLLL,2020-09-16 05:00,103.7500,36.0200,60.80,42.80,51.45,80.00,5.83,0.00,30.18,M,6.21,M,FEW,OVC,M,M,2000.00,4600.00,M,M,-RA,M,M,M,M,M,M,M,ZLLL 160500Z 08003MPS 060V120 9999 -RA FEW020 OVC046 16/06 Q1022 NOSIG
ZLXY,2020-09-16 05:00,108.7516,34.4471,73.40,57.20,56.88,50.00,7.78,0.00,29.97,M,6.21,M,M,M,M,M,M,M,M,M,M,M,M,M,M,M,M,M,ZLXY 160500Z 05004MPS CAVOK 23/14 Q1015 NOSIG
ZMUB,2020-09-16 05:00,106.7666,47.8431,50.00,32.00,49.81,310.00,7.78,0.00,30.06,M,6.21,M,FEW,M,M,M,3300.00,M,M,M,M,M,M,M,M,M,M,M,ZMUB 160500Z 31004MPS 250V350 9999 FEW033 10/00 Q1018 NOSIG RMK QFE656.2 49 MOP
ZSAM,2020-09-16 05:00,118.0833,24.4833,95.00,78.80,59.69,M,5.83,0.00,29.80,M,6.21,M,FEW,M,M,M,3000.00,M,M,M,M,M,M,M,M,M,M,112.83,ZSAM 160500Z VRB03MPS 9999 FEW030 35/26 Q1009 NOSIG
ZPPP,2020-09-16 05:00,102.6833,25.0167,71.60,62.60,73.27,230.00,11.66,0.00,30.09,M,6.21,M,FEW,SCT,BKN,M,2300.00,2300.00,4000.00,M,M,M,M,M,M,M,M,M,ZPPP 160500Z 23006MPS 9999 FEW023TCU SCT023 BKN040 22/17 Q1019 NOSIG
ZSFZ,2020-09-16 05:00,119.2833,26.0833,86.00,77.00,74.61,140.00,7.78,0.00,29.80,M,6.21,M,M,M,M,M,M,M,M,M,M,M,M,M,M,M,M,97.15,ZSFZ 160500Z 14004MPS CAVOK 30/25 Q1009 NOSIG
ZSHC,2020-09-16 05:00,120.1667,30.2333,77.00,73.40,88.67,M,1.94,0.00,29.83,M,4.97,M,SCT,BKN,M,M,900.00,3000.00,M,M,-RA,M,M,M,M,M,M,M,ZSHC 160500Z VRB01MPS 8000 -RA SCT009 BKN030 25/23 Q1010 NOSIG
ZSNB,2020-09-16 05:00,121.4619,29.8267,77.00,73.40,88.67,360.00,7.78,0.00,29.83,M,3.73,M,SCT,BKN,M,M,700.00,1600.00,M,M,-RA,M,M,M,M,M,M,M,ZSNB 160500Z 36004MPS 6000 -RA SCT007 BKN016 25/23 Q1010 NOSIG
ZSOF,2020-09-16 05:00,117.2984,31.7800,82.40,66.20,58.08,M,1.94,0.00,29.80,M,6.21,M,SCT,BKN,M,M,2300.00,4000.00,M,M,M,M,M,M,M,M,M,84.63,ZSOF 160500Z VRB01MPS 9999 SCT023 BKN040 28/19 Q1009 NOSIG
ZSQD,2020-09-16 05:00,120.3333,36.0667,86.00,68.00,55.04,330.00,7.78,0.00,29.74,M,4.97,M,SCT,M,M,M,4000.00,M,M,M,M,M,M,M,M,M,M,89.41,ZSQD 160500Z 33004MPS 290V350 8000 SCT040 30/20 Q1007 NOSIG
ZSSS,2020-09-16 05:00,121.3363,31.1979,82.40,71.60,69.90,M,1.94,0.00,29.83,M,4.97,M,BKN,M,M,M,2600.00,M,M,M,M,M,M,M,M,M,M,87.18,ZSSS 160500Z VRB01MPS 8000 BKN026 28/22 Q1010 NOSIG
ZUCK,2020-09-16 05:00,106.4800,29.5200,71.60,69.80,94.06,M,3.89,0.00,29.83,M,1.86,M,SCT,SCT,OVC,M,400.00,900.00,3000.00,M,-RA BCFG BR,M,M,M,M,M,M,M,ZUCK 160500Z VRB02MPS 3000 -RA BCFG BR SCT004 SCT009 OVC030 22/21 Q1010 NOSIG
ZSNJ,2020-09-16 05:00,118.8667,31.7333,82.40,69.80,65.74,200.00,5.83,0.00,29.83,M,6.21,M,BKN,M,M,M,3000.00,M,M,M,M,M,M,M,M,M,M,86.22,ZSNJ 160500Z 20003MPS 160V230 9999 BKN030 28/21 Q1010 NOSIG
ZSPD,2020-09-16 05:00,121.7667,31.1167,78.80,71.60,78.62,90.00,3.89,0.00,29.83,M,3.11,M,BKN,M,M,M,1600.00,M,M,M,BR,M,M,M,M,M,M,M,ZSPD 160500Z 09002MPS 040V150 5000 BR BKN016 26/22 Q1010 NOSIG
ZUUU,2020-09-16 05:00,104.0167,30.6667,71.60,69.80,94.06,20.00,5.83,0.00,29.88,M,6.21,M,FEW,SCT,M,M,1000.00,2000.00,M,M,M,M,M,M,M,M,M,M,ZUUU 160500Z 02003MPS 9999 FEW010 SCT020 22/21 Q1012 NOSIG
ZWWW,2020-09-16 05:00,87.4742,43.9071,82.40,33.80,17.38,M,3.89,0.00,30.00,M,6.21,M,M,M,M,M,M,M,M,M,M,M,M,M,M,M,M,80.03,ZWWW 160500Z VRB02MPS CAVOK 28/01 Q1016 NOSIG
ZYCC,2020-09-16 05:00,125.2167,43.9000,73.40,57.20,56.88,220.00,15.55,0.00,29.56,M,6.21,M,SCT,M,M,M,2600.00,M,M,M,M,M,M,M,M,M,M,M,ZYCC 160500Z 22008MPS 9999 SCT026 23/14 Q1001 NOSIG
ZYHB,2020-09-16 05:00,126.5800,46.0200,69.80,62.60,77.90,180.00,11.66,0.00,29.53,M,6.21,M,SCT,M,M,M,4000.00,M,M,M,M,M,M,M,M,M,M,M,ZYHB 160500Z 18006MPS 140V200 9999 SCT040 21/17 Q1000 NOSIG
ZWSH,2020-09-16 05:00,75.9833,39.4667,69.80,44.60,40.29,M,5.83,0.00,30.09,M,6.21,M,M,M,M,M,M,M,M,M,M,M,M,M,M,M,M,M,ZWSH 160500Z VRB03MPS CAVOK 21/07 Q1019 NOSIG
ZBAD,2020-09-16 05:00,116.4106,39.5092,75.20,41.00,29.23,240.00,9.72,0.00,29.80,M,6.21,M,M,M,M,M,M,M,M,M,M,M,M,M,M,M,M,M,ZBAD 160500Z 24005MPS 210V270 CAVOK 24/05 Q1009 NOSIG
ZBYN,2020-09-16 05:30,112.5500,37.7833,73.40,35.60,25.13,300.00,9.72,0.00,29.94,M,6.21,M,M,M,M,M,M,M,M,M,M,M,M,M,M,M,M,M,ZBYN 160530Z 30005MPS 250V340 CAVOK 23/02 Q1014 NOSIG
ZGGG,2020-09-16 05:30,113.3008,23.3964,91.40,77.00,62.90,120.00,5.83,0.00,29.74,M,6.21,M,BKN,M,M,M,3300.00,M,M,M,M,M,M,M,M,M,M,105.06,ZGGG 160530Z 12003MPS 080V160 9999 BKN033 33/25 Q1007 NOSIG
ZBAA,2020-09-16 05:30,116.5870,40.0741,78.80,33.80,19.55,280.00,19.44,0.00,29.77,M,6.21,29.16,M,M,M,M,M,M,M,M,M,M,M,M,M,M,M,M,ZBAA 160530Z 28010G15MPS 240V310 CAVOK 26/01 Q1008 NOSIG
ZBTJ,2020-09-16 05:30,117.3462,39.1243,77.00,37.40,23.93,280.00,11.66,0.00,29.77,M,6.21,M,M,M,M,M,M,M,M,M,M,M,M,M,M,M,M,M,ZBTJ 160530Z 28006MPS 250V320 CAVOK 25/03 Q1008 NOSIG
ZYTL,2020-09-16 05:30,121.6333,38.9000,77.00,51.80,41.42,280.00,11.66,0.00,29.71,M,6.21,M,M,M,M,M,M,M,M,M,M,M,M,M,M,M,M,M,ZYTL 160530Z 28006MPS CAVOK 25/11 Q1006 NOSIG
ZYTX,2020-09-16 05:30,123.4000,41.8000,73.40,50.00,43.69,250.00,15.55,0.00,29.59,M,6.21,M,M,M,M,M,M,M,M,M,M,M,M,M,M,M,M,M,ZYTX 160530Z 25008MPS CAVOK 23/10 Q1002 NOSIG
ZMUB,2020-09-16 05:30,106.7666,47.8431,50.00,30.20,46.31,320.00,7.78,0.00,30.06,M,6.21,M,FEW,M,M,M,3300.00,M,M,M,M,M,M,M,M,M,M,M,ZMUB 160530Z 32004MPS 270V350 9999 FEW033 10/M01 Q1018 NOSIG RMK QFE656.1 44 MOP
ZSHC,2020-09-16 05:30,120.1667,30.2333,78.80,73.40,83.55,M,1.94,0.00,29.83,M,6.21,M,SCT,BKN,M,M,900.00,3000.00,M,M,M,M,M,M,M,M,M,M,ZSHC 160530Z VRB01MPS 9999 SCT009 BKN030 26/23 Q1010 NOSIG
ZSSS,2020-09-16 05:30,121.3363,31.1979,82.40,71.60,69.90,M,3.89,0.00,29.83,M,4.97,M,BKN,M,M,M,2600.00,M,M,M,M,M,M,M,M,M,M,87.18,ZSSS 160530Z VRB02MPS 8000 BKN026 28/22 Q1010 NOSIG
ZSPD,2020-09-16 05:30,121.7667,31.1167,78.80,71.60,78.62,M,1.94,0.00,29.83,M,3.11,M,BKN,M,M,M,1600.00,M,M,M,BR,M,M,M,M,M,M,M,ZSPD 160530Z VRB01MPS 5000 BR BKN016 26/22 Q1010 NOSIG
ZWWW,2020-09-16 05:30,87.4742,43.9071,82.40,32.00,16.17,50.00,5.83,0.00,30.00,M,6.21,M,M,M,M,M,M,M,M,M,M,M,M,M,M,M,M,80.00,ZWWW 160530Z 05003MPS 350V090 CAVOK 28/M00 Q1016 NOSIG
ZBAD,2020-09-16 05:30,116.4106,39.5092,77.00,39.20,25.67,240.00,7.78,0.00,29.77,M,6.21,M,M,M,M,M,M,M,M,M,M,M,M,M,M,M,M,M,ZBAD 160530Z 24004MPS 200V290 CAVOK 25/04 Q1008 NOSIG
ZGHA,2020-09-16 06:00,112.8667,28.2333,75.20,73.40,94.14,320.00,3.89,0.00,29.80,M,6.21,M,BKN,OVC,M,M,900.00,5000.00,M,M,M,M,M,M,M,M,M,M,ZGHA 160600Z 32002MPS 280V360 9999 BKN009 OVC050 24/23 Q1009 BECMG TL0700 BKN010 OVC050
ZBYN,2020-09-16 06:00,112.5500,37.7833,73.40,33.80,23.39,310.00,11.66,0.00,29.94,M,6.21,M,M,M,M,M,M,M,M,M,M,M,M,M,M,M,M,M,ZBYN 160600Z 31006MPS 260V340 CAVOK 23/01 Q1014 NOSIG
ZGGG,2020-09-16 06:00,113.3008,23.3964,89.60,75.20,62.68,110.00,5.83,0.00,29.74,M,6.21,M,BKN,M,M,M,3300.00,M,M,M,M,M,M,M,M,M,M,100.23,ZGGG 160600Z 11003MPS 080V150 9999 BKN033 32/24 Q1007 NOSIG
ZGKL,2020-09-16 06:00,110.3000,25.3333,91.40,75.20,59.24,150.00,7.78,0.00,29.74,M,6.21,M,FEW,FEW,SCT,M,3000.00,3000.00,4000.00,M,M,M,M,M,M,M,M,102.65,ZGKL 160600Z 15004MPS 9999 FEW030 FEW030TCU SCT040 33/24 Q1007 NOSIG
ZGOW,2020-09-16 06:00,116.6833,23.4000,91.40,77.00,62.90,120.00,7.78,0.00,29.77,M,6.21,M,SCT,M,M,M,3000.00,M,M,M,M,M,M,M,M,M,M,105.06,ZGOW 160600Z 12004MPS 080V150 9999 SCT030 33/25 Q1008 NOSIG
ZHHH,2020-09-16 06:00,114.1300,30.6200,75.20,73.40,94.14,140.00,5.83,0.00,29.80,M,3.73,M,SCT,M,M,M,1600.00,M,M,M,-RA,M,M,M,M,M,M,M,ZHHH 160600Z 14003MPS 100V170 6000 -RA SCT016 24/23 Q1009 NOSIG
ZJHK,2020-09-16 06:00,110.4590,19.9349,91.40,78.80,66.75,50.00,7.78,0.00,29.71,M,6.21,M,FEW,M,M,M,2600.00,M,M,M,M,M,M,M,M,M,M,107.79,ZJHK 160600Z 05004MPS 020V080 9999 FEW026 33/26 Q1006 NOSIG
ZJSY,2020-09-16 06:00,109.4123,18.3029,89.60,78.80,70.63,220.00,7.78,0.00,29.71,M,6.21,M,FEW,FEW,M,M,2000.00,2500.00,M,M,M,M,M,M,M,M,M,105.15,ZJSY 160600Z 22004MPS 180V290 9999 FEW020 FEW025TCU 32/26 Q1006 NOSIG
ZUGY,2020-09-16 06:00,106.7333,26.5833,66.20,64.40,93.92,20.00,3.89,0.00,29.91,M,4.97,M,FEW,BKN,OVC,M,600.00,1500.00,3300.00,M,-RA,M,M,M,M,M,M,M,ZUGY 160600Z 02002MPS 350V050 8000 -RA FEW006 BKN015 OVC033 19/18 Q1013 BECMG TL0700 FEW005 BKN012 OVC030
ZGSZ,2020-09-16 06:00,114.1000,22.5500,91.40,77.00,62.90,110.00,11.66,0.00,29.74,M,6.21,M,FEW,SCT,M,M,2600.00,3300.00,M,M,M,M,M,M,M,M,M,105.06,ZGSZ 160600Z 11006MPS 9999 FEW026 SCT033 33/25 Q1007 NOSIG
ZHCC,2020-09-16 06:00,113.6500,34.7167,87.80,50.00,27.29,320.00,5.83,0.00,29.83,M,6.21,M,M,M,M,M,M,M,M,M,M,M,M,M,M,M,M,85.11,ZHCC 160600Z 32003MPS 270V360 CAVOK 31/10 Q1010 NOSIG
ZGNN,2020-09-16 06:00,108.2167,22.6333,93.20,75.20,56.01,130.00,3.89,0.00,29.71,M,6.21,M,BKN,FEW,M,M,3000.00,3300.00,M,M,M,M,M,M,M,M,M,105.02,ZGNN 160600Z 13002MPS 090V240 9999 BKN030 FEW033TCU 34/24 Q1006 NOSIG
ZBAA,2020-09-16 06:00,116.5870,40.0741,78.80,33.80,19.55,270.00,19.44,0.00,29.77,M,6.21,29.16,M,M,M,M,M,M,M,M,M,M,M,M,M,M,M,M,ZBAA 160600Z 27010G15MPS 250V330 CAVOK 26/01 Q1008 NOSIG
ZBHH,2020-09-16 06:00,111.6833,40.8167,62.60,28.40,27.27,310.00,13.61,0.00,30.00,M,6.21,M,M,M,M,M,M,M,M,M,M,M,M,M,M,M,M,M,ZBHH 160600Z 31007MPS 280V340 CAVOK 17/M02 Q1016 NOSIG
ZBSJ,2020-09-16 06:00,114.6973,38.2807,80.60,41.00,24.46,300.00,5.83,0.00,29.83,M,6.21,M,M,M,M,M,M,M,M,M,M,M,M,M,M,M,M,79.20,ZBSJ 160600Z 30003MPS 210V340 CAVOK 27/05 Q1010 NOSIG
ZBTJ,2020-09-16 06:00,117.3462,39.1243,77.00,35.60,22.28,270.00,11.66,0.00,29.77,M,6.21,M,M,M,M,M,M,M,M,M,M,M,M,M,M,M,M,M,ZBTJ 160600Z 27006MPS 240V300 CAVOK 25/02 Q1008 NOSIG
ZYTL,2020-09-16 06:00,121.6333,38.9000,75.20,55.40,50.17,280.00,11.66,0.00,29.71,M,6.21,M,M,M,M,M,M,M,M,M,M,M,M,M,M,M,M,M,ZYTL 160600Z 28006MPS CAVOK 24/13 Q1006 NOSIG
ZYTX,2020-09-16 06:00,123.4000,41.8000,75.20,48.20,38.46,250.00,15.55,0.00,29.59,M,6.21,M,M,M,M,M,M,M,M,M,M,M,M,M,M,M,M,M,ZYTX 160600Z 25008MPS 210V270 CAVOK 24/09 Q1002 NOSIG
ZLLL,2020-09-16 06:00,103.7500,36.0200,60.80,42.80,51.45,80.00,5.83,0.00,30.15,M,6.21,M,FEW,OVC,M,M,2000.00,4600.00,M,M,M,M,M,M,M,M,M,M,ZLLL 160600Z 08003MPS 9999 FEW020 OVC046 16/06 Q1021 NOSIG
ZLXY,2020-09-16 06:00,108.7516,34.4471,71.60,59.00,64.48,50.00,7.78,0.00,29.97,M,6.21,M,M,M,M,M,M,M,M,M,M,M,M,M,M,M,M,M,ZLXY 160600Z 05004MPS CAVOK 22/15 Q1015 NOSIG
ZMUB,2020-09-16 06:00,106.7666,47.8431,51.80,33.80,50.08,310.00,7.78,0.00,30.06,M,6.21,M,SCT,M,M,M,3300.00,M,M,M,M,M,M,M,M,M,M,M,ZMUB 160600Z 31004MPS 270V010 9999 SCT033 11/01 Q1018 NOSIG RMK QFE656.0 46 MOP
ZSAM,2020-09-16 06:00,118.0833,24.4833,91.40,78.80,66.75,30.00,5.83,0.00,29.77,M,6.21,M,SCT,M,M,M,3000.00,M,M,M,M,M,M,M,M,M,M,107.79,ZSAM 160600Z 03003MPS 320V100 9999 SCT030 33/26 Q1008 NOSIG
ZPPP,2020-09-16 06:00,102.6833,25.0167,69.80,64.40,82.98,270.00,13.61,0.00,30.09,M,6.21,M,SCT,SCT,BKN,M,2300.00,2300.00,4000.00,M,-TSRA,M,M,M,M,M,M,M,ZPPP 160600Z 27007MPS 9999 -TSRA SCT023CB SCT023 BKN040 21/18 Q1019 BECMG TL0640 NSW
ZSFZ,2020-09-16 06:00,119.2833,26.0833,86.00,77.00,74.61,130.00,7.78,0.00,29.77,M,6.21,M,M,M,M,M,M,M,M,M,M,M,M,M,M,M,M,97.15,ZSFZ 160600Z 13004MPS CAVOK 30/25 Q1008 NOSIG
ZSHC,2020-09-16 06:00,120.1667,30.2333,78.80,73.40,83.55,M,1.94,0.00,29.83,M,6.21,M,SCT,BKN,M,M,900.00,3000.00,M,M,M,M,M,M,M,M,M,M,ZSHC 160600Z VRB01MPS 9999 SCT009 BKN030 26/23 Q1010 NOSIG
ZSNB,2020-09-16 06:00,121.4619,29.8267,78.80,75.20,88.75,360.00,3.89,0.00,29.83,M,4.97,M,SCT,BKN,M,M,700.00,1600.00,M,M,-RA,M,M,M,M,M,M,M,ZSNB 160600Z 36002MPS 320V050 8000 -RA SCT007 BKN016 26/24 Q1010 NOSIG
ZSOF,2020-09-16 06:00,117.2984,31.7800,84.20,68.00,58.32,M,3.89,0.00,29.80,M,6.21,M,SCT,M,M,M,2600.00,M,M,M,M,M,M,M,M,M,M,87.40,ZSOF 160600Z VRB02MPS 9999 SCT026 29/20 Q1009 NOSIG
ZSQD,2020-09-16 06:00,120.3333,36.0667,86.00,68.00,55.04,280.00,5.83,0.00,29.74,M,4.97,M,SCT,M,M,M,4000.00,M,M,M,M,M,M,M,M,M,M,89.41,ZSQD 160600Z 28003MPS 240V350 8000 SCT040 30/20 Q1007 NOSIG
ZSSS,2020-09-16 06:00,121.3363,31.1979,82.40,69.80,65.74,260.00,5.83,0.00,29.80,M,6.21,M,BKN,M,M,M,2600.00,M,M,M,M,M,M,M,M,M,M,86.22,ZSSS 160600Z 26003MPS 210V320 9999 BKN026 28/21 Q1009 NOSIG
ZUCK,2020-09-16 06:00,106.4800,29.5200,71.60,69.80,94.06,260.00,3.89,0.00,29.83,M,1.86,M,FEW,SCT,OVC,M,400.00,900.00,3000.00,M,-RA BR,M,M,M,M,M,M,M,ZUCK 160600Z 26002MPS 220V290 3000 -RA BR FEW004 SCT009 OVC030 22/21 Q1010 NOSIG
ZSNJ,2020-09-16 06:00,118.8667,31.7333,82.40,69.80,65.74,190.00,5.83,0.00,29.80,M,6.21,M,BKN,M,M,M,3000.00,M,M,M,M,M,M,M,M,M,M,86.22,ZSNJ 160600Z 19003MPS 130V220 9999 BKN030 28/21 Q1009 NOSIG
ZSPD,2020-09-16 06:00,121.7667,31.1167,78.80,71.60,78.62,80.00,3.89,0.00,29.80,M,3.11,M,BKN,M,M,M,1600.00,M,M,M,BR,M,M,M,M,M,M,M,ZSPD 160600Z 08002MPS 360V130 5000 BR BKN016 26/22 Q1009 NOSIG
ZUUU,2020-09-16 06:00,104.0167,30.6667,73.40,68.00,83.21,20.00,7.78,0.00,29.88,M,6.21,M,FEW,SCT,M,M,1000.00,2000.00,M,M,M,M,M,M,M,M,M,M,ZUUU 160600Z 02004MPS 350V050 9999 FEW010 SCT020 23/20 Q1012 NOSIG
ZWWW,2020-09-16 06:00,87.4742,43.9071,80.60,32.00,17.14,360.00,3.89,0.00,29.97,M,6.21,M,M,M,M,M,M,M,M,M,M,M,M,M,M,M,M,78.82,ZWWW 160600Z 36002MPS 290V070 CAVOK 27/M00 Q1015 NOSIG
ZYCC,2020-09-16 06:00,125.2167,43.9000,73.40,51.80,46.71,220.00,17.49,0.00,29.53,M,6.21,M,SCT,M,M,M,2600.00,M,M,M,M,M,M,M,M,M,M,M,ZYCC 160600Z 22009MPS 9999 SCT026 23/11 Q1000 NOSIG
ZYHB,2020-09-16 06:00,126.5800,46.0200,73.40,60.80,64.69,180.00,11.66,0.00,29.50,M,6.21,M,SCT,M,M,M,4000.00,M,M,M,M,M,M,M,M,M,M,M,ZYHB 160600Z 18006MPS 160V220 9999 SCT040 23/16 Q0999 NOSIG
ZWSH,2020-09-16 06:00,75.9833,39.4667,71.60,46.40,40.57,60.00,9.72,0.00,30.06,M,6.21,M,M,M,M,M,M,M,M,M,M,M,M,M,M,M,M,M,ZWSH 160600Z 06005MPS 030V100 CAVOK 22/08 Q1018 NOSIG
ZBAD,2020-09-16 06:00,116.4106,39.5092,77.00,39.20,25.67,260.00,11.66,0.00,29.77,M,6.21,M,M,M,M,M,M,M,M,M,M,M,M,M,M,M,M,M,ZBAD 160600Z 26006MPS 210V280 CAVOK 25/04 Q1008 NOSIG
ZBYN,2020-09-16 06:30,112.5500,37.7833,73.40,30.20,20.23,290.00,11.66,0.00,29.94,M,6.21,M,M,M,M,M,M,M,M,M,M,M,M,M,M,M,M,M,ZBYN 160630Z 29006MPS 260V330 CAVOK 23/M01 Q1014 NOSIG
ZGGG,2020-09-16 06:30,113.3008,23.3964,91.40,77.00,62.90,170.00,7.78,0.00,29.71,M,6.21,M,FEW,SCT,M,M,3300.00,4000.00,M,M,M,M,M,M,M,M,M,105.06,ZGGG 160630Z 17004MPS 120V210 9999 FEW033TCU SCT040 33/25 Q1006 BECMG AT0720 2500 TSRA SCT011 SCT030CB BKN033
ZBAA,2020-09-16 06:30,116.5870,40.0741,78.80,33.80,19.55,280.00,19.44,0.00,29.77,M,6.21,M,M,M,M,M,M,M,M,M,M,M,M,M,M,M,M,M,ZBAA 160630Z 28010MPS CAVOK 26/01 Q1008 NOSIG
ZBTJ,2020-09-16 06:30,117.3462,39.1243,77.00,32.00,19.30,290.00,11.66,0.00,29.77,M,6.21,M,M,M,M,M,M,M,M,M,M,M,M,M,M,M,M,M,ZBTJ 160630Z 29006MPS 260V320 CAVOK 25/00 Q1008 NOSIG
ZYTL,2020-09-16 06:30,121.6333,38.9000,75.20,51.80,43.97,280.00,13.61,0.00,29.71,M,6.21,M,M,M,M,M,M,M,M,M,M,M,M,M,M,M,M,M,ZYTL 160630Z 28007MPS CAVOK 24/11 Q1006 NOSIG
ZYTX,2020-09-16 06:30,123.4000,41.8000,73.40,48.20,40.85,240.00,15.55,0.00,29.59,M,6.21,M,M,M,M,M,M,M,M,M,M,M,M,M,M,M,M,M,ZYTX 160630Z 24008MPS CAVOK 23/09 Q1002 NOSIG
ZMUB,2020-09-16 06:30,106.7666,47.8431,51.80,32.00,46.59,310.00,7.78,0.00,30.06,M,6.21,M,SCT,M,M,M,3300.00,M,M,M,M,M,M,M,M,M,M,M,ZMUB 160630Z 31004MPS 270V360 9999 SCT033 11/00 Q1018 NOSIG RMK QFE655.9 49 MOP
ZSHC,2020-09-16 06:30,120.1667,30.2333,78.80,71.60,78.62,110.00,3.89,0.00,29.80,M,6.21,M,FEW,BKN,M,M,1100.00,3000.00,M,M,M,M,M,M,M,M,M,M,ZSHC 160630Z 11002MPS 070V130 9999 FEW011 BKN030 26/22 Q1009 NOSIG
ZSSS,2020-09-16 06:30,121.3363,31.1979,82.40,71.60,69.90,M,5.83,0.00,29.80,M,6.21,M,SCT,M,M,M,3300.00,M,M,M,M,M,M,M,M,M,M,87.18,ZSSS 160630Z VRB03MPS 9999 SCT033 28/22 Q1009 NOSIG
ZSPD,2020-09-16 06:30,121.7667,31.1167,78.80,71.60,78.62,80.00,3.89,0.00,29.80,M,3.73,M,BKN,M,M,M,2000.00,M,M,M,M,M,M,M,M,M,M,M,ZSPD 160630Z 08002MPS 020V110 6000 BKN020 26/22 Q1009 NOSIG
ZWWW,2020-09-16 06:30,87.4742,43.9071,80.60,32.00,17.14,M,1.94,0.00,29.97,M,6.21,M,M,M,M,M,M,M,M,M,M,M,M,M,M,M,M,78.82,ZWWW 160630Z VRB01MPS CAVOK 27/M00 Q1015 NOSIG
ZBAD,2020-09-16 06:30,116.4106,39.5092,78.80,42.80,27.81,260.00,9.72,0.00,29.77,M,6.21,M,M,M,M,M,M,M,M,M,M,M,M,M,M,M,M,M,ZBAD 160630Z 26005MPS CAVOK 26/06 Q1008 NOSIG
ZGHA,2020-09-16 07:00,112.8667,28.2333,75.20,73.40,94.14,360.00,5.83,0.00,29.77,M,6.21,M,BKN,OVC,M,M,900.00,5000.00,M,M,M,M,M,M,M,M,M,M,ZGHA 160700Z 36003MPS 9999 BKN009 OVC050 24/23 Q1008 NOSIG
ZBYN,2020-09-16 07:00,112.5500,37.7833,75.20,32.00,20.49,310.00,11.66,0.00,29.91,M,6.21,M,M,M,M,M,M,M,M,M,M,M,M,M,M,M,M,M,ZBYN 160700Z 31006MPS CAVOK 24/00 Q1013 NOSIG
ZGGG,2020-09-16 07:00,113.3008,23.3964,84.20,75.20,74.44,260.00,11.66,0.00,29.71,M,6.21,M,FEW,BKN,M,M,3300.00,4600.00,M,M,M,M,M,M,M,M,M,92.45,ZGGG 160700Z 26006MPS 220V280 9999 FEW033CB BKN046 29/24 Q1006 NOSIG
ZGKL,2020-09-16 07:00,110.3000,25.3333,91.40,75.20,59.24,170.00,5.83,0.00,29.71,M,6.21,M,SCT,FEW,M,M,3000.00,3000.00,M,M,M,M,M,M,M,M,M,102.65,ZGKL 160700Z 17003MPS 130V200 9999 SCT030 FEW030TCU 33/24 Q1006 NOSIG
ZGOW,2020-09-16 07:00,116.6833,23.4000,93.20,75.20,56.01,160.00,9.72,0.00,29.74,M,6.21,M,SCT,M,M,M,3300.00,M,M,M,M,M,M,M,M,M,M,105.02,ZGOW 160700Z 16005MPS 130V200 9999 SCT033 34/24 Q1007 NOSIG
ZHHH,2020-09-16 07:00,114.1300,30.6200,73.40,69.80,88.51,70.00,5.83,0.00,29.80,M,3.73,M,SCT,M,M,M,1000.00,M,M,M,-RA,M,M,M,M,M,M,M,ZHHH 160700Z 07003MPS 050V110 6000 -RA SCT010 23/21 Q1009 NOSIG
ZJHK,2020-09-16 07:00,110.4590,19.9349,91.40,77.00,62.90,40.00,9.72,0.00,29.68,M,6.21,M,FEW,M,M,M,2600.00,M,M,M,M,M,M,M,M,M,M,105.06,ZJHK 160700Z 04005MPS 9999 FEW026 33/25 Q1005 NOSIG
ZJSY,2020-09-16 07:00,109.4123,18.3029,89.60,80.60,74.93,250.00,7.78,0.00,29.68,M,6.21,M,FEW,FEW,M,M,2000.00,2500.00,M,M,M,M,M,M,M,M,M,108.11,ZJSY 160700Z 25004MPS 200V300 9999 FEW020 FEW025TCU 32/27 Q1005 BECMG AT0750 SCT020 FEW025CB
ZUGY,2020-09-16 07:00,106.7333,26.5833,68.00,64.40,88.26,M,1.94,0.00,29.88,M,4.97,M,FEW,BKN,OVC,M,600.00,1300.00,3300.00,M,M,M,M,M,M,M,M,M,ZUGY 160700Z VRB01MPS 8000 FEW006 BKN013 OVC033 20/18 Q1012 NOSIG
ZGSZ,2020-09-16 07:00,114.1000,22.5500,89.60,80.60,74.93,190.00,9.72,0.00,29.74,M,6.21,M,FEW,SCT,M,M,2600.00,3300.00,M,M,M,M,M,M,M,M,M,108.11,ZGSZ 160700Z 19005MPS 9999 FEW026 SCT033 32/27 Q1007 NOSIG
ZHCC,2020-09-16 07:00,113.6500,34.7167,86.00,53.60,33.01,310.00,5.83,0.00,29.83,M,6.21,M,M,M,M,M,M,M,M,M,M,M,M,M,M,M,M,84.18,ZHCC 160700Z 31003MPS CAVOK 30/12 Q1010 NOSIG
ZGNN,2020-09-16 07:00,108.2167,22.6333,95.00,75.20,52.98,M,5.83,0.00,29.68,M,6.21,M,SCT,FEW,M,M,3000.00,3300.00,M,M,M,M,M,M,M,M,M,107.39,ZGNN 160700Z VRB03MPS 9999 SCT030 FEW033TCU 35/24 Q1005 NOSIG
ZBAA,2020-09-16 07:00,116.5870,40.0741,78.80,35.60,21.00,280.00,19.44,0.00,29.74,M,6.21,29.16,M,M,M,M,M,M,M,M,M,M,M,M,M,M,M,M,ZBAA 160700Z 28010G15MPS 250V310 CAVOK 26/02 Q1007 NOSIG
ZBHH,2020-09-16 07:00,111.6833,40.8167,62.60,26.60,25.32,320.00,15.55,0.00,30.00,M,6.21,M,M,M,M,M,M,M,M,M,M,M,M,M,M,M,M,M,ZBHH 160700Z 32008MPS 290V350 CAVOK 17/M03 Q1016 NOSIG
ZBSJ,2020-09-16 07:00,114.6973,38.2807,80.60,42.80,26.22,320.00,5.83,0.00,29.80,M,6.21,M,M,M,M,M,M,M,M,M,M,M,M,M,M,M,M,79.30,ZBSJ 160700Z 32003MPS 270V360 CAVOK 27/06 Q1009 NOSIG
ZBTJ,2020-09-16 07:00,117.3462,39.1243,77.00,32.00,19.30,290.00,9.72,0.00,29.77,M,6.21,M,M,M,M,M,M,M,M,M,M,M,M,M,M,M,M,M,ZBTJ 160700Z 29005MPS 260V320 CAVOK 25/00 Q1008 NOSIG
ZYTL,2020-09-16 07:00,121.6333,38.9000,75.20,50.00,41.14,270.00,15.55,0.00,29.71,M,6.21,M,M,M,M,M,M,M,M,M,M,M,M,M,M,M,M,M,ZYTL 160700Z 27008MPS CAVOK 24/10 Q1006 NOSIG
ZYTX,2020-09-16 07:00,123.4000,41.8000,73.40,50.00,43.69,250.00,15.55,0.00,29.59,M,6.21,M,M,M,M,M,M,M,M,M,M,M,M,M,M,M,M,M,ZYTX 160700Z 25008MPS CAVOK 23/10 Q1002 NOSIG
ZLLL,2020-09-16 07:00,103.7500,36.0200,59.00,35.60,41.42,30.00,11.66,0.00,30.15,M,6.21,M,FEW,BKN,M,M,2000.00,4600.00,M,M,M,M,M,M,M,M,M,M,ZLLL 160700Z 03006MPS 9999 FEW020 BKN046 15/02 Q1021 NOSIG
ZLXY,2020-09-16 07:00,108.7516,34.4471,73.40,60.80,64.69,40.00,5.83,0.00,29.97,M,6.21,M,M,M,M,M,M,M,M,M,M,M,M,M,M,M,M,M,ZLXY 160700Z 04003MPS CAVOK 23/16 Q1015 NOSIG
ZMUB,2020-09-16 07:00,106.7666,47.8431,53.60,33.80,46.88,310.00,5.83,0.00,30.06,M,6.21,M,SCT,M,M,M,3300.00,M,M,M,M,M,M,M,M,M,M,M,ZMUB 160700Z 31003MPS 9999 SCT033 12/01 Q1018 NOSIG RMK QFE655.8 46 MOP
ZSAM,2020-09-16 07:00,118.0833,24.4833,93.20,78.80,63.11,M,9.72,0.00,29.77,M,6.21,M,FEW,M,M,M,3300.00,M,M,M,M,M,M,M,M,M,M,110.34,ZSAM 160700Z VRB05MPS 9999 FEW033 34/26 Q1008 BECMG TL0850 18004MPS
ZPPP,2020-09-16 07:00,102.6833,25.0167,64.40,64.40,100.00,190.00,7.78,0.00,30.06,M,6.21,M,FEW,SCT,BKN,M,2300.00,2300.00,4000.00,M,M,M,M,M,M,M,M,M,ZPPP 160700Z 19004MPS 9999 FEW023TCU SCT023 BKN040 18/18 Q1018 RETSRA NOSIG
ZSFZ,2020-09-16 07:00,119.2833,26.0833,86.00,78.80,79.18,140.00,7.78,0.00,29.77,M,6.21,M,M,M,M,M,M,M,M,M,M,M,M,M,M,M,M,99.38,ZSFZ 160700Z 14004MPS CAVOK 30/26 Q1008 NOSIG
ZSHC,2020-09-16 07:00,120.1667,30.2333,78.80,71.60,78.62,130.00,1.94,0.00,29.80,M,5.59,M,FEW,BKN,M,M,1300.00,3000.00,M,M,-RA,M,M,M,M,M,M,M,ZSHC 160700Z 13001MPS 9000 -RA FEW013 BKN030 26/22 Q1009 NOSIG
ZSNB,2020-09-16 07:00,121.4619,29.8267,78.80,73.40,83.55,360.00,3.89,0.00,29.80,M,5.59,M,SCT,BKN,M,M,700.00,1600.00,M,M,-RA,M,M,M,M,M,M,M,ZSNB 160700Z 36002MPS 340V040 9000 -RA SCT007 BKN016 26/23 Q1009 NOSIG
ZSOF,2020-09-16 07:00,117.2984,31.7800,84.20,66.20,54.80,M,3.89,0.00,29.77,M,6.21,M,SCT,M,M,M,2600.00,M,M,M,M,M,M,M,M,M,M,86.50,ZSOF 160700Z VRB02MPS 9999 SCT026 29/19 Q1008 NOSIG
ZSQD,2020-09-16 07:00,120.3333,36.0667,82.40,68.00,61.81,330.00,11.66,0.00,29.74,M,3.11,M,SCT,M,M,M,3300.00,M,M,M,HZ,M,M,M,M,M,M,85.38,ZSQD 160700Z 33006MPS 5000 HZ SCT033 28/20 Q1007 NOSIG
ZSSS,2020-09-16 07:00,121.3363,31.1979,82.40,71.60,69.90,220.00,5.83,0.00,29.80,M,6.21,M,SCT,M,M,M,2600.00,M,M,M,M,M,M,M,M,M,M,87.18,ZSSS 160700Z 22003MPS 9999 SCT026 28/22 Q1009 NOSIG
ZUCK,2020-09-16 07:00,106.4800,29.5200,71.60,69.80,94.06,M,1.94,0.00,29.83,M,1.86,M,FEW,SCT,OVC,M,400.00,1400.00,3000.00,M,-RA BR,M,M,M,M,M,M,M,ZUCK 160700Z VRB01MPS 3000 -RA BR FEW004 SCT014 OVC030 22/21 Q1010 BECMG TL0740 2800
ZSNJ,2020-09-16 07:00,118.8667,31.7333,82.40,69.80,65.74,260.00,3.89,0.00,29.80,M,6.21,M,OVC,M,M,M,3300.00,M,M,M,M,M,M,M,M,M,M,86.22,ZSNJ 160700Z 26002MPS 220V290 9999 OVC033 28/21 Q1009 NOSIG
ZSPD,2020-09-16 07:00,121.7667,31.1167,78.80,71.60,78.62,80.00,5.83,0.00,29.80,M,3.73,M,BKN,M,M,M,2000.00,M,M,M,M,M,M,M,M,M,M,M,ZSPD 160700Z 08003MPS 020V120 6000 BKN020 26/22 Q1009 NOSIG
ZUUU,2020-09-16 07:00,104.0167,30.6667,71.60,68.00,88.43,30.00,11.66,0.00,29.85,M,6.21,M,FEW,SCT,M,M,1200.00,2000.00,M,M,-SHRA,M,M,M,M,M,M,M,ZUUU 160700Z 03006MPS 9999 -SHRA FEW012 SCT020 22/20 Q1011 NOSIG
ZWWW,2020-09-16 07:00,87.4742,43.9071,84.20,32.00,15.25,50.00,3.89,0.00,29.97,M,6.21,M,M,M,M,M,M,M,M,M,M,M,M,M,M,M,M,81.28,ZWWW 160700Z 05002MPS 330V110 CAVOK 29/M00 Q1015 NOSIG
ZYCC,2020-09-16 07:00,125.2167,43.9000,73.40,50.00,43.69,240.00,11.66,0.00,29.53,M,6.21,M,SCT,M,M,M,2600.00,M,M,M,M,M,M,M,M,M,M,M,ZYCC 160700Z 24006MPS 9999 SCT026 23/10 Q1000 NOSIG
ZYHB,2020-09-16 07:00,126.5800,46.0200,71.60,60.80,68.75,190.00,7.78,0.00,29.50,M,6.21,M,SCT,FEW,M,M,4000.00,4000.00,M,M,M,M,M,M,M,M,M,M,ZYHB 160700Z 19004MPS 140V220 9999 SCT040 FEW040TCU 22/16 Q0999 NOSIG
ZWSH,2020-09-16 07:00,75.9833,39.4667,73.40,44.60,35.66,80.00,9.72,0.00,30.03,M,6.21,M,M,M,M,M,M,M,M,M,M,M,M,M,M,M,M,M,ZWSH 160700Z 08005MPS 040V120 CAVOK 23/07 Q1017 NOSIG
ZBAD,2020-09-16 07:00,116.4106,39.5092,78.80,41.00,25.95,240.00,9.72,0.00,29.77,M,6.21,M,M,M,M,M,M,M,M,M,M,M,M,M,M,M,M,M,ZBAD 160700Z 24005MPS 200V290 CAVOK 26/05 Q1008 NOSIG
ZBYN,2020-09-16 07:30,112.5500,37.7833,73.40,30.20,20.23,310.00,13.61,0.00,29.91,M,6.21,M,M,M,M,M,M,M,M,M,M,M,M,M,M,M,M,M,ZBYN 160730Z 31007MPS 270V340 CAVOK 23/M01 Q1013 NOSIG
ZGGG,2020-09-16 07:30,113.3008,23.3964,84.20,75.20,74.44,270.00,11.66,0.00,29.71,M,6.21,M,FEW,BKN,M,M,3300.00,4600.00,M,M,TS,M,M,M,M,M,M,92.45,ZGGG 160730Z 27006MPS 9999 TS FEW033CB BKN046 29/24 Q1006 BECMG AT0800 NSW
ZBAA,2020-09-16 07:30,116.5870,40.0741,78.80,35.60,21.00,280.00,19.44,0.00,29.74,M,6.21,31.10,M,M,M,M,M,M,M,M,M,M,M,M,M,M,M,M,ZBAA 160730Z 28010G16MPS 250V310 CAVOK 26/02 Q1007 NOSIG
ZBTJ,2020-09-16 07:30,117.3462,39.1243,77.00,33.80,20.74,290.00,9.72,0.00,29.77,M,6.21,M,M,M,M,M,M,M,M,M,M,M,M,M,M,M,M,M,ZBTJ 160730Z 29005MPS 260V320 CAVOK 25/01 Q1008 NOSIG
ZYTL,2020-09-16 07:30,121.6333,38.9000,73.40,51.80,46.71,270.00,15.55,0.00,29.71,M,6.21,M,M,M,M,M,M,M,M,M,M,M,M,M,M,M,M,M,ZYTL 160730Z 27008MPS 240V310 CAVOK 23/11 Q1006 NOSIG
ZYTX,2020-09-16 07:30,123.4000,41.8000,73.40,50.00,43.69,240.00,13.61,0.00,29.59,M,6.21,M,M,M,M,M,M,M,M,M,M,M,M,M,M,M,M,M,ZYTX 160730Z 24007MPS CAVOK 23/10 Q1002 NOSIG
ZMUB,2020-09-16 07:30,106.7666,47.8431,53.60,33.80,46.88,320.00,5.83,0.00,30.06,M,6.21,M,SCT,M,M,M,3300.00,M,M,M,M,M,M,M,M,M,M,M,ZMUB 160730Z 32003MPS 9999 SCT033 12/01 Q1018 NOSIG RMK QFE655.8 51 MOP
ZSHC,2020-09-16 07:30,120.1667,30.2333,78.80,73.40,83.55,M,1.94,0.00,29.80,M,5.59,M,FEW,BKN,M,M,1300.00,3000.00,M,M,-RA,M,M,M,M,M,M,M,ZSHC 160730Z VRB01MPS 9000 -RA FEW013 BKN030 26/23 Q1009 NOSIG
ZSSS,2020-09-16 07:30,121.3363,31.1979,80.60,71.60,74.11,240.00,5.83,0.00,29.80,M,6.21,M,BKN,M,M,M,2600.00,M,M,M,M,M,M,M,M,M,M,84.57,ZSSS 160730Z 24003MPS 150V270 9999 BKN026 27/22 Q1009 NOSIG
ZSPD,2020-09-16 07:30,121.7667,31.1167,78.80,71.60,78.62,110.00,3.89,0.00,29.80,M,3.73,M,BKN,M,M,M,2000.00,M,M,M,M,M,M,M,M,M,M,M,ZSPD 160730Z 11002MPS 040V160 6000 BKN020 26/22 Q1009 NOSIG
ZWWW,2020-09-16 07:30,87.4742,43.9071,82.40,32.00,16.17,10.00,5.83,0.00,29.94,M,6.21,M,M,M,M,M,M,M,M,M,M,M,M,M,M,M,M,80.00,ZWWW 160730Z 01003MPS 340V040 CAVOK 28/M00 Q1014 NOSIG
ZBAD,2020-09-16 07:30,116.4106,39.5092,77.00,42.80,29.51,240.00,9.72,0.00,29.77,M,6.21,M,M,M,M,M,M,M,M,M,M,M,M,M,M,M,M,M,ZBAD 160730Z 24005MPS 210V270 CAVOK 25/06 Q1008 NOSIG
ZGHA,2020-09-16 08:00,112.8667,28.2333,75.20,73.40,94.14,340.00,5.83,0.00,29.77,M,6.21,M,BKN,M,M,M,900.00,M,M,M,M,M,M,M,M,M,M,M,ZGHA 160800Z 34003MPS 9999 BKN009 24/23 Q1008 BECMG TL0900 BKN010 OVC050
ZBYN,2020-09-16 08:00,112.5500,37.7833,73.40,30.20,20.23,300.00,11.66,0.00,29.91,M,6.21,M,M,M,M,M,M,M,M,M,M,M,M,M,M,M,M,M,ZBYN 160800Z 30006MPS 270V330 CAVOK 23/M01 Q1013 NOSIG
ZGGG,2020-09-16 08:00,113.3008,23.3964,82.40,75.20,78.90,M,1.94,0.00,29.71,M,4.35,M,FEW,FEW,BKN,M,1600.00,3300.00,4600.00,M,-TSRA,M,M,M,M,M,M,89.48,ZGGG 160800Z VRB01MPS 7000 -TSRA FEW016 FEW033CB BKN046 28/24 Q1006 RESHRA BECMG AT0830 NSW
ZGKL,2020-09-16 08:00,110.3000,25.3333,91.40,75.20,59.24,140.00,7.78,0.00,29.68,M,6.21,M,SCT,M,M,M,3300.00,M,M,M,M,M,M,M,M,M,M,102.65,ZGKL 160800Z 14004MPS 090V170 9999 SCT033 33/24 Q1005 NOSIG
ZGOW,2020-09-16 08:00,116.6833,23.4000,93.20,77.00,59.47,140.00,7.78,0.00,29.74,M,6.21,M,SCT,M,M,M,4000.00,M,M,M,M,M,M,M,M,M,M,107.52,ZGOW 160800Z 14004MPS 100V180 9999 SCT040 34/25 Q1007 NOSIG
ZHHH,2020-09-16 08:00,114.1300,30.6200,73.40,71.60,94.10,140.00,3.89,0.00,29.80,M,4.35,M,SCT,M,M,M,1000.00,M,M,M,-RA,M,M,M,M,M,M,M,ZHHH 160800Z 14002MPS 080V180 7000 -RA SCT010 23/22 Q1009 NOSIG
ZJHK,2020-09-16 08:00,110.4590,19.9349,91.40,77.00,62.90,40.00,9.72,0.00,29.68,M,6.21,M,FEW,M,M,M,2600.00,M,M,M,M,M,M,M,M,M,M,105.06,ZJHK 160800Z 04005MPS 010V070 9999 FEW026 33/25 Q1005 NOSIG
ZJSY,2020-09-16 08:00,109.4123,18.3029,91.40,80.60,70.81,250.00,5.83,0.00,29.65,M,6.21,M,SCT,FEW,M,M,1900.00,2500.00,M,M,M,M,M,M,M,M,M,110.88,ZJSY 160800Z 25003MPS 210V300 9999 SCT019 FEW025TCU 33/27 Q1004 BECMG AT0850 SCT020 FEW025CB
ZUGY,2020-09-16 08:00,106.7333,26.5833,68.00,64.40,88.26,40.00,3.89,0.00,29.88,M,4.97,M,FEW,BKN,OVC,M,600.00,1300.00,3300.00,M,-RA,M,M,M,M,M,M,M,ZUGY 160800Z 04002MPS 340V100 8000 -RA FEW006 BKN013 OVC033 20/18 Q1012 NOSIG
ZGSZ,2020-09-16 08:00,114.1000,22.5500,87.80,78.80,74.77,160.00,7.78,0.00,29.71,M,6.21,M,FEW,M,M,M,2600.00,M,M,M,M,M,M,M,M,M,M,102.37,ZGSZ 160800Z 16004MPS 130V190 9999 FEW026 31/26 Q1006 NOSIG
ZHCC,2020-09-16 08:00,113.6500,34.7167,84.20,50.00,30.62,290.00,3.89,0.00,29.83,M,6.21,M,M,M,M,M,M,M,M,M,M,M,M,M,M,M,M,82.24,ZHCC 160800Z 29002MPS CAVOK 29/10 Q1010 NOSIG
ZGNN,2020-09-16 08:00,108.2167,22.6333,93.20,75.20,56.01,140.00,7.78,0.00,29.65,M,6.21,M,SCT,FEW,M,M,3000.00,3300.00,M,M,M,M,M,M,M,M,M,105.02,ZGNN 160800Z 14004MPS 100V200 9999 SCT030 FEW033TCU 34/24 Q1004 NOSIG
ZBAA,2020-09-16 08:00,116.5870,40.0741,78.80,37.40,22.54,280.00,15.55,0.00,29.74,M,6.21,M,M,M,M,M,M,M,M,M,M,M,M,M,M,M,M,M,ZBAA 160800Z 28008MPS 260V320 CAVOK 26/03 Q1007 NOSIG
ZBHH,2020-09-16 08:00,111.6833,40.8167,62.60,28.40,27.27,310.00,11.66,0.00,30.00,M,6.21,M,M,M,M,M,M,M,M,M,M,M,M,M,M,M,M,M,ZBHH 160800Z 31006MPS 290V350 CAVOK 17/M02 Q1016 NOSIG
ZBSJ,2020-09-16 08:00,114.6973,38.2807,80.60,42.80,26.22,M,1.94,0.00,29.80,M,6.21,M,M,M,M,M,M,M,M,M,M,M,M,M,M,M,M,79.30,ZBSJ 160800Z VRB01MPS CAVOK 27/06 Q1009 NOSIG
ZBTJ,2020-09-16 08:00,117.3462,39.1243,75.20,33.80,22.02,270.00,11.66,0.00,29.77,M,6.21,M,M,M,M,M,M,M,M,M,M,M,M,M,M,M,M,M,ZBTJ 160800Z 27006MPS 230V320 CAVOK 24/01 Q1008 NOSIG
ZYTL,2020-09-16 08:00,121.6333,38.9000,71.60,50.00,46.43,270.00,19.44,0.00,29.74,M,6.21,M,M,M,M,M,M,M,M,M,M,M,M,M,M,M,M,M,ZYTL 160800Z 27010MPS CAVOK 22/10 Q1007 NOSIG
ZYTX,2020-09-16 08:00,123.4000,41.8000,71.60,48.20,43.42,240.00,13.61,0.00,29.59,M,6.21,23.33,M,M,M,M,M,M,M,M,M,M,M,M,M,M,M,M,ZYTX 160800Z 24007G12MPS CAVOK 22/09 Q1002 NOSIG
ZLLL,2020-09-16 08:00,103.7500,36.0200,60.80,37.40,41.71,50.00,9.72,0.00,30.15,M,6.21,M,FEW,BKN,M,M,2000.00,4600.00,M,M,M,M,M,M,M,M,M,M,ZLLL 160800Z 05005MPS 020V080 9999 FEW020 BKN046 16/03 Q1021 NOSIG
ZLXY,2020-09-16 08:00,108.7516,34.4471,71.60,60.80,68.75,40.00,3.89,0.00,29.97,M,6.21,M,M,M,M,M,M,M,M,M,M,M,M,M,M,M,M,M,ZLXY 160800Z 04002MPS CAVOK 22/16 Q1015 NOSIG
ZMUB,2020-09-16 08:00,106.7666,47.8431,53.60,33.80,46.88,320.00,5.83,0.00,30.03,M,6.21,M,SCT,M,M,M,3300.00,M,M,M,M,M,M,M,M,M,M,M,ZMUB 160800Z 32003MPS 9999 SCT033 12/01 Q1017 NOSIG RMK QFE655.7 52 MOP
ZSAM,2020-09-16 08:00,118.0833,24.4833,93.20,78.80,63.11,180.00,5.83,0.00,29.74,M,6.21,M,FEW,M,M,M,3300.00,M,M,M,M,M,M,M,M,M,M,110.34,ZSAM 160800Z 18003MPS 150V220 9999 FEW033 34/26 Q1007 NOSIG
ZPPP,2020-09-16 08:00,102.6833,25.0167,66.20,66.20,100.00,200.00,5.83,0.00,30.03,M,6.21,M,FEW,SCT,M,M,2300.00,2300.00,M,M,M,M,M,M,M,M,M,M,ZPPP 160800Z 20003MPS 9999 FEW023TCU SCT023 19/19 Q1017 NOSIG
ZSFZ,2020-09-16 08:00,119.2833,26.0833,86.00,77.00,74.61,140.00,7.78,0.00,29.77,M,6.21,M,M,M,M,M,M,M,M,M,M,M,M,M,M,M,M,97.15,ZSFZ 160800Z 14004MPS 100V160 CAVOK 30/25 Q1008 NOSIG
ZSHC,2020-09-16 08:00,120.1667,30.2333,77.00,73.40,88.67,M,1.94,0.00,29.80,M,4.97,M,FEW,BKN,M,M,1300.00,3000.00,M,M,M,M,M,M,M,M,M,M,ZSHC 160800Z VRB01MPS 8000 FEW013 BKN030 25/23 Q1009 NOSIG
ZSNB,2020-09-16 08:00,121.4619,29.8267,78.80,73.40,83.55,10.00,3.89,0.00,29.80,M,4.35,M,FEW,BKN,M,M,900.00,1600.00,M,M,M,M,M,M,M,M,M,M,ZSNB 160800Z 01002MPS 330V070 7000 FEW009 BKN016 26/23 Q1009 NOSIG
ZSOF,2020-09-16 08:00,117.2984,31.7800,84.20,66.20,54.80,M,1.94,0.00,29.77,M,6.21,M,FEW,M,M,M,3300.00,M,M,M,M,M,M,M,M,M,M,86.50,ZSOF 160800Z VRB01MPS 9999 FEW033 29/19 Q1008 NOSIG
ZSQD,2020-09-16 08:00,120.3333,36.0667,80.60,66.20,61.58,340.00,9.72,0.00,29.77,M,4.35,M,FEW,M,M,M,3300.00,M,M,M,M,M,M,M,M,M,M,82.75,ZSQD 160800Z 34005MPS 280V350 7000 FEW033 27/19 Q1008 NOSIG
ZSSS,2020-09-16 08:00,121.3363,31.1979,80.60,71.60,74.11,250.00,5.83,0.00,29.80,M,6.21,M,BKN,M,M,M,2600.00,M,M,M,M,M,M,M,M,M,M,84.57,ZSSS 160800Z 25003MPS 130V280 9999 BKN026 27/22 Q1009 NOSIG
ZUCK,2020-09-16 08:00,106.4800,29.5200,71.60,69.80,94.06,M,1.94,0.00,29.80,M,2.49,M,FEW,SCT,OVC,M,500.00,1100.00,3000.00,M,RA BR,M,M,M,M,M,M,M,ZUCK 160800Z VRB01MPS 4000 RA BR FEW005 SCT011 OVC030 22/21 Q1009 BECMG TL0830 -RA
ZSNJ,2020-09-16 08:00,118.8667,31.7333,82.40,69.80,65.74,270.00,3.89,0.00,29.80,M,6.21,M,FEW,M,M,M,3000.00,M,M,M,M,M,M,M,M,M,M,86.22,ZSNJ 160800Z 27002MPS 9999 FEW030 28/21 Q1009 NOSIG
ZSPD,2020-09-16 08:00,121.7667,31.1167,78.80,71.60,78.62,120.00,5.83,0.00,29.80,M,3.73,M,BKN,M,M,M,2000.00,M,M,M,M,M,M,M,M,M,M,M,ZSPD 160800Z 12003MPS 050V150 6000 BKN020 26/22 Q1009 NOSIG
ZUUU,2020-09-16 08:00,104.0167,30.6667,71.60,68.00,88.43,30.00,9.72,0.00,29.85,M,6.21,M,SCT,SCT,M,M,1200.00,2000.00,M,M,-SHRA,M,M,M,M,M,M,M,ZUUU 160800Z 03005MPS 360V070 9999 -SHRA SCT012 SCT020 22/20 Q1011 NOSIG
ZWWW,2020-09-16 08:00,87.4742,43.9071,86.00,32.00,14.40,M,3.89,0.00,29.94,M,6.21,M,M,M,M,M,M,M,M,M,M,M,M,M,M,M,M,82.64,ZWWW 160800Z VRB02MPS CAVOK 30/M00 Q1014 NOSIG
ZYCC,2020-09-16 08:00,125.2167,43.9000,71.60,48.20,43.42,210.00,15.55,0.00,29.53,M,6.21,M,FEW,M,M,M,3000.00,M,M,M,M,M,M,M,M,M,M,M,ZYCC 160800Z 21008MPS 9999 FEW030 22/09 Q1000 NOSIG
ZYHB,2020-09-16 08:00,126.5800,46.0200,68.00,60.80,77.75,180.00,9.72,0.00,29.50,M,6.21,M,SCT,FEW,M,M,4000.00,4000.00,M,M,TS,M,M,M,M,M,M,M,ZYHB 160800Z 18005MPS 140V210 9999 TS SCT040 FEW040CB 20/16 Q0999 RESHRA BECMG TL0830 NSW
ZWSH,2020-09-16 08:00,75.9833,39.4667,75.20,42.80,31.34,100.00,7.78,0.00,30.03,M,6.21,M,M,M,M,M,M,M,M,M,M,M,M,M,M,M,M,M,ZWSH 160800Z 10004MPS 060V140 CAVOK 24/06 Q1017 NOSIG
ZBAD,2020-09-16 08:00,116.4106,39.5092,78.80,41.00,25.95,240.00,9.72,0.00,29.74,M,6.21,M,M,M,M,M,M,M,M,M,M,M,M,M,M,M,M,M,ZBAD 160800Z 24005MPS CAVOK 26/05 Q1007 NOSIG
ZBYN,2020-09-16 08:30,112.5500,37.7833,73.40,33.80,23.39,290.00,9.72,0.00,29.91,M,6.21,M,M,M,M,M,M,M,M,M,M,M,M,M,M,M,M,M,ZBYN 160830Z 29005MPS 250V310 CAVOK 23/01 Q1013 NOSIG
ZGGG,2020-09-16 08:30,113.3008,23.3964,84.20,77.00,79.04,10.00,3.89,0.00,29.71,M,4.35,M,FEW,FEW,BKN,M,1600.00,3300.00,4600.00,M,-TSRA,M,M,M,M,M,M,94.16,ZGGG 160830Z 01002MPS 330V040 7000 -TSRA FEW016 FEW033CB BKN046 29/25 Q1006 BECMG AT0850 NSW
ZBAA,2020-09-16 08:30,116.5870,40.0741,78.80,35.60,21.00,280.00,15.55,0.00,29.74,M,6.21,29.16,M,M,M,M,M,M,M,M,M,M,M,M,M,M,M,M,ZBAA 160830Z 28008G15MPS 260V330 CAVOK 26/02 Q1007 NOSIG
ZBTJ,2020-09-16 08:30,117.3462,39.1243,77.00,33.80,20.74,280.00,9.72,0.00,29.77,M,6.21,M,M,M,M,M,M,M,M,M,M,M,M,M,M,M,M,M,ZBTJ 160830Z 28005MPS 250V310 CAVOK 25/01 Q1008 NOSIG
ZYTL,2020-09-16 08:30,121.6333,38.9000,71.60,48.20,43.42,270.00,19.44,0.00,29.74,M,6.21,M,M,M,M,M,M,M,M,M,M,M,M,M,M,M,M,M,ZYTL 160830Z 27010MPS 240V300 CAVOK 22/09 Q1007 NOSIG
ZYTX,2020-09-16 08:30,123.4000,41.8000,69.80,42.80,37.61,240.00,17.49,0.00,29.59,M,6.21,M,M,M,M,M,M,M,M,M,M,M,M,M,M,M,M,M,ZYTX 160830Z 24009MPS CAVOK 21/06 Q1002 NOSIG
ZMUB,2020-09-16 08:30,106.7666,47.8431,53.60,32.00,43.61,330.00,7.78,0.00,30.06,M,6.21,M,SCT,M,M,M,3300.00,M,M,M,M,M,M,M,M,M,M,M,ZMUB 160830Z 33004MPS 300V360 9999 SCT033 12/00 Q1018 NOSIG RMK QFE655.7 45 MOP
ZSHC,2020-09-16 08:30,120.1667,30.2333,77.00,73.40,88.67,180.00,1.94,0.00,29.80,M,3.73,M,FEW,BKN,M,M,1300.00,3000.00,M,M,-RA,M,M,M,M,M,M,M,ZSHC 160830Z 18001MPS 6000 -RA FEW013 BKN030 25/23 Q1009 NOSIG
ZSSS,2020-09-16 08:30,121.3363,31.1979,80.60,71.60,74.11,M,5.83,0.00,29.80,M,6.21,M,SCT,M,M,M,2600.00,M,M,M,M,M,M,M,M,M,M,84.57,ZSSS 160830Z VRB03MPS 9999 SCT026 27/22 Q1009 NOSIG
ZSPD,2020-09-16 08:30,121.7667,31.1167,77.00,73.40,88.67,120.00,3.89,0.00,29.80,M,3.73,M,BKN,M,M,M,2000.00,M,M,M,M,M,M,M,M,M,M,M,ZSPD 160830Z 12002MPS 070V150 6000 BKN020 25/23 Q1009 NOSIG
ZWWW,2020-09-16 08:30,87.4742,43.9071,82.40,30.20,15.03,30.00,7.78,0.00,29.94,M,6.21,M,M,M,M,M,M,M,M,M,M,M,M,M,M,M,M,79.97,ZWWW 160830Z 03004MPS 360V080 CAVOK 28/M01 Q1014 NOSIG
ZBAD,2020-09-16 08:30,116.4106,39.5092,78.80,42.80,27.81,240.00,7.78,0.00,29.77,M,6.21,M,M,M,M,M,M,M,M,M,M,M,M,M,M,M,M,M,ZBAD 160830Z 24004MPS CAVOK 26/06 Q1008 NOSIG
ZGHA,2020-09-16 09:00,112.8667,28.2333,75.20,73.40,94.14,360.00,5.83,0.00,29.77,M,6.21,M,BKN,M,M,M,800.00,M,M,M,M,M,M,M,M,M,M,M,ZGHA 160900Z 36003MPS 9999 BKN008 24/23 Q1008 NOSIG
ZBYN,2020-09-16 09:00,112.5500,37.7833,71.60,35.60,26.71,320.00,13.61,0.00,29.94,M,6.21,M,M,M,M,M,M,M,M,M,M,M,M,M,M,M,M,M,ZBYN 160900Z 32007MPS CAVOK 22/02 Q1014 NOSIG
ZGGG,2020-09-16 09:00,113.3008,23.3964,80.60,75.20,83.66,50.00,3.89,0.00,29.74,M,2.49,M,FEW,SCT,M,M,1300.00,3000.00,M,M,+TSRA,M,M,M,M,M,M,86.17,ZGGG 160900Z 05002MPS 330V140 4000 R02R/1200D R02L/1900D R01/P2000 +TSRA FEW013 SCT030CB 27/24 Q1007 BECMG AT0940 NSW
ZGKL,2020-09-16 09:00,110.3000,25.3333,89.60,75.20,62.68,140.00,7.78,0.00,29.68,M,6.21,M,FEW,FEW,M,M,2300.00,3300.00,M,M,M,M,M,M,M,M,M,100.23,ZGKL 160900Z 14004MPS 9999 FEW023 FEW033TCU 32/24 Q1005 NOSIG
ZGOW,2020-09-16 09:00,116.6833,23.4000,89.60,75.20,62.68,150.00,9.72,0.00,29.74,M,6.21,M,SCT,M,M,M,3300.00,M,M,M,M,M,M,M,M,M,M,100.23,ZGOW 160900Z 15005MPS 110V180 9999 SCT033 32/24 Q1007 NOSIG
ZHHH,2020-09-16 09:00,114.1300,30.6200,73.40,71.60,94.10,M,1.94,0.00,29.80,M,4.35,M,NSC,M,M,M,M,M,M,M,-RA,M,M,M,M,M,M,M,ZHHH 160900Z VRB01MPS 7000 -RA NSC 23/22 Q1009 NOSIG
ZJHK,2020-09-16 09:00,110.4590,19.9349,89.60,78.80,70.63,40.00,9.72,0.00,29.65,M,6.21,M,M,M,M,M,M,M,M,M,M,M,M,M,M,M,M,105.15,ZJHK 160900Z 04005MPS 010V070 CAVOK 32/26 Q1004 NOSIG
ZJSY,2020-09-16 09:00,109.4123,18.3029,87.80,78.80,74.77,230.00,5.83,0.00,29.65,M,6.21,M,FEW,FEW,SCT,M,1900.00,2600.00,4000.00,M,VCTS,M,M,M,M,M,M,102.37,ZJSY 160900Z 23003MPS 180V260 9999 VCTS FEW019 FEW026CB SCT040 31/26 Q1004 BECMG AT0950 NSW SCT020
ZUGY,2020-09-16 09:00,106.7333,26.5833,68.00,66.20,93.97,40.00,3.89,0.00,29.88,M,4.97,M,FEW,BKN,OVC,M,600.00,1300.00,3300.00,M,M,M,M,M,M,M,M,M,ZUGY 160900Z 04002MPS 8000 FEW006 BKN013 OVC033 20/19 Q1012 BECMG TL1030 FEW006 BKN015 OVC030
ZGSZ,2020-09-16 09:00,114.1000,22.5500,87.80,80.60,79.31,190.00,9.72,0.00,29.71,M,6.21,M,FEW,M,M,M,2600.00,M,M,M,M,M,M,M,M,M,M,105.14,ZGSZ 160900Z 19005MPS 9999 FEW026 31/27 Q1006 NOSIG
ZHCC,2020-09-16 09:00,113.6500,34.7167,82.40,53.60,37.07,260.00,3.89,0.00,29.83,M,6.21,M,M,M,M,M,M,M,M,M,M,M,M,M,M,M,M,81.46,ZHCC 160900Z 26002MPS CAVOK 28/12 Q1010 NOSIG
ZGNN,2020-09-16 09:00,108.2167,22.6333,91.40,75.20,59.24,150.00,7.78,0.00,29.65,M,6.21,M,SCT,FEW,M,M,3000.00,3300.00,M,M,M,M,M,M,M,M,M,102.65,ZGNN 160900Z 15004MPS 9999 SCT030 FEW033TCU 33/24 Q1004 NOSIG
ZBAA,2020-09-16 09:00,116.5870,40.0741,78.80,35.60,21.00,290.00,13.61,0.00,29.74,M,6.21,23.33,M,M,M,M,M,M,M,M,M,M,M,M,M,M,M,M,ZBAA 160900Z 29007G12MPS CAVOK 26/02 Q1007 NOSIG
ZBHH,2020-09-16 09:00,111.6833,40.8167,62.60,26.60,25.32,310.00,15.55,0.00,30.00,M,6.21,M,M,M,M,M,M,M,M,M,M,M,M,M,M,M,M,M,ZBHH 160900Z 31008MPS 270V350 CAVOK 17/M03 Q1016 NOSIG
ZBSJ,2020-09-16 09:00,114.6973,38.2807,78.80,46.40,31.90,360.00,3.89,0.00,29.80,M,6.21,M,M,M,M,M,M,M,M,M,M,M,M,M,M,M,M,M,ZBSJ 160900Z 36002MPS CAVOK 26/08 Q1009 NOSIG
ZBTJ,2020-09-16 09:00,117.3462,39.1243,77.00,35.60,22.28,290.00,7.78,0.00,29.77,M,6.21,M,M,M,M,M,M,M,M,M,M,M,M,M,M,M,M,M,ZBTJ 160900Z 29004MPS CAVOK 25/02 Q1008 NOSIG
ZYTL,2020-09-16 09:00,121.6333,38.9000,71.60,48.20,43.42,280.00,17.49,0.00,29.74,M,6.21,M,M,M,M,M,M,M,M,M,M,M,M,M,M,M,M,M,ZYTL 160900Z 28009MPS CAVOK 22/09 Q1007 NOSIG
ZYTX,2020-09-16 09:00,123.4000,41.8000,68.00,44.60,42.85,240.00,11.66,0.00,29.59,M,6.21,21.38,M,M,M,M,M,M,M,M,M,M,M,M,M,M,M,M,ZYTX 160900Z 24006G11MPS CAVOK 20/07 Q1002 NOSIG
ZLLL,2020-09-16 09:00,103.7500,36.0200,60.80,39.20,44.76,130.00,5.83,0.00,30.15,M,6.21,M,FEW,BKN,M,M,2000.00,4600.00,M,M,M,M,M,M,M,M,M,M,ZLLL 160900Z 13003MPS 100V160 9999 FEW020 BKN046 16/04 Q1021 NOSIG
ZLXY,2020-09-16 09:00,108.7516,34.4471,71.60,57.20,60.44,60.00,3.89,0.00,29.94,M,6.21,M,M,M,M,M,M,M,M,M,M,M,M,M,M,M,M,M,ZLXY 160900Z 06002MPS 020V090 CAVOK 22/14 Q1014 NOSIG
ZMUB,2020-09-16 09:00,106.7666,47.8431,51.80,33.80,50.08,320.00,5.83,0.00,30.06,M,6.21,M,SCT,M,M,M,3300.00,M,M,M,M,M,M,M,M,M,M,M,ZMUB 160900Z 32003MPS 9999 SCT033 11/01 Q1018 NOSIG RMK QFE655.8 52 MOP
ZSAM,2020-09-16 09:00,118.0833,24.4833,91.40,78.80,66.75,160.00,7.78,0.00,29.77,M,6.21,M,FEW,M,M,M,3000.00,M,M,M,M,M,M,M,M,M,M,107.79,ZSAM 160900Z 16004MPS 9999 FEW030 33/26 Q1008 NOSIG
ZPPP,2020-09-16 09:00,102.6833,25.0167,69.80,66.20,88.34,200.00,7.78,0.00,30.03,M,6.21,M,FEW,FEW,M,M,2300.00,2300.00,M,M,M,M,M,M,M,M,M,M,ZPPP 160900Z 20004MPS 9999 FEW023TCU FEW023 21/19 Q1017 NOSIG
ZSFZ,2020-09-16 09:00,119.2833,26.0833,84.20,77.00,79.04,120.00,7.78,0.00,29.77,M,6.21,M,M,M,M,M,M,M,M,M,M,M,M,M,M,M,M,94.16,ZSFZ 160900Z 12004MPS CAVOK 29/25 Q1008 NOSIG
ZSHC,2020-09-16 09:00,120.1667,30.2333,77.00,73.40,88.67,M,1.94,0.00,29.80,M,3.73,M,FEW,BKN,M,M,1300.00,3000.00,M,M,-RA,M,M,M,M,M,M,M,ZSHC 160900Z VRB01MPS 6000 -RA FEW013 BKN030 25/23 Q1009 NOSIG
ZSNB,2020-09-16 09:00,121.4619,29.8267,77.00,73.40,88.67,60.00,3.89,0.00,29.83,M,4.35,M,FEW,BKN,M,M,900.00,1600.00,M,M,-RA,M,M,M,M,M,M,M,ZSNB 160900Z 06002MPS 020V080 7000 -RA FEW009 BKN016 25/23 Q1010 NOSIG
ZSOF,2020-09-16 09:00,117.2984,31.7800,82.40,66.20,58.08,0.00,0.00,0.00,29.77,M,6.21,M,M,M,M,M,M,M,M,M,M,M,M,M,M,M,M,84.63,ZSOF 160900Z 00000MPS CAVOK 28/19 Q1008 NOSIG
ZSQD,2020-09-16 09:00,120.3333,36.0667,77.00,62.60,61.13,340.00,9.72,0.00,29.80,M,6.21,M,FEW,M,M,M,3300.00,M,M,M,M,M,M,M,M,M,M,M,ZSQD 160900Z 34005MPS 9999 FEW033 25/17 Q1009 NOSIG
ZSSS,2020-09-16 09:00,121.3363,31.1979,80.60,71.60,74.11,230.00,5.83,0.00,29.80,M,6.21,M,SCT,M,M,M,2600.00,M,M,M,M,M,M,M,M,M,M,84.57,ZSSS 160900Z 23003MPS 130V250 9999 SCT026 27/22 Q1009 NOSIG
ZUCK,2020-09-16 09:00,106.4800,29.5200,71.60,69.80,94.06,M,3.89,0.00,29.80,M,3.11,13.61,FEW,SCT,OVC,M,300.00,800.00,3000.00,M,-RA BR BCFG,M,M,M,M,M,M,M,ZUCK 160900Z VRB02G07MPS 5000 -RA BR BCFG FEW003 SCT008 OVC030 22/21 Q1009 RERA NOSIG
ZSNJ,2020-09-16 09:00,118.8667,31.7333,80.60,69.80,69.71,250.00,3.89,0.00,29.80,M,6.21,M,M,M,M,M,M,M,M,M,M,M,M,M,M,M,M,83.90,ZSNJ 160900Z 25002MPS CAVOK 27/21 Q1009 NOSIG
ZSPD,2020-09-16 09:00,121.7667,31.1167,77.00,73.40,88.67,130.00,3.89,0.00,29.80,M,3.11,M,BKN,M,M,M,1600.00,M,M,M,BR,M,M,M,M,M,M,M,ZSPD 160900Z 13002MPS 070V150 5000 BR BKN016 25/23 Q1009 NOSIG
ZUUU,2020-09-16 09:00,104.0167,30.6667,73.40,68.00,83.21,30.00,7.78,0.00,29.85,M,6.21,M,FEW,SCT,M,M,1200.00,2000.00,M,M,M,M,M,M,M,M,M,M,ZUUU 160900Z 03004MPS 360V060 9999 FEW012 SCT020 23/20 Q1011 NOSIG
ZWWW,2020-09-16 09:00,87.4742,43.9071,84.20,28.40,13.18,40.00,7.78,0.00,29.91,M,6.21,M,M,M,M,M,M,M,M,M,M,M,M,M,M,M,M,81.25,ZWWW 160900Z 04004MPS 360V080 CAVOK 29/M02 Q1013 NOSIG
ZYCC,2020-09-16 09:00,125.2167,43.9000,68.00,48.20,49.10,260.00,9.72,0.00,29.53,M,6.21,M,FEW,M,M,M,3000.00,M,M,M,M,M,M,M,M,M,M,M,ZYCC 160900Z 26005MPS 9999 FEW030 20/09 Q1000 NOSIG
ZYHB,2020-09-16 09:00,126.5800,46.0200,68.00,53.60,59.97,200.00,7.78,0.00,29.50,M,6.21,M,SCT,M,M,M,4000.00,M,M,M,M,M,M,M,M,M,M,M,ZYHB 160900Z 20004MPS 9999 SCT040 20/12 Q0999 RETS NOSIG
ZWSH,2020-09-16 09:00,75.9833,39.4667,77.00,39.20,25.67,110.00,7.78,0.00,30.00,M,6.21,M,M,M,M,M,M,M,M,M,M,M,M,M,M,M,M,M,ZWSH 160900Z 11004MPS 070V140 CAVOK 25/04 Q1016 NOSIG
ZBAD,2020-09-16 09:00,116.4106,39.5092,77.00,42.80,29.51,230.00,7.78,0.00,29.77,M,6.21,M,M,M,M,M,M,M,M,M,M,M,M,M,M,M,M,M,ZBAD 160900Z 23004MPS CAVOK 25/06 Q1008 NOSIG
ZBYN,2020-09-16 09:30,112.5500,37.7833,69.80,33.80,26.43,300.00,11.66,0.00,29.94,M,6.21,M,M,M,M,M,M,M,M,M,M,M,M,M,M,M,M,M,ZBYN 160930Z 30006MPS CAVOK 21/01 Q1014 NOSIG
ZGGG,2020-09-16 09:30,113.3008,23.3964,80.60,75.20,83.66,320.00,5.83,0.00,29.71,M,6.21,M,BKN,M,M,M,4300.00,M,M,M,M,M,M,M,M,M,M,86.17,ZGGG 160930Z 32003MPS 300V360 9999 BKN043 27/24 Q1006 RETSRA NOSIG
ZBAA,2020-09-16 09:30,116.5870,40.0741,77.00,35.60,22.28,280.00,11.66,0.00,29.77,M,6.21,21.38,M,M,M,M,M,M,M,M,M,M,M,M,M,M,M,M,ZBAA 160930Z 28006G11MPS 250V310 CAVOK 25/02 Q1008 NOSIG
ZBTJ,2020-09-16 09:30,117.3462,39.1243,75.20,33.80,22.02,290.00,7.78,0.00,29.77,M,6.21,M,M,M,M,M,M,M,M,M,M,M,M,M,M,M,M,M,ZBTJ 160930Z 29004MPS 250V310 CAVOK 24/01 Q1008 NOSIG
ZYTL,2020-09-16 09:30,121.6333,38.9000,71.60,48.20,43.42,290.00,11.66,0.00,29.74,M,6.21,M,M,M,M,M,M,M,M,M,M,M,M,M,M,M,M,M,ZYTL 160930Z 29006MPS 250V330 CAVOK 22/09 Q1007 NOSIG
ZYTX,2020-09-16 09:30,123.4000,41.8000,66.20,48.20,52.25,230.00,9.72,0.00,29.59,M,6.21,M,FEW,M,M,M,5000.00,M,M,M,M,M,M,M,M,M,M,M,ZYTX 160930Z 23005MPS 9999 FEW050TCU 19/09 Q1002 NOSIG
ZMUB,2020-09-16 09:30,106.7666,47.8431,53.60,33.80,46.88,330.00,7.78,0.00,30.06,M,6.21,M,SCT,M,M,M,3300.00,M,M,M,M,M,M,M,M,M,M,M,ZMUB 160930Z 33004MPS 280V360 9999 SCT033 12/01 Q1018 NOSIG RMK QFE655.8 50 MOP
ZSHC,2020-09-16 09:30,120.1667,30.2333,77.00,73.40,88.67,150.00,3.89,0.00,29.80,M,3.73,M,FEW,BKN,M,M,1300.00,3000.00,M,M,-RA,M,M,M,M,M,M,M,ZSHC 160930Z 15002MPS 6000 -RA FEW013 BKN030 25/23 Q1009 NOSIG
ZSSS,2020-09-16 09:30,121.3363,31.1979,80.60,71.60,74.11,230.00,5.83,0.00,29.80,M,4.97,M,SCT,M,M,M,2600.00,M,M,M,M,M,M,M,M,M,M,84.57,ZSSS 160930Z 23003MPS 120V250 8000 SCT026 27/22 Q1009 NOSIG
ZSPD,2020-09-16 09:30,121.7667,31.1167,77.00,73.40,88.67,130.00,5.83,0.00,29.80,M,3.11,M,BKN,M,M,M,1600.00,M,M,M,BR,M,M,M,M,M,M,M,ZSPD 160930Z 13003MPS 090V160 5000 BR BKN016 25/23 Q1009 NOSIG
ZWWW,2020-09-16 09:30,87.4742,43.9071,82.40,32.00,16.17,40.00,7.78,0.00,29.91,M,6.21,M,M,M,M,M,M,M,M,M,M,M,M,M,M,M,M,80.00,ZWWW 160930Z 04004MPS 350V080 CAVOK 28/00 Q1013 NOSIG
ZBAD,2020-09-16 09:30,116.4106,39.5092,77.00,44.60,31.62,220.00,3.89,0.00,29.77,M,6.21,M,M,M,M,M,M,M,M,M,M,M,M,M,M,M,M,M,ZBAD 160930Z 22002MPS 180V250 CAVOK 25/07 Q1008 NOSIG
ZGHA,2020-09-16 10:00,112.8667,28.2333,73.40,71.60,94.10,360.00,5.83,0.00,29.77,M,6.21,M,BKN,M,M,M,800.00,M,M,M,M,M,M,M,M,M,M,M,ZGHA 161000Z 36003MPS 9999 BKN008 23/22 Q1008 NOSIG
ZBYN,2020-09-16 10:00,112.5500,37.7833,69.80,35.60,28.39,290.00,7.78,0.00,29.94,M,6.21,M,M,M,M,M,M,M,M,M,M,M,M,M,M,M,M,M,ZBYN 161000Z 29004MPS 260V320 CAVOK 21/02 Q1014 NOSIG
ZGGG,2020-09-16 10:00,113.3008,23.3964,80.60,75.20,83.66,320.00,3.89,0.00,29.71,M,6.21,M,SCT,M,M,M,4300.00,M,M,M,M,M,M,M,M,M,M,86.17,ZGGG 161000Z 32002MPS 260V010 9999 SCT043 27/24 Q1006 NOSIG
ZGKL,2020-09-16 10:00,110.3000,25.3333,87.80,75.20,66.35,130.00,3.89,0.00,29.68,M,6.21,M,FEW,M,M,M,3300.00,M,M,M,M,M,M,M,M,M,M,97.76,ZGKL 161000Z 13002MPS 9999 FEW033 31/24 Q1005 NOSIG
ZGOW,2020-09-16 10:00,116.6833,23.4000,87.80,75.20,66.35,140.00,5.83,0.00,29.77,M,6.21,M,FEW,M,M,M,3300.00,M,M,M,M,M,M,M,M,M,M,97.76,ZGOW 161000Z 14003MPS 110V210 9999 FEW033 31/24 Q1008 NOSIG
ZHHH,2020-09-16 10:00,114.1300,30.6200,71.60,69.80,94.06,210.00,3.89,0.00,29.83,M,3.11,M,FEW,SCT,M,M,700.00,1200.00,M,M,RA BR,M,M,M,M,M,M,M,ZHHH 161000Z 21002MPS 170V260 5000 RA BR FEW007 SCT012 22/21 Q1010 BECMG TL1040 -RA
ZJHK,2020-09-16 10:00,110.4590,19.9349,87.80,77.00,70.45,80.00,9.72,0.00,29.65,M,6.21,M,M,M,M,M,M,M,M,M,M,M,M,M,M,M,M,99.92,ZJHK 161000Z 08005MPS CAVOK 31/25 Q1004 NOSIG
ZJSY,2020-09-16 10:00,109.4123,18.3029,87.80,78.80,74.77,220.00,3.89,0.00,29.65,M,6.21,M,SCT,M,M,M,2000.00,M,M,M,M,M,M,M,M,M,M,102.37,ZJSY 161000Z 22002MPS 180V270 9999 SCT020 31/26 Q1004 NOSIG
ZUGY,2020-09-16 10:00,106.7333,26.5833,66.20,66.20,100.00,10.00,3.89,0.00,29.88,M,4.97,M,FEW,BKN,OVC,M,600.00,1300.00,3300.00,M,-RA,M,M,M,M,M,M,M,ZUGY 161000Z 01002MPS 8000 -RA FEW006 BKN013 OVC033 19/19 Q1012 BECMG TL1030 FEW006 BKN015 OVC030
ZGSZ,2020-09-16 10:00,114.1000,22.5500,87.80,77.00,70.45,90.00,7.78,0.00,29.71,M,6.21,M,FEW,M,M,M,2600.00,M,M,M,M,M,M,M,M,M,M,99.92,ZGSZ 161000Z 09004MPS 9999 FEW026 31/25 Q1006 NOSIG
ZHCC,2020-09-16 10:00,113.6500,34.7167,78.80,57.20,47.52,240.00,1.94,0.00,29.83,M,6.21,M,M,M,M,M,M,M,M,M,M,M,M,M,M,M,M,M,ZHCC 161000Z 24001MPS CAVOK 26/14 Q1010 NOSIG
ZGNN,2020-09-16 10:00,108.2167,22.6333,89.60,77.00,66.55,160.00,5.83,0.00,29.65,M,6.21,M,FEW,FEW,M,M,2300.00,3300.00,M,M,M,M,M,M,M,M,M,102.54,ZGNN 161000Z 16003MPS 140V200 9999 FEW023 FEW033CB 32/25 Q1004 BECMG TL1030 TSRA
ZBAA,2020-09-16 10:00,116.5870,40.0741,77.00,35.60,22.28,270.00,9.72,0.00,29.77,M,6.21,M,M,M,M,M,M,M,M,M,M,M,M,M,M,M,M,M,ZBAA 161000Z 27005MPS 240V300 CAVOK 25/02 Q1008 NOSIG
ZBHH,2020-09-16 10:00,111.6833,40.8167,60.80,24.80,25.04,310.00,9.72,0.00,30.00,M,6.21,M,M,M,M,M,M,M,M,M,M,M,M,M,M,M,M,M,ZBHH 161000Z 31005MPS 280V350 CAVOK 16/M04 Q1016 NOSIG
ZBSJ,2020-09-16 10:00,114.6973,38.2807,75.20,50.00,41.14,0.00,0.00,0.00,29.80,M,6.21,M,M,M,M,M,M,M,M,M,M,M,M,M,M,M,M,M,ZBSJ 161000Z 00000MPS CAVOK 24/10 Q1009 NOSIG
ZBTJ,2020-09-16 10:00,117.3462,39.1243,75.20,35.60,23.66,260.00,7.78,0.00,29.80,M,6.21,M,M,M,M,M,M,M,M,M,M,M,M,M,M,M,M,M,ZBTJ 161000Z 26004MPS 220V280 CAVOK 24/02 Q1009 NOSIG
ZYTL,2020-09-16 10:00,121.6333,38.9000,69.80,46.40,43.13,280.00,13.61,0.00,29.74,M,6.21,M,M,M,M,M,M,M,M,M,M,M,M,M,M,M,M,M,ZYTL 161000Z 28007MPS CAVOK 21/08 Q1007 NOSIG
ZYTX,2020-09-16 10:00,123.4000,41.8000,62.60,48.20,59.26,230.00,9.72,0.00,29.59,M,6.21,M,FEW,M,M,M,5000.00,M,M,M,M,M,M,M,M,M,M,M,ZYTX 161000Z 23005MPS 9999 FEW050TCU 17/09 Q1002 NOSIG
ZLLL,2020-09-16 10:00,103.7500,36.0200,60.80,41.00,48.00,130.00,7.78,0.00,30.15,M,6.21,M,SCT,M,M,M,4600.00,M,M,M,M,M,M,M,M,M,M,M,ZLLL 161000Z 13004MPS 9999 SCT046 16/05 Q1021 NOSIG
ZLXY,2020-09-16 10:00,108.7516,34.4471,69.80,57.20,64.26,20.00,5.83,0.00,29.97,M,6.21,M,M,M,M,M,M,M,M,M,M,M,M,M,M,M,M,M,ZLXY 161000Z 02003MPS CAVOK 21/14 Q1015 NOSIG
ZMUB,2020-09-16 10:00,106.7666,47.8431,51.80,33.80,50.08,330.00,7.78,0.00,30.06,M,6.21,M,SCT,M,M,M,3300.00,M,M,M,M,M,M,M,M,M,M,M,ZMUB 161000Z 33004MPS 9999 SCT033 11/01 Q1018 NOSIG RMK QFE655.8 51 MOP
ZSAM,2020-09-16 10:00,118.0833,24.4833,87.80,77.00,70.45,160.00,3.89,0.00,29.77,M,6.21,M,FEW,M,M,M,3000.00,M,M,M,M,M,M,M,M,M,M,99.92,ZSAM 161000Z 16002MPS 140V210 9999 FEW030 31/25 Q1008 NOSIG
ZPPP,2020-09-16 10:00,102.6833,25.0167,71.60,62.60,73.27,230.00,13.61,0.00,30.00,M,6.21,M,FEW,FEW,M,M,2300.00,2300.00,M,M,M,M,M,M,M,M,M,M,ZPPP 161000Z 23007MPS 9999 FEW023TCU FEW023 22/17 Q1016 NOSIG
ZSFZ,2020-09-16 10:00,119.2833,26.0833,82.40,77.00,83.77,120.00,5.83,0.00,29.80,M,6.21,M,FEW,M,M,M,2000.00,M,M,M,M,M,M,M,M,M,M,90.85,ZSFZ 161000Z 12003MPS 9999 FEW020 28/25 Q1009 NOSIG
ZSHC,2020-09-16 10:00,120.1667,30.2333,77.00,73.40,88.67,160.00,1.94,0.00,29.80,M,3.11,M,FEW,BKN,M,M,1300.00,3000.00,M,M,-RA BR,M,M,M,M,M,M,M,ZSHC 161000Z 16001MPS 5000 -RA BR FEW013 BKN030 25/23 Q1009 NOSIG
ZSNB,2020-09-16 10:00,121.4619,29.8267,77.00,73.40,88.67,30.00,3.89,0.00,29.83,M,3.73,M,FEW,BKN,M,M,900.00,1600.00,M,M,M,M,M,M,M,M,M,M,ZSNB 161000Z 03002MPS 360V070 6000 FEW009 BKN016 25/23 Q1010 NOSIG
ZSOF,2020-09-16 10:00,117.2984,31.7800,80.60,69.80,69.71,20.00,1.94,0.00,29.80,M,6.21,M,M,M,M,M,M,M,M,M,M,M,M,M,M,M,M,83.90,ZSOF 161000Z 02001MPS CAVOK 27/21 Q1009 NOSIG
ZSQD,2020-09-16 10:00,120.3333,36.0667,75.20,60.80,60.90,10.00,7.78,0.00,29.80,M,6.21,M,M,M,M,M,M,M,M,M,M,M,M,M,M,M,M,M,ZSQD 161000Z 01004MPS 340V040 CAVOK 24/16 Q1009 NOSIG
ZSSS,2020-09-16 10:00,121.3363,31.1979,78.80,71.60,78.62,250.00,5.83,0.00,29.80,M,4.97,M,FEW,M,M,M,3300.00,M,M,M,M,M,M,M,M,M,M,M,ZSSS 161000Z 25003MPS 190V360 8000 FEW033 26/22 Q1009 NOSIG
ZUCK,2020-09-16 10:00,106.4800,29.5200,71.60,69.80,94.06,M,1.94,0.00,29.80,M,3.11,M,FEW,SCT,OVC,M,300.00,800.00,4000.00,M,-RA BR BCFG,M,M,M,M,M,M,M,ZUCK 161000Z VRB01MPS 5000 -RA BR BCFG FEW003 SCT008 OVC040 22/21 Q1009 NOSIG
ZSNJ,2020-09-16 10:00,118.8667,31.7333,78.80,71.60,78.62,230.00,3.89,0.00,29.80,M,6.21,M,M,M,M,M,M,M,M,M,M,M,M,M,M,M,M,M,ZSNJ 161000Z 23002MPS CAVOK 26/22 Q1009 NOSIG
ZSPD,2020-09-16 10:00,121.7667,31.1167,77.00,73.40,88.67,130.00,3.89,0.00,29.83,M,3.11,M,BKN,M,M,M,1600.00,M,M,M,BR,M,M,M,M,M,M,M,ZSPD 161000Z 13002MPS 090V150 5000 BR BKN016 25/23 Q1010 BECMG TL1150 BKN013
ZUUU,2020-09-16 10:00,104.0167,30.6667,71.60,66.20,83.09,20.00,9.72,0.00,29.85,M,6.21,M,FEW,BKN,M,M,1200.00,2600.00,M,M,-SHRA,M,M,M,M,M,M,M,ZUUU 161000Z 02005MPS 9999 -SHRA FEW012 BKN026 22/19 Q1011 NOSIG
ZWWW,2020-09-16 10:00,87.4742,43.9071,82.40,30.20,15.03,20.00,9.72,0.00,29.91,M,6.21,M,M,M,M,M,M,M,M,M,M,M,M,M,M,M,M,79.97,ZWWW 161000Z 02005MPS 360V060 CAVOK 28/M01 Q1013 NOSIG
ZYCC,2020-09-16 10:00,125.2167,43.9000,66.20,41.00,39.72,260.00,9.72,0.00,29.53,M,6.21,M,M,M,M,M,M,M,M,M,M,M,M,M,M,M,M,M,ZYCC 161000Z 26005MPS CAVOK 19/05 Q1000 NOSIG
ZYHB,2020-09-16 10:00,126.5800,46.0200,64.40,55.40,72.56,170.00,3.89,0.00,29.50,M,6.21,M,FEW,M,M,M,4000.00,M,M,M,M,M,M,M,M,M,M,M,ZYHB 161000Z 17002MPS 9999 FEW040 18/13 Q0999 NOSIG
ZWSH,2020-09-16 10:00,75.9833,39.4667,77.00,42.80,29.51,110.00,5.83,0.00,29.97,M,6.21,15.55,M,M,M,M,M,M,M,M,M,M,M,M,M,M,M,M,ZWSH 161000Z 11003G08MPS 050V220 CAVOK 25/06 Q1015 NOSIG
ZBAD,2020-09-16 10:00,116.4106,39.5092,75.20,41.00,29.23,240.00,3.89,0.00,29.77,M,6.21,M,M,M,M,M,M,M,M,M,M,M,M,M,M,M,M,M,ZBAD 161000Z 24002MPS 200V270 CAVOK 24/05 Q1008 NOSIG
ZBYN,2020-09-16 10:30,112.5500,37.7833,68.00,35.60,30.20,300.00,5.83,0.00,29.97,M,6.21,M,M,M,M,M,M,M,M,M,M,M,M,M,M,M,M,M,ZBYN 161030Z 30003MPS CAVOK 20/02 Q1015 NOSIG
ZGGG,2020-09-16 10:30,113.3008,23.3964,82.40,77.00,83.77,M,1.94,0.00,29.74,M,6.21,M,SCT,M,M,M,5300.00,M,M,M,M,M,M,M,M,M,M,90.85,ZGGG 161030Z VRB01MPS 9999 SCT053 28/25 Q1007 NOSIG
ZBAA,2020-09-16 10:30,116.5870,40.0741,75.20,37.40,25.40,260.00,7.78,0.00,29.77,M,6.21,17.49,M,M,M,M,M,M,M,M,M,M,M,M,M,M,M,M,ZBAA 161030Z 26004G09MPS 230V310 CAVOK 24/03 Q1008 NOSIG
ZBTJ,2020-09-16 10:30,117.3462,39.1243,73.40,37.40,26.98,260.00,5.83,0.00,29.80,M,6.21,M,M,M,M,M,M,M,M,M,M,M,M,M,M,M,M,M,ZBTJ 161030Z 26003MPS CAVOK 23/03 Q1009 NOSIG
ZYTL,2020-09-16 10:30,121.6333,38.9000,69.80,46.40,43.13,280.00,11.66,0.00,29.74,M,6.21,M,M,M,M,M,M,M,M,M,M,M,M,M,M,M,M,M,ZYTL 161030Z 28006MPS CAVOK 21/08 Q1007 NOSIG
ZYTX,2020-09-16 10:30,123.4000,41.8000,62.60,46.40,55.37,210.00,9.72,0.00,29.59,M,6.21,M,FEW,M,M,M,5000.00,M,M,M,M,M,M,M,M,M,M,M,ZYTX 161030Z 21005MPS 9999 FEW050TCU 17/08 Q1002 NOSIG
ZMUB,2020-09-16 10:30,106.7666,47.8431,51.80,35.60,53.81,340.00,5.83,0.00,30.06,M,6.21,M,FEW,M,M,M,3300.00,M,M,M,M,M,M,M,M,M,M,M,ZMUB 161030Z 34003MPS 9999 FEW033 11/02 Q1018 NOSIG RMK QFE655.8 53 MOP
ZSHC,2020-09-16 10:30,120.1667,30.2333,75.20,73.40,94.14,0.00,0.00,0.00,29.83,M,3.11,M,FEW,BKN,M,M,1200.00,3000.00,M,M,-RA BR,M,M,M,M,M,M,M,ZSHC 161030Z 00000MPS 5000 -RA BR FEW012 BKN030 24/23 Q1010 NOSIG
ZSSS,2020-09-16 10:30,121.3363,31.1979,78.80,71.60,78.62,M,3.89,0.00,29.83,M,4.97,M,NSC,M,M,M,M,M,M,M,M,M,M,M,M,M,M,M,ZSSS 161030Z VRB02MPS 8000 NSC 26/22 Q1010 NOSIG
ZSPD,2020-09-16 10:30,121.7667,31.1167,75.20,73.40,94.14,170.00,5.83,0.00,29.83,M,3.11,M,BKN,M,M,M,1600.00,M,M,M,BR,M,M,M,M,M,M,M,ZSPD 161030Z 17003MPS 5000 BR BKN016 24/23 Q1010 NOSIG
ZWWW,2020-09-16 10:30,87.4742,43.9071,80.60,32.00,17.14,360.00,9.72,0.00,29.91,M,6.21,M,M,M,M,M,M,M,M,M,M,M,M,M,M,M,M,78.82,ZWWW 161030Z 36005MPS CAVOK 27/00 Q1013 NOSIG
ZBAD,2020-09-16 10:30,116.4106,39.5092,73.40,41.00,31.05,M,1.94,0.00,29.80,M,6.21,M,M,M,M,M,M,M,M,M,M,M,M,M,M,M,M,M,ZBAD 161030Z VRB01MPS CAVOK 23/05 Q1009 NOSIG
ZGHA,2020-09-16 11:00,112.8667,28.2333,73.40,71.60,94.10,10.00,5.83,0.00,29.80,M,6.21,M,FEW,BKN,M,M,600.00,900.00,M,M,M,M,M,M,M,M,M,M,ZGHA 161100Z 01003MPS 9999 FEW006 BKN009 23/22 Q1009 BECMG TL1200 BKN010 OVC050
ZBYN,2020-09-16 11:00,112.5500,37.7833,66.20,35.60,32.14,300.00,7.78,0.00,29.97,M,6.21,M,M,M,M,M,M,M,M,M,M,M,M,M,M,M,M,M,ZBYN 161100Z 30004MPS 270V330 CAVOK 19/02 Q1015 NOSIG
ZGGG,2020-09-16 11:00,113.3008,23.3964,80.60,75.20,83.66,M,1.94,0.00,29.74,M,6.21,M,SCT,M,M,M,5300.00,M,M,M,M,M,M,M,M,M,M,86.17,ZGGG 161100Z VRB01MPS 9999 SCT053 27/24 Q1007 NOSIG
ZGKL,2020-09-16 11:00,110.3000,25.3333,84.20,75.20,74.44,120.00,3.89,0.00,29.71,M,6.21,M,FEW,FEW,M,M,3300.00,4600.00,M,M,M,M,M,M,M,M,M,92.45,ZGKL 161100Z 12002MPS 9999 FEW033TCU FEW046 29/24 Q1006 NOSIG
ZGOW,2020-09-16 11:00,116.6833,23.4000,86.00,75.20,70.27,130.00,5.83,0.00,29.77,M,6.21,M,M,M,M,M,M,M,M,M,M,M,M,M,M,M,M,95.19,ZGOW 161100Z 13003MPS 090V160 CAVOK 30/24 Q1008 NOSIG
ZHHH,2020-09-16 11:00,114.1300,30.6200,71.60,69.80,94.06,110.00,3.89,0.00,29.83,M,6.21,M,FEW,M,M,M,500.00,M,M,M,-RA,M,M,M,M,M,M,M,ZHHH 161100Z 11002MPS 060V140 9999 -RA FEW005 22/21 Q1010 RERA NOSIG
ZJHK,2020-09-16 11:00,110.4590,19.9349,84.20,77.00,79.04,70.00,9.72,0.00,29.68,M,6.21,M,M,M,M,M,M,M,M,M,M,M,M,M,M,M,M,94.16,ZJHK 161100Z 07005MPS CAVOK 29/25 Q1005 NOSIG
ZJSY,2020-09-16 11:00,109.4123,18.3029,84.20,78.80,83.88,100.00,5.83,0.00,29.65,M,6.21,M,FEW,M,M,M,2000.00,M,M,M,M,M,M,M,M,M,M,96.10,ZJSY 161100Z 10003MPS 9999 FEW020 29/26 Q1004 NOSIG
ZUGY,2020-09-16 11:00,106.7333,26.5833,66.20,66.20,100.00,10.00,3.89,0.00,29.88,M,3.73,M,SCT,BKN,OVC,M,600.00,1500.00,3300.00,M,-RA,M,M,M,M,M,M,M,ZUGY 161100Z 01002MPS 6000 -RA SCT006 BKN015 OVC033 19/19 Q1012 NOSIG
ZGSZ,2020-09-16 11:00,114.1000,22.5500,87.80,75.20,66.35,100.00,7.78,0.00,29.74,M,6.21,M,M,M,M,M,M,M,M,M,M,M,M,M,M,M,M,97.76,ZGSZ 161100Z 10004MPS 070V140 CAVOK 31/24 Q1007 NOSIG
ZHCC,2020-09-16 11:00,113.6500,34.7167,75.20,59.00,57.12,M,1.94,0.00,29.83,M,6.21,M,M,M,M,M,M,M,M,M,M,M,M,M,M,M,M,M,ZHCC 161100Z VRB01MPS CAVOK 24/15 Q1010 NOSIG
ZGNN,2020-09-16 11:00,108.2167,22.6333,86.00,77.00,74.61,130.00,3.89,0.00,29.68,M,6.21,M,M,M,M,M,M,M,M,M,M,M,M,M,M,M,M,97.15,ZGNN 161100Z 13002MPS 100V190 CAVOK 30/25 Q1005 NOSIG
ZBAA,2020-09-16 11:00,116.5870,40.0741,75.20,37.40,25.40,270.00,11.66,0.00,29.80,M,6.21,M,M,M,M,M,M,M,M,M,M,M,M,M,M,M,M,M,ZBAA 161100Z 27006MPS 240V310 CAVOK 24/03 Q1009 NOSIG
ZBHH,2020-09-16 11:00,111.6833,40.8167,57.20,26.60,30.69,300.00,7.78,0.00,30.03,M,6.21,M,M,M,M,M,M,M,M,M,M,M,M,M,M,M,M,M,ZBHH 161100Z 30004MPS CAVOK 14/M03 Q1017 NOSIG
ZBSJ,2020-09-16 11:00,114.6973,38.2807,68.00,53.60,59.97,M,1.94,0.00,29.83,M,6.21,M,M,M,M,M,M,M,M,M,M,M,M,M,M,M,M,M,ZBSJ 161100Z VRB01MPS CAVOK 20/12 Q1010 NOSIG
ZBTJ,2020-09-16 11:00,117.3462,39.1243,73.40,39.20,28.96,250.00,3.89,0.00,29.80,M,6.21,M,M,M,M,M,M,M,M,M,M,M,M,M,M,M,M,M,ZBTJ 161100Z 25002MPS CAVOK 23/04 Q1009 NOSIG
ZYTL,2020-09-16 11:00,121.6333,38.9000,69.80,46.40,43.13,280.00,11.66,0.00,29.77,M,6.21,M,M,M,M,M,M,M,M,M,M,M,M,M,M,M,M,M,ZYTL 161100Z 28006MPS CAVOK 21/08 Q1008 NOSIG
ZYTX,2020-09-16 11:00,123.4000,41.8000,62.60,46.40,55.37,200.00,9.72,0.00,29.62,M,6.21,M,FEW,M,M,M,5000.00,M,M,M,M,M,M,M,M,M,M,M,ZYTX 161100Z 20005MPS 9999 FEW050TCU 17/08 Q1003 NOSIG
ZLLL,2020-09-16 11:00,103.7500,36.0200,57.20,46.40,67.12,160.00,5.83,0.00,30.18,M,6.21,M,M,M,M,M,M,M,M,M,M,M,M,M,M,M,M,M,ZLLL 161100Z 16003MPS CAVOK 14/08 Q1022 NOSIG
ZLXY,2020-09-16 11:00,108.7516,34.4471,66.20,57.20,72.74,20.00,3.89,0.00,29.97,M,6.21,M,M,M,M,M,M,M,M,M,M,M,M,M,M,M,M,M,ZLXY 161100Z 02002MPS CAVOK 19/14 Q1015 NOSIG
ZMUB,2020-09-16 11:00,106.7666,47.8431,48.20,35.60,61.52,330.00,3.89,0.00,30.06,M,6.21,M,FEW,M,M,M,3300.00,M,M,M,M,M,M,M,M,M,M,46.43,ZMUB 161100Z 33002MPS 9999 FEW033 09/02 Q1018 NOSIG RMK QFE655.9 59 MOP
ZSAM,2020-09-16 11:00,118.0833,24.4833,87.80,77.00,70.45,170.00,5.83,0.00,29.77,M,6.21,M,M,M,M,M,M,M,M,M,M,M,M,M,M,M,M,99.92,ZSAM 161100Z 17003MPS CAVOK 31/25 Q1008 NOSIG
ZPPP,2020-09-16 11:00,102.6833,25.0167,69.80,64.40,82.98,210.00,7.78,0.00,30.00,M,6.21,M,FEW,FEW,M,M,2300.00,2300.00,M,M,M,M,M,M,M,M,M,M,ZPPP 161100Z 21004MPS 9999 FEW023TCU FEW023 21/18 Q1016 NOSIG
ZSFZ,2020-09-16 11:00,119.2833,26.0833,82.40,78.80,88.90,130.00,3.89,0.00,29.80,M,6.21,M,SCT,BKN,M,M,1100.00,2000.00,M,M,M,M,M,M,M,M,M,92.76,ZSFZ 161100Z 13002MPS 100V170 9999 SCT011 BKN020 28/26 Q1009 NOSIG
ZSHC,2020-09-16 11:00,120.1667,30.2333,75.20,73.40,94.14,80.00,3.89,0.00,29.83,M,3.11,M,FEW,BKN,M,M,1200.00,3000.00,M,M,-RA BR,M,M,M,M,M,M,M,ZSHC 161100Z 08002MPS 5000 -RA BR FEW012 BKN030 24/23 Q1010 NOSIG
ZSNB,2020-09-16 11:00,121.4619,29.8267,77.00,73.40,88.67,0.00,0.00,0.00,29.83,M,3.73,M,FEW,BKN,M,M,900.00,1600.00,M,M,M,M,M,M,M,M,M,M,ZSNB 161100Z 00000MPS 6000 FEW009 BKN016 25/23 Q1010 NOSIG
ZSOF,2020-09-16 11:00,117.2984,31.7800,80.60,68.00,65.54,M,1.94,0.00,29.80,M,6.21,M,SCT,M,M,M,3300.00,M,M,M,M,M,M,M,M,M,M,83.29,ZSOF 161100Z VRB01MPS 9999 SCT033 27/20 Q1009 NOSIG
ZSQD,2020-09-16 11:00,120.3333,36.0667,71.60,60.80,68.75,340.00,5.83,0.00,29.80,M,6.21,M,M,M,M,M,M,M,M,M,M,M,M,M,M,M,M,M,ZSQD 161100Z 34003MPS CAVOK 22/16 Q1009 NOSIG
ZSSS,2020-09-16 11:00,121.3363,31.1979,78.80,73.40,83.55,200.00,5.83,0.00,29.83,M,4.97,15.55,NSC,M,M,M,M,M,M,M,M,M,M,M,M,M,M,M,ZSSS 161100Z 20003G08MPS 170V260 8000 NSC 26/23 Q1010 NOSIG
ZUCK,2020-09-16 11:00,106.4800,29.5200,71.60,69.80,94.06,140.00,1.94,0.00,29.83,M,4.35,M,FEW,SCT,OVC,M,400.00,2000.00,5000.00,M,-RA BCFG,M,M,M,M,M,M,M,ZUCK 161100Z 14001MPS 7000 -RA BCFG FEW004 SCT020 OVC050 22/21 Q1010 NOSIG
ZSNJ,2020-09-16 11:00,118.8667,31.7333,78.80,69.80,73.95,200.00,3.89,0.00,29.83,M,6.21,M,M,M,M,M,M,M,M,M,M,M,M,M,M,M,M,M,ZSNJ 161100Z 20002MPS CAVOK 26/21 Q1010 NOSIG
ZSPD,2020-09-16 11:00,121.7667,31.1167,75.20,73.40,94.14,180.00,3.89,0.00,29.83,M,3.11,M,BKN,M,M,M,1600.00,M,M,M,BR,M,M,M,M,M,M,M,ZSPD 161100Z 18002MPS 5000 BR BKN016 24/23 Q1010 NOSIG
ZUUU,2020-09-16 11:00,104.0167,30.6667,69.80,68.00,94.01,10.00,9.72,0.00,29.88,M,6.21,M,FEW,SCT,M,M,1200.00,2300.00,M,M,-SHRA,M,M,M,M,M,M,M,ZUUU 161100Z 01005MPS 340V040 9999 -SHRA FEW012 SCT023 21/20 Q1012 NOSIG
ZWWW,2020-09-16 11:00,87.4742,43.9071,80.60,32.00,17.14,10.00,7.78,0.00,29.91,M,6.21,M,M,M,M,M,M,M,M,M,M,M,M,M,M,M,M,78.82,ZWWW 161100Z 01004MPS CAVOK 27/00 Q1013 NOSIG
ZYCC,2020-09-16 11:00,125.2167,43.9000,62.60,42.80,48.28,230.00,9.72,0.00,29.56,M,6.21,M,M,M,M,M,M,M,M,M,M,M,M,M,M,M,M,M,ZYCC 161100Z 23005MPS CAVOK 17/06 Q1001 NOSIG
ZYHB,2020-09-16 11:00,126.5800,46.0200,62.60,57.20,82.50,150.00,5.83,0.00,29.50,M,6.21,M,FEW,M,M,M,4000.00,M,M,M,M,M,M,M,M,M,M,M,ZYHB 161100Z 15003MPS 120V190 9999 FEW040 17/14 Q0999 NOSIG
ZWSH,2020-09-16 11:00,75.9833,39.4667,78.80,39.20,24.19,110.00,7.78,0.00,29.97,M,6.21,M,M,M,M,M,M,M,M,M,M,M,M,M,M,M,M,M,ZWSH 161100Z 11004MPS 080V150 CAVOK 26/04 Q1015 NOSIG
ZBAD,2020-09-16 11:00,116.4106,39.5092,68.00,48.20,49.10,180.00,3.89,0.00,29.80,M,6.21,M,M,M,M,M,M,M,M,M,M,M,M,M,M,M,M,M,ZBAD 161100Z 18002MPS 160V220 CAVOK 20/09 Q1009 NOSIG
ZBYN,2020-09-16 11:30,112.5500,37.7833,64.40,35.60,34.22,310.00,5.83,0.00,29.97,M,6.21,M,M,M,M,M,M,M,M,M,M,M,M,M,M,M,M,M,ZBYN 161130Z 31003MPS CAVOK 18/02 Q1015 NOSIG
ZGGG,2020-09-16 11:30,113.3008,23.3964,80.60,75.20,83.66,M,1.94,0.00,29.74,M,6.21,M,SCT,M,M,M,5300.00,M,M,M,M,M,M,M,M,M,M,86.17,ZGGG 161130Z VRB01MPS 9999 SCT053 27/24 Q1007 NOSIG
ZBAA,2020-09-16 11:30,116.5870,40.0741,73.40,37.40,26.98,270.00,11.66,0.00,29.80,M,6.21,M,M,M,M,M,M,M,M,M,M,M,M,M,M,M,M,M,ZBAA 161130Z 27006MPS CAVOK 23/03 Q1009 NOSIG
ZBTJ,2020-09-16 11:30,117.3462,39.1243,71.60,41.00,33.00,260.00,5.83,0.00,29.80,M,6.21,M,M,M,M,M,M,M,M,M,M,M,M,M,M,M,M,M,ZBTJ 161130Z 26003MPS 220V280 CAVOK 22/05 Q1009 NOSIG
ZYTL,2020-09-16 11:30,121.6333,38.9000,69.80,46.40,43.13,280.00,13.61,0.00,29.77,M,6.21,M,M,M,M,M,M,M,M,M,M,M,M,M,M,M,M,M,ZYTL 161130Z 28007MPS CAVOK 21/08 Q1008 NOSIG
ZYTX,2020-09-16 11:30,123.4000,41.8000,60.80,48.20,63.15,190.00,7.78,0.00,29.62,M,6.21,M,M,M,M,M,M,M,M,M,M,M,M,M,M,M,M,M,ZYTX 161130Z 19004MPS CAVOK 16/09 Q1003 NOSIG
ZMUB,2020-09-16 11:30,106.7666,47.8431,46.40,35.60,65.83,350.00,3.89,0.00,30.06,M,6.21,M,FEW,M,M,M,3300.00,M,M,M,M,M,M,M,M,M,M,44.33,ZMUB 161130Z 35002MPS 9999 FEW033 08/02 Q1018 NOSIG RMK QFE656.0 61 MOP
ZSHC,2020-09-16 11:30,120.1667,30.2333,75.20,73.40,94.14,M,1.94,0.00,29.83,M,3.11,M,FEW,BKN,M,M,1200.00,3000.00,M,M,-RA BR,M,M,M,M,M,M,M,ZSHC 161130Z VRB01MPS 5000 -RA BR FEW012 BKN030 24/23 Q1010 NOSIG
ZSSS,2020-09-16 11:30,121.3363,31.1979,77.00,73.40,88.67,200.00,5.83,0.00,29.83,M,4.97,M,SCT,M,M,M,2600.00,M,M,M,M,M,M,M,M,M,M,M,ZSSS 161130Z 20003MPS 180V250 8000 SCT026 25/23 Q1010 NOSIG
ZSPD,2020-09-16 11:30,121.7667,31.1167,75.20,73.40,94.14,170.00,3.89,0.00,29.83,M,3.11,M,BKN,M,M,M,2000.00,M,M,M,BR,M,M,M,M,M,M,M,ZSPD 161130Z 17002MPS 5000 BR BKN020 24/23 Q1010 NOSIG
ZWWW,2020-09-16 11:30,87.4742,43.9071,80.60,32.00,17.14,10.00,7.78,0.00,29.91,M,6.21,M,M,M,M,M,M,M,M,M,M,M,M,M,M,M,M,78.82,ZWWW 161130Z 01004MPS CAVOK 27/M00 Q1013 NOSIG
ZBAD,2020-09-16 11:30,116.4106,39.5092,68.00,51.80,56.13,M,1.94,0.00,29.80,M,6.21,M,M,M,M,M,M,M,M,M,M,M,M,M,M,M,M,M,ZBAD 161130Z VRB01MPS CAVOK 20/11 Q1009 NOSIG
ZGHA,2020-09-16 12:00,112.8667,28.2333,73.40,71.60,94.10,10.00,5.83,0.00,29.80,M,6.21,M,FEW,BKN,M,M,600.00,1000.00,M,M,M,M,M,M,M,M,M,M,ZGHA 161200Z 01003MPS 9999 FEW006 BKN010 23/22 Q1009 BECMG TL1300 BKN009 OVC050
ZBYN,2020-09-16 12:00,112.5500,37.7833,62.60,35.60,36.45,300.00,5.83,0.00,30.00,M,6.21,M,M,M,M,M,M,M,M,M,M,M,M,M,M,M,M,M,ZBYN 161200Z 30003MPS CAVOK 17/02 Q1016 NOSIG
ZGGG,2020-09-16 12:00,113.3008,23.3964,80.60,75.20,83.66,0.00,0.00,0.00,29.74,M,6.21,M,SCT,M,M,M,5300.00,M,M,M,M,M,M,M,M,M,M,86.17,ZGGG 161200Z 00000MPS 9999 SCT053 27/24 Q1007 NOSIG
ZGKL,2020-09-16 12:00,110.3000,25.3333,82.40,73.40,74.28,0.00,0.00,0.00,29.74,M,6.21,M,FEW,M,M,M,5000.00,M,M,M,M,M,M,M,M,M,M,88.26,ZGKL 161200Z 00000MPS 9999 FEW050 28/23 Q1007 NOSIG
ZGOW,2020-09-16 12:00,116.6833,23.4000,84.20,75.20,74.44,110.00,3.89,0.00,29.80,M,6.21,M,M,M,M,M,M,M,M,M,M,M,M,M,M,M,M,92.45,ZGOW 161200Z 11002MPS 070V130 CAVOK 29/24 Q1009 NOSIG
ZHHH,2020-09-16 12:00,114.1300,30.6200,71.60,69.80,94.06,120.00,3.89,0.00,29.83,M,6.21,M,FEW,M,M,M,1000.00,M,M,M,-RA,M,M,M,M,M,M,M,ZHHH 161200Z 12002MPS 070V160 9999 -RA FEW010 22/21 Q1010 NOSIG
ZJHK,2020-09-16 12:00,110.4590,19.9349,84.20,78.80,83.88,70.00,7.78,0.00,29.68,M,6.21,M,M,M,M,M,M,M,M,M,M,M,M,M,M,M,M,96.10,ZJHK 161200Z 07004MPS CAVOK 29/26 Q1005 NOSIG
ZJSY,2020-09-16 12:00,109.4123,18.3029,86.00,78.80,79.18,M,1.94,0.00,29.65,M,6.21,M,FEW,M,M,M,5000.00,M,M,M,M,M,M,M,M,M,M,99.38,ZJSY 161200Z VRB01MPS 9999 FEW050 30/26 Q1004 NOSIG
ZUGY,2020-09-16 12:00,106.7333,26.5833,66.20,66.20,100.00,10.00,3.89,0.00,29.91,M,4.35,M,SCT,BKN,OVC,M,700.00,1500.00,3300.00,M,-RA,M,M,M,M,M,M,M,ZUGY 161200Z 01002MPS 7000 -RA SCT007 BKN015 OVC033 19/19 Q1013 NOSIG
ZGSZ,2020-09-16 12:00,114.1000,22.5500,86.00,77.00,74.61,100.00,7.78,0.00,29.74,M,6.21,M,M,M,M,M,M,M,M,M,M,M,M,M,M,M,M,97.15,ZGSZ 161200Z 10004MPS CAVOK 30/25 Q1007 NOSIG
ZHCC,2020-09-16 12:00,113.6500,34.7167,73.40,59.00,60.67,220.00,1.94,0.00,29.85,M,6.21,M,M,M,M,M,M,M,M,M,M,M,M,M,M,M,M,M,ZHCC 161200Z 22001MPS CAVOK 23/15 Q1011 NOSIG
ZGNN,2020-09-16 12:00,108.2167,22.6333,86.00,77.00,74.61,M,3.89,0.00,29.68,M,6.21,M,M,M,M,M,M,M,M,M,M,M,M,M,M,M,M,97.15,ZGNN 161200Z VRB02MPS CAVOK 30/25 Q1005 NOSIG
ZBAA,2020-09-16 12:00,116.5870,40.0741,73.40,37.40,26.98,280.00,13.61,0.00,29.80,M,6.21,23.33,M,M,M,M,M,M,M,M,M,M,M,M,M,M,M,M,ZBAA 161200Z 28007G12MPS CAVOK 23/03 Q1009 NOSIG
ZBHH,2020-09-16 12:00,111.6833,40.8167,53.60,28.40,37.67,330.00,5.83,0.00,30.06,M,6.21,M,M,M,M,M,M,M,M,M,M,M,M,M,M,M,M,M,ZBHH 161200Z 33003MPS 290V350 CAVOK 12/M02 Q1018 NOSIG
ZBSJ,2020-09-16 12:00,114.6973,38.2807,62.60,55.40,77.29,M,1.94,0.00,29.85,M,6.21,M,M,M,M,M,M,M,M,M,M,M,M,M,M,M,M,M,ZBSJ 161200Z VRB01MPS CAVOK 17/13 Q1011 NOSIG
ZBTJ,2020-09-16 12:00,117.3462,39.1243,71.60,41.00,33.00,240.00,3.89,0.00,29.83,M,6.21,M,M,M,M,M,M,M,M,M,M,M,M,M,M,M,M,M,ZBTJ 161200Z 24002MPS 220V280 CAVOK 22/05 Q1010 NOSIG
ZYTL,2020-09-16 12:00,121.6333,38.9000,69.80,48.20,46.16,270.00,11.66,0.00,29.77,M,6.21,M,M,M,M,M,M,M,M,M,M,M,M,M,M,M,M,M,ZYTL 161200Z 27006MPS CAVOK 21/09 Q1008 NOSIG
ZYTX,2020-09-16 12:00,123.4000,41.8000,62.60,48.20,59.26,190.00,7.78,0.00,29.62,M,6.21,M,M,M,M,M,M,M,M,M,M,M,M,M,M,M,M,M,ZYTX 161200Z 19004MPS 170V230 CAVOK 17/09 Q1003 NOSIG
ZLLL,2020-09-16 12:00,103.7500,36.0200,55.40,48.20,76.66,180.00,3.89,0.00,30.21,M,6.21,M,M,M,M,M,M,M,M,M,M,M,M,M,M,M,M,M,ZLLL 161200Z 18002MPS 140V260 CAVOK 13/09 Q1023 NOSIG
ZLXY,2020-09-16 12:00,108.7516,34.4471,64.40,57.20,77.45,M,1.94,0.00,29.97,M,6.21,M,M,M,M,M,M,M,M,M,M,M,M,M,M,M,M,M,ZLXY 161200Z VRB01MPS CAVOK 18/14 Q1015 NOSIG
ZMUB,2020-09-16 12:00,106.7666,47.8431,44.60,35.60,70.48,320.00,3.89,0.00,30.06,M,6.21,M,M,M,M,M,M,M,M,M,M,M,M,M,M,M,M,42.23,ZMUB 161200Z 32002MPS CAVOK 07/02 Q1018 NOSIG RMK QFE656.2 70
ZSAM,2020-09-16 12:00,118.0833,24.4833,86.00,77.00,74.61,190.00,5.83,0.00,29.80,M,6.21,M,M,M,M,M,M,M,M,M,M,M,M,M,M,M,M,97.15,ZSAM 161200Z 19003MPS 160V220 CAVOK 30/25 Q1009 NOSIG
ZPPP,2020-09-16 12:00,102.6833,25.0167,66.20,64.40,93.92,210.00,5.83,0.00,30.03,M,6.21,M,M,M,M,M,M,M,M,M,M,M,M,M,M,M,M,M,ZPPP 161200Z 21003MPS CAVOK 19/18 Q1017 NOSIG
ZSFZ,2020-09-16 12:00,119.2833,26.0833,82.40,78.80,88.90,110.00,3.89,0.00,29.83,M,6.21,M,FEW,BKN,M,M,900.00,1700.00,M,M,M,M,M,M,M,M,M,92.76,ZSFZ 161200Z 11002MPS 070V150 9999 FEW009 BKN017 28/26 Q1010 NOSIG
ZSHC,2020-09-16 12:00,120.1667,30.2333,75.20,73.40,94.14,110.00,1.94,0.00,29.85,M,3.11,M,FEW,BKN,M,M,1200.00,3000.00,M,M,-RA BR,M,M,M,M,M,M,M,ZSHC 161200Z 11001MPS 5000 -RA BR FEW012 BKN030 24/23 Q1011 BECMG TL1300 RA
ZSNB,2020-09-16 12:00,121.4619,29.8267,77.00,75.20,94.19,M,1.94,0.00,29.85,M,3.11,M,FEW,BKN,M,M,900.00,1600.00,M,M,-RA BR,M,M,M,M,M,M,M,ZSNB 161200Z VRB01MPS 5000 -RA BR FEW009 BKN016 25/24 Q1011 NOSIG
ZSOF,2020-09-16 12:00,117.2984,31.7800,78.80,69.80,73.95,210.00,5.83,0.00,29.83,M,6.21,M,FEW,M,M,M,3300.00,M,M,M,M,M,M,M,M,M,M,M,ZSOF 161200Z 21003MPS 9999 FEW033 26/21 Q1010 NOSIG
ZSQD,2020-09-16 12:00,120.3333,36.0667,73.40,59.00,60.67,10.00,9.72,0.00,29.83,M,6.21,M,M,M,M,M,M,M,M,M,M,M,M,M,M,M,M,M,ZSQD 161200Z 01005MPS CAVOK 23/15 Q1010 NOSIG
ZSSS,2020-09-16 12:00,121.3363,31.1979,77.00,73.40,88.67,200.00,3.89,0.00,29.85,M,4.97,M,SCT,M,M,M,2600.00,M,M,M,M,M,M,M,M,M,M,M,ZSSS 161200Z 20002MPS 140V250 8000 SCT026 25/23 Q1011 NOSIG
ZUCK,2020-09-16 12:00,106.4800,29.5200,69.80,69.80,100.00,130.00,1.94,0.00,29.83,M,4.35,M,FEW,SCT,OVC,M,400.00,2600.00,5000.00,M,-RA,M,M,M,M,M,M,M,ZUCK 161200Z 13001MPS 7000 -RA FEW004 SCT026 OVC050 21/21 Q1010 NOSIG
ZSNJ,2020-09-16 12:00,118.8667,31.7333,77.00,73.40,88.67,M,1.94,0.00,29.83,M,6.21,M,FEW,M,M,M,3300.00,M,M,M,-RA,M,M,M,M,M,M,M,ZSNJ 161200Z VRB01MPS 9999 -RA FEW033 25/23 Q1010 NOSIG
ZSPD,2020-09-16 12:00,121.7667,31.1167,75.20,73.40,94.14,180.00,3.89,0.00,29.85,M,3.11,M,BKN,M,M,M,2000.00,M,M,M,BR,M,M,M,M,M,M,M,ZSPD 161200Z 18002MPS 130V220 5000 BR BKN020 24/23 Q1011 NOSIG
ZUUU,2020-09-16 12:00,104.0167,30.6667,71.60,66.20,83.09,40.00,13.61,0.00,29.88,M,6.21,M,FEW,SCT,M,M,1300.00,2300.00,M,M,M,M,M,M,M,M,M,M,ZUUU 161200Z 04007MPS 9999 FEW013 SCT023 22/19 Q1012 NOSIG
ZWWW,2020-09-16 12:00,87.4742,43.9071,78.80,32.00,18.18,360.00,5.83,0.00,29.91,M,6.21,M,M,M,M,M,M,M,M,M,M,M,M,M,M,M,M,M,ZWWW 161200Z 36003MPS CAVOK 26/M00 Q1013 NOSIG
ZYCC,2020-09-16 12:00,125.2167,43.9000,62.60,42.80,48.28,210.00,9.72,0.00,29.56,M,6.21,M,M,M,M,M,M,M,M,M,M,M,M,M,M,M,M,M,ZYCC 161200Z 21005MPS CAVOK 17/06 Q1001 NOSIG
ZYHB,2020-09-16 12:00,126.5800,46.0200,62.60,59.00,88.00,140.00,3.89,0.00,29.53,M,6.21,M,M,M,M,M,M,M,M,M,M,M,M,M,M,M,M,M,ZYHB 161200Z 14002MPS 100V200 CAVOK 17/15 Q1000 NOSIG
ZWSH,2020-09-16 12:00,75.9833,39.4667,77.00,41.00,27.53,130.00,5.83,0.00,29.97,M,6.21,M,M,M,M,M,M,M,M,M,M,M,M,M,M,M,M,M,ZWSH 161200Z 13003MPS CAVOK 25/05 Q1015 NOSIG
ZBAD,2020-09-16 12:00,116.4106,39.5092,62.60,51.80,67.75,M,1.94,0.00,29.83,M,6.21,M,M,M,M,M,M,M,M,M,M,M,M,M,M,M,M,M,ZBAD 161200Z VRB01MPS CAVOK 17/11 Q1010 NOSIG
ZBYN,2020-09-16 12:30,112.5500,37.7833,62.60,35.60,36.45,M,1.94,0.00,30.00,M,6.21,M,M,M,M,M,M,M,M,M,M,M,M,M,M,M,M,M,ZBYN 161230Z VRB01MPS CAVOK 17/02 Q1016 NOSIG
ZGGG,2020-09-16 12:30,113.3008,23.3964,80.60,75.20,83.66,0.00,0.00,0.00,29.77,M,6.21,M,SCT,M,M,M,5300.00,M,M,M,M,M,M,M,M,M,M,86.17,ZGGG 161230Z 00000MPS 9999 SCT053 27/24 Q1008 NOSIG
ZBAA,2020-09-16 12:30,116.5870,40.0741,73.40,35.60,25.13,280.00,11.66,0.00,29.83,M,6.21,M,M,M,M,M,M,M,M,M,M,M,M,M,M,M,M,M,ZBAA 161230Z 28006MPS CAVOK 23/02 Q1010 NOSIG
ZBTJ,2020-09-16 12:30,117.3462,39.1243,71.60,41.00,33.00,260.00,3.89,0.00,29.83,M,6.21,M,M,M,M,M,M,M,M,M,M,M,M,M,M,M,M,M,ZBTJ 161230Z 26002MPS 210V290 CAVOK 22/05 Q1010 NOSIG
ZYTL,2020-09-16 12:30,121.6333,38.9000,69.80,48.20,46.16,280.00,9.72,0.00,29.77,M,6.21,M,M,M,M,M,M,M,M,M,M,M,M,M,M,M,M,M,ZYTL 161230Z 28005MPS CAVOK 21/09 Q1008 NOSIG
ZYTX,2020-09-16 12:30,123.4000,41.8000,60.80,48.20,63.15,190.00,9.72,0.00,29.62,M,6.21,M,M,M,M,M,M,M,M,M,M,M,M,M,M,M,M,M,ZYTX 161230Z 19005MPS CAVOK 16/09 Q1003 NOSIG
ZMUB,2020-09-16 12:30,106.7666,47.8431,42.80,35.60,75.50,310.00,3.89,0.00,30.06,M,6.21,M,M,M,M,M,M,M,M,M,M,M,M,M,M,M,M,40.13,ZMUB 161230Z 31002MPS CAVOK 06/02 Q1018 NOSIG RMK QFE656.4 77
ZSHC,2020-09-16 12:30,120.1667,30.2333,75.20,73.40,94.14,M,1.94,0.00,29.85,M,3.11,M,FEW,BKN,M,M,1100.00,2600.00,M,M,-RA BR,M,M,M,M,M,M,M,ZSHC 161230Z VRB01MPS 5000 -RA BR FEW011 BKN026 24/23 Q1011 NOSIG
ZSSS,2020-09-16 12:30,121.3363,31.1979,77.00,73.40,88.67,200.00,3.89,0.00,29.85,M,4.97,M,SCT,M,M,M,2600.00,M,M,M,M,M,M,M,M,M,M,M,ZSSS 161230Z 20002MPS 130V270 8000 SCT026 25/23 Q1011 NOSIG
ZSPD,2020-09-16 12:30,121.7667,31.1167,75.20,73.40,94.14,170.00,1.94,0.00,29.85,M,3.11,M,BKN,M,M,M,2000.00,M,M,M,BR,M,M,M,M,M,M,M,ZSPD 161230Z 17001MPS 5000 BR BKN020 24/23 Q1011 NOSIG
ZWWW,2020-09-16 12:30,87.4742,43.9071,77.00,33.80,20.74,350.00,3.89,0.00,29.91,M,6.21,M,M,M,M,M,M,M,M,M,M,M,M,M,M,M,M,M,ZWWW 161230Z 35002MPS CAVOK 25/01 Q1013 NOSIG
ZBAD,2020-09-16 12:30,116.4106,39.5092,68.00,44.60,42.85,320.00,7.78,0.00,29.83,M,6.21,M,M,M,M,M,M,M,M,M,M,M,M,M,M,M,M,M,ZBAD 161230Z 32004MPS CAVOK 20/07 Q1010 NOSIG
ZGHA,2020-09-16 13:00,112.8667,28.2333,73.40,71.60,94.10,340.00,5.83,0.00,29.83,M,4.35,M,FEW,BKN,M,M,600.00,900.00,M,M,M,M,M,M,M,M,M,M,ZGHA 161300Z 34003MPS 300V360 7000 FEW006 BKN009 23/22 Q1010 NOSIG
ZBYN,2020-09-16 13:00,112.5500,37.7833,59.00,41.00,51.18,M,1.94,0.00,30.00,M,6.21,M,M,M,M,M,M,M,M,M,M,M,M,M,M,M,M,M,ZBYN 161300Z VRB01MPS CAVOK 15/05 Q1016 NOSIG
ZGGG,2020-09-16 13:00,113.3008,23.3964,80.60,75.20,83.66,100.00,1.94,0.00,29.77,M,6.21,M,SCT,M,M,M,5300.00,M,M,M,M,M,M,M,M,M,M,86.17,ZGGG 161300Z 10001MPS 9999 SCT053 27/24 Q1008 NOSIG
ZGKL,2020-09-16 13:00,110.3000,25.3333,80.60,77.00,88.83,330.00,3.89,0.00,29.74,M,6.21,M,FEW,M,M,M,5000.00,M,M,M,M,M,M,M,M,M,M,87.59,ZGKL 161300Z 33002MPS 9999 FEW050 27/25 Q1007 NOSIG
ZGOW,2020-09-16 13:00,116.6833,23.4000,82.40,77.00,83.77,60.00,3.89,0.00,29.83,M,6.21,M,M,M,M,M,M,M,M,M,M,M,M,M,M,M,M,90.85,ZGOW 161300Z 06002MPS 020V090 CAVOK 28/25 Q1010 NOSIG
ZHHH,2020-09-16 13:00,114.1300,30.6200,71.60,68.00,88.43,80.00,7.78,0.00,29.85,M,6.21,M,SCT,M,M,M,4000.00,M,M,M,-RA,M,M,M,M,M,M,M,ZHHH 161300Z 08004MPS 050V110 9999 -RA SCT040 22/20 Q1011 NOSIG
ZJHK,2020-09-16 13:00,110.4590,19.9349,84.20,78.80,83.88,60.00,7.78,0.00,29.71,M,6.21,M,M,M,M,M,M,M,M,M,M,M,M,M,M,M,M,96.10,ZJHK 161300Z 06004MPS CAVOK 29/26 Q1006 NOSIG
ZJSY,2020-09-16 13:00,109.4123,18.3029,86.00,78.80,79.18,M,1.94,0.00,29.71,M,6.21,M,BKN,M,M,M,3300.00,M,M,M,M,M,M,M,M,M,M,99.38,ZJSY 161300Z VRB01MPS 9999 BKN033 30/26 Q1006 NOSIG
ZUGY,2020-09-16 13:00,106.7333,26.5833,66.20,64.40,93.92,30.00,5.83,0.00,29.94,M,4.35,M,SCT,BKN,OVC,M,700.00,1500.00,3300.00,M,M,M,M,M,M,M,M,M,ZUGY 161300Z 03003MPS 7000 SCT007 BKN015 OVC033 19/18 Q1014 BECMG TL1430 SCT005 BKN012 OVC030
ZGSZ,2020-09-16 13:00,114.1000,22.5500,84.20,77.00,79.04,100.00,5.83,0.00,29.77,M,6.21,M,M,M,M,M,M,M,M,M,M,M,M,M,M,M,M,94.16,ZGSZ 161300Z 10003MPS 060V140 CAVOK 29/25 Q1008 NOSIG
ZHCC,2020-09-16 13:00,113.6500,34.7167,75.20,53.60,46.98,280.00,5.83,0.00,29.85,M,6.21,M,M,M,M,M,M,M,M,M,M,M,M,M,M,M,M,M,ZHCC 161300Z 28003MPS CAVOK 24/12 Q1011 NOSIG
ZGNN,2020-09-16 13:00,108.2167,22.6333,84.20,77.00,79.04,140.00,3.89,0.00,29.71,M,6.21,M,M,M,M,M,M,M,M,M,M,M,M,M,M,M,M,94.16,ZGNN 161300Z 14002MPS 090V160 CAVOK 29/25 Q1006 NOSIG
ZBAA,2020-09-16 13:00,116.5870,40.0741,71.60,37.40,28.68,270.00,9.72,0.00,29.83,M,6.21,M,M,M,M,M,M,M,M,M,M,M,M,M,M,M,M,M,ZBAA 161300Z 27005MPS CAVOK 22/03 Q1010 NOSIG
ZBHH,2020-09-16 13:00,111.6833,40.8167,46.40,33.80,61.28,70.00,3.89,0.00,30.06,M,6.21,M,M,M,M,M,M,M,M,M,M,M,M,M,M,M,M,44.33,ZBHH 161300Z 07002MPS 030V120 CAVOK 08/01 Q1018 NOSIG
ZBSJ,2020-09-16 13:00,114.6973,38.2807,62.60,51.80,67.75,0.00,0.00,0.00,29.88,M,6.21,M,M,M,M,M,M,M,M,M,M,M,M,M,M,M,M,M,ZBSJ 161300Z 00000MPS CAVOK 17/11 Q1012 NOSIG
ZBTJ,2020-09-16 13:00,117.3462,39.1243,71.60,41.00,33.00,260.00,7.78,0.00,29.83,M,6.21,M,M,M,M,M,M,M,M,M,M,M,M,M,M,M,M,M,ZBTJ 161300Z 26004MPS 230V290 CAVOK 22/05 Q1010 NOSIG
ZYTL,2020-09-16 13:00,121.6333,38.9000,68.00,48.20,49.10,280.00,9.72,0.00,29.77,M,6.21,M,M,M,M,M,M,M,M,M,M,M,M,M,M,M,M,M,ZYTL 161300Z 28005MPS CAVOK 20/09 Q1008 NOSIG
ZYTX,2020-09-16 13:00,123.4000,41.8000,60.80,50.00,67.54,190.00,7.78,0.00,29.62,M,6.21,M,M,M,M,M,M,M,M,M,M,M,M,M,M,M,M,M,ZYTX 161300Z 19004MPS CAVOK 16/10 Q1003 NOSIG
ZLLL,2020-09-16 13:00,103.7500,36.0200,55.40,48.20,76.66,220.00,5.83,0.00,30.24,M,6.21,M,M,M,M,M,M,M,M,M,M,M,M,M,M,M,M,M,ZLLL 161300Z 22003MPS 190V250 CAVOK 13/09 Q1024 NOSIG
ZLXY,2020-09-16 13:00,108.7516,34.4471,62.60,57.20,82.50,360.00,3.89,0.00,30.00,M,6.21,M,M,M,M,M,M,M,M,M,M,M,M,M,M,M,M,M,ZLXY 161300Z 36002MPS 330V040 CAVOK 17/14 Q1016 NOSIG
ZMUB,2020-09-16 13:00,106.7666,47.8431,39.20,35.60,86.79,M,1.94,0.00,30.09,M,6.21,M,M,M,M,M,M,M,M,M,M,M,M,M,M,M,M,M,ZMUB 161300Z VRB01MPS CAVOK 04/02 Q1019 NOSIG RMK QFE656.5 84
ZSAM,2020-09-16 13:00,118.0833,24.4833,84.20,77.00,79.04,M,1.94,0.00,29.83,M,6.21,M,M,M,M,M,M,M,M,M,M,M,M,M,M,M,M,94.16,ZSAM 161300Z VRB01MPS CAVOK 29/25 Q1010 NOSIG
ZPPP,2020-09-16 13:00,102.6833,25.0167,64.40,62.60,93.88,170.00,3.89,0.00,30.06,M,6.21,M,M,M,M,M,M,M,M,M,M,M,M,M,M,M,M,M,ZPPP 161300Z 17002MPS 140V210 CAVOK 18/17 Q1018 NOSIG
ZSFZ,2020-09-16 13:00,119.2833,26.0833,82.40,78.80,88.90,80.00,3.89,0.00,29.85,M,6.21,M,FEW,BKN,M,M,1000.00,2000.00,M,M,M,M,M,M,M,M,M,92.76,ZSFZ 161300Z 08002MPS 9999 FEW010 BKN020 28/26 Q1011 NOSIG
ZSHC,2020-09-16 13:00,120.1667,30.2333,75.20,73.40,94.14,80.00,3.89,0.00,29.85,M,3.11,M,FEW,BKN,M,M,1100.00,2300.00,M,M,-RA BR,M,M,M,M,M,M,M,ZSHC 161300Z 08002MPS 5000 -RA BR FEW011 BKN023 24/23 Q1011 NOSIG
ZSNB,2020-09-16 13:00,121.4619,29.8267,75.20,75.20,100.00,M,1.94,0.00,29.85,M,2.49,M,FEW,BKN,M,M,900.00,1600.00,M,M,-RA BR,M,M,M,M,M,M,M,ZSNB 161300Z VRB01MPS 4000 -RA BR FEW009 BKN016 24/24 Q1011 NOSIG
ZSOF,2020-09-16 13:00,117.2984,31.7800,75.20,71.60,88.59,190.00,5.83,0.00,29.83,M,6.21,M,NSC,M,M,M,M,M,M,M,-RA,M,M,M,M,M,M,M,ZSOF 161300Z 19003MPS 9999 -RA NSC 24/22 Q1010 NOSIG
ZSQD,2020-09-16 13:00,120.3333,36.0667,71.60,53.60,53.03,40.00,5.83,0.00,29.85,M,6.21,M,M,M,M,M,M,M,M,M,M,M,M,M,M,M,M,M,ZSQD 161300Z 04003MPS 010V070 CAVOK 22/12 Q1011 NOSIG
ZSSS,2020-09-16 13:00,121.3363,31.1979,77.00,73.40,88.67,210.00,3.89,0.00,29.85,M,4.35,M,NSC,M,M,M,M,M,M,M,M,M,M,M,M,M,M,M,ZSSS 161300Z 21002MPS 160V240 7000 NSC 25/23 Q1011 BECMG TL1430 SHRA BKN011 FEW030CB
ZUCK,2020-09-16 13:00,106.4800,29.5200,69.80,69.80,100.00,110.00,3.89,0.00,29.85,M,3.73,M,FEW,SCT,OVC,M,300.00,1300.00,5000.00,M,-RA,M,M,M,M,M,M,M,ZUCK 161300Z 11002MPS 6000 -RA FEW003 SCT013 OVC050 21/21 Q1011 NOSIG
ZSNJ,2020-09-16 13:00,118.8667,31.7333,75.20,75.20,100.00,240.00,1.94,0.00,29.85,M,4.97,M,FEW,M,M,M,3300.00,M,M,M,-RA,M,M,M,M,M,M,M,ZSNJ 161300Z 24001MPS 8000 -RA FEW033 24/24 Q1011 NOSIG
ZSPD,2020-09-16 13:00,121.7667,31.1167,75.20,73.40,94.14,150.00,3.89,0.00,29.85,M,3.11,M,BKN,M,M,M,2000.00,M,M,M,BR,M,M,M,M,M,M,M,ZSPD 161300Z 15002MPS 5000 BR BKN020 24/23 Q1011 NOSIG
ZUUU,2020-09-16 13:00,104.0167,30.6667,69.80,66.20,88.34,30.00,13.61,0.00,29.91,M,6.21,M,SCT,M,M,M,2300.00,M,M,M,M,M,M,M,M,M,M,M,ZUUU 161300Z 03007MPS 9999 SCT023 21/19 Q1013 NOSIG
ZWWW,2020-09-16 13:00,87.4742,43.9071,73.40,33.80,23.39,M,1.94,0.00,29.91,M,6.21,M,M,M,M,M,M,M,M,M,M,M,M,M,M,M,M,M,ZWWW 161300Z VRB01MPS CAVOK 23/01 Q1013 NOSIG
ZYCC,2020-09-16 13:00,125.2167,43.9000,62.60,42.80,48.28,210.00,11.66,0.00,29.56,M,6.21,M,M,M,M,M,M,M,M,M,M,M,M,M,M,M,M,M,ZYCC 161300Z 21006MPS CAVOK 17/06 Q1001 NOSIG
ZYHB,2020-09-16 13:00,126.5800,46.0200,60.80,57.20,87.92,120.00,7.78,0.00,29.56,M,6.21,M,M,M,M,M,M,M,M,M,M,M,M,M,M,M,M,M,ZYHB 161300Z 12004MPS CAVOK 16/14 Q1001 NOSIG
ZWSH,2020-09-16 13:00,75.9833,39.4667,75.20,41.00,29.23,M,1.94,0.00,29.97,M,6.21,M,M,M,M,M,M,M,M,M,M,M,M,M,M,M,M,M,ZWSH 161300Z VRB01MPS CAVOK 24/05 Q1015 NOSIG
ZBAD,2020-09-16 13:00,116.4106,39.5092,66.20,42.80,42.57,310.00,7.78,0.00,29.83,M,6.21,M,M,M,M,M,M,M,M,M,M,M,M,M,M,M,M,M,ZBAD 161300Z 31004MPS CAVOK 19/06 Q1010 NOSIG
ZBYN,2020-09-16 13:30,112.5500,37.7833,59.00,41.00,51.18,M,1.94,0.00,30.00,M,6.21,M,M,M,M,M,M,M,M,M,M,M,M,M,M,M,M,M,ZBYN 161330Z VRB01MPS CAVOK 15/05 Q1016 NOSIG
ZGGG,2020-09-16 13:30,113.3008,23.3964,80.60,77.00,88.83,80.00,1.94,0.00,29.77,M,6.21,M,M,M,M,M,M,M,M,M,M,M,M,M,M,M,M,87.59,ZGGG 161330Z 08001MPS CAVOK 27/25 Q1008 NOSIG
ZBAA,2020-09-16 13:30,116.5870,40.0741,71.60,37.40,28.68,270.00,9.72,0.00,29.83,M,6.21,M,M,M,M,M,M,M,M,M,M,M,M,M,M,M,M,M,ZBAA 161330Z 27005MPS 240V300 CAVOK 22/03 Q1010 NOSIG
ZBTJ,2020-09-16 13:30,117.3462,39.1243,71.60,41.00,33.00,270.00,5.83,0.00,29.83,M,6.21,M,M,M,M,M,M,M,M,M,M,M,M,M,M,M,M,M,ZBTJ 161330Z 27003MPS CAVOK 22/05 Q1010 NOSIG
ZYTL,2020-09-16 13:30,121.6333,38.9000,66.20,48.20,52.25,270.00,5.83,0.00,29.77,M,6.21,M,M,M,M,M,M,M,M,M,M,M,M,M,M,M,M,M,ZYTL 161330Z 27003MPS CAVOK 19/09 Q1008 NOSIG
ZYTX,2020-09-16 13:30,123.4000,41.8000,60.80,50.00,67.54,190.00,7.78,0.00,29.62,M,6.21,M,M,M,M,M,M,M,M,M,M,M,M,M,M,M,M,M,ZYTX 161330Z 19004MPS CAVOK 16/10 Q1003 NOSIG
ZMUB,2020-09-16 13:30,106.7666,47.8431,35.60,32.00,86.59,180.00,3.89,0.00,30.09,M,6.21,M,M,M,M,M,M,M,M,M,M,M,M,M,M,M,M,31.74,ZMUB 161330Z 18002MPS CAVOK 02/00 Q1019 NOSIG RMK QFE656.6 88
ZSHC,2020-09-16 13:30,120.1667,30.2333,75.20,73.40,94.14,M,1.94,0.00,29.85,M,2.49,M,FEW,BKN,M,M,1100.00,2300.00,M,M,-RA BR,M,M,M,M,M,M,M,ZSHC 161330Z VRB01MPS 4000 -RA BR FEW011 BKN023 24/23 Q1011 NOSIG
ZSSS,2020-09-16 13:30,121.3363,31.1979,77.00,73.40,88.67,M,3.89,0.00,29.85,M,4.35,M,NSC,M,M,M,M,M,M,M,-RA,M,M,M,M,M,M,M,ZSSS 161330Z VRB02MPS 7000 -RA NSC 25/23 Q1011 NOSIG
ZSPD,2020-09-16 13:30,121.7667,31.1167,75.20,73.40,94.14,150.00,3.89,0.00,29.85,M,3.11,M,BKN,M,M,M,2000.00,M,M,M,BR,M,M,M,M,M,M,M,ZSPD 161330Z 15002MPS 5000 BR BKN020 24/23 Q1011 NOSIG
ZWWW,2020-09-16 13:30,87.4742,43.9071,75.20,33.80,22.02,M,1.94,0.00,29.94,M,6.21,M,M,M,M,M,M,M,M,M,M,M,M,M,M,M,M,M,ZWWW 161330Z VRB01MPS CAVOK 24/01 Q1014 NOSIG
ZBAD,2020-09-16 13:30,116.4106,39.5092,68.00,41.00,37.32,320.00,9.72,0.00,29.83,M,6.21,M,M,M,M,M,M,M,M,M,M,M,M,M,M,M,M,M,ZBAD 161330Z 32005MPS CAVOK 20/05 Q1010 NOSIG
ZGHA,2020-09-16 14:00,112.8667,28.2333,73.40,71.60,94.10,340.00,5.83,0.00,29.83,M,3.73,M,FEW,BKN,M,M,800.00,1400.00,M,M,M,M,M,M,M,M,M,M,ZGHA 161400Z 34003MPS 6000 FEW008 BKN014 23/22 Q1010 NOSIG
ZBYN,2020-09-16 14:00,112.5500,37.7833,55.40,42.80,62.46,M,1.94,0.00,30.00,M,6.21,M,M,M,M,M,M,M,M,M,M,M,M,M,M,M,M,M,ZBYN 161400Z VRB01MPS CAVOK 13/06 Q1016 NOSIG
ZGGG,2020-09-16 14:00,113.3008,23.3964,80.60,75.20,83.66,M,1.94,0.00,29.77,M,6.21,M,M,M,M,M,M,M,M,M,M,M,M,M,M,M,M,86.17,ZGGG 161400Z VRB01MPS CAVOK 27/24 Q1008 NOSIG
ZGKL,2020-09-16 14:00,110.3000,25.3333,78.80,77.00,94.23,350.00,3.89,0.00,29.77,M,6.21,M,FEW,M,M,M,5000.00,M,M,M,M,M,M,M,M,M,M,M,ZGKL 161400Z 35002MPS 320V020 9999 FEW050 26/25 Q1008 NOSIG
ZGOW,2020-09-16 14:00,116.6833,23.4000,84.20,77.00,79.04,70.00,3.89,0.00,29.83,M,6.21,M,M,M,M,M,M,M,M,M,M,M,M,M,M,M,M,94.16,ZGOW 161400Z 07002MPS CAVOK 29/25 Q1010 NOSIG
ZHHH,2020-09-16 14:00,114.1300,30.6200,69.80,68.00,94.01,20.00,3.89,0.00,29.85,M,6.21,M,SCT,M,M,M,4000.00,M,M,M,-RA,M,M,M,M,M,M,M,ZHHH 161400Z 02002MPS 340V060 9999 -RA SCT040 21/20 Q1011 NOSIG
ZJHK,2020-09-16 14:00,110.4590,19.9349,84.20,78.80,83.88,70.00,7.78,0.00,29.74,M,6.21,M,M,M,M,M,M,M,M,M,M,M,M,M,M,M,M,96.10,ZJHK 161400Z 07004MPS CAVOK 29/26 Q1007 NOSIG
ZJSY,2020-09-16 14:00,109.4123,18.3029,84.20,78.80,83.88,100.00,3.89,0.00,29.71,M,6.21,M,FEW,BKN,M,M,2000.00,3600.00,M,M,M,M,M,M,M,M,M,96.10,ZJSY 161400Z 10002MPS 9999 FEW020 BKN036 29/26 Q1006 NOSIG
ZUGY,2020-09-16 14:00,106.7333,26.5833,66.20,64.40,93.92,30.00,5.83,0.00,29.94,M,4.97,M,SCT,BKN,OVC,M,700.00,1500.00,3300.00,M,-RA,M,M,M,M,M,M,M,ZUGY 161400Z 03003MPS 8000 -RA SCT007 BKN015 OVC033 19/18 Q1014 BECMG TL1430 SCT005 BKN012 OVC030
ZGSZ,2020-09-16 14:00,114.1000,22.5500,84.20,75.20,74.44,80.00,5.83,0.00,29.77,M,6.21,M,M,M,M,M,M,M,M,M,M,M,M,M,M,M,M,92.45,ZGSZ 161400Z 08003MPS CAVOK 29/24 Q1008 NOSIG
ZHCC,2020-09-16 14:00,113.6500,34.7167,75.20,48.20,38.46,290.00,5.83,0.00,29.88,M,6.21,M,M,M,M,M,M,M,M,M,M,M,M,M,M,M,M,M,ZHCC 161400Z 29003MPS CAVOK 24/09 Q1012 NOSIG
ZGNN,2020-09-16 14:00,108.2167,22.6333,84.20,77.00,79.04,M,1.94,0.00,29.74,M,6.21,M,M,M,M,M,M,M,M,M,M,M,M,M,M,M,M,94.16,ZGNN 161400Z VRB01MPS CAVOK 29/25 Q1007 NOSIG
ZBAA,2020-09-16 14:00,116.5870,40.0741,71.60,37.40,28.68,280.00,11.66,0.00,29.83,M,6.21,M,M,M,M,M,M,M,M,M,M,M,M,M,M,M,M,M,ZBAA 161400Z 28006MPS 260V320 CAVOK 22/03 Q1010 NOSIG
ZBHH,2020-09-16 14:00,111.6833,40.8167,44.60,33.80,65.61,40.00,5.83,0.00,30.06,M,6.21,M,M,M,M,M,M,M,M,M,M,M,M,M,M,M,M,40.81,ZBHH 161400Z 04003MPS 010V070 CAVOK 07/01 Q1018 NOSIG
ZBSJ,2020-09-16 14:00,114.6973,38.2807,66.20,50.00,55.88,310.00,3.89,0.00,29.88,M,6.21,M,M,M,M,M,M,M,M,M,M,M,M,M,M,M,M,M,ZBSJ 161400Z 31002MPS CAVOK 19/10 Q1012 NOSIG
ZBTJ,2020-09-16 14:00,117.3462,39.1243,71.60,42.80,35.37,260.00,3.89,0.00,29.83,M,6.21,M,M,M,M,M,M,M,M,M,M,M,M,M,M,M,M,M,ZBTJ 161400Z 26002MPS CAVOK 22/06 Q1010 NOSIG
ZYTL,2020-09-16 14:00,121.6333,38.9000,68.00,50.00,52.51,260.00,7.78,0.00,29.77,M,6.21,M,M,M,M,M,M,M,M,M,M,M,M,M,M,M,M,M,ZYTL 161400Z 26004MPS CAVOK 20/10 Q1008 NOSIG
ZYTX,2020-09-16 14:00,123.4000,41.8000,60.80,50.00,67.54,180.00,7.78,0.00,29.62,M,6.21,M,M,M,M,M,M,M,M,M,M,M,M,M,M,M,M,M,ZYTX 161400Z 18004MPS CAVOK 16/10 Q1003 NOSIG
ZLLL,2020-09-16 14:00,103.7500,36.0200,53.60,48.20,81.87,210.00,3.89,0.00,30.27,M,6.21,M,M,M,M,M,M,M,M,M,M,M,M,M,M,M,M,M,ZLLL 161400Z 21002MPS CAVOK 12/09 Q1025 NOSIG
ZLXY,2020-09-16 14:00,108.7516,34.4471,62.60,59.00,88.00,290.00,1.94,0.00,30.00,M,6.21,M,M,M,M,M,M,M,M,M,M,M,M,M,M,M,M,M,ZLXY 161400Z 29001MPS CAVOK 17/15 Q1016 NOSIG
ZMUB,2020-09-16 14:00,106.7666,47.8431,35.60,33.80,93.08,160.00,3.89,0.00,30.09,M,6.21,M,M,M,M,M,M,M,M,M,M,M,M,M,M,M,M,31.74,ZMUB 161400Z 16002MPS CAVOK 02/01 Q1019 NOSIG RMK QFE656.6 88
ZSAM,2020-09-16 14:00,118.0833,24.4833,84.20,77.00,79.04,M,1.94,0.00,29.83,M,6.21,M,M,M,M,M,M,M,M,M,M,M,M,M,M,M,M,94.16,ZSAM 161400Z VRB01MPS CAVOK 29/25 Q1010 NOSIG
ZPPP,2020-09-16 14:00,102.6833,25.0167,66.20,64.40,93.92,220.00,5.83,0.00,30.09,M,6.21,M,SCT,M,M,M,2600.00,M,M,M,M,M,M,M,M,M,M,M,ZPPP 161400Z 22003MPS 9999 SCT026 19/18 Q1019 NOSIG
ZSFZ,2020-09-16 14:00,119.2833,26.0833,82.40,77.00,83.77,80.00,3.89,0.00,29.85,M,6.21,M,SCT,BKN,M,M,1700.00,2600.00,M,M,M,M,M,M,M,M,M,90.85,ZSFZ 161400Z 08002MPS 9999 SCT017 BKN026 28/25 Q1011 NOSIG
ZSHC,2020-09-16 14:00,120.1667,30.2333,75.20,73.40,94.14,70.00,1.94,0.00,29.85,M,2.05,M,FEW,BKN,M,M,1100.00,2300.00,M,M,-RA BR,M,M,M,M,M,M,M,ZSHC 161400Z 07001MPS 3300 -RA BR FEW011 BKN023 24/23 Q1011 BECMG TL1500 2500
ZSNB,2020-09-16 14:00,121.4619,29.8267,75.20,75.20,100.00,M,1.94,0.00,29.85,M,2.49,M,FEW,BKN,M,M,700.00,1600.00,M,M,-RA BR,M,M,M,M,M,M,M,ZSNB 161400Z VRB01MPS 4000 -RA BR FEW007 BKN016 24/24 Q1011 BECMG TL1420 2000 SHRA
ZSOF,2020-09-16 14:00,117.2984,31.7800,75.20,71.60,88.59,200.00,7.78,0.00,29.83,M,6.21,M,NSC,M,M,M,M,M,M,M,-RA,M,M,M,M,M,M,M,ZSOF 161400Z 20004MPS 9999 -RA NSC 24/22 Q1010 NOSIG
ZSQD,2020-09-16 14:00,120.3333,36.0667,71.60,55.40,56.63,40.00,5.83,0.00,29.85,M,6.21,M,M,M,M,M,M,M,M,M,M,M,M,M,M,M,M,M,ZSQD 161400Z 04003MPS 010V070 CAVOK 22/13 Q1011 NOSIG
ZSSS,2020-09-16 14:00,121.3363,31.1979,77.00,73.40,88.67,210.00,3.89,0.00,29.85,M,3.73,M,SCT,M,M,M,2000.00,M,M,M,-RA,M,M,M,M,M,M,M,ZSSS 161400Z 21002MPS 170V280 6000 -RA SCT020 25/23 Q1011 BECMG TL1450 SHRA BKN013 FEW030CB
ZUCK,2020-09-16 14:00,106.4800,29.5200,69.80,69.80,100.00,130.00,3.89,0.00,29.88,M,3.11,M,FEW,SCT,OVC,M,200.00,700.00,5000.00,M,-RA BR BCFG,M,M,M,M,M,M,M,ZUCK 161400Z 13002MPS 100V220 5000 -RA BR BCFG FEW002 SCT007 OVC050 21/21 Q1012 NOSIG
ZSNJ,2020-09-16 14:00,118.8667,31.7333,75.20,75.20,100.00,0.00,0.00,0.00,29.85,M,3.11,M,SCT,M,M,M,3300.00,M,M,M,-RA BR,M,M,M,M,M,M,M,ZSNJ 161400Z 00000MPS 5000 -RA BR SCT033 24/24 Q1011 NOSIG
ZSPD,2020-09-16 14:00,121.7667,31.1167,75.20,73.40,94.14,160.00,3.89,0.00,29.85,M,3.11,M,BKN,M,M,M,2000.00,M,M,M,BR,M,M,M,M,M,M,M,ZSPD 161400Z 16002MPS 5000 BR BKN020 24/23 Q1011 NOSIG
ZUUU,2020-09-16 14:00,104.0167,30.6667,69.80,64.40,82.98,30.00,11.66,0.00,29.97,M,6.21,M,FEW,SCT,M,M,2300.00,3300.00,M,M,M,M,M,M,M,M,M,M,ZUUU 161400Z 03006MPS 9999 FEW023 SCT033 21/18 Q1015 NOSIG
ZWWW,2020-09-16 14:00,87.4742,43.9071,73.40,35.60,25.13,190.00,3.89,0.00,29.94,M,6.21,M,M,M,M,M,M,M,M,M,M,M,M,M,M,M,M,M,ZWWW 161400Z 19002MPS 170V230 CAVOK 23/02 Q1014 NOSIG
ZYCC,2020-09-16 14:00,125.2167,43.9000,59.00,50.00,72.01,170.00,9.72,0.00,29.56,M,6.21,M,FEW,M,M,M,3000.00,M,M,M,M,M,M,M,M,M,M,M,ZYCC 161400Z 17005MPS 9999 FEW030 15/10 Q1001 NOSIG
ZYHB,2020-09-16 14:00,126.5800,46.0200,59.00,55.40,87.83,140.00,5.83,0.00,29.53,M,6.21,M,M,M,M,M,M,M,M,M,M,M,M,M,M,M,M,M,ZYHB 161400Z 14003MPS 100V160 CAVOK 15/13 Q1000 NOSIG
ZWSH,2020-09-16 14:00,75.9833,39.4667,73.40,41.00,31.05,40.00,1.94,0.00,30.00,M,6.21,M,M,M,M,M,M,M,M,M,M,M,M,M,M,M,M,M,ZWSH 161400Z 04001MPS CAVOK 23/05 Q1016 NOSIG
ZBAD,2020-09-16 14:00,116.4106,39.5092,68.00,39.20,34.80,320.00,9.72,0.00,29.85,M,6.21,M,M,M,M,M,M,M,M,M,M,M,M,M,M,M,M,M,ZBAD 161400Z 32005MPS CAVOK 20/04 Q1011 NOSIG
ZBYN,2020-09-16 14:30,112.5500,37.7833,55.40,46.40,71.64,M,1.94,0.00,30.03,M,6.21,M,M,M,M,M,M,M,M,M,M,M,M,M,M,M,M,M,ZBYN 161430Z VRB01MPS CAVOK 13/08 Q1017 NOSIG
ZGGG,2020-09-16 14:30,113.3008,23.3964,80.60,75.20,83.66,70.00,3.89,0.00,29.77,M,6.21,M,M,M,M,M,M,M,M,M,M,M,M,M,M,M,M,86.17,ZGGG 161430Z 07002MPS 020V090 CAVOK 27/24 Q1008 NOSIG
ZBAA,2020-09-16 14:30,116.5870,40.0741,71.60,35.60,26.71,270.00,9.72,0.00,29.83,M,6.21,M,M,M,M,M,M,M,M,M,M,M,M,M,M,M,M,M,ZBAA 161430Z 27005MPS 250V320 CAVOK 22/02 Q1010 NOSIG
ZBTJ,2020-09-16 14:30,117.3462,39.1243,71.60,39.20,30.77,290.00,5.83,0.00,29.83,M,6.21,M,M,M,M,M,M,M,M,M,M,M,M,M,M,M,M,M,ZBTJ 161430Z 29003MPS CAVOK 22/04 Q1010 NOSIG
ZYTL,2020-09-16 14:30,121.6333,38.9000,66.20,50.00,55.88,280.00,7.78,0.00,29.77,M,6.21,M,M,M,M,M,M,M,M,M,M,M,M,M,M,M,M,M,ZYTL 161430Z 28004MPS CAVOK 19/10 Q1008 NOSIG
ZYTX,2020-09-16 14:30,123.4000,41.8000,60.80,50.00,67.54,190.00,7.78,0.00,29.59,M,6.21,M,M,M,M,M,M,M,M,M,M,M,M,M,M,M,M,M,ZYTX 161430Z 19004MPS CAVOK 16/10 Q1002 NOSIG
ZMUB,2020-09-16 14:30,106.7666,47.8431,35.60,32.00,86.59,160.00,3.89,0.00,30.09,M,6.21,M,M,M,M,M,M,M,M,M,M,M,M,M,M,M,M,31.74,ZMUB 161430Z 16002MPS CAVOK 02/00 Q1019 NOSIG RMK QFE656.6 88
ZSHC,2020-09-16 14:30,120.1667,30.2333,75.20,73.40,94.14,60.00,3.89,0.00,29.83,M,2.05,M,FEW,BKN,M,M,1100.00,2300.00,M,M,BR,M,M,M,M,M,M,M,ZSHC 161430Z 06002MPS 3300 BR FEW011 BKN023 24/23 Q1010 NOSIG
ZSSS,2020-09-16 14:30,121.3363,31.1979,75.20,73.40,94.14,200.00,3.89,0.00,29.85,M,3.73,M,SCT,M,M,M,2000.00,M,M,M,-RA,M,M,M,M,M,M,M,ZSSS 161430Z 20002MPS 140V230 6000 -RA SCT020 24/23 Q1011 NOSIG
ZSPD,2020-09-16 14:30,121.7667,31.1167,75.20,73.40,94.14,170.00,3.89,0.00,29.85,M,3.11,M,BKN,M,M,M,2000.00,M,M,M,-SHRA BR,M,M,M,M,M,M,M,ZSPD 161430Z 17002MPS 5000 -SHRA BR BKN020 24/23 Q1011 NOSIG
ZWWW,2020-09-16 14:30,87.4742,43.9071,69.80,35.60,28.39,M,1.94,0.00,29.94,M,6.21,M,M,M,M,M,M,M,M,M,M,M,M,M,M,M,M,M,ZWWW 161430Z VRB01MPS CAVOK 21/02 Q1014 NOSIG
ZBAD,2020-09-16 14:30,116.4106,39.5092,66.20,39.20,37.03,320.00,7.78,0.00,29.85,M,6.21,M,M,M,M,M,M,M,M,M,M,M,M,M,M,M,M,M,ZBAD 161430Z 32004MPS CAVOK 19/04 Q1011 NOSIG
ZGHA,2020-09-16 15:00,112.8667,28.2333,73.40,71.60,94.10,320.00,5.83,0.00,29.83,M,4.97,M,FEW,BKN,M,M,800.00,1400.00,M,M,M,M,M,M,M,M,M,M,ZGHA 161500Z 32003MPS 8000 FEW008 BKN014 23/22 Q1010 NOSIG
ZBYN,2020-09-16 15:00,112.5500,37.7833,57.20,44.60,62.69,M,1.94,0.00,30.03,M,6.21,M,M,M,M,M,M,M,M,M,M,M,M,M,M,M,M,M,ZBYN 161500Z VRB01MPS CAVOK 14/07 Q1017 NOSIG
ZGGG,2020-09-16 15:00,113.3008,23.3964,78.80,75.20,88.75,M,1.94,0.00,29.77,M,6.21,M,M,M,M,M,M,M,M,M,M,M,M,M,M,M,M,M,ZGGG 161500Z VRB01MPS CAVOK 26/24 Q1008 NOSIG
ZGKL,2020-09-16 15:00,110.3000,25.3333,78.80,77.00,94.23,330.00,3.89,0.00,29.77,M,4.97,M,FEW,M,M,M,5300.00,M,M,M,M,M,M,M,M,M,M,M,ZGKL 161500Z 33002MPS 290V350 8000 FEW053 26/25 Q1008 NOSIG
ZGOW,2020-09-16 15:00,116.6833,23.4000,80.60,77.00,88.83,40.00,1.94,0.00,29.80,M,6.21,M,M,M,M,M,M,M,M,M,M,M,M,M,M,M,M,87.59,ZGOW 161500Z 04001MPS CAVOK 27/25 Q1009 NOSIG
ZHHH,2020-09-16 15:00,114.1300,30.6200,68.00,64.40,88.26,20.00,5.83,0.00,29.85,M,6.21,M,SCT,M,M,M,4000.00,M,M,M,-RA,M,M,M,M,M,M,M,ZHHH 161500Z 02003MPS 340V050 9999 -RA SCT040 20/18 Q1011 NOSIG
ZJHK,2020-09-16 15:00,110.4590,19.9349,84.20,78.80,83.88,60.00,7.78,0.00,29.74,M,6.21,M,M,M,M,M,M,M,M,M,M,M,M,M,M,M,M,96.10,ZJHK 161500Z 06004MPS 030V090 CAVOK 29/26 Q1007 NOSIG
ZJSY,2020-09-16 15:00,109.4123,18.3029,84.20,80.60,88.98,90.00,3.89,0.00,29.74,M,6.21,M,FEW,SCT,M,M,2000.00,6600.00,M,M,M,M,M,M,M,M,M,98.50,ZJSY 161500Z 09002MPS 060V120 9999 FEW020 SCT066 29/27 Q1007 NOSIG
ZUGY,2020-09-16 15:00,106.7333,26.5833,66.20,64.40,93.92,20.00,5.83,0.00,29.94,M,4.35,M,SCT,BKN,OVC,M,700.00,1300.00,3000.00,M,-RA,M,M,M,M,M,M,M,ZUGY 161500Z 02003MPS 7000 -RA SCT007 BKN013 OVC030 19/18 Q1014 BECMG TL1630 SCT007 BKN015 OVC030
ZGSZ,2020-09-16 15:00,114.1000,22.5500,84.20,75.20,74.44,80.00,3.89,0.00,29.77,M,6.21,M,M,M,M,M,M,M,M,M,M,M,M,M,M,M,M,92.45,ZGSZ 161500Z 08002MPS 050V150 CAVOK 29/24 Q1008 NOSIG
ZHCC,2020-09-16 15:00,113.6500,34.7167,75.20,44.60,33.57,310.00,7.78,0.00,29.88,M,6.21,M,M,M,M,M,M,M,M,M,M,M,M,M,M,M,M,M,ZHCC 161500Z 31004MPS CAVOK 24/07 Q1012 NOSIG
ZGNN,2020-09-16 15:00,108.2167,22.6333,82.40,77.00,83.77,M,1.94,0.00,29.74,M,6.21,M,M,M,M,M,M,M,M,M,M,M,M,M,M,M,M,90.85,ZGNN 161500Z VRB01MPS CAVOK 28/25 Q1007 NOSIG
ZBAA,2020-09-16 15:00,116.5870,40.0741,71.60,37.40,28.68,280.00,9.72,0.00,29.83,M,6.21,M,M,M,M,M,M,M,M,M,M,M,M,M,M,M,M,M,ZBAA 161500Z 28005MPS CAVOK 22/03 Q1010 NOSIG
ZBHH,2020-09-16 15:00,111.6833,40.8167,44.60,32.00,61.03,M,1.94,0.00,30.09,M,6.21,M,M,M,M,M,M,M,M,M,M,M,M,M,M,M,M,M,ZBHH 161500Z VRB01MPS CAVOK 07/00 Q1019 NOSIG
ZBSJ,2020-09-16 15:00,114.6973,38.2807,64.40,50.00,59.50,M,1.94,0.00,29.88,M,6.21,M,M,M,M,M,M,M,M,M,M,M,M,M,M,M,M,M,ZBSJ 161500Z VRB01MPS CAVOK 18/10 Q1012 NOSIG
ZBTJ,2020-09-16 15:00,117.3462,39.1243,71.60,37.40,28.68,290.00,7.78,0.00,29.83,M,6.21,M,M,M,M,M,M,M,M,M,M,M,M,M,M,M,M,M,ZBTJ 161500Z 29004MPS CAVOK 22/03 Q1010 NOSIG
ZYTL,2020-09-16 15:00,121.6333,38.9000,66.20,50.00,55.88,270.00,9.72,0.00,29.77,M,6.21,M,M,M,M,M,M,M,M,M,M,M,M,M,M,M,M,M,ZYTL 161500Z 27005MPS CAVOK 19/10 Q1008 NOSIG
ZYTX,2020-09-16 15:00,123.4000,41.8000,62.60,50.00,63.38,200.00,9.72,0.00,29.59,M,6.21,M,M,M,M,M,M,M,M,M,M,M,M,M,M,M,M,M,ZYTX 161500Z 20005MPS CAVOK 17/10 Q1002 NOSIG
ZLLL,2020-09-16 15:00,103.7500,36.0200,53.60,46.40,76.50,200.00,5.83,0.00,30.27,M,6.21,M,M,M,M,M,M,M,M,M,M,M,M,M,M,M,M,M,ZLLL 161500Z 20003MPS 170V250 CAVOK 12/08 Q1025 NOSIG
ZLXY,2020-09-16 15:00,108.7516,34.4471,62.60,59.00,88.00,280.00,5.83,0.00,30.03,M,6.21,M,M,M,M,M,M,M,M,M,M,M,M,M,M,M,M,M,ZLXY 161500Z 28003MPS CAVOK 17/15 Q1017 NOSIG
ZMUB,2020-09-16 15:00,106.7666,47.8431,35.60,32.00,86.59,150.00,3.89,0.00,30.09,M,6.21,M,M,M,M,M,M,M,M,M,M,M,M,M,M,M,M,31.74,ZMUB 161500Z 15002MPS CAVOK 02/00 Q1019 NOSIG RMK QFE656.8 85
ZSAM,2020-09-16 15:00,118.0833,24.4833,84.20,77.00,79.04,M,1.94,0.00,29.83,M,6.21,M,M,M,M,M,M,M,M,M,M,M,M,M,M,M,M,94.16,ZSAM 161500Z VRB01MPS CAVOK 29/25 Q1010 NOSIG
ZPPP,2020-09-16 15:00,102.6833,25.0167,64.40,64.40,100.00,210.00,5.83,0.00,30.12,M,6.21,M,SCT,BKN,M,M,2600.00,4000.00,M,M,M,M,M,M,M,M,M,M,ZPPP 161500Z 21003MPS 9999 SCT026 BKN040 18/18 Q1020 NOSIG
ZSFZ,2020-09-16 15:00,119.2833,26.0833,82.40,78.80,88.90,360.00,1.94,0.00,29.83,M,6.21,M,FEW,BKN,M,M,1000.00,2000.00,M,M,M,M,M,M,M,M,M,92.76,ZSFZ 161500Z 36001MPS 9999 FEW010 BKN020 28/26 Q1010 NOSIG
ZSHC,2020-09-16 15:00,120.1667,30.2333,75.20,73.40,94.14,60.00,3.89,0.00,29.83,M,2.17,M,SCT,BKN,M,M,1100.00,2000.00,M,M,-RA BR,M,M,M,M,M,M,M,ZSHC 161500Z 06002MPS 020V090 3500 -RA BR SCT011 BKN020 24/23 Q1010 BECMG TL1540 2500 RA BR
ZSNB,2020-09-16 15:00,121.4619,29.8267,75.20,75.20,100.00,M,1.94,0.00,29.85,M,2.49,M,SCT,BKN,M,M,500.00,1600.00,M,M,-RA BR,M,M,M,M,M,M,M,ZSNB 161500Z VRB01MPS 4000 -RA BR SCT005 BKN016 24/24 Q1011 RERA NOSIG
ZSOF,2020-09-16 15:00,117.2984,31.7800,73.40,71.60,94.10,260.00,5.83,0.00,29.85,M,6.21,M,NSC,M,M,M,M,M,M,M,-RA,M,M,M,M,M,M,M,ZSOF 161500Z 26003MPS 9999 -RA NSC 23/22 Q1011 NOSIG
ZSQD,2020-09-16 15:00,120.3333,36.0667,69.80,53.60,56.38,50.00,3.89,0.00,29.85,M,6.21,M,M,M,M,M,M,M,M,M,M,M,M,M,M,M,M,M,ZSQD 161500Z 05002MPS 360V090 CAVOK 21/12 Q1011 NOSIG
ZSSS,2020-09-16 15:00,121.3363,31.1979,75.20,73.40,94.14,190.00,3.89,0.00,29.85,M,3.73,M,BKN,M,M,M,2300.00,M,M,M,-RA,M,M,M,M,M,M,M,ZSSS 161500Z 19002MPS 170V230 6000 -RA BKN023 24/23 Q1011 BECMG TL1640 BKN009
ZUCK,2020-09-16 15:00,106.4800,29.5200,69.80,69.80,100.00,20.00,7.78,0.00,29.88,M,3.11,M,FEW,SCT,OVC,M,200.00,700.00,5000.00,M,RA BR,M,M,M,M,M,M,M,ZUCK 161500Z 02004MPS 5000 RA BR FEW002 SCT007 OVC050 21/21 Q1012 BECMG TL1520 -RA
ZSNJ,2020-09-16 15:00,118.8667,31.7333,73.40,73.40,100.00,M,1.94,0.00,29.85,M,2.49,M,FEW,M,M,M,2300.00,M,M,M,-RA BR,M,M,M,M,M,M,M,ZSNJ 161500Z VRB01MPS 4000 -RA BR FEW023 23/23 Q1011 NOSIG
ZSPD,2020-09-16 15:00,121.7667,31.1167,73.40,73.40,100.00,170.00,3.89,0.00,29.85,M,3.11,M,BKN,M,M,M,2000.00,M,M,M,-SHRA BR,M,M,M,M,M,M,M,ZSPD 161500Z 17002MPS 5000 -SHRA BR BKN020 23/23 Q1011 NOSIG
ZUUU,2020-09-16 15:00,104.0167,30.6667,71.60,62.60,73.27,10.00,7.78,0.00,29.97,M,6.21,M,SCT,M,M,M,4000.00,M,M,M,-SHRA,M,M,M,M,M,M,M,ZUUU 161500Z 01004MPS 340V050 9999 -SHRA SCT040 22/17 Q1015 NOSIG
ZWWW,2020-09-16 15:00,87.4742,43.9071,69.80,37.40,30.49,M,1.94,0.00,29.94,M,6.21,M,M,M,M,M,M,M,M,M,M,M,M,M,M,M,M,M,ZWWW 161500Z VRB01MPS CAVOK 21/03 Q1014 NOSIG
ZYCC,2020-09-16 15:00,125.2167,43.9000,60.80,53.60,77.14,170.00,11.66,0.00,29.56,M,6.21,M,SCT,M,M,M,3000.00,M,M,M,M,M,M,M,M,M,M,M,ZYCC 161500Z 17006MPS 9999 SCT030 16/12 Q1001 NOSIG
ZYHB,2020-09-16 15:00,126.5800,46.0200,57.20,55.40,93.69,130.00,5.83,0.00,29.53,M,6.21,M,M,M,M,M,M,M,M,M,M,M,M,M,M,M,M,M,ZYHB 161500Z 13003MPS CAVOK 14/13 Q1000 NOSIG
ZWSH,2020-09-16 15:00,75.9833,39.4667,71.60,41.00,33.00,310.00,3.89,0.00,30.00,M,6.21,M,M,M,M,M,M,M,M,M,M,M,M,M,M,M,M,M,ZWSH 161500Z 31002MPS CAVOK 22/05 Q1016 NOSIG
ZBAD,2020-09-16 15:00,116.4106,39.5092,66.20,39.20,37.03,320.00,9.72,0.00,29.85,M,6.21,M,M,M,M,M,M,M,M,M,M,M,M,M,M,M,M,M,ZBAD 161500Z 32005MPS CAVOK 19/04 Q1011 NOSIG
ZBYN,2020-09-16 15:30,112.5500,37.7833,55.40,42.80,62.46,0.00,0.00,0.00,30.03,M,6.21,M,M,M,M,M,M,M,M,M,M,M,M,M,M,M,M,M,ZBYN 161530Z 00000MPS CAVOK 13/06 Q1017 NOSIG
ZGGG,2020-09-16 15:30,113.3008,23.3964,78.80,75.20,88.75,80.00,1.94,0.00,29.77,M,6.21,M,M,M,M,M,M,M,M,M,M,M,M,M,M,M,M,M,ZGGG 161530Z 08001MPS CAVOK 26/24 Q1008 NOSIG
ZBAA,2020-09-16 15:30,116.5870,40.0741,69.80,37.40,30.49,290.00,9.72,0.00,29.83,M,6.21,M,M,M,M,M,M,M,M,M,M,M,M,M,M,M,M,M,ZBAA 161530Z 29005MPS 260V320 CAVOK 21/03 Q1010 NOSIG
ZBTJ,2020-09-16 15:30,117.3462,39.1243,71.60,35.60,26.71,310.00,11.66,0.00,29.83,M,6.21,M,M,M,M,M,M,M,M,M,M,M,M,M,M,M,M,M,ZBTJ 161530Z 31006MPS CAVOK 22/02 Q1010 NOSIG
ZYTL,2020-09-16 15:30,121.6333,38.9000,68.00,48.20,49.10,280.00,9.72,0.00,29.77,M,6.21,M,M,M,M,M,M,M,M,M,M,M,M,M,M,M,M,M,ZYTL 161530Z 28005MPS CAVOK 20/09 Q1008 NOSIG
ZYTX,2020-09-16 15:30,123.4000,41.8000,62.60,50.00,63.38,200.00,7.78,0.00,29.62,M,6.21,M,M,M,M,M,M,M,M,M,M,M,M,M,M,M,M,M,ZYTX 161530Z 20004MPS CAVOK 17/10 Q1003 NOSIG
ZSHC,2020-09-16 15:30,120.1667,30.2333,75.20,73.40,94.14,40.00,3.89,0.00,29.83,M,2.17,M,SCT,BKN,M,M,1100.00,2000.00,M,M,-RA BR,M,M,M,M,M,M,M,ZSHC 161530Z 04002MPS 3500 -RA BR SCT011 BKN020 24/23 Q1010 NOSIG
ZSSS,2020-09-16 15:30,121.3363,31.1979,75.20,73.40,94.14,M,1.94,0.00,29.85,M,3.11,M,BKN,M,M,M,2300.00,M,M,M,-RA BR,M,M,M,M,M,M,M,ZSSS 161530Z VRB01MPS 5000 -RA BR BKN023 24/23 Q1011 NOSIG
ZSPD,2020-09-16 15:30,121.7667,31.1167,75.20,73.40,94.14,M,1.94,0.00,29.85,M,3.11,M,BKN,M,M,M,2000.00,M,M,M,-SHRA BR,M,M,M,M,M,M,M,ZSPD 161530Z VRB01MPS 5000 -SHRA BR BKN020 24/23 Q1011 NOSIG
ZWWW,2020-09-16 15:30,87.4742,43.9071,68.00,35.60,30.20,180.00,3.89,0.00,29.94,M,6.21,M,M,M,M,M,M,M,M,M,M,M,M,M,M,M,M,M,ZWWW 161530Z 18002MPS CAVOK 20/02 Q1014 NOSIG
ZBAD,2020-09-16 15:30,116.4106,39.5092,66.20,41.00,39.72,310.00,5.83,0.00,29.85,M,6.21,M,M,M,M,M,M,M,M,M,M,M,M,M,M,M,M,M,ZBAD 161530Z 31003MPS 280V340 CAVOK 19/05 Q1011 NOSIG
ZGHA,2020-09-16 16:00,112.8667,28.2333,73.40,71.60,94.10,340.00,9.72,0.00,29.83,M,2.49,M,FEW,BKN,OVC,M,300.00,500.00,5000.00,M,-RA BR,M,M,M,M,M,M,M,ZGHA 161600Z 34005MPS 4000 -RA BR FEW003 BKN005 OVC050 23/22 Q1010 NOSIG
ZBYN,2020-09-16 16:00,112.5500,37.7833,55.40,42.80,62.46,90.00,3.89,0.00,30.03,M,6.21,M,M,M,M,M,M,M,M,M,M,M,M,M,M,M,M,M,ZBYN 161600Z 09002MPS 050V120 CAVOK 13/06 Q1017 NOSIG
ZGGG,2020-09-16 16:00,113.3008,23.3964,78.80,75.20,88.75,100.00,1.94,0.00,29.77,M,6.21,M,M,M,M,M,M,M,M,M,M,M,M,M,M,M,M,M,ZGGG 161600Z 10001MPS CAVOK 26/24 Q1008 NOSIG
ZGKL,2020-09-16 16:00,110.3000,25.3333,78.80,77.00,94.23,M,1.94,0.00,29.77,M,4.35,M,FEW,M,M,M,6000.00,M,M,M,M,M,M,M,M,M,M,M,ZGKL 161600Z VRB01MPS 7000 FEW060 26/25 Q1008 NOSIG
ZGOW,2020-09-16 16:00,116.6833,23.4000,82.40,77.00,83.77,100.00,3.89,0.00,29.80,M,6.21,M,M,M,M,M,M,M,M,M,M,M,M,M,M,M,M,90.85,ZGOW 161600Z 10002MPS CAVOK 28/25 Q1009 NOSIG
ZHHH,2020-09-16 16:00,114.1300,30.6200,68.00,64.40,88.26,10.00,5.83,0.00,29.88,M,6.21,M,SCT,M,M,M,4000.00,M,M,M,-RA,M,M,M,M,M,M,M,ZHHH 161600Z 01003MPS 290V050 9999 -RA SCT040 20/18 Q1012 NOSIG
ZJHK,2020-09-16 16:00,110.4590,19.9349,84.20,78.80,83.88,50.00,5.83,0.00,29.74,M,6.21,M,M,M,M,M,M,M,M,M,M,M,M,M,M,M,M,96.10,ZJHK 161600Z 05003MPS 020V080 CAVOK 29/26 Q1007 NOSIG
ZJSY,2020-09-16 16:00,109.4123,18.3029,84.20,78.80,83.88,M,3.89,0.00,29.71,M,6.21,M,BKN,M,M,M,4000.00,M,M,M,M,M,M,M,M,M,M,96.10,ZJSY 161600Z VRB02MPS 9999 BKN040 29/26 Q1006 NOSIG
ZUGY,2020-09-16 16:00,106.7333,26.5833,66.20,64.40,93.92,350.00,5.83,0.00,29.97,M,4.35,M,SCT,BKN,OVC,M,700.00,1300.00,3000.00,M,-RA,M,M,M,M,M,M,M,ZUGY 161600Z 35003MPS 7000 -RA SCT007 BKN013 OVC030 19/18 Q1015 BECMG TL1630 SCT007 BKN015 OVC030
ZGSZ,2020-09-16 16:00,114.1000,22.5500,84.20,75.20,74.44,80.00,3.89,0.00,29.77,M,6.21,M,M,M,M,M,M,M,M,M,M,M,M,M,M,M,M,92.45,ZGSZ 161600Z 08002MPS 060V120 CAVOK 29/24 Q1008 NOSIG
ZHCC,2020-09-16 16:00,113.6500,34.7167,71.60,46.40,40.57,280.00,3.89,0.00,29.88,M,6.21,M,M,M,M,M,M,M,M,M,M,M,M,M,M,M,M,M,ZHCC 161600Z 28002MPS CAVOK 22/08 Q1012 NOSIG
ZGNN,2020-09-16 16:00,108.2167,22.6333,82.40,77.00,83.77,100.00,3.89,0.00,29.74,M,6.21,M,M,M,M,M,M,M,M,M,M,M,M,M,M,M,M,90.85,ZGNN 161600Z 10002MPS CAVOK 28/25 Q1007 NOSIG
ZBAA,2020-09-16 16:00,116.5870,40.0741,69.80,37.40,30.49,290.00,9.72,0.00,29.83,M,6.21,M,M,M,M,M,M,M,M,M,M,M,M,M,M,M,M,M,ZBAA 161600Z 29005MPS CAVOK 21/03 Q1010 NOSIG
ZBHH,2020-09-16 16:00,111.6833,40.8167,41.00,33.80,75.33,350.00,3.89,0.00,30.09,M,6.21,M,M,M,M,M,M,M,M,M,M,M,M,M,M,M,M,38.04,ZBHH 161600Z 35002MPS CAVOK 05/01 Q1019 NOSIG
ZBSJ,2020-09-16 16:00,114.6973,38.2807,64.40,46.40,51.98,300.00,3.89,0.00,29.88,M,6.21,M,M,M,M,M,M,M,M,M,M,M,M,M,M,M,M,M,ZBSJ 161600Z 30002MPS 260V350 CAVOK 18/08 Q1012 NOSIG
ZBTJ,2020-09-16 16:00,117.3462,39.1243,69.80,35.60,28.39,310.00,9.72,0.00,29.83,M,6.21,M,M,M,M,M,M,M,M,M,M,M,M,M,M,M,M,M,ZBTJ 161600Z 31005MPS CAVOK 21/02 Q1010 NOSIG
ZYTL,2020-09-16 16:00,121.6333,38.9000,68.00,50.00,52.51,280.00,11.66,0.00,29.77,M,6.21,M,M,M,M,M,M,M,M,M,M,M,M,M,M,M,M,M,ZYTL 161600Z 28006MPS CAVOK 20/10 Q1008 NOSIG
ZYTX,2020-09-16 16:00,123.4000,41.8000,60.80,50.00,67.54,200.00,7.78,0.00,29.59,M,6.21,M,M,M,M,M,M,M,M,M,M,M,M,M,M,M,M,M,ZYTX 161600Z 20004MPS CAVOK 16/10 Q1002 NOSIG
ZLLL,2020-09-16 16:00,103.7500,36.0200,51.80,48.20,87.47,M,1.94,0.00,30.27,M,6.21,M,M,M,M,M,M,M,M,M,M,M,M,M,M,M,M,M,ZLLL 161600Z VRB01MPS CAVOK 11/09 Q1025 NOSIG
ZLXY,2020-09-16 16:00,108.7516,34.4471,62.60,59.00,88.00,310.00,3.89,0.00,30.03,M,6.21,M,M,M,M,M,M,M,M,M,M,M,M,M,M,M,M,M,ZLXY 161600Z 31002MPS CAVOK 17/15 Q1017 NOSIG
ZMUB,2020-09-16 16:00,106.7666,47.8431,33.80,30.20,86.49,170.00,3.89,0.00,30.09,M,6.21,M,M,M,M,M,M,M,M,M,M,M,M,M,M,M,M,29.65,ZMUB 161600Z 17002MPS CAVOK 01/M01 Q1019 NOSIG RMK QFE656.9 89
ZSAM,2020-09-16 16:00,118.0833,24.4833,82.40,78.80,88.90,30.00,1.94,0.00,29.80,M,6.21,M,M,M,M,M,M,M,M,M,M,M,M,M,M,M,M,92.76,ZSAM 161600Z 03001MPS CAVOK 28/26 Q1009 NOSIG
ZPPP,2020-09-16 16:00,102.6833,25.0167,62.60,62.60,100.00,220.00,5.83,0.00,30.12,M,6.21,M,FEW,SCT,M,M,2600.00,4000.00,M,M,M,M,M,M,M,M,M,M,ZPPP 161600Z 22003MPS 9999 FEW026 SCT040 17/17 Q1020 NOSIG
ZSFZ,2020-09-16 16:00,119.2833,26.0833,80.60,77.00,88.83,M,1.94,0.00,29.83,M,6.21,M,SCT,BKN,M,M,2000.00,3000.00,M,M,M,M,M,M,M,M,M,87.59,ZSFZ 161600Z VRB01MPS 9999 SCT020 BKN030 27/25 Q1010 NOSIG
ZSHC,2020-09-16 16:00,120.1667,30.2333,75.20,73.40,94.14,20.00,5.83,0.00,29.80,M,1.86,M,BKN,BKN,M,M,900.00,2000.00,M,M,-SHRA BR,M,M,M,M,M,M,M,ZSHC 161600Z 02003MPS 3000 -SHRA BR BKN009 BKN020 24/23 Q1009 NOSIG
ZSNB,2020-09-16 16:00,121.4619,29.8267,75.20,75.20,100.00,190.00,3.89,0.00,29.83,M,1.86,M,SCT,BKN,M,M,500.00,1600.00,M,M,BR,M,M,M,M,M,M,M,ZSNB 161600Z 19002MPS 140V200 3000 BR SCT005 BKN016 24/24 Q1010 BECMG TL1730 2500
ZSOF,2020-09-16 16:00,117.2984,31.7800,73.40,69.80,88.51,230.00,5.83,0.00,29.85,M,6.21,M,NSC,M,M,M,M,M,M,M,-RA,M,M,M,M,M,M,M,ZSOF 161600Z 23003MPS 210V270 9999 -RA NSC 23/21 Q1011 NOSIG
ZSQD,2020-09-16 16:00,120.3333,36.0667,69.80,51.80,52.77,M,1.94,0.00,29.85,M,6.21,M,M,M,M,M,M,M,M,M,M,M,M,M,M,M,M,M,ZSQD 161600Z VRB01MPS CAVOK 21/11 Q1011 NOSIG
ZSSS,2020-09-16 16:00,121.3363,31.1979,75.20,73.40,94.14,M,1.94,0.00,29.83,M,3.11,M,BKN,M,M,M,2300.00,M,M,M,BR,M,M,M,M,M,M,M,ZSSS 161600Z VRB01MPS 5000 BR BKN023 24/23 Q1010 NOSIG
ZUCK,2020-09-16 16:00,106.4800,29.5200,68.00,68.00,100.00,10.00,9.72,0.00,29.88,M,4.35,M,FEW,SCT,OVC,M,400.00,1100.00,5000.00,M,-RA,M,M,M,M,M,M,M,ZUCK 161600Z 01005MPS 7000 -RA FEW004 SCT011 OVC050 20/20 Q1012 RERA NOSIG
ZSNJ,2020-09-16 16:00,118.8667,31.7333,71.60,69.80,94.06,70.00,3.89,0.00,29.85,M,5.59,M,FEW,M,M,M,3000.00,M,M,M,-RA,M,M,M,M,M,M,M,ZSNJ 161600Z 07002MPS 9000 -RA FEW030 22/21 Q1011 NOSIG
ZSPD,2020-09-16 16:00,121.7667,31.1167,75.20,73.40,94.14,0.00,0.00,0.00,29.83,M,3.11,M,BKN,M,M,M,2000.00,M,M,M,-SHRA BR,M,M,M,M,M,M,M,ZSPD 161600Z 00000MPS 5000 -SHRA BR BKN020 24/23 Q1010 NOSIG
ZUUU,2020-09-16 16:00,104.0167,30.6667,68.00,64.40,88.26,M,1.94,0.00,29.97,M,6.21,M,SCT,M,M,M,4000.00,M,M,M,-SHRA,M,M,M,M,M,M,M,ZUUU 161600Z VRB01MPS 9999 -SHRA SCT040 20/18 Q1015 NOSIG
ZWWW,2020-09-16 16:00,87.4742,43.9071,66.20,35.60,32.14,160.00,5.83,0.00,29.94,M,6.21,M,M,M,M,M,M,M,M,M,M,M,M,M,M,M,M,M,ZWWW 161600Z 16003MPS 140V210 CAVOK 19/02 Q1014 NOSIG
ZYCC,2020-09-16 16:00,125.2167,43.9000,60.80,48.20,63.15,180.00,11.66,0.00,29.53,M,6.21,M,SCT,M,M,M,3000.00,M,M,M,M,M,M,M,M,M,M,M,ZYCC 161600Z 18006MPS 9999 SCT030 16/09 Q1000 NOSIG
ZYHB,2020-09-16 16:00,126.5800,46.0200,57.20,55.40,93.69,140.00,5.83,0.00,29.53,M,6.21,M,M,M,M,M,M,M,M,M,M,M,M,M,M,M,M,M,ZYHB 161600Z 14003MPS 100V160 CAVOK 14/13 Q1000 NOSIG
ZWSH,2020-09-16 16:00,75.9833,39.4667,69.80,44.60,40.29,320.00,7.78,0.00,30.03,M,6.21,M,M,M,M,M,M,M,M,M,M,M,M,M,M,M,M,M,ZWSH 161600Z 32004MPS CAVOK 21/07 Q1017 NOSIG
ZBAD,2020-09-16 16:00,116.4106,39.5092,62.60,42.80,48.28,310.00,7.78,0.00,29.85,M,6.21,M,M,M,M,M,M,M,M,M,M,M,M,M,M,M,M,M,ZBAD 161600Z 31004MPS CAVOK 17/06 Q1011 NOSIG
ZBYN,2020-09-16 16:30,112.5500,37.7833,53.60,42.80,66.70,M,1.94,0.00,30.06,M,6.21,M,M,M,M,M,M,M,M,M,M,M,M,M,M,M,M,M,ZBYN 161630Z VRB01MPS CAVOK 12/06 Q1018 NOSIG
ZGGG,2020-09-16 16:30,113.3008,23.3964,78.80,75.20,88.75,M,1.94,0.00,29.77,M,6.21,M,M,M,M,M,M,M,M,M,M,M,M,M,M,M,M,M,ZGGG 161630Z VRB01MPS CAVOK 26/24 Q1008 NOSIG
ZBAA,2020-09-16 16:30,116.5870,40.0741,68.00,37.40,32.43,270.00,7.78,0.00,29.83,M,6.21,M,M,M,M,M,M,M,M,M,M,M,M,M,M,M,M,M,ZBAA 161630Z 27004MPS 250V330 CAVOK 20/03 Q1010 NOSIG
ZBTJ,2020-09-16 16:30,117.3462,39.1243,69.80,35.60,28.39,310.00,5.83,0.00,29.83,M,6.21,M,M,M,M,M,M,M,M,M,M,M,M,M,M,M,M,M,ZBTJ 161630Z 31003MPS CAVOK 21/02 Q1010 NOSIG
ZYTL,2020-09-16 16:30,121.6333,38.9000,68.00,50.00,52.51,270.00,11.66,0.00,29.77,M,6.21,M,M,M,M,M,M,M,M,M,M,M,M,M,M,M,M,M,ZYTL 161630Z 27006MPS CAVOK 20/10 Q1008 NOSIG
ZYTX,2020-09-16 16:30,123.4000,41.8000,62.60,50.00,63.38,240.00,9.72,0.00,29.62,M,6.21,M,M,M,M,M,M,M,M,M,M,M,M,M,M,M,M,M,ZYTX 161630Z 24005MPS CAVOK 17/10 Q1003 NOSIG
ZSHC,2020-09-16 16:30,120.1667,30.2333,73.40,73.40,100.00,M,1.94,0.00,29.80,M,1.24,M,BKN,BKN,M,M,900.00,2000.00,M,M,-SHRA BR,M,M,M,M,M,M,M,ZSHC 161630Z VRB01MPS 2000 -SHRA BR BKN009 BKN020 23/23 Q1009 RESHRA NOSIG
ZSSS,2020-09-16 16:30,121.3363,31.1979,75.20,73.40,94.14,M,1.94,0.00,29.83,M,2.80,M,BKN,M,M,M,1600.00,M,M,M,BR,M,M,M,M,M,M,M,ZSSS 161630Z VRB01MPS 4500 BR BKN016 24/23 Q1010 NOSIG
ZSPD,2020-09-16 16:30,121.7667,31.1167,75.20,73.40,94.14,190.00,3.89,0.00,29.83,M,3.11,M,BKN,M,M,M,2000.00,M,M,M,-SHRA BR,M,M,M,M,M,M,M,ZSPD 161630Z 19002MPS 5000 -SHRA BR BKN020 24/23 Q1010 NOSIG
ZWWW,2020-09-16 16:30,87.4742,43.9071,66.20,35.60,32.14,190.00,3.89,0.00,29.94,M,6.21,M,M,M,M,M,M,M,M,M,M,M,M,M,M,M,M,M,ZWWW 161630Z 19002MPS 130V250 CAVOK 19/02 Q1014 NOSIG
ZBAD,2020-09-16 16:30,116.4106,39.5092,66.20,41.00,39.72,320.00,7.78,0.00,29.85,M,6.21,M,M,M,M,M,M,M,M,M,M,M,M,M,M,M,M,M,ZBAD 161630Z 32004MPS CAVOK 19/05 Q1011 NOSIG
ZGHA,2020-09-16 17:00,112.8667,28.2333,71.60,71.60,100.00,320.00,7.78,0.00,29.83,M,4.35,M,FEW,BKN,OVC,M,400.00,700.00,5000.00,M,-RA,M,M,M,M,M,M,M,ZGHA 161700Z 32004MPS 290V360 7000 -RA FEW004 BKN007 OVC050 22/22 Q1010 NOSIG
ZBYN,2020-09-16 17:00,112.5500,37.7833,50.00,42.80,76.18,0.00,0.00,0.00,30.06,M,6.21,M,M,M,M,M,M,M,M,M,M,M,M,M,M,M,M,M,ZBYN 161700Z 00000MPS CAVOK 10/06 Q1018 NOSIG
ZGGG,2020-09-16 17:00,113.3008,23.3964,78.80,75.20,88.75,100.00,3.89,0.00,29.77,M,6.21,M,M,M,M,M,M,M,M,M,M,M,M,M,M,M,M,M,ZGGG 161700Z 10002MPS CAVOK 26/24 Q1008 NOSIG
ZGKL,2020-09-16 17:00,110.3000,25.3333,77.00,77.00,100.00,320.00,3.89,0.00,29.77,M,3.11,M,FEW,M,M,M,6600.00,M,M,M,BR,M,M,M,M,M,M,M,ZGKL 161700Z 32002MPS 290V350 5000 BR FEW066 25/25 Q1008 NOSIG
ZGOW,2020-09-16 17:00,116.6833,23.4000,78.80,75.20,88.75,M,1.94,0.00,29.80,M,6.21,M,M,M,M,M,M,M,M,M,M,M,M,M,M,M,M,M,ZGOW 161700Z VRB01MPS CAVOK 26/24 Q1009 NOSIG
ZHHH,2020-09-16 17:00,114.1300,30.6200,68.00,62.60,82.86,100.00,11.66,0.00,29.85,M,6.21,M,NSC,M,M,M,M,M,M,M,-RA,M,M,M,M,M,M,M,ZHHH 161700Z 10006MPS 9999 -RA NSC 20/17 Q1011 NOSIG
ZJHK,2020-09-16 17:00,110.4590,19.9349,82.40,78.80,88.90,30.00,3.89,0.00,29.71,M,6.21,M,M,M,M,M,M,M,M,M,M,M,M,M,M,M,M,92.76,ZJHK 161700Z 03002MPS 360V060 CAVOK 28/26 Q1006 NOSIG
ZJSY,2020-09-16 17:00,109.4123,18.3029,84.20,78.80,83.88,M,1.94,0.00,29.71,M,6.21,M,FEW,M,M,M,5000.00,M,M,M,M,M,M,M,M,M,M,96.10,ZJSY 161700Z VRB01MPS 9999 FEW050 29/26 Q1006 NOSIG
ZUGY,2020-09-16 17:00,106.7333,26.5833,64.40,64.40,100.00,360.00,7.78,0.00,29.94,M,4.35,M,SCT,BKN,OVC,M,500.00,1500.00,3000.00,M,-RA,M,M,M,M,M,M,M,ZUGY 161700Z 36004MPS 7000 -RA SCT005 BKN015 OVC030 18/18 Q1014 NOSIG
ZGSZ,2020-09-16 17:00,114.1000,22.5500,84.20,77.00,79.04,70.00,3.89,0.00,29.77,M,6.21,M,M,M,M,M,M,M,M,M,M,M,M,M,M,M,M,94.16,ZGSZ 161700Z 07002MPS 040V100 CAVOK 29/25 Q1008 NOSIG
ZHCC,2020-09-16 17:00,113.6500,34.7167,71.60,46.40,40.57,290.00,5.83,0.00,29.88,M,6.21,M,M,M,M,M,M,M,M,M,M,M,M,M,M,M,M,M,ZHCC 161700Z 29003MPS CAVOK 22/08 Q1012 NOSIG
ZGNN,2020-09-16 17:00,108.2167,22.6333,80.60,77.00,88.83,M,1.94,0.00,29.74,M,6.21,M,M,M,M,M,M,M,M,M,M,M,M,M,M,M,M,87.59,ZGNN 161700Z VRB01MPS CAVOK 27/25 Q1007 NOSIG
ZBAA,2020-09-16 17:00,116.5870,40.0741,68.00,37.40,32.43,270.00,9.72,0.00,29.83,M,6.21,M,M,M,M,M,M,M,M,M,M,M,M,M,M,M,M,M,ZBAA 161700Z 27005MPS 250V310 CAVOK 20/03 Q1010 NOSIG
ZBHH,2020-09-16 17:00,111.6833,40.8167,37.40,32.00,80.65,M,1.94,0.00,30.09,M,6.21,M,M,M,M,M,M,M,M,M,M,M,M,M,M,M,M,M,ZBHH 161700Z VRB01MPS CAVOK 03/00 Q1019 NOSIG
ZBSJ,2020-09-16 17:00,114.6973,38.2807,64.40,48.20,55.63,M,1.94,0.00,29.91,M,6.21,M,M,M,M,M,M,M,M,M,M,M,M,M,M,M,M,M,ZBSJ 161700Z VRB01MPS CAVOK 18/09 Q1013 NOSIG
ZBTJ,2020-09-16 17:00,117.3462,39.1243,69.80,33.80,26.43,310.00,7.78,0.00,29.83,M,6.21,M,M,M,M,M,M,M,M,M,M,M,M,M,M,M,M,M,ZBTJ 161700Z 31004MPS CAVOK 21/01 Q1010 NOSIG
ZYTL,2020-09-16 17:00,121.6333,38.9000,68.00,50.00,52.51,270.00,11.66,0.00,29.77,M,6.21,M,M,M,M,M,M,M,M,M,M,M,M,M,M,M,M,M,ZYTL 161700Z 27006MPS CAVOK 20/10 Q1008 NOSIG
ZYTX,2020-09-16 17:00,123.4000,41.8000,60.80,50.00,67.54,240.00,9.72,0.00,29.62,M,6.21,M,M,M,M,M,M,M,M,M,M,M,M,M,M,M,M,M,ZYTX 161700Z 24005MPS CAVOK 16/10 Q1003 NOSIG
ZLLL,2020-09-16 17:00,103.7500,36.0200,51.80,48.20,87.47,130.00,3.89,0.00,30.27,M,6.21,M,M,M,M,M,M,M,M,M,M,M,M,M,M,M,M,M,ZLLL 161700Z 13002MPS 020V190 CAVOK 11/09 Q1025 NOSIG
ZLXY,2020-09-16 17:00,108.7516,34.4471,60.80,59.00,93.79,290.00,3.89,0.00,30.03,M,6.21,M,M,M,M,M,M,M,M,M,M,M,M,M,M,M,M,M,ZLXY 161700Z 29002MPS CAVOK 16/15 Q1017 NOSIG
ZMUB,2020-09-16 17:00,106.7666,47.8431,32.00,30.20,92.97,M,M,0.00,30.09,M,6.21,M,M,M,M,M,M,M,M,M,M,M,M,M,M,M,M,M,ZMUB 161700Z VREB01MPS CAVOK 00/M01 Q1019 NOSIG RMK QFE656.9 89
ZSAM,2020-09-16 17:00,118.0833,24.4833,82.40,78.80,88.90,30.00,1.94,0.00,29.80,M,6.21,M,M,M,M,M,M,M,M,M,M,M,M,M,M,M,M,92.76,ZSAM 161700Z 03001MPS CAVOK 28/26 Q1009 NOSIG
ZPPP,2020-09-16 17:00,102.6833,25.0167,62.60,62.60,100.00,210.00,5.83,0.00,30.12,M,6.21,M,FEW,SCT,M,M,2600.00,4000.00,M,M,M,M,M,M,M,M,M,M,ZPPP 161700Z 21003MPS 9999 FEW026 SCT040 17/17 Q1020 NOSIG
ZSFZ,2020-09-16 17:00,119.2833,26.0833,80.60,77.00,88.83,M,1.94,0.00,29.83,M,6.21,M,SCT,M,M,M,2300.00,M,M,M,M,M,M,M,M,M,M,87.59,ZSFZ 161700Z VRB01MPS 9999 SCT023 27/25 Q1010 NOSIG
ZSHC,2020-09-16 17:00,120.1667,30.2333,73.40,73.40,100.00,300.00,3.89,0.00,29.80,M,1.55,M,FEW,BKN,BKN,M,300.00,900.00,2000.00,M,-SHRA BR,M,M,M,M,M,M,M,ZSHC 161700Z 30002MPS 270V330 2500 -SHRA BR FEW003 BKN009 BKN020 23/23 Q1009 NOSIG
ZSNB,2020-09-16 17:00,121.4619,29.8267,75.20,75.20,100.00,M,1.94,0.00,29.80,M,1.55,M,SCT,BKN,M,M,500.00,1600.00,M,M,BR,M,M,M,M,M,M,M,ZSNB 161700Z VRB01MPS 2500 BR SCT005 BKN016 24/24 Q1009 NOSIG
ZSOF,2020-09-16 17:00,117.2984,31.7800,71.60,69.80,94.06,230.00,5.83,0.00,29.83,M,3.73,M,SCT,M,M,M,2600.00,M,M,M,-RA,M,M,M,M,M,M,M,ZSOF 161700Z 23003MPS 6000 -RA SCT026 22/21 Q1010 NOSIG
ZSQD,2020-09-16 17:00,120.3333,36.0667,68.00,53.60,59.97,M,1.94,0.00,29.85,M,6.21,M,M,M,M,M,M,M,M,M,M,M,M,M,M,M,M,M,ZSQD 161700Z VRB01MPS CAVOK 20/12 Q1011 NOSIG
ZSSS,2020-09-16 17:00,121.3363,31.1979,75.20,73.40,94.14,M,1.94,0.00,29.83,M,2.80,M,BKN,M,M,M,1600.00,M,M,M,-RA BR,M,M,M,M,M,M,M,ZSSS 161700Z VRB01MPS 4500 -RA BR BKN016 24/23 Q1010 NOSIG
ZUCK,2020-09-16 17:00,106.4800,29.5200,68.00,66.20,93.97,10.00,11.66,0.00,29.88,M,3.11,M,FEW,SCT,OVC,M,400.00,1400.00,5000.00,M,-DZ BR,M,M,M,M,M,M,M,ZUCK 161700Z 01006MPS 5000 -DZ BR FEW004 SCT014 OVC050 20/19 Q1012 NOSIG
ZSNJ,2020-09-16 17:00,118.8667,31.7333,69.80,69.80,100.00,M,1.94,0.00,29.85,M,4.35,M,FEW,M,M,M,3300.00,M,M,M,-RA,M,M,M,M,M,M,M,ZSNJ 161700Z VRB01MPS 7000 -RA FEW033 21/21 Q1011 NOSIG
ZSPD,2020-09-16 17:00,121.7667,31.1167,75.20,73.40,94.14,190.00,3.89,0.00,29.83,M,2.17,M,BKN,M,M,M,1500.00,M,M,M,-SHRA BR,M,M,M,M,M,M,M,ZSPD 161700Z 19002MPS 3500 -SHRA BR BKN015 24/23 Q1010 BECMG TL1800 SHRA BKN010
ZUUU,2020-09-16 17:00,104.0167,30.6667,66.20,66.20,100.00,M,1.94,0.00,30.00,M,4.97,M,FEW,SCT,M,M,4000.00,4000.00,M,M,-SHRA,M,M,M,M,M,M,M,ZUUU 161700Z VRB01MPS 8000 -SHRA FEW040TCU SCT040 19/19 Q1016 NOSIG
ZWWW,2020-09-16 17:00,87.4742,43.9071,69.80,32.00,24.59,190.00,7.78,0.00,29.94,M,6.21,M,M,M,M,M,M,M,M,M,M,M,M,M,M,M,M,M,ZWWW 161700Z 19004MPS 160V230 CAVOK 21/00 Q1014 NOSIG
ZYCC,2020-09-16 17:00,125.2167,43.9000,59.00,46.40,62.92,190.00,13.61,0.00,29.53,M,6.21,M,SCT,M,M,M,3000.00,M,M,M,M,M,M,M,M,M,M,M,ZYCC 161700Z 19007MPS 9999 SCT030 15/08 Q1000 NOSIG
ZYHB,2020-09-16 17:00,126.5800,46.0200,55.40,53.60,93.65,130.00,7.78,0.00,29.53,M,6.21,M,FEW,M,M,M,4000.00,M,M,M,M,M,M,M,M,M,M,M,ZYHB 161700Z 13004MPS 100V170 9999 FEW040 13/12 Q1000 NOSIG
ZWSH,2020-09-16 17:00,75.9833,39.4667,69.80,42.80,37.61,330.00,5.83,0.00,30.03,M,6.21,M,M,M,M,M,M,M,M,M,,M,M,M,M,M,M,M,ZWSH 161700Z AUTO 33003MPS 9999 // ////// 21/06 Q1017
ZBAD,2020-09-16 17:00,116.4106,39.5092,64.40,39.20,39.43,M,1.94,0.00,29.85,M,6.21,M,M,M,M,M,M,M,M,M,M,M,M,M,M,M,M,M,ZBAD 161700Z VRB01MPS CAVOK 18/04 Q1011 NOSIG
ZBYN,2020-09-16 17:30,112.5500,37.7833,51.80,44.60,76.34,0.00,0.00,0.00,30.06,M,6.21,M,M,M,M,M,M,M,M,M,M,M,M,M,M,M,M,M,ZBYN 161730Z 00000MPS CAVOK 11/07 Q1018 NOSIG
ZGGG,2020-09-16 17:30,113.3008,23.3964,78.80,75.20,88.75,80.00,3.89,0.00,29.77,M,6.21,M,M,M,M,M,M,M,M,M,M,M,M,M,M,M,M,M,ZGGG 161730Z 08002MPS CAVOK 26/24 Q1008 NOSIG
ZBAA,2020-09-16 17:30,116.5870,40.0741,68.00,39.20,34.80,260.00,11.66,0.00,29.85,M,6.21,M,M,M,M,M,M,M,M,M,M,M,M,M,M,M,M,M,ZBAA 161730Z 26006MPS CAVOK 20/04 Q1011 NOSIG
ZBTJ,2020-09-16 17:30,117.3462,39.1243,69.80,33.80,26.43,300.00,5.83,0.00,29.85,M,6.21,M,M,M,M,M,M,M,M,M,M,M,M,M,M,M,M,M,ZBTJ 161730Z 30003MPS CAVOK 21/01 Q1011 NOSIG
ZYTL,2020-09-16 17:30,121.6333,38.9000,68.00,50.00,52.51,270.00,11.66,0.00,29.77,M,6.21,M,M,M,M,M,M,M,M,M,M,M,M,M,M,M,M,M,ZYTL 161730Z 27006MPS CAVOK 20/10 Q1008 NOSIG
ZYTX,2020-09-16 17:30,123.4000,41.8000,60.80,46.40,59.01,240.00,9.72,0.00,29.62,M,6.21,M,M,M,M,M,M,M,M,M,M,M,M,M,M,M,M,M,ZYTX 161730Z 24005MPS CAVOK 16/08 Q1003 NOSIG
ZSHC,2020-09-16 17:30,120.1667,30.2333,73.40,73.40,100.00,40.00,3.89,0.00,29.80,M,2.17,M,FEW,BKN,BKN,M,300.00,900.00,2000.00,M,BR,M,M,M,M,M,M,M,ZSHC 161730Z 04002MPS 3500 BR FEW003 BKN009 BKN020 23/23 Q1009 NOSIG
ZSSS,2020-09-16 17:30,121.3363,31.1979,75.20,73.40,94.14,M,1.94,0.00,29.83,M,2.61,M,BKN,M,M,M,2000.00,M,M,M,-RA BR,M,M,M,M,M,M,M,ZSSS 161730Z VRB01MPS 4200 -RA BR BKN020 24/23 Q1010 NOSIG
ZSPD,2020-09-16 17:30,121.7667,31.1167,75.20,73.40,94.14,200.00,5.83,0.00,29.83,M,1.86,M,BKN,OVC,M,M,700.00,3300.00,M,M,SHRA BR,M,M,M,M,M,M,M,ZSPD 161730Z 20003MPS 3000 SHRA BR BKN007 OVC033 24/23 Q1010 NOSIG
ZWWW,2020-09-16 17:30,87.4742,43.9071,68.00,32.00,26.15,180.00,3.89,0.00,29.94,M,6.21,M,M,M,M,M,M,M,M,M,M,M,M,M,M,M,M,M,ZWWW 161730Z 18002MPS 150V240 CAVOK 20/00 Q1014 NOSIG
ZBAD,2020-09-16 17:30,116.4106,39.5092,64.40,39.20,39.43,260.00,3.89,0.00,29.85,M,6.21,M,M,M,M,M,M,M,M,M,M,M,M,M,M,M,M,M,ZBAD 161730Z 26002MPS 210V350 CAVOK 18/04 Q1011 NOSIG
ZGHA,2020-09-16 18:00,112.8667,28.2333,68.00,68.00,100.00,340.00,9.72,0.00,29.83,M,4.97,M,FEW,BKN,OVC,M,600.00,1300.00,5000.00,M,SHRA,M,M,M,M,M,M,M,ZGHA 161800Z 34005MPS 8000 SHRA FEW006 BKN013 OVC050 20/20 Q1010 NOSIG
ZBYN,2020-09-16 18:00,112.5500,37.7833,50.00,42.80,76.18,M,1.94,0.00,30.06,M,6.21,M,M,M,M,M,M,M,M,M,M,M,M,M,M,M,M,M,ZBYN 161800Z VRB01MPS CAVOK 10/06 Q1018 NOSIG
ZGGG,2020-09-16 18:00,113.3008,23.3964,78.80,75.20,88.75,70.00,3.89,0.00,29.77,M,6.21,M,M,M,M,M,M,M,M,M,M,M,M,M,M,M,M,M,ZGGG 161800Z 07002MPS 020V100 CAVOK 26/24 Q1008 NOSIG
ZGKL,2020-09-16 18:00,110.3000,25.3333,77.00,77.00,100.00,340.00,3.89,0.00,29.77,M,3.73,M,SCT,M,M,M,5000.00,M,M,M,M,M,M,M,M,M,M,M,ZGKL 161800Z 34002MPS 6000 SCT050 25/25 Q1008 NOSIG
ZGOW,2020-09-16 18:00,116.6833,23.4000,78.80,77.00,94.23,360.00,1.94,0.00,29.80,M,6.21,M,M,M,M,M,M,M,M,M,M,M,M,M,M,M,M,M,ZGOW 161800Z 36001MPS CAVOK 26/25 Q1009 NOSIG
ZHHH,2020-09-16 18:00,114.1300,30.6200,66.20,64.40,93.92,360.00,3.89,0.00,29.85,M,6.21,M,M,M,M,M,M,M,M,M,M,M,M,M,M,M,M,M,ZHHH 161800Z 36002MPS 330V030 CAVOK 19/18 Q1011 NOSIG
ZJHK,2020-09-16 18:00,110.4590,19.9349,82.40,78.80,88.90,30.00,3.89,0.00,29.71,M,6.21,M,M,M,M,M,M,M,M,M,M,M,M,M,M,M,M,92.76,ZJHK 161800Z 03002MPS 360V060 CAVOK 28/26 Q1006 NOSIG
ZJSY,2020-09-16 18:00,109.4123,18.3029,82.40,78.80,88.90,M,1.94,0.00,29.68,M,6.21,M,M,M,M,M,M,M,M,M,M,M,M,M,M,M,M,92.76,ZJSY 161800Z VRB01MPS CAVOK 28/26 Q1005 NOSIG
ZUGY,2020-09-16 18:00,106.7333,26.5833,64.40,64.40,100.00,50.00,5.83,0.00,29.94,M,4.97,M,SCT,BKN,OVC,M,500.00,1500.00,3000.00,M,-RA,M,M,M,M,M,M,M,ZUGY 161800Z 05003MPS 8000 -RA SCT005 BKN015 OVC030 18/18 Q1014 NOSIG
ZGSZ,2020-09-16 18:00,114.1000,22.5500,84.20,77.00,79.04,M,3.89,0.00,29.77,M,6.21,M,FEW,M,M,M,2400.00,M,M,M,M,M,M,M,M,M,M,94.16,ZGSZ 161800Z VRB02MPS 9999 FEW024 29/25 Q1008 NOSIG
ZHCC,2020-09-16 18:00,113.6500,34.7167,69.80,46.40,43.13,300.00,7.78,0.00,29.88,M,6.21,M,M,M,M,M,M,M,M,M,M,M,M,M,M,M,M,M,ZHCC 161800Z 30004MPS CAVOK 21/08 Q1012 NOSIG
ZGNN,2020-09-16 18:00,108.2167,22.6333,80.60,75.20,83.66,M,1.94,0.00,29.74,M,6.21,M,M,M,M,M,M,M,M,M,M,M,M,M,M,M,M,86.17,ZGNN 161800Z VRB01MPS CAVOK 27/24 Q1007 NOSIG
ZBAA,2020-09-16 18:00,116.5870,40.0741,68.00,37.40,32.43,270.00,9.72,0.00,29.85,M,6.21,M,M,M,M,M,M,M,M,M,M,M,M,M,M,M,M,M,ZBAA 161800Z 27005MPS CAVOK 20/03 Q1011 NOSIG
ZBHH,2020-09-16 18:00,111.6833,40.8167,37.40,32.00,80.65,90.00,3.89,0.00,30.09,M,6.21,M,M,M,M,M,M,M,M,M,M,M,M,M,M,M,M,33.84,ZBHH 161800Z 09002MPS CAVOK 03/00 Q1019 NOSIG
ZBSJ,2020-09-16 18:00,114.6973,38.2807,60.80,50.00,67.54,290.00,3.89,0.00,29.91,M,6.21,M,M,M,M,M,M,M,M,M,M,M,M,M,M,M,M,M,ZBSJ 161800Z 29002MPS 260V320 CAVOK 16/10 Q1013 NOSIG
ZBTJ,2020-09-16 18:00,117.3462,39.1243,69.80,33.80,26.43,290.00,5.83,0.00,29.85,M,6.21,M,M,M,M,M,M,M,M,M,M,M,M,M,M,M,M,M,ZBTJ 161800Z 29003MPS 260V320 CAVOK 21/01 Q1011 NOSIG
ZYTL,2020-09-16 18:00,121.6333,38.9000,68.00,51.80,56.13,270.00,11.66,0.00,29.77,M,6.21,M,M,M,M,M,M,M,M,M,M,M,M,M,M,M,M,M,ZYTL 161800Z 27006MPS CAVOK 20/11 Q1008 NOSIG
ZYTX,2020-09-16 18:00,123.4000,41.8000,57.20,50.00,76.82,210.00,7.78,0.00,29.65,M,6.21,M,M,M,M,M,M,M,M,M,M,M,M,M,M,M,M,M,ZYTX 161800Z 21004MPS CAVOK 14/10 Q1004 NOSIG
ZLLL,2020-09-16 18:00,103.7500,36.0200,51.80,46.40,81.74,190.00,5.83,0.00,30.27,M,6.21,M,M,M,M,M,M,M,M,M,M,M,M,M,M,M,M,M,ZLLL 161800Z 19003MPS CAVOK 11/08 Q1025 NOSIG
ZLXY,2020-09-16 18:00,108.7516,34.4471,59.00,57.20,93.74,290.00,1.94,0.00,30.06,M,6.21,M,M,M,M,M,M,M,M,M,M,M,M,M,M,M,M,M,ZLXY 161800Z 29001MPS CAVOK 15/14 Q1018 NOSIG
ZMUB,2020-09-16 18:00,106.7666,47.8431,32.00,28.40,86.39,M,1.94,0.00,30.12,M,6.21,M,M,M,M,M,M,M,M,M,M,M,M,M,M,M,M,M,ZMUB 161800Z VRB01MPS CAVOK M00/M02 Q1020 NOSIG RMK QFE657.1 89
ZSAM,2020-09-16 18:00,118.0833,24.4833,80.60,78.80,94.27,40.00,3.89,0.00,29.80,M,6.21,M,M,M,M,M,M,M,M,M,M,M,M,M,M,M,M,89.33,ZSAM 161800Z 04002MPS CAVOK 27/26 Q1009 NOSIG
ZPPP,2020-09-16 18:00,102.6833,25.0167,62.60,62.60,100.00,220.00,5.83,0.00,30.09,M,6.21,M,FEW,SCT,M,M,2600.00,4000.00,M,M,M,M,M,M,M,M,M,M,ZPPP 161800Z 22003MPS 9999 FEW026 SCT040 17/17 Q1019 NOSIG
ZSFZ,2020-09-16 18:00,119.2833,26.0833,80.60,77.00,88.83,10.00,1.94,0.00,29.80,M,6.21,M,M,M,M,M,M,M,M,M,M,M,M,M,M,M,M,87.59,ZSFZ 161800Z 01001MPS CAVOK 27/25 Q1009 NOSIG
ZSHC,2020-09-16 18:00,120.1667,30.2333,73.40,73.40,100.00,60.00,3.89,0.00,29.77,M,2.05,M,SCT,BKN,BKN,M,400.00,900.00,2000.00,M,BR,M,M,M,M,M,M,M,ZSHC 161800Z 06002MPS 030V090 3300 BR SCT004 BKN009 BKN020 23/23 Q1008 NOSIG
ZSNB,2020-09-16 18:00,121.4619,29.8267,75.20,75.20,100.00,M,1.94,0.00,29.80,M,1.24,M,SCT,BKN,M,M,500.00,1600.00,M,M,BR,M,M,M,M,M,M,M,ZSNB 161800Z VRB01MPS 2000 BR SCT005 BKN016 24/24 Q1009 NOSIG
ZSOF,2020-09-16 18:00,117.2984,31.7800,71.60,69.80,94.06,270.00,5.83,0.00,29.83,M,4.35,M,FEW,M,M,M,600.00,M,M,M,-RA,M,M,M,M,M,M,M,ZSOF 161800Z 27003MPS 180V320 7000 -RA FEW006 22/21 Q1010 NOSIG
ZSQD,2020-09-16 18:00,120.3333,36.0667,64.40,57.20,77.45,0.00,0.00,0.00,29.85,M,6.21,M,M,M,M,M,M,M,M,M,M,M,M,M,M,M,M,M,ZSQD 161800Z 00000MPS CAVOK 18/14 Q1011 NOSIG
ZSSS,2020-09-16 18:00,121.3363,31.1979,75.20,73.40,94.14,M,1.94,0.00,29.83,M,2.49,M,BKN,M,M,M,1600.00,M,M,M,-RA BR,M,M,M,M,M,M,M,ZSSS 161800Z VRB01MPS 4000 -RA BR BKN016 24/23 Q1010 BECMG TL1940 SHRA BKN010
ZUCK,2020-09-16 18:00,106.4800,29.5200,68.00,66.20,93.97,20.00,11.66,0.00,29.88,M,3.73,M,FEW,SCT,OVC,M,400.00,1500.00,5000.00,M,-DZ,M,M,M,M,M,M,M,ZUCK 161800Z 02006MPS 6000 -DZ FEW004 SCT015 OVC050 20/19 Q1012 NOSIG
ZSNJ,2020-09-16 18:00,118.8667,31.7333,69.80,68.00,94.01,M,1.94,0.00,29.85,M,5.59,M,FEW,M,M,M,3300.00,M,M,M,-RA,M,M,M,M,M,M,M,ZSNJ 161800Z VRB01MPS 9000 -RA FEW033 21/20 Q1011 NOSIG
ZSPD,2020-09-16 18:00,121.7667,31.1167,73.40,73.40,100.00,160.00,3.89,0.00,29.80,M,1.86,M,BKN,OVC,M,M,500.00,3300.00,M,M,+SHRA BR,M,M,M,M,M,M,M,ZSPD 161800Z 16002MPS 3000 +SHRA BR BKN005 OVC033 23/23 Q1009 BECMG TL1810 SHRA
ZUUU,2020-09-16 18:00,104.0167,30.6667,66.20,66.20,100.00,0.00,0.00,0.00,30.00,M,4.97,M,FEW,SCT,M,M,4000.00,4000.00,M,M,-SHRA,M,M,M,M,M,M,M,ZUUU 161800Z 00000MPS 8000 -SHRA FEW040TCU SCT040 19/19 Q1016 NOSIG
ZWWW,2020-09-16 18:00,87.4742,43.9071,66.20,32.00,27.83,160.00,5.83,0.00,29.94,M,6.21,M,M,M,M,M,M,M,M,M,M,M,M,M,M,M,M,M,ZWWW 161800Z 16003MPS 130V200 CAVOK 19/00 Q1014 NOSIG
ZYCC,2020-09-16 18:00,125.2167,43.9000,59.00,46.40,62.92,190.00,13.61,0.00,29.53,M,6.21,M,FEW,M,M,M,3000.00,M,M,M,M,M,M,M,M,M,M,M,ZYCC 161800Z 19007MPS 9999 FEW030 15/08 Q1000 NOSIG
ZYHB,2020-09-16 18:00,126.5800,46.0200,57.20,53.60,87.74,140.00,5.83,0.00,29.50,M,6.21,M,FEW,M,M,M,4000.00,M,M,M,M,M,M,M,M,M,M,M,ZYHB 161800Z 14003MPS 100V170 9999 FEW040 14/12 Q0999 NOSIG
ZWSH,2020-09-16 18:00,75.9833,39.4667,71.60,42.80,35.37,330.00,5.83,0.00,30.00,M,6.21,M,M,M,M,M,M,M,M,M,,M,M,M,M,M,M,M,ZWSH 161800Z AUTO 33003MPS 9999 // ////// 22/06 Q1016
ZBAD,2020-09-16 18:00,116.4106,39.5092,66.20,39.20,37.03,270.00,3.89,0.00,29.85,M,6.21,M,M,M,M,M,M,M,M,M,M,M,M,M,M,M,M,M,ZBAD 161800Z 27002MPS 240V300 CAVOK 19/04 Q1011 NOSIG
ZBYN,2020-09-16 18:30,112.5500,37.7833,50.00,42.80,76.18,M,1.94,0.00,30.06,M,6.21,M,M,M,M,M,M,M,M,M,M,M,M,M,M,M,M,M,ZBYN 161830Z VRB01MPS CAVOK 10/06 Q1018 NOSIG
ZGGG,2020-09-16 18:30,113.3008,23.3964,78.80,75.20,88.75,90.00,3.89,0.00,29.77,M,6.21,M,M,M,M,M,M,M,M,M,M,M,M,M,M,M,M,M,ZGGG 161830Z 09002MPS CAVOK 26/24 Q1008 NOSIG
ZBAA,2020-09-16 18:30,116.5870,40.0741,66.20,37.40,34.51,280.00,7.78,0.00,29.85,M,6.21,M,M,M,M,M,M,M,M,M,M,M,M,M,M,M,M,M,ZBAA 161830Z 28004MPS CAVOK 19/03 Q1011 NOSIG
ZBTJ,2020-09-16 18:30,117.3462,39.1243,69.80,33.80,26.43,300.00,5.83,0.00,29.85,M,6.21,M,M,M,M,M,M,M,M,M,M,M,M,M,M,M,M,M,ZBTJ 161830Z 30003MPS CAVOK 21/01 Q1011 NOSIG
ZYTL,2020-09-16 18:30,121.6333,38.9000,69.80,53.60,56.38,270.00,13.61,0.00,29.77,M,6.21,M,M,M,M,M,M,M,M,M,M,M,M,M,M,M,M,M,ZYTL 161830Z 27007MPS CAVOK 21/12 Q1008 NOSIG
ZYTX,2020-09-16 18:30,123.4000,41.8000,55.40,48.20,76.66,220.00,5.83,0.00,29.65,M,6.21,M,M,M,M,M,M,M,M,M,M,M,M,M,M,M,M,M,ZYTX 161830Z 22003MPS CAVOK 13/09 Q1004 NOSIG
ZSHC,2020-09-16 18:30,120.1667,30.2333,73.40,73.40,100.00,80.00,5.83,0.00,29.77,M,2.49,M,SCT,BKN,BKN,M,400.00,900.00,2000.00,M,BR,M,M,M,M,M,M,M,ZSHC 161830Z 08003MPS 4000 BR SCT004 BKN009 BKN020 23/23 Q1008 NOSIG
ZSSS,2020-09-16 18:30,121.3363,31.1979,75.20,73.40,94.14,M,1.94,0.00,29.80,M,2.24,M,BKN,M,M,M,1200.00,M,M,M,-RA BR,M,M,M,M,M,M,M,ZSSS 161830Z VRB01MPS 3600 -RA BR BKN012 24/23 Q1009 NOSIG
ZSPD,2020-09-16 18:30,121.7667,31.1167,73.40,71.60,94.10,190.00,3.89,0.00,29.80,M,3.11,M,BKN,OVC,M,M,600.00,3300.00,M,M,-SHRA BR,M,M,M,M,M,M,M,ZSPD 161830Z 19002MPS 5000 -SHRA BR BKN006 OVC033 23/22 Q1009 RESHRA NOSIG
ZWWW,2020-09-16 18:30,87.4742,43.9071,68.00,32.00,26.15,170.00,9.72,0.00,29.91,M,6.21,M,M,M,M,M,M,M,M,M,M,M,M,M,M,M,M,M,ZWWW 161830Z 17005MPS CAVOK 20/M00 Q1013 NOSIG
ZBAD,2020-09-16 18:30,116.4106,39.5092,64.40,39.20,39.43,260.00,5.83,0.00,29.85,M,6.21,M,M,M,M,M,M,M,M,M,M,M,M,M,M,M,M,M,ZBAD 161830Z 26003MPS CAVOK 18/04 Q1011 NOSIG
ZGHA,2020-09-16 19:00,112.8667,28.2333,68.00,68.00,100.00,340.00,11.66,0.00,29.83,M,4.97,M,FEW,BKN,M,M,600.00,1400.00,M,M,SHRA,M,M,M,M,M,M,M,ZGHA 161900Z 34006MPS 8000 SHRA FEW006 BKN014 20/20 Q1010 NOSIG
ZBYN,2020-09-16 19:00,112.5500,37.7833,48.20,42.80,81.47,M,1.94,0.00,30.06,M,6.21,M,M,M,M,M,M,M,M,M,M,M,M,M,M,M,M,M,ZBYN 161900Z VRB01MPS CAVOK 09/06 Q1018 NOSIG
ZGGG,2020-09-16 19:00,113.3008,23.3964,78.80,75.20,88.75,M,1.94,0.00,29.77,M,6.21,M,M,M,M,M,M,M,M,M,M,M,M,M,M,M,M,M,ZGGG 161900Z VRB01MPS CAVOK 26/24 Q1008 NOSIG
ZGKL,2020-09-16 19:00,110.3000,25.3333,77.00,75.20,94.19,320.00,1.94,0.00,29.77,M,3.11,M,FEW,M,M,M,6600.00,M,M,M,BR,M,M,M,M,M,M,M,ZGKL 161900Z 32001MPS 5000 BR FEW066 25/24 Q1008 NOSIG
ZGOW,2020-09-16 19:00,116.6833,23.4000,78.80,77.00,94.23,40.00,3.89,0.00,29.77,M,6.21,M,M,M,M,M,M,M,M,M,M,M,M,M,M,M,M,M,ZGOW 161900Z 04002MPS CAVOK 26/25 Q1008 NOSIG
ZHHH,2020-09-16 19:00,114.1300,30.6200,68.00,64.40,88.26,10.00,3.89,0.00,29.85,M,6.21,M,M,M,M,M,M,M,M,M,M,M,M,M,M,M,M,M,ZHHH 161900Z 01002MPS 330V070 CAVOK 20/18 Q1011 NOSIG
ZJHK,2020-09-16 19:00,110.4590,19.9349,82.40,78.80,88.90,40.00,3.89,0.00,29.68,M,6.21,M,FEW,M,M,M,2300.00,M,M,M,M,M,M,M,M,M,M,92.76,ZJHK 161900Z 04002MPS 9999 FEW023 28/26 Q1005 NOSIG
ZJSY,2020-09-16 19:00,109.4123,18.3029,82.40,78.80,88.90,360.00,3.89,0.00,29.65,M,6.21,M,M,M,M,M,M,M,M,M,M,M,M,M,M,M,M,92.76,ZJSY 161900Z 36002MPS CAVOK 28/26 Q1004 NOSIG
ZUGY,2020-09-16 19:00,106.7333,26.5833,64.40,64.40,100.00,360.00,3.89,0.00,29.94,M,3.11,M,SCT,BKN,OVC,M,500.00,1500.00,3000.00,M,-RA BR,M,M,M,M,M,M,M,ZUGY 161900Z 36002MPS 5000 -RA BR SCT005 BKN015 OVC030 18/18 Q1014 BECMG TL2000 RA
ZGSZ,2020-09-16 19:00,114.1000,22.5500,84.20,77.00,79.04,20.00,5.83,0.00,29.74,M,6.21,M,FEW,BKN,M,M,2400.00,4000.00,M,M,M,M,M,M,M,M,M,94.16,ZGSZ 161900Z 02003MPS 330V090 9999 FEW024 BKN040 29/25 Q1007 NOSIG
ZHCC,2020-09-16 19:00,113.6500,34.7167,73.40,50.00,43.69,340.00,9.72,0.00,29.91,M,6.21,M,M,M,M,M,M,M,M,M,M,M,M,M,M,M,M,M,ZHCC 161900Z 34005MPS CAVOK 23/10 Q1013 NOSIG
ZGNN,2020-09-16 19:00,108.2167,22.6333,80.60,77.00,88.83,90.00,1.94,0.00,29.74,M,6.21,M,M,M,M,M,M,M,M,M,M,M,M,M,M,M,M,87.59,ZGNN 161900Z 09001MPS CAVOK 27/25 Q1007 NOSIG
ZBAA,2020-09-16 19:00,116.5870,40.0741,64.40,39.20,39.43,310.00,7.78,0.00,29.85,M,6.21,M,M,M,M,M,M,M,M,M,M,M,M,M,M,M,M,M,ZBAA 161900Z 31004MPS CAVOK 18/04 Q1011 NOSIG
ZBHH,2020-09-16 19:00,111.6833,40.8167,37.40,30.20,74.98,70.00,5.83,0.00,30.09,M,6.21,M,M,M,M,M,M,M,M,M,M,M,M,M,M,M,M,32.16,ZBHH 161900Z 07003MPS CAVOK 03/M01 Q1019 NOSIG
ZBSJ,2020-09-16 19:00,114.6973,38.2807,59.00,50.00,72.01,250.00,3.89,0.00,29.91,M,6.21,M,M,M,M,M,M,M,M,M,M,M,M,M,M,M,M,M,ZBSJ 161900Z 25002MPS CAVOK 15/10 Q1013 NOSIG
ZBTJ,2020-09-16 19:00,117.3462,39.1243,68.00,35.60,30.20,300.00,5.83,0.00,29.85,M,6.21,M,M,M,M,M,M,M,M,M,M,M,M,M,M,M,M,M,ZBTJ 161900Z 30003MPS CAVOK 20/02 Q1011 NOSIG
ZYTL,2020-09-16 19:00,121.6333,38.9000,68.00,53.60,59.97,280.00,11.66,0.00,29.77,M,6.21,M,M,M,M,M,M,M,M,M,M,M,M,M,M,M,M,M,ZYTL 161900Z 28006MPS CAVOK 20/12 Q1008 NOSIG
ZYTX,2020-09-16 19:00,123.4000,41.8000,57.20,46.40,67.12,240.00,7.78,0.00,29.65,M,6.21,M,M,M,M,M,M,M,M,M,M,M,M,M,M,M,M,M,ZYTX 161900Z 24004MPS CAVOK 14/08 Q1004 NOSIG
ZLLL,2020-09-16 19:00,103.7500,36.0200,51.80,48.20,87.47,M,1.94,0.00,30.27,M,6.21,M,M,M,M,M,M,M,M,M,M,M,M,M,M,M,M,M,ZLLL 161900Z VRB01MPS CAVOK 11/09 Q1025 NOSIG
ZLXY,2020-09-16 19:00,108.7516,34.4471,59.00,57.20,93.74,270.00,1.94,0.00,30.06,M,6.21,M,M,M,M,M,M,M,M,M,M,M,M,M,M,M,M,M,ZLXY 161900Z 27001MPS CAVOK 15/14 Q1018 NOSIG
ZMUB,2020-09-16 19:00,106.7666,47.8431,28.40,26.60,92.86,M,1.94,0.00,30.09,M,6.21,M,M,M,M,M,M,M,M,M,M,M,M,M,M,M,M,M,ZMUB 161900Z VRB01MPS CAVOK M02/M03 Q1019 NOSIG RMK QFE657.0 90
ZSAM,2020-09-16 19:00,118.0833,24.4833,80.60,78.80,94.27,20.00,3.89,0.00,29.77,M,6.21,M,M,M,M,M,M,M,M,M,M,M,M,M,M,M,M,89.33,ZSAM 161900Z 02002MPS CAVOK 27/26 Q1008 NOSIG
ZPPP,2020-09-16 19:00,102.6833,25.0167,64.40,64.40,100.00,220.00,7.78,0.00,30.09,M,6.21,M,FEW,SCT,M,M,2600.00,4000.00,M,M,M,M,M,M,M,M,M,M,ZPPP 161900Z 22004MPS 9999 FEW026 SCT040 18/18 Q1019 NOSIG
ZSFZ,2020-09-16 19:00,119.2833,26.0833,80.60,77.00,88.83,340.00,1.94,0.00,29.80,M,4.97,M,NSC,M,M,M,M,M,M,M,M,M,M,M,M,M,M,87.59,ZSFZ 161900Z 34001MPS 8000 NSC 27/25 Q1009 NOSIG
ZSHC,2020-09-16 19:00,120.1667,30.2333,73.40,73.40,100.00,80.00,3.89,0.00,29.77,M,3.11,M,SCT,BKN,BKN,M,600.00,900.00,2000.00,M,BR,M,M,M,M,M,M,M,ZSHC 161900Z 08002MPS 5000 BR SCT006 BKN009 BKN020 23/23 Q1008 NOSIG
ZSNB,2020-09-16 19:00,121.4619,29.8267,75.20,75.20,100.00,140.00,3.89,0.00,29.77,M,1.24,M,BKN,M,M,M,1600.00,M,M,M,BR,M,M,M,M,M,M,M,ZSNB 161900Z 14002MPS 110V170 2000 BR BKN016 24/24 Q1008 NOSIG
ZSOF,2020-09-16 19:00,117.2984,31.7800,69.80,66.20,88.34,310.00,9.72,0.00,29.85,M,4.35,M,BKN,OVC,M,M,400.00,3300.00,M,M,-RA,M,M,M,M,M,M,M,ZSOF 161900Z 31005MPS 7000 -RA BKN004 OVC033 21/19 Q1011 RERA NOSIG
ZSQD,2020-09-16 19:00,120.3333,36.0667,64.40,57.20,77.45,270.00,1.94,0.00,29.85,M,6.21,M,M,M,M,M,M,M,M,M,M,M,M,M,M,M,M,M,ZSQD 161900Z 27001MPS CAVOK 18/14 Q1011 NOSIG
ZSSS,2020-09-16 19:00,121.3363,31.1979,75.20,73.40,94.14,90.00,1.94,0.00,29.80,M,2.17,M,SCT,M,M,M,500.00,M,M,M,-RA BR,M,M,M,M,M,M,M,ZSSS 161900Z 09001MPS 3500 -RA BR SCT005 24/23 Q1009 BECMG TL2010 SHRA BKN009
ZUCK,2020-09-16 19:00,106.4800,29.5200,66.20,66.20,100.00,20.00,11.66,0.00,29.88,M,3.11,M,FEW,SCT,OVC,M,300.00,1300.00,4000.00,M,RA BR,M,M,M,M,M,M,M,ZUCK 161900Z 02006MPS 5000 RA BR FEW003 SCT013 OVC040 19/19 Q1012 NOSIG
ZSNJ,2020-09-16 19:00,118.8667,31.7333,68.00,68.00,100.00,90.00,3.89,0.00,29.85,M,4.97,M,FEW,M,M,M,3300.00,M,M,M,-RA,M,M,M,M,M,M,M,ZSNJ 161900Z 09002MPS 030V140 8000 -RA FEW033 20/20 Q1011 NOSIG
ZSPD,2020-09-16 19:00,121.7667,31.1167,73.40,71.60,94.10,M,1.94,0.00,29.80,M,3.11,M,BKN,OVC,M,M,600.00,3300.00,M,M,-SHRA BR,M,M,M,M,M,M,M,ZSPD 161900Z VRB01MPS 5000 -SHRA BR BKN006 OVC033 23/22 Q1009 BECMG TL1930 BKN010 OVC040
ZUUU,2020-09-16 19:00,104.0167,30.6667,66.20,66.20,100.00,0.00,0.00,0.00,30.00,M,4.97,M,FEW,SCT,M,M,3300.00,3300.00,M,M,-SHRA,M,M,M,M,M,M,M,ZUUU 161900Z 00000MPS 8000 -SHRA FEW033TCU SCT033 19/19 Q1016 NOSIG
ZWWW,2020-09-16 19:00,87.4742,43.9071,68.00,32.00,26.15,210.00,7.78,0.00,29.91,M,6.21,M,M,M,M,M,M,M,M,M,M,M,M,M,M,M,M,M,ZWWW 161900Z 21004MPS CAVOK 20/M00 Q1013 NOSIG
ZYCC,2020-09-16 19:00,125.2167,43.9000,55.40,46.40,71.64,200.00,9.72,0.00,29.53,M,6.21,M,M,M,M,M,M,M,M,M,M,M,M,M,M,M,M,M,ZYCC 161900Z 20005MPS CAVOK 13/08 Q1000 NOSIG
ZYHB,2020-09-16 19:00,126.5800,46.0200,57.20,53.60,87.74,140.00,5.83,0.00,29.50,M,6.21,M,SCT,M,M,M,4000.00,M,M,M,-RA,M,M,M,M,M,M,M,ZYHB 161900Z 14003MPS 100V170 9999 -RA SCT040 14/12 Q0999 NOSIG
ZWSH,2020-09-16 19:00,75.9833,39.4667,69.80,41.00,35.09,330.00,5.83,0.00,30.00,M,6.21,M,M,M,M,M,M,M,M,M,,M,M,M,M,M,M,M,ZWSH 161900Z AUTO 33003MPS 9999 // ////// 21/05 Q1016
ZBAD,2020-09-16 19:00,116.4106,39.5092,57.20,44.60,62.69,280.00,5.83,0.00,29.85,M,6.21,M,M,M,M,M,M,M,M,M,M,M,M,M,M,M,M,M,ZBAD 161900Z 28003MPS CAVOK 14/07 Q1011 NOSIG
ZBYN,2020-09-16 19:30,112.5500,37.7833,48.20,44.60,87.28,120.00,1.94,0.00,30.06,M,6.21,M,M,M,M,M,M,M,M,M,M,M,M,M,M,M,M,M,ZBYN 161930Z 12001MPS CAVOK 09/07 Q1018 NOSIG
ZGGG,2020-09-16 19:30,113.3008,23.3964,78.80,75.20,88.75,M,1.94,0.00,29.77,M,4.97,M,NSC,M,M,M,M,M,M,M,M,M,M,M,M,M,M,M,ZGGG 161930Z VRB01MPS 8000 NSC 26/24 Q1008 NOSIG
ZBAA,2020-09-16 19:30,116.5870,40.0741,64.40,39.20,39.43,300.00,7.78,0.00,29.85,M,6.21,M,M,M,M,M,M,M,M,M,M,M,M,M,M,M,M,M,ZBAA 161930Z 30004MPS CAVOK 18/04 Q1011 NOSIG
ZBTJ,2020-09-16 19:30,117.3462,39.1243,68.00,35.60,30.20,300.00,5.83,0.00,29.85,M,6.21,M,M,M,M,M,M,M,M,M,M,M,M,M,M,M,M,M,ZBTJ 161930Z 30003MPS 260V320 CAVOK 20/02 Q1011 NOSIG
ZYTL,2020-09-16 19:30,121.6333,38.9000,69.80,53.60,56.38,280.00,11.66,0.00,29.77,M,6.21,M,M,M,M,M,M,M,M,M,M,M,M,M,M,M,M,M,ZYTL 161930Z 28006MPS CAVOK 21/12 Q1008 NOSIG
ZYTX,2020-09-16 19:30,123.4000,41.8000,55.40,46.40,71.64,240.00,3.89,0.00,29.65,M,6.21,M,M,M,M,M,M,M,M,M,M,M,M,M,M,M,M,M,ZYTX 161930Z 24002MPS 210V270 CAVOK 13/08 Q1004 NOSIG
ZSHC,2020-09-16 19:30,120.1667,30.2333,73.40,73.40,100.00,0.00,0.00,0.00,29.77,M,3.11,M,SCT,BKN,BKN,M,600.00,900.00,2000.00,M,-SHRA BR,M,M,M,M,M,M,M,ZSHC 161930Z 00000MPS 5000 -SHRA BR SCT006 BKN009 BKN020 23/23 Q1008 NOSIG
ZSSS,2020-09-16 19:30,121.3363,31.1979,75.20,73.40,94.14,M,1.94,0.00,29.80,M,2.17,M,SCT,M,M,M,600.00,M,M,M,-RA BR,M,M,M,M,M,M,M,ZSSS 161930Z VRB01MPS 3500 -RA BR SCT006 24/23 Q1009 NOSIG
ZSPD,2020-09-16 19:30,121.7667,31.1167,73.40,71.60,94.10,110.00,3.89,0.00,29.80,M,3.11,M,BKN,M,M,M,1000.00,M,M,M,-SHRA BR,M,M,M,M,M,M,M,ZSPD 161930Z 11002MPS 5000 -SHRA BR BKN010 23/22 Q1009 NOSIG
ZWWW,2020-09-16 19:30,87.4742,43.9071,64.40,32.00,29.63,140.00,3.89,0.00,29.91,M,6.21,M,M,M,M,M,M,M,M,M,M,M,M,M,M,M,M,M,ZWWW 161930Z 14002MPS 110V200 CAVOK 18/M00 Q1013 NOSIG
ZBAD,2020-09-16 19:30,116.4106,39.5092,60.80,41.00,48.00,280.00,5.83,0.00,29.85,M,6.21,M,M,M,M,M,M,M,M,M,M,M,M,M,M,M,M,M,ZBAD 161930Z 28003MPS CAVOK 16/05 Q1011 NOSIG
ZGHA,2020-09-16 20:00,112.8667,28.2333,68.00,68.00,100.00,300.00,5.83,0.00,29.83,M,6.21,M,SCT,BKN,M,M,500.00,1200.00,M,M,-SHRA,M,M,M,M,M,M,M,ZGHA 162000Z 30003MPS 270V340 9999 -SHRA SCT005 BKN012 20/20 Q1010 RESHRA NOSIG
ZBYN,2020-09-16 20:00,112.5500,37.7833,48.20,44.60,87.28,M,1.94,0.00,30.06,M,6.21,M,M,M,M,M,M,M,M,M,M,M,M,M,M,M,M,M,ZBYN 162000Z VRB01MPS CAVOK 09/07 Q1018 NOSIG
ZGGG,2020-09-16 20:00,113.3008,23.3964,77.00,75.20,94.19,50.00,3.89,0.00,29.77,M,4.97,M,NSC,M,M,M,M,M,M,M,M,M,M,M,M,M,M,M,ZGGG 162000Z 05002MPS 8000 NSC 25/24 Q1008 NOSIG
ZGKL,2020-09-16 20:00,110.3000,25.3333,77.00,75.20,94.19,M,1.94,0.00,29.74,M,3.11,M,NSC,M,M,M,M,M,M,M,BR,M,M,M,M,M,M,M,ZGKL 162000Z VRB01MPS 5000 BR NSC 25/24 Q1007 NOSIG
ZGOW,2020-09-16 20:00,116.6833,23.4000,78.80,75.20,88.75,360.00,3.89,0.00,29.77,M,6.21,M,M,M,M,M,M,M,M,M,M,M,M,M,M,M,M,M,ZGOW 162000Z 36002MPS CAVOK 26/24 Q1008 NOSIG
ZHHH,2020-09-16 20:00,114.1300,30.6200,68.00,66.20,93.97,350.00,5.83,0.00,29.88,M,6.21,M,NSC,M,M,M,M,M,M,M,-RA,M,M,M,M,M,M,M,ZHHH 162000Z 35003MPS 300V020 9999 -RA NSC 20/19 Q1012 NOSIG
ZJHK,2020-09-16 20:00,110.4590,19.9349,82.40,78.80,88.90,50.00,5.83,0.00,29.65,M,6.21,M,SCT,M,M,M,1300.00,M,M,M,M,M,M,M,M,M,M,92.76,ZJHK 162000Z 05003MPS 9999 SCT013 28/26 Q1004 NOSIG
ZJSY,2020-09-16 20:00,109.4123,18.3029,80.60,77.00,88.83,350.00,3.89,0.00,29.62,M,6.21,M,M,M,M,M,M,M,M,M,M,M,M,M,M,M,M,87.59,ZJSY 162000Z 35002MPS CAVOK 27/25 Q1003 NOSIG
ZUGY,2020-09-16 20:00,106.7333,26.5833,64.40,64.40,100.00,360.00,3.89,0.00,29.94,M,2.49,M,SCT,BKN,FEW,OVC,500.00,1500.00,2600.00,3000.00,SHRA BR,M,M,M,M,M,M,M,ZUGY 162000Z 36002MPS 310V050 4000 SHRA BR SCT005 BKN015 FEW026CB OVC030 18/18 Q1014 BECMG TL2130 -SHRA FEW004 BKN012 OVC030
ZGSZ,2020-09-16 20:00,114.1000,22.5500,82.40,77.00,83.77,30.00,5.83,0.00,29.74,M,6.21,M,FEW,BKN,M,M,1500.00,4000.00,M,M,-SHRA,M,M,M,M,M,M,90.85,ZGSZ 162000Z 03003MPS 9999 -SHRA FEW015 BKN040 28/25 Q1007 RESHRA NOSIG
ZHCC,2020-09-16 20:00,113.6500,34.7167,69.80,55.40,60.21,330.00,7.78,0.00,29.91,M,6.21,M,M,M,M,M,M,M,M,M,M,M,M,M,M,M,M,M,ZHCC 162000Z 33004MPS CAVOK 21/13 Q1013 NOSIG
ZGNN,2020-09-16 20:00,108.2167,22.6333,80.60,77.00,88.83,70.00,3.89,0.00,29.71,M,6.21,M,M,M,M,M,M,M,M,M,M,M,M,M,M,M,M,87.59,ZGNN 162000Z 07002MPS CAVOK 27/25 Q1006 NOSIG
ZBAA,2020-09-16 20:00,116.5870,40.0741,64.40,39.20,39.43,300.00,7.78,0.00,29.85,M,6.21,M,M,M,M,M,M,M,M,M,M,M,M,M,M,M,M,M,ZBAA 162000Z 30004MPS CAVOK 18/04 Q1011 NOSIG
ZBHH,2020-09-16 20:00,111.6833,40.8167,35.60,32.00,86.59,80.00,5.83,0.00,30.09,M,6.21,M,M,M,M,M,M,M,M,M,M,M,M,M,M,M,M,29.99,ZBHH 162000Z 08003MPS CAVOK 02/M00 Q1019 NOSIG
ZBSJ,2020-09-16 20:00,114.6973,38.2807,55.40,48.20,76.66,300.00,3.89,0.00,29.91,M,6.21,M,M,M,M,M,M,M,M,M,M,M,M,M,M,M,M,M,ZBSJ 162000Z 30002MPS CAVOK 13/09 Q1013 NOSIG
ZBTJ,2020-09-16 20:00,117.3462,39.1243,68.00,35.60,30.20,280.00,5.83,0.00,29.85,M,6.21,M,M,M,M,M,M,M,M,M,M,M,M,M,M,M,M,M,ZBTJ 162000Z 28003MPS CAVOK 20/02 Q1011 NOSIG
ZYTL,2020-09-16 20:00,121.6333,38.9000,69.80,55.40,60.21,280.00,11.66,0.00,29.77,M,6.21,M,M,M,M,M,M,M,M,M,M,M,M,M,M,M,M,M,ZYTL 162000Z 28006MPS CAVOK 21/13 Q1008 NOSIG
ZYTX,2020-09-16 20:00,123.4000,41.8000,55.40,46.40,71.64,230.00,5.83,0.00,29.65,M,6.21,M,M,M,M,M,M,M,M,M,M,M,M,M,M,M,M,M,ZYTX 162000Z 23003MPS CAVOK 13/08 Q1004 NOSIG
ZLLL,2020-09-16 20:00,103.7500,36.0200,51.80,46.40,81.74,M,1.94,0.00,30.27,M,6.21,M,M,M,M,M,M,M,M,M,M,M,M,M,M,M,M,M,ZLLL 162000Z VRB01MPS CAVOK 11/08 Q1025 NOSIG
ZLXY,2020-09-16 20:00,108.7516,34.4471,60.80,55.40,82.37,190.00,3.89,0.00,30.06,M,6.21,M,M,M,M,M,M,M,M,M,M,M,M,M,M,M,M,M,ZLXY 162000Z 19002MPS CAVOK 16/13 Q1018 NOSIG
ZMUB,2020-09-16 20:00,106.7666,47.8431,26.60,24.80,92.80,0.00,0.00,0.00,30.12,M,6.21,M,M,M,M,M,M,M,M,M,M,M,M,M,M,M,M,M,ZMUB 162000Z 00000MPS CAVOK M03/M04 Q1020 NOSIG RMK QFE657.1 91
ZSAM,2020-09-16 20:00,118.0833,24.4833,80.60,78.80,94.27,30.00,3.89,0.00,29.80,M,3.73,M,FEW,M,M,M,1000.00,M,M,M,M,M,M,M,M,M,M,89.33,ZSAM 162000Z 03002MPS 6000 FEW010 27/26 Q1009 NOSIG
ZPPP,2020-09-16 20:00,102.6833,25.0167,62.60,62.60,100.00,210.00,5.83,0.00,30.06,M,6.21,M,FEW,SCT,M,M,2600.00,4000.00,M,M,M,M,M,M,M,M,M,M,ZPPP 162000Z 21003MPS 9999 FEW026 SCT040 17/17 Q1018 NOSIG
ZSFZ,2020-09-16 20:00,119.2833,26.0833,78.80,77.00,94.23,330.00,1.94,0.00,29.80,M,3.73,M,FEW,M,M,M,1000.00,M,M,M,M,M,M,M,M,M,M,M,ZSFZ 162000Z 33001MPS 6000 FEW010 26/25 Q1009 NOSIG
ZSHC,2020-09-16 20:00,120.1667,30.2333,73.40,73.40,100.00,360.00,5.83,0.00,29.74,M,2.17,M,SCT,BKN,BKN,M,500.00,900.00,2000.00,M,SHRA BR,M,M,M,M,M,M,M,ZSHC 162000Z 36003MPS 330V040 3500 SHRA BR SCT005 BKN009 BKN020 23/23 Q1007 BECMG TL2040 -SHRA
ZSNB,2020-09-16 20:00,121.4619,29.8267,75.20,75.20,100.00,110.00,3.89,0.00,29.77,M,1.74,M,BKN,M,M,M,1600.00,M,M,M,BR,M,M,M,M,M,M,M,ZSNB 162000Z 11002MPS 2800 BR BKN016 24/24 Q1008 BECMG TL2100 3500
ZSOF,2020-09-16 20:00,117.2984,31.7800,69.80,68.00,94.01,290.00,5.83,0.00,29.85,M,3.11,M,BKN,OVC,M,M,400.00,3300.00,M,M,-RA BR,M,M,M,M,M,M,M,ZSOF 162000Z 29003MPS 5000 -RA BR BKN004 OVC033 21/20 Q1011 NOSIG
ZSQD,2020-09-16 20:00,120.3333,36.0667,62.60,57.20,82.50,360.00,1.94,0.00,29.85,M,6.21,M,M,M,M,M,M,M,M,M,M,M,M,M,M,M,M,M,ZSQD 162000Z 36001MPS CAVOK 17/14 Q1011 NOSIG
ZSSS,2020-09-16 20:00,121.3363,31.1979,75.20,73.40,94.14,10.00,5.83,0.00,29.80,M,1.62,M,SCT,OVC,M,M,400.00,3300.00,M,M,RA BR,M,M,M,M,M,M,M,ZSSS 162000Z 01003MPS 2600 RA BR SCT004 OVC033 24/23 Q1009 BECMG TL2120 3000 -RA BKN004
ZUCK,2020-09-16 20:00,106.4800,29.5200,66.20,66.20,100.00,20.00,11.66,0.00,29.88,M,3.11,M,FEW,SCT,OVC,M,400.00,1300.00,4000.00,M,-RA BR,M,M,M,M,M,M,M,ZUCK 162000Z 02006MPS 5000 -RA BR FEW004 SCT013 OVC040 19/19 Q1012 RERA NOSIG
ZSNJ,2020-09-16 20:00,118.8667,31.7333,68.00,68.00,100.00,120.00,3.89,0.00,29.83,M,5.59,M,FEW,M,M,M,4000.00,M,M,M,-RA,M,M,M,M,M,M,M,ZSNJ 162000Z 12002MPS 9000 -RA FEW040 20/20 Q1010 NOSIG
ZSPD,2020-09-16 20:00,121.7667,31.1167,73.40,71.60,94.10,140.00,3.89,0.00,29.80,M,2.49,M,BKN,M,M,M,1000.00,M,M,M,+SHRA BR,M,M,M,M,M,M,M,ZSPD 162000Z 14002MPS 4000 +SHRA BR BKN010 23/22 Q1009 BECMG TL2030 -SHRA
ZUUU,2020-09-16 20:00,104.0167,30.6667,66.20,66.20,100.00,M,1.94,0.00,30.00,M,4.97,M,FEW,SCT,M,M,3300.00,3300.00,M,M,-SHRA,M,M,M,M,M,M,M,ZUUU 162000Z VRB01MPS 8000 -SHRA FEW033TCU SCT033 19/19 Q1016 NOSIG
ZWWW,2020-09-16 20:00,87.4742,43.9071,62.60,33.80,33.93,120.00,3.89,0.00,29.91,M,6.21,M,M,M,M,M,M,M,M,M,M,M,M,M,M,M,M,M,ZWWW 162000Z 12002MPS CAVOK 17/01 Q1013 NOSIG
ZYCC,2020-09-16 20:00,125.2167,43.9000,55.40,44.60,66.91,200.00,7.78,0.00,29.53,M,6.21,M,M,M,M,M,M,M,M,M,M,M,M,M,M,M,M,M,ZYCC 162000Z 20004MPS CAVOK 13/07 Q1000 NOSIG
ZYHB,2020-09-16 20:00,126.5800,46.0200,57.20,53.60,87.74,140.00,5.83,0.00,29.50,M,6.21,M,SCT,M,M,M,4000.00,M,M,M,-RA,M,M,M,M,M,M,M,ZYHB 162000Z 14003MPS 110V190 9999 -RA SCT040 14/12 Q0999 NOSIG
ZWSH,2020-09-16 20:00,75.9833,39.4667,69.80,41.00,35.09,310.00,5.83,0.00,30.00,M,6.21,M,FEW,M,M,M,4000.00,M,M,M,M,M,M,M,M,M,M,M,ZWSH 162000Z 31003MPS 9999 FEW040 21/05 Q1016 NOSIG
ZBAD,2020-09-16 20:00,116.4106,39.5092,62.60,41.00,45.04,300.00,7.78,0.00,29.85,M,6.21,M,M,M,M,M,M,M,M,M,M,M,M,M,M,M,M,M,ZBAD 162000Z 30004MPS CAVOK 17/05 Q1011 NOSIG
ZBYN,2020-09-16 20:30,112.5500,37.7833,46.40,42.80,87.19,M,1.94,0.00,30.06,M,6.21,M,M,M,M,M,M,M,M,M,M,M,M,M,M,M,M,M,ZBYN 162030Z VRB01MPS CAVOK 08/06 Q1018 NOSIG
ZGGG,2020-09-16 20:30,113.3008,23.3964,77.00,75.20,94.19,50.00,3.89,0.00,29.74,M,4.97,M,NSC,M,M,M,M,M,M,M,M,M,M,M,M,M,M,M,ZGGG 162030Z 05002MPS 8000 NSC 25/24 Q1007 NOSIG
ZBAA,2020-09-16 20:30,116.5870,40.0741,64.40,39.20,39.43,300.00,5.83,0.00,29.85,M,6.21,M,M,M,M,M,M,M,M,M,M,M,M,M,M,M,M,M,ZBAA 162030Z 30003MPS CAVOK 18/04 Q1011 NOSIG
ZBTJ,2020-09-16 20:30,117.3462,39.1243,66.20,35.60,32.14,290.00,5.83,0.00,29.85,M,6.21,M,M,M,M,M,M,M,M,M,M,M,M,M,M,M,M,M,ZBTJ 162030Z 29003MPS CAVOK 19/02 Q1011 NOSIG
ZYTL,2020-09-16 20:30,121.6333,38.9000,68.00,53.60,59.97,280.00,9.72,0.00,29.77,M,6.21,M,M,M,M,M,M,M,M,M,M,M,M,M,M,M,M,M,ZYTL 162030Z 28005MPS CAVOK 20/12 Q1008 NOSIG
ZYTX,2020-09-16 20:30,123.4000,41.8000,55.40,46.40,71.64,230.00,5.83,0.00,29.65,M,6.21,M,M,M,M,M,M,M,M,M,M,M,M,M,M,M,M,M,ZYTX 162030Z 23003MPS CAVOK 13/08 Q1004 NOSIG
ZSHC,2020-09-16 20:30,120.1667,30.2333,73.40,73.40,100.00,290.00,5.83,0.00,29.77,M,2.17,M,SCT,BKN,BKN,M,300.00,900.00,1700.00,M,-SHRA BR,M,M,M,M,M,M,M,ZSHC 162030Z 29003MPS 260V340 3500 -SHRA BR SCT003 BKN009 BKN017 23/23 Q1008 RESHRA NOSIG
ZSSS,2020-09-16 20:30,121.3363,31.1979,73.40,71.60,94.10,10.00,7.78,0.00,29.80,M,1.62,M,SCT,OVC,M,M,500.00,3300.00,M,M,+RA BR,M,M,M,M,M,M,M,ZSSS 162030Z 01004MPS 2600 +RA BR SCT005 OVC033 23/22 Q1009 NOSIG
ZSPD,2020-09-16 20:30,121.7667,31.1167,73.40,71.60,94.10,M,1.94,0.00,29.80,M,4.35,M,BKN,M,M,M,1100.00,M,M,M,-SHRA,M,M,M,M,M,M,M,ZSPD 162030Z VRB01MPS 7000 -SHRA BKN011 23/22 Q1009 RESHRA NOSIG
ZWWW,2020-09-16 20:30,87.4742,43.9071,64.40,33.80,31.85,130.00,9.72,0.00,29.88,M,6.21,M,M,M,M,M,M,M,M,M,M,M,M,M,M,M,M,M,ZWWW 162030Z 13005MPS CAVOK 18/01 Q1012 NOSIG
ZBAD,2020-09-16 20:30,116.4106,39.5092,60.80,41.00,48.00,290.00,5.83,0.00,29.85,M,6.21,M,M,M,M,M,M,M,M,M,M,M,M,M,M,M,M,M,ZBAD 162030Z 29003MPS CAVOK 16/05 Q1011 NOSIG
ZGHA,2020-09-16 21:00,112.8667,28.2333,68.00,66.20,93.97,340.00,5.83,0.00,29.83,M,6.21,M,SCT,BKN,OVC,M,500.00,800.00,5000.00,M,-SHRA,M,M,M,M,M,M,M,ZGHA 162100Z 34003MPS 9999 -SHRA SCT005 BKN008 OVC050 20/19 Q1010 NOSIG
ZBYN,2020-09-16 21:00,112.5500,37.7833,48.20,42.80,81.47,110.00,1.94,0.00,30.06,M,6.21,M,M,M,M,M,M,M,M,M,M,M,M,M,M,M,M,M,ZBYN 162100Z 11001MPS CAVOK 09/06 Q1018 NOSIG
ZGGG,2020-09-16 21:00,113.3008,23.3964,77.00,73.40,88.67,M,1.94,0.00,29.74,M,4.97,M,NSC,M,M,M,M,M,M,M,M,M,M,M,M,M,M,M,ZGGG 162100Z VRB01MPS 8000 NSC 25/23 Q1007 NOSIG
ZGKL,2020-09-16 21:00,110.3000,25.3333,77.00,75.20,94.19,20.00,1.94,0.00,29.77,M,3.11,M,SCT,M,M,M,3300.00,M,M,M,BR,M,M,M,M,M,M,M,ZGKL 162100Z 02001MPS 5000 BR SCT033 25/24 Q1008 NOSIG
ZGOW,2020-09-16 21:00,116.6833,23.4000,77.00,75.20,94.19,M,1.94,0.00,29.77,M,6.21,M,M,M,M,M,M,M,M,M,M,M,M,M,M,M,M,M,ZGOW 162100Z VRB01MPS CAVOK 25/24 Q1008 NOSIG
ZHHH,2020-09-16 21:00,114.1300,30.6200,68.00,66.20,93.97,10.00,3.89,0.00,29.88,M,6.21,M,FEW,M,M,M,600.00,M,M,M,-RA,M,M,M,M,M,M,M,ZHHH 162100Z 01002MPS 320V050 9999 -RA FEW006 20/19 Q1012 NOSIG
ZJHK,2020-09-16 21:00,110.4590,19.9349,82.40,78.80,88.90,50.00,5.83,0.00,29.65,M,6.21,M,FEW,M,M,M,1300.00,M,M,M,M,M,M,M,M,M,M,92.76,ZJHK 162100Z 05003MPS 9999 FEW013 28/26 Q1004 NOSIG
ZJSY,2020-09-16 21:00,109.4123,18.3029,80.60,77.00,88.83,0.00,0.00,0.00,29.62,M,6.21,M,M,M,M,M,M,M,M,M,M,M,M,M,M,M,M,87.59,ZJSY 162100Z 00000MPS CAVOK 27/25 Q1003 NOSIG
ZUGY,2020-09-16 21:00,106.7333,26.5833,64.40,64.40,100.00,60.00,3.89,0.00,29.94,M,3.73,M,SCT,BKN,FEW,OVC,400.00,1500.00,2600.00,3000.00,-SHRA,M,M,M,M,M,M,M,ZUGY 162100Z 06002MPS 6000 -SHRA SCT004 BKN015 FEW026CB OVC030 18/18 Q1014 RESHRA BECMG TL2130 FEW004 BKN012 OVC030
ZGSZ,2020-09-16 21:00,114.1000,22.5500,80.60,77.00,88.83,20.00,7.78,0.00,29.71,M,6.21,M,FEW,BKN,M,M,1700.00,5000.00,M,M,-SHRA,M,M,M,M,M,M,87.59,ZGSZ 162100Z 02004MPS 9999 -SHRA FEW017 BKN050 27/25 Q1006 NOSIG
ZHCC,2020-09-16 21:00,113.6500,34.7167,69.80,57.20,64.26,340.00,7.78,0.00,29.91,M,6.21,M,M,M,M,M,M,M,M,M,M,M,M,M,M,M,M,M,ZHCC 162100Z 34004MPS CAVOK 21/14 Q1013 NOSIG
ZGNN,2020-09-16 21:00,108.2167,22.6333,80.60,77.00,88.83,70.00,3.89,0.00,29.71,M,6.21,M,M,M,M,M,M,M,M,M,M,M,M,M,M,M,M,87.59,ZGNN 162100Z 07002MPS CAVOK 27/25 Q1006 NOSIG
ZBAA,2020-09-16 21:00,116.5870,40.0741,59.00,41.00,51.18,320.00,3.89,0.00,29.85,M,6.21,M,M,M,M,M,M,M,M,M,M,M,M,M,M,M,M,M,ZBAA 162100Z 32002MPS CAVOK 15/05 Q1011 NOSIG
ZBHH,2020-09-16 21:00,111.6833,40.8167,35.60,32.00,86.59,110.00,1.94,0.00,30.09,M,6.21,M,M,M,M,M,M,M,M,M,M,M,M,M,M,M,M,M,ZBHH 162100Z 11001MPS CAVOK 02/00 Q1019 NOSIG
ZBSJ,2020-09-16 21:00,114.6973,38.2807,57.20,46.40,67.12,290.00,3.89,0.00,29.91,M,6.21,M,M,M,M,M,M,M,M,M,M,M,M,M,M,M,M,M,ZBSJ 162100Z 29002MPS CAVOK 14/08 Q1013 NOSIG
ZBTJ,2020-09-16 21:00,117.3462,39.1243,68.00,35.60,30.20,280.00,5.83,0.00,29.85,M,6.21,M,M,M,M,M,M,M,M,M,M,M,M,M,M,M,M,M,ZBTJ 162100Z 28003MPS CAVOK 20/02 Q1011 NOSIG
ZYTL,2020-09-16 21:00,121.6333,38.9000,68.00,53.60,59.97,270.00,9.72,0.00,29.77,M,6.21,M,M,M,M,M,M,M,M,M,M,M,M,M,M,M,M,M,ZYTL 162100Z 27005MPS CAVOK 20/12 Q1008 NOSIG
ZYTX,2020-09-16 21:00,123.4000,41.8000,55.40,46.40,71.64,220.00,5.83,0.00,29.68,M,6.21,M,M,M,M,M,M,M,M,M,M,M,M,M,M,M,M,M,ZYTX 162100Z 22003MPS CAVOK 13/08 Q1005 NOSIG
ZLLL,2020-09-16 21:00,103.7500,36.0200,51.80,35.60,53.81,300.00,5.83,0.00,30.27,M,6.21,M,M,M,M,M,M,M,M,M,M,M,M,M,M,M,M,M,ZLLL 162100Z 30003MPS 280V340 CAVOK 11/02 Q1025 NOSIG
ZLXY,2020-09-16 21:00,108.7516,34.4471,60.80,57.20,87.92,M,1.94,0.00,30.03,M,6.21,M,M,M,M,M,M,M,M,M,M,M,M,M,M,M,M,M,ZLXY 162100Z VRB01MPS CAVOK 16/14 Q1017 NOSIG
ZMUB,2020-09-16 21:00,106.7666,47.8431,28.40,26.60,92.86,0.00,0.00,0.00,30.12,M,6.21,M,M,M,M,M,M,M,M,M,M,M,M,M,M,M,M,M,ZMUB 162100Z 00000MPS CAVOK M02/M03 Q1020 NOSIG RMK QFE657.2 91
ZSAM,2020-09-16 21:00,118.0833,24.4833,80.60,78.80,94.27,10.00,3.89,0.00,29.80,M,3.11,M,FEW,M,M,M,1600.00,M,M,M,BR,M,M,M,M,M,M,89.33,ZSAM 162100Z 01002MPS 330V030 5000 BR FEW016 27/26 Q1009 NOSIG
ZPPP,2020-09-16 21:00,102.6833,25.0167,62.60,62.60,100.00,220.00,3.89,0.00,30.06,M,6.21,M,FEW,SCT,M,M,1000.00,4000.00,M,M,M,M,M,M,M,M,M,M,ZPPP 162100Z 22002MPS 9999 FEW010 SCT040 17/17 Q1018 NOSIG
ZSFZ,2020-09-16 21:00,119.2833,26.0833,78.80,77.00,94.23,M,1.94,0.00,29.80,M,3.11,M,NSC,M,M,M,M,M,M,M,BR,M,M,M,M,M,M,M,ZSFZ 162100Z VRB01MPS 5000 BR NSC 26/25 Q1009 NOSIG
ZSHC,2020-09-16 21:00,120.1667,30.2333,73.40,73.40,100.00,350.00,5.83,0.00,29.77,M,2.49,M,SCT,BKN,BKN,M,300.00,900.00,1700.00,M,-SHRA BR,M,M,M,M,M,M,M,ZSHC 162100Z 35003MPS 290V010 4000 -SHRA BR SCT003 BKN009 BKN017 23/23 Q1008 RESHRA NOSIG
ZSNB,2020-09-16 21:00,121.4619,29.8267,75.20,75.20,100.00,130.00,3.89,0.00,29.77,M,2.49,M,BKN,M,M,M,1600.00,M,M,M,BR,M,M,M,M,M,M,M,ZSNB 162100Z 13002MPS 4000 BR BKN016 24/24 Q1008 BECMG TL2200 2500
ZSOF,2020-09-16 21:00,117.2984,31.7800,66.20,62.60,88.18,350.00,7.78,0.00,29.85,M,3.11,M,BKN,OVC,M,M,400.00,3300.00,M,M,-RA BR,M,M,M,M,M,M,M,ZSOF 162100Z 35004MPS 310V010 5000 -RA BR BKN004 OVC033 19/17 Q1011 NOSIG
ZSQD,2020-09-16 21:00,120.3333,36.0667,62.60,57.20,82.50,30.00,1.94,0.00,29.85,M,6.21,M,M,M,M,M,M,M,M,M,M,M,M,M,M,M,M,M,ZSQD 162100Z 03001MPS CAVOK 17/14 Q1011 NOSIG
ZSSS,2020-09-16 21:00,121.3363,31.1979,73.40,71.60,94.10,350.00,5.83,0.00,29.83,M,2.17,M,SCT,OVC,M,M,700.00,3300.00,M,M,RA BR,M,M,M,M,M,M,M,ZSSS 162100Z 35003MPS 3500 RA BR SCT007 OVC033 23/22 Q1010 BECMG TL2150 -RA BKN007
ZUCK,2020-09-16 21:00,106.4800,29.5200,66.20,66.20,100.00,20.00,13.61,0.00,29.88,M,3.11,M,FEW,SCT,OVC,M,500.00,1600.00,4000.00,M,-RA BR,M,M,M,M,M,M,M,ZUCK 162100Z 02007MPS 5000 -RA BR FEW005 SCT016 OVC040 19/19 Q1012 NOSIG
ZSNJ,2020-09-16 21:00,118.8667,31.7333,68.00,68.00,100.00,M,1.94,0.00,29.85,M,4.35,M,FEW,M,M,M,3300.00,M,M,M,-RA,M,M,M,M,M,M,M,ZSNJ 162100Z VRB01MPS 7000 -RA FEW033 20/20 Q1011 NOSIG
ZSPD,2020-09-16 21:00,121.7667,31.1167,73.40,73.40,100.00,M,1.94,0.00,29.80,M,2.49,M,BKN,M,M,M,1100.00,M,M,M,SHRA BR,M,M,M,M,M,M,M,ZSPD 162100Z VRB01MPS 4000 R17L/P2000N R16R/1200U R17R/P2000N R16L/P2000N SHRA BR BKN011 23/23 Q1009 BECMG TL2130 -SHRA BKN007
ZUUU,2020-09-16 21:00,104.0167,30.6667,66.20,66.20,100.00,280.00,3.89,0.00,30.00,M,4.97,M,SCT,M,M,M,3300.00,M,M,M,-SHRA,M,M,M,M,M,M,M,ZUUU 162100Z 28002MPS 240V320 8000 -SHRA SCT033 19/19 Q1016 NOSIG
ZWWW,2020-09-16 21:00,87.4742,43.9071,66.20,35.60,32.14,120.00,9.72,0.00,29.91,M,6.21,M,M,M,M,M,M,M,M,M,M,M,M,M,M,M,M,M,ZWWW 162100Z 12005MPS CAVOK 19/02 Q1013 NOSIG
ZYCC,2020-09-16 21:00,125.2167,43.9000,55.40,44.60,66.91,200.00,7.78,0.00,29.53,M,6.21,M,M,M,M,M,M,M,M,M,M,M,M,M,M,M,M,M,ZYCC 162100Z 20004MPS CAVOK 13/07 Q1000 NOSIG
ZYHB,2020-09-16 21:00,126.5800,46.0200,57.20,53.60,87.74,150.00,5.83,0.00,29.50,M,6.21,M,M,M,M,M,M,M,M,M,M,M,M,M,M,M,M,M,ZYHB 162100Z 15003MPS 110V180 CAVOK 14/12 Q0999 NOSIG
ZWSH,2020-09-16 21:00,75.9833,39.4667,69.80,39.20,32.72,M,1.94,0.00,30.00,M,6.21,M,FEW,M,M,M,4000.00,M,M,M,M,M,M,M,M,M,M,M,ZWSH 162100Z VRB01MPS 9999 FEW040 21/04 Q1016 NOSIG
ZBAD,2020-09-16 21:00,116.4106,39.5092,59.00,42.80,54.86,260.00,5.83,0.00,29.85,M,6.21,M,M,M,M,M,M,M,M,M,M,M,M,M,M,M,M,M,ZBAD 162100Z 26003MPS CAVOK 15/06 Q1011 NOSIG
ZBYN,2020-09-16 21:30,112.5500,37.7833,48.20,42.80,81.47,M,1.94,0.00,30.06,M,6.21,M,M,M,M,M,M,M,M,M,M,M,M,M,M,M,M,M,ZBYN 162130Z VRB01MPS CAVOK 09/06 Q1018 NOSIG
ZGGG,2020-09-16 21:30,113.3008,23.3964,77.00,73.40,88.67,M,1.94,0.00,29.74,M,4.97,M,NSC,M,M,M,M,M,M,M,M,M,M,M,M,M,M,M,ZGGG 162130Z VRB01MPS 8000 NSC 25/23 Q1007 NOSIG
ZBAA,2020-09-16 21:30,116.5870,40.0741,64.40,39.20,39.43,320.00,9.72,0.00,29.85,M,6.21,M,M,M,M,M,M,M,M,M,M,M,M,M,M,M,M,M,ZBAA 162130Z 32005MPS CAVOK 18/04 Q1011 NOSIG
ZBTJ,2020-09-16 21:30,117.3462,39.1243,66.20,35.60,32.14,280.00,5.83,0.00,29.85,M,6.21,M,M,M,M,M,M,M,M,M,M,M,M,M,M,M,M,M,ZBTJ 162130Z 28003MPS CAVOK 19/02 Q1011 NOSIG
ZYTL,2020-09-16 21:30,121.6333,38.9000,68.00,50.00,52.51,290.00,9.72,0.00,29.77,M,6.21,M,M,M,M,M,M,M,M,M,M,M,M,M,M,M,M,M,ZYTL 162130Z 29005MPS 260V320 CAVOK 20/10 Q1008 NOSIG
ZYTX,2020-09-16 21:30,123.4000,41.8000,57.20,46.40,67.12,220.00,7.78,0.00,29.68,M,6.21,M,M,M,M,M,M,M,M,M,M,M,M,M,M,M,M,M,ZYTX 162130Z 22004MPS CAVOK 14/08 Q1005 NOSIG
ZMUB,2020-09-16 21:30,106.7666,47.8431,26.60,24.80,92.80,M,1.94,0.00,30.12,M,6.21,M,M,M,M,M,M,M,M,M,M,M,M,M,M,M,M,M,ZMUB 162130Z VRB01MPS CAVOK M03/M04 Q1020 NOSIG RMK QFE657.1 92
ZSHC,2020-09-16 21:30,120.1667,30.2333,73.40,73.40,100.00,340.00,3.89,0.00,29.77,M,3.11,M,SCT,BKN,BKN,FEW,400.00,1000.00,2300.00,3300.00,SHRA BR,M,M,M,M,M,M,M,ZSHC 162130Z 34002MPS 300V010 5000 SHRA BR SCT004 BKN010 BKN023 FEW033TCU 23/23 Q1008 NOSIG
ZSSS,2020-09-16 21:30,121.3363,31.1979,71.60,71.60,100.00,30.00,9.72,0.00,29.83,M,2.17,M,SCT,M,M,M,700.00,M,M,M,RA BR,M,M,M,M,M,M,M,ZSSS 162130Z 03005MPS 3500 RA BR SCT007 22/22 Q1010 NOSIG
ZSPD,2020-09-16 21:30,121.7667,31.1167,71.60,71.60,100.00,30.00,7.78,0.00,29.77,M,3.73,M,BKN,M,M,M,800.00,M,M,M,-SHRA,M,M,M,M,M,M,M,ZSPD 162130Z 03004MPS 6000 -SHRA BKN008 22/22 Q1008 RESHRA NOSIG
ZWWW,2020-09-16 21:30,87.4742,43.9071,64.40,35.60,34.22,190.00,5.83,0.00,29.91,M,6.21,M,M,M,M,M,M,M,M,M,M,M,M,M,M,M,M,M,ZWWW 162130Z 19003MPS 150V220 CAVOK 18/02 Q1013 NOSIG
ZBAD,2020-09-16 21:30,116.4106,39.5092,60.80,41.00,48.00,260.00,7.78,0.00,29.88,M,6.21,M,M,M,M,M,M,M,M,M,M,M,M,M,M,M,M,M,ZBAD 162130Z 26004MPS CAVOK 16/05 Q1012 NOSIG
ZGHA,2020-09-16 22:00,112.8667,28.2333,68.00,66.20,93.97,330.00,7.78,0.00,29.83,M,6.21,M,SCT,BKN,OVC,M,500.00,800.00,5000.00,M,-SHRA,M,M,M,M,M,M,M,ZGHA 162200Z 33004MPS 9999 -SHRA SCT005 BKN008 OVC050 20/19 Q1010 NOSIG
ZBYN,2020-09-16 22:00,112.5500,37.7833,46.40,42.80,87.19,M,1.94,0.00,30.06,M,6.21,M,M,M,M,M,M,M,M,M,M,M,M,M,M,M,M,M,ZBYN 162200Z VRB01MPS CAVOK 08/06 Q1018 NOSIG
ZGGG,2020-09-16 22:00,113.3008,23.3964,77.00,73.40,88.67,M,1.94,0.00,29.74,M,4.35,M,NSC,M,M,M,M,M,M,M,M,M,M,M,M,M,M,M,ZGGG 162200Z VRB01MPS 7000 NSC 25/23 Q1007 NOSIG
ZGKL,2020-09-16 22:00,110.3000,25.3333,75.20,75.20,100.00,320.00,3.89,0.00,29.77,M,3.11,M,FEW,SCT,M,M,3300.00,6600.00,M,M,PRFG BR,M,M,M,M,M,M,M,ZGKL 162200Z 32002MPS 5000 PRFG BR FEW033 SCT066 24/24 Q1008 NOSIG
ZGOW,2020-09-16 22:00,116.6833,23.4000,77.00,75.20,94.19,0.00,0.00,0.00,29.77,M,6.21,M,BKN,M,M,M,3000.00,M,M,M,M,M,M,M,M,M,M,M,ZGOW 162200Z 00000MPS 9999 BKN030 25/24 Q1008 NOSIG
ZHHH,2020-09-16 22:00,114.1300,30.6200,66.20,62.60,88.18,70.00,9.72,0.00,29.91,M,6.21,M,SCT,M,M,M,4000.00,M,M,M,-RA,M,M,M,M,M,M,M,ZHHH 162200Z 07005MPS 9999 -RA SCT040 19/17 Q1013 NOSIG
ZJHK,2020-09-16 22:00,110.4590,19.9349,80.60,78.80,94.27,M,1.94,0.00,29.65,M,6.21,M,M,M,M,M,M,M,M,M,M,M,M,M,M,M,M,89.33,ZJHK 162200Z VRB01MPS CAVOK 27/26 Q1004 NOSIG
ZJSY,2020-09-16 22:00,109.4123,18.3029,80.60,77.00,88.83,100.00,5.83,0.00,29.65,M,6.21,M,M,M,M,M,M,M,M,M,M,M,M,M,M,M,M,87.59,ZJSY 162200Z 10003MPS CAVOK 27/25 Q1004 NOSIG
ZUGY,2020-09-16 22:00,106.7333,26.5833,64.40,62.60,93.88,40.00,5.83,0.00,29.97,M,3.11,M,SCT,BKN,FEW,OVC,400.00,1300.00,2600.00,3000.00,-SHRA BR,M,M,M,M,M,M,M,ZUGY 162200Z 04003MPS 5000 -SHRA BR SCT004 BKN013 FEW026CB OVC030 18/17 Q1015 NOSIG
ZGSZ,2020-09-16 22:00,114.1000,22.5500,78.80,77.00,94.23,30.00,9.72,0.00,29.74,M,6.21,M,FEW,BKN,M,M,1700.00,5000.00,M,M,-SHRA,M,M,M,M,M,M,M,ZGSZ 162200Z 03005MPS 9999 -SHRA FEW017 BKN050 26/25 Q1007 NOSIG
ZHCC,2020-09-16 22:00,113.6500,34.7167,69.80,55.40,60.21,340.00,5.83,0.00,29.91,M,6.21,M,M,M,M,M,M,M,M,M,M,M,M,M,M,M,M,M,ZHCC 162200Z 34003MPS CAVOK 21/13 Q1013 NOSIG
ZGNN,2020-09-16 22:00,108.2167,22.6333,78.80,77.00,94.23,90.00,3.89,0.00,29.71,M,6.21,M,M,M,M,M,M,M,M,M,M,M,M,M,M,M,M,M,ZGNN 162200Z 09002MPS CAVOK 26/25 Q1006 NOSIG
ZBAA,2020-09-16 22:00,116.5870,40.0741,64.40,39.20,39.43,310.00,7.78,0.00,29.88,M,6.21,M,M,M,M,M,M,M,M,M,M,M,M,M,M,M,M,M,ZBAA 162200Z 31004MPS CAVOK 18/04 Q1012 NOSIG
ZBHH,2020-09-16 22:00,111.6833,40.8167,33.80,30.20,86.49,90.00,3.89,0.00,30.12,M,6.21,M,M,M,M,M,M,M,M,M,M,M,M,M,M,M,M,29.65,ZBHH 162200Z 09002MPS CAVOK 01/M01 Q1020 NOSIG
ZBSJ,2020-09-16 22:00,114.6973,38.2807,57.20,46.40,67.12,290.00,5.83,0.00,29.94,M,6.21,M,M,M,M,M,M,M,M,M,M,M,M,M,M,M,M,M,ZBSJ 162200Z 29003MPS CAVOK 14/08 Q1014 NOSIG
ZBTJ,2020-09-16 22:00,117.3462,39.1243,66.20,35.60,32.14,300.00,5.83,0.00,29.85,M,6.21,M,M,M,M,M,M,M,M,M,M,M,M,M,M,M,M,M,ZBTJ 162200Z 30003MPS CAVOK 19/02 Q1011 NOSIG
ZYTL,2020-09-16 22:00,121.6333,38.9000,69.80,50.00,49.37,290.00,9.72,0.00,29.77,M,6.21,M,M,M,M,M,M,M,M,M,M,M,M,M,M,M,M,M,ZYTL 162200Z 29005MPS CAVOK 21/10 Q1008 NOSIG
ZYTX,2020-09-16 22:00,123.4000,41.8000,57.20,46.40,67.12,220.00,7.78,0.00,29.68,M,6.21,M,BKN,M,M,M,4000.00,M,M,M,M,M,M,M,M,M,M,M,ZYTX 162200Z 22004MPS 9999 BKN040 14/08 Q1005 NOSIG
ZLLL,2020-09-16 22:00,103.7500,36.0200,53.60,32.00,43.61,260.00,13.61,0.00,30.27,M,6.21,M,M,M,M,M,M,M,M,M,M,M,M,M,M,M,M,M,ZLLL 162200Z 26007MPS CAVOK 12/00 Q1025 BECMG TL2340 33002MPS
ZLXY,2020-09-16 22:00,108.7516,34.4471,60.80,57.20,87.92,M,1.94,0.00,30.03,M,6.21,M,M,M,M,M,M,M,M,M,M,M,M,M,M,M,M,M,ZLXY 162200Z VRB01MPS CAVOK 16/14 Q1017 NOSIG
ZMUB,2020-09-16 22:00,106.7666,47.8431,26.60,24.80,92.80,M,1.94,0.00,30.12,M,6.21,M,M,M,M,M,M,M,M,M,M,M,M,M,M,M,M,M,ZMUB 162200Z VRB01MPS CAVOK M03/M04 Q1020 NOSIG RMK QFE657.1 90
ZSAM,2020-09-16 22:00,118.0833,24.4833,80.60,78.80,94.27,20.00,3.89,0.00,29.80,M,2.80,M,NSC,M,M,M,M,M,M,M,BR,M,M,M,M,M,M,89.33,ZSAM 162200Z 02002MPS 4500 BR NSC 27/26 Q1009 NOSIG
ZPPP,2020-09-16 22:00,102.6833,25.0167,62.60,62.60,100.00,210.00,3.89,0.00,30.09,M,6.21,M,SCT,SCT,M,M,1000.00,4000.00,M,M,M,M,M,M,M,M,M,M,ZPPP 162200Z 21002MPS 9999 SCT010 SCT040 17/17 Q1019 NOSIG
ZSFZ,2020-09-16 22:00,119.2833,26.0833,78.80,77.00,94.23,330.00,1.94,0.00,29.80,M,2.49,M,FEW,M,M,M,1000.00,M,M,M,BR,M,M,M,M,M,M,M,ZSFZ 162200Z 33001MPS 4000 BR FEW010 26/25 Q1009 NOSIG
ZSHC,2020-09-16 22:00,120.1667,30.2333,73.40,73.40,100.00,360.00,5.83,0.00,29.80,M,4.97,M,FEW,BKN,BKN,M,400.00,1100.00,2600.00,M,M,M,M,M,M,M,M,M,ZSHC 162200Z 36003MPS 330V030 8000 FEW004 BKN011 BKN026 23/23 Q1009 RESHRA NOSIG
ZSNB,2020-09-16 22:00,121.4619,29.8267,77.00,75.20,94.19,M,1.94,0.00,29.77,M,2.49,M,SCT,M,M,M,3000.00,M,M,M,BR,M,M,M,M,M,M,M,ZSNB 162200Z VRB01MPS 4000 BR SCT030 25/24 Q1008 NOSIG
ZSOF,2020-09-16 22:00,117.2984,31.7800,64.40,62.60,93.88,M,1.94,0.00,29.88,M,3.11,M,BKN,OVC,M,M,400.00,3300.00,M,M,-RA BR,M,M,M,M,M,M,M,ZSOF 162200Z VRB01MPS 5000 -RA BR BKN004 OVC033 18/17 Q1012 BECMG AT0000 BKN020
ZSQD,2020-09-16 22:00,120.3333,36.0667,62.60,57.20,82.50,M,1.94,0.00,29.85,M,6.21,M,M,M,M,M,M,M,M,M,M,M,M,M,M,M,M,M,ZSQD 162200Z VRB01MPS CAVOK 17/14 Q1011 NOSIG
ZSSS,2020-09-16 22:00,121.3363,31.1979,71.60,69.80,94.06,30.00,11.66,0.00,29.83,M,2.49,M,BKN,M,M,M,700.00,M,M,M,-RA BR,M,M,M,M,M,M,M,ZSSS 162200Z 03006MPS 4000 -RA BR BKN007 22/21 Q1010 RERA NOSIG
ZUCK,2020-09-16 22:00,106.4800,29.5200,66.20,64.40,93.92,20.00,11.66,0.00,29.91,M,3.73,M,FEW,SCT,OVC,M,500.00,2000.00,4000.00,M,-RA,M,M,M,M,M,M,M,ZUCK 162200Z 02006MPS 6000 -RA FEW005 SCT020 OVC040 19/18 Q1013 BECMG TL2310 RA
ZSNJ,2020-09-16 22:00,118.8667,31.7333,68.00,68.00,100.00,M,1.94,0.00,29.85,M,3.73,M,FEW,M,M,M,3300.00,M,M,M,-RA,M,M,M,M,M,M,M,ZSNJ 162200Z VRB01MPS 6000 -RA FEW033 20/20 Q1011 NOSIG
ZSPD,2020-09-16 22:00,121.7667,31.1167,73.40,71.60,94.10,350.00,7.78,0.00,29.80,M,1.86,17.49,BKN,M,M,M,600.00,M,M,M,+SHRA BR,M,M,M,M,M,M,M,ZSPD 162200Z 35004G09MPS 3000 +SHRA BR BKN006 23/22 Q1009 BECMG TL2330 -SHRA
ZUUU,2020-09-16 22:00,104.0167,30.6667,66.20,66.20,100.00,260.00,3.89,0.00,30.00,M,4.97,M,SCT,M,M,M,3300.00,M,M,M,-SHRA,M,M,M,M,M,M,M,ZUUU 162200Z 26002MPS 230V300 8000 -SHRA SCT033 19/19 Q1016 NOSIG
ZWWW,2020-09-16 22:00,87.4742,43.9071,64.40,37.40,36.74,M,1.94,0.00,29.91,M,6.21,M,M,M,M,M,M,M,M,M,M,M,M,M,M,M,M,M,ZWWW 162200Z VRB01MPS CAVOK 18/03 Q1013 NOSIG
ZYCC,2020-09-16 22:00,125.2167,43.9000,55.40,44.60,66.91,200.00,7.78,0.00,29.53,M,6.21,M,M,M,M,M,M,M,M,M,M,M,M,M,M,M,M,M,ZYCC 162200Z 20004MPS CAVOK 13/07 Q1000 NOSIG
ZYHB,2020-09-16 22:00,126.5800,46.0200,55.40,53.60,93.65,140.00,3.89,0.00,29.50,M,6.21,M,M,M,M,M,M,M,M,M,M,M,M,M,M,M,M,M,ZYHB 162200Z 14002MPS 110V180 CAVOK 13/12 Q0999 NOSIG
ZWSH,2020-09-16 22:00,75.9833,39.4667,68.00,44.60,42.85,300.00,3.89,0.00,30.00,M,6.21,M,FEW,M,M,M,4000.00,M,M,M,M,M,M,M,M,M,M,M,ZWSH 162200Z 30002MPS 9999 FEW040 20/07 Q1016 NOSIG
ZBAD,2020-09-16 22:00,116.4106,39.5092,60.80,41.00,48.00,280.00,7.78,0.00,29.88,M,6.21,M,M,M,M,M,M,M,M,M,M,M,M,M,M,M,M,M,ZBAD 162200Z 28004MPS CAVOK 16/05 Q1012 NOSIG
ZBYN,2020-09-16 22:30,112.5500,37.7833,48.20,42.80,81.47,M,1.94,0.00,30.06,M,6.21,M,M,M,M,M,M,M,M,M,M,M,M,M,M,M,M,M,ZBYN 162230Z VRB01MPS CAVOK 09/06 Q1018 NOSIG
ZGGG,2020-09-16 22:30,113.3008,23.3964,77.00,73.40,88.67,60.00,3.89,0.00,29.74,M,4.35,M,NSC,M,M,M,M,M,M,M,M,M,M,M,M,M,M,M,ZGGG 162230Z 06002MPS 7000 NSC 25/23 Q1007 NOSIG
ZBAA,2020-09-16 22:30,116.5870,40.0741,66.20,37.40,34.51,300.00,9.72,0.00,29.88,M,6.21,M,M,M,M,M,M,M,M,M,M,M,M,M,M,M,M,M,ZBAA 162230Z 30005MPS CAVOK 19/03 Q1012 NOSIG
ZBTJ,2020-09-16 22:30,117.3462,39.1243,66.20,37.40,34.51,290.00,5.83,0.00,29.88,M,6.21,M,M,M,M,M,M,M,M,M,M,M,M,M,M,M,M,M,ZBTJ 162230Z 29003MPS CAVOK 19/03 Q1012 NOSIG
ZYTL,2020-09-16 22:30,121.6333,38.9000,68.00,50.00,52.51,270.00,9.72,0.00,29.77,M,6.21,M,M,M,M,M,M,M,M,M,M,M,M,M,M,M,M,M,ZYTL 162230Z 27005MPS CAVOK 20/10 Q1008 NOSIG
ZYTX,2020-09-16 22:30,123.4000,41.8000,57.20,46.40,67.12,230.00,5.83,0.00,29.68,M,6.21,M,BKN,M,M,M,4000.00,M,M,M,M,M,M,M,M,M,M,M,ZYTX 162230Z 23003MPS 9999 BKN040 14/08 Q1005 NOSIG
ZMUB,2020-09-16 22:30,106.7666,47.8431,26.60,24.80,92.80,M,1.94,0.00,30.12,M,6.21,M,M,M,M,M,M,M,M,M,M,M,M,M,M,M,M,M,ZMUB 162230Z VRB01MPS CAVOK M03/M04 Q1020 NOSIG RMK QFE657.1 90
ZSHC,2020-09-16 22:30,120.1667,30.2333,73.40,71.60,94.10,350.00,3.89,0.00,29.80,M,3.73,M,BKN,BKN,FEW,M,700.00,2300.00,3300.00,M,-SHRA,M,M,M,M,M,M,M,ZSHC 162230Z 35002MPS 320V040 6000 -SHRA BKN007 BKN023 FEW033TCU 23/22 Q1009 NOSIG
ZSSS,2020-09-16 22:30,121.3363,31.1979,69.80,68.00,94.01,30.00,11.66,0.00,29.83,M,6.21,M,BKN,M,M,M,900.00,M,M,M,-RA,M,M,M,M,M,M,M,ZSSS 162230Z 03006MPS 9999 -RA BKN009 21/20 Q1010 NOSIG
ZSPD,2020-09-16 22:30,121.7667,31.1167,69.80,69.80,100.00,360.00,17.49,0.00,29.83,M,1.43,M,BKN,M,M,M,500.00,M,M,M,+SHRA BR,M,M,M,M,M,M,M,ZSPD 162230Z 36009MPS 2300 +SHRA BR BKN005 21/21 Q1010 NOSIG
ZWWW,2020-09-16 22:30,87.4742,43.9071,62.60,37.40,39.14,240.00,3.89,0.00,29.91,M,6.21,M,M,M,M,M,M,M,M,M,M,M,M,M,M,M,M,M,ZWWW 162230Z 24002MPS CAVOK 17/03 Q1013 NOSIG
ZBAD,2020-09-16 22:30,116.4106,39.5092,60.80,42.80,51.45,280.00,5.83,0.00,29.88,M,6.21,M,M,M,M,M,M,M,M,M,M,M,M,M,M,M,M,M,ZBAD 162230Z 28003MPS CAVOK 16/06 Q1012 NOSIG
ZGHA,2020-09-16 23:00,112.8667,28.2333,68.00,66.20,93.97,330.00,7.78,0.00,29.85,M,6.21,M,BKN,OVC,M,M,700.00,5000.00,M,M,-SHRA,M,M,M,M,M,M,M,ZGHA 162300Z 33004MPS 9999 -SHRA BKN007 OVC050 20/19 Q1011 BECMG TL2330 SHRA
ZBYN,2020-09-16 23:00,112.5500,37.7833,48.20,42.80,81.47,0.00,0.00,0.00,30.06,M,6.21,M,M,M,M,M,M,M,M,M,M,M,M,M,M,M,M,M,ZBYN 162300Z 00000MPS CAVOK 09/06 Q1018 NOSIG
ZGGG,2020-09-16 23:00,113.3008,23.3964,77.00,73.40,88.67,100.00,3.89,0.00,29.74,M,3.73,M,SCT,M,M,M,4000.00,M,M,M,M,M,M,M,M,M,M,M,ZGGG 162300Z 10002MPS 6000 SCT040 25/23 Q1007 NOSIG
ZGKL,2020-09-16 23:00,110.3000,25.3333,77.00,75.20,94.19,360.00,3.89,0.00,29.77,M,2.80,M,FEW,M,M,M,2000.00,M,M,M,BR,M,M,M,M,M,M,M,ZGKL 162300Z 36002MPS 4500 BR FEW020 25/24 Q1008 NOSIG
ZGOW,2020-09-16 23:00,116.6833,23.4000,82.40,75.20,78.90,90.00,3.89,0.00,29.77,M,6.21,M,SCT,M,M,M,3000.00,M,M,M,M,M,M,M,M,M,M,89.48,ZGOW 162300Z 09002MPS 060V120 9999 SCT030 28/24 Q1008 NOSIG
ZHHH,2020-09-16 23:00,114.1300,30.6200,66.20,62.60,88.18,40.00,5.83,0.00,29.91,M,6.21,M,SCT,M,M,M,1000.00,M,M,M,-RA,M,M,M,M,M,M,M,ZHHH 162300Z 04003MPS 9999 -RA SCT010 19/17 Q1013 NOSIG
ZJHK,2020-09-16 23:00,110.4590,19.9349,82.40,78.80,88.90,40.00,5.83,0.00,29.65,M,6.21,M,M,M,M,M,M,M,M,M,M,M,M,M,M,M,M,92.76,ZJHK 162300Z 04003MPS 010V080 CAVOK 28/26 Q1004 NOSIG
ZJSY,2020-09-16 23:00,109.4123,18.3029,80.60,77.00,88.83,340.00,3.89,0.00,29.62,M,6.21,M,SCT,M,M,M,5000.00,M,M,M,M,M,M,M,M,M,M,87.59,ZJSY 162300Z 34002MPS 9999 SCT050 27/25 Q1003 NOSIG
ZUGY,2020-09-16 23:00,106.7333,26.5833,62.60,62.60,100.00,30.00,5.83,0.00,29.97,M,2.49,M,SCT,BKN,FEW,OVC,400.00,1300.00,2600.00,3000.00,-SHRA BR,M,M,M,M,M,M,M,ZUGY 162300Z 03003MPS 4000 -SHRA BR SCT004 BKN013 FEW026CB OVC030 17/17 Q1015 BECMG TL0030 FEW004 BKN015 OVC030
ZGSZ,2020-09-16 23:00,114.1000,22.5500,80.60,77.00,88.83,40.00,7.78,0.00,29.74,M,6.21,M,SCT,M,M,M,5300.00,M,M,M,M,M,M,M,M,M,M,87.59,ZGSZ 162300Z 04004MPS 9999 SCT053 27/25 Q1007 BECMG AT2350 TSRA
ZHCC,2020-09-16 23:00,113.6500,34.7167,71.60,55.40,56.63,330.00,7.78,0.00,29.94,M,6.21,M,M,M,M,M,M,M,M,M,M,M,M,M,M,M,M,M,ZHCC 162300Z 33004MPS CAVOK 22/13 Q1014 NOSIG
ZGNN,2020-09-16 23:00,108.2167,22.6333,78.80,77.00,94.23,30.00,3.89,0.00,29.74,M,6.21,M,M,M,M,M,M,M,M,M,M,M,M,M,M,M,M,M,ZGNN 162300Z 03002MPS CAVOK 26/25 Q1007 NOSIG
ZBAA,2020-09-16 23:00,116.5870,40.0741,66.20,39.20,37.03,300.00,7.78,0.00,29.88,M,6.21,M,M,M,M,M,M,M,M,M,M,M,M,M,M,M,M,M,ZBAA 162300Z 30004MPS 270V330 CAVOK 19/04 Q1012 NOSIG
ZBHH,2020-09-16 23:00,111.6833,40.8167,35.60,32.00,86.59,70.00,3.89,0.00,30.12,M,6.21,M,M,M,M,M,M,M,M,M,M,M,M,M,M,M,M,31.74,ZBHH 162300Z 07002MPS CAVOK 02/00 Q1020 NOSIG
ZBSJ,2020-09-16 23:00,114.6973,38.2807,60.80,44.60,55.12,310.00,7.78,0.00,29.94,M,6.21,M,M,M,M,M,M,M,M,M,M,M,M,M,M,M,M,M,ZBSJ 162300Z 31004MPS CAVOK 16/07 Q1014 NOSIG
ZBTJ,2020-09-16 23:00,117.3462,39.1243,68.00,37.40,32.43,300.00,3.89,0.00,29.88,M,6.21,M,M,M,M,M,M,M,M,M,M,M,M,M,M,M,M,M,ZBTJ 162300Z 30002MPS CAVOK 20/03 Q1012 NOSIG
ZYTL,2020-09-16 23:00,121.6333,38.9000,69.80,51.80,52.77,270.00,9.72,0.00,29.77,M,6.21,M,M,M,M,M,M,M,M,M,M,M,M,M,M,M,M,M,ZYTL 162300Z 27005MPS CAVOK 21/11 Q1008 NOSIG
ZYTX,2020-09-16 23:00,123.4000,41.8000,59.00,46.40,62.92,240.00,7.78,0.00,29.68,M,6.21,M,M,M,M,M,M,M,M,M,M,M,M,M,M,M,M,M,ZYTX 162300Z 24004MPS CAVOK 15/08 Q1005 NOSIG
ZLLL,2020-09-16 23:00,103.7500,36.0200,51.80,33.80,50.08,250.00,13.61,0.00,30.27,M,6.21,M,SCT,M,M,M,4600.00,M,M,M,M,M,M,M,M,M,M,M,ZLLL 162300Z 25007MPS 9999 SCT046 11/01 Q1025 BECMG TL0040 34002MPS
ZLXY,2020-09-16 23:00,108.7516,34.4471,60.80,59.00,93.79,310.00,3.89,0.00,30.06,M,6.21,M,SCT,M,M,M,7000.00,M,M,M,M,M,M,M,M,M,M,M,ZLXY 162300Z 31002MPS 9999 SCT070 16/15 Q1018 NOSIG
ZMUB,2020-09-16 23:00,106.7666,47.8431,26.60,24.80,92.80,M,3.89,0.00,30.12,M,6.21,M,FEW,M,M,M,3300.00,M,M,M,M,M,M,M,M,M,M,21.26,ZMUB 162300Z VRB02MPS 9999 FEW033 M03/M04 Q1020 NOSIG RMK QFE657.1 91 MOP
ZSAM,2020-09-16 23:00,118.0833,24.4833,82.40,78.80,88.90,50.00,1.94,0.00,29.80,M,3.11,M,NSC,M,M,M,M,M,M,M,BR,M,M,M,M,M,M,92.76,ZSAM 162300Z 05001MPS 5000 BR NSC 28/26 Q1009 NOSIG
ZPPP,2020-09-16 23:00,102.6833,25.0167,62.60,62.60,100.00,210.00,5.83,0.00,30.09,M,6.21,M,SCT,BKN,M,M,1600.00,3600.00,M,M,M,M,M,M,M,M,M,M,ZPPP 162300Z 21003MPS 9999 SCT016 BKN036 17/17 Q1019 NOSIG
ZSFZ,2020-09-16 23:00,119.2833,26.0833,82.40,77.00,83.77,0.00,0.00,0.00,29.80,M,3.11,M,FEW,M,M,M,1000.00,M,M,M,BR,M,M,M,M,M,M,90.85,ZSFZ 162300Z 00000MPS 5000 BR FEW010 28/25 Q1009 NOSIG
ZSHC,2020-09-16 23:00,120.1667,30.2333,73.40,73.40,100.00,350.00,5.83,0.00,29.80,M,2.49,M,BKN,BKN,FEW,M,700.00,2300.00,3300.00,M,-SHRA BR,M,M,M,M,M,M,M,ZSHC 162300Z 35003MPS 310V030 4000 -SHRA BR BKN007 BKN023 FEW033TCU 23/23 Q1009 NOSIG
ZSNB,2020-09-16 23:00,121.4619,29.8267,77.00,75.20,94.19,M,1.94,0.00,29.80,M,2.17,M,SCT,M,M,M,2300.00,M,M,M,-RA BR,M,M,M,M,M,M,M,ZSNB 162300Z VRB01MPS 3500 -RA BR SCT023 25/24 Q1009 NOSIG
ZSOF,2020-09-16 23:00,117.2984,31.7800,64.40,62.60,93.88,M,1.94,0.00,29.91,M,3.11,M,NSC,M,M,M,M,M,M,M,-RA BR,M,M,M,M,M,M,M,ZSOF 162300Z VRB01MPS 5000 -RA BR NSC 18/17 Q1013 NOSIG
ZSQD,2020-09-16 23:00,120.3333,36.0667,66.20,60.80,82.74,M,1.94,0.00,29.88,M,6.21,M,M,M,M,M,M,M,M,M,M,M,M,M,M,M,M,M,ZSQD 162300Z VRB01MPS CAVOK 19/16 Q1012 NOSIG
ZSSS,2020-09-16 23:00,121.3363,31.1979,71.60,68.00,88.43,30.00,11.66,0.00,29.83,M,6.21,M,BKN,M,M,M,900.00,M,M,M,M,M,M,M,M,M,M,M,ZSSS 162300Z 03006MPS 9999 BKN009 22/20 Q1010 BECMG TL2350 BKN011
ZUCK,2020-09-16 23:00,106.4800,29.5200,64.40,64.40,100.00,20.00,13.61,0.00,29.91,M,4.35,M,FEW,SCT,OVC,M,500.00,3000.00,5000.00,M,RA,M,M,M,M,M,M,M,ZUCK 162300Z 02007MPS 7000 RA FEW005 SCT030 OVC050 18/18 Q1013 BECMG TL0010 -RA
ZSNJ,2020-09-16 23:00,118.8667,31.7333,68.00,68.00,100.00,M,1.94,0.00,29.88,M,3.11,M,SCT,M,M,M,3300.00,M,M,M,-RA BR,M,M,M,M,M,M,M,ZSNJ 162300Z VRB01MPS 5000 -RA BR SCT033 20/20 Q1012 NOSIG
ZSPD,2020-09-16 23:00,121.7667,31.1167,69.80,68.00,94.01,10.00,15.55,0.00,29.83,M,3.11,27.21,BKN,M,M,M,700.00,M,M,M,-SHRA BR,M,M,M,M,M,M,M,ZSPD 162300Z 01008G14MPS 5000 -SHRA BR BKN007 21/20 Q1010 RESHRA BECMG TL0030 BKN010
ZUUU,2020-09-16 23:00,104.0167,30.6667,66.20,66.20,100.00,0.00,0.00,0.00,30.03,M,3.11,M,SCT,M,M,M,5000.00,M,M,M,BR,M,M,M,M,M,M,M,ZUUU 162300Z 00000MPS 5000 BR SCT050 19/19 Q1017 NOSIG
ZWWW,2020-09-16 23:00,87.4742,43.9071,60.80,37.40,41.71,210.00,3.89,0.00,29.88,M,6.21,M,M,M,M,M,M,M,M,M,M,M,M,M,M,M,M,M,ZWWW 162300Z 21002MPS CAVOK 16/03 Q1012 NOSIG
ZYCC,2020-09-16 23:00,125.2167,43.9000,57.20,44.60,62.69,210.00,13.61,0.00,29.53,M,6.21,M,FEW,M,M,M,3300.00,M,M,M,M,M,M,M,M,M,M,M,ZYCC 162300Z 21007MPS 9999 FEW033 14/07 Q1000 NOSIG
ZYHB,2020-09-16 23:00,126.5800,46.0200,57.20,51.80,82.12,180.00,7.78,0.00,29.50,M,6.21,M,M,M,M,M,M,M,M,M,M,M,M,M,M,M,M,M,ZYHB 162300Z 18004MPS CAVOK 14/11 Q0999 NOSIG
ZWSH,2020-09-16 23:00,75.9833,39.4667,68.00,42.80,40.00,M,3.89,0.00,30.00,M,6.21,M,FEW,M,M,M,4000.00,M,M,M,M,M,M,M,M,M,M,M,ZWSH 162300Z VRB02MPS 9999 FEW040 20/06 Q1016 NOSIG
ZBAD,2020-09-16 23:00,116.4106,39.5092,62.60,44.60,51.72,270.00,3.89,0.00,29.88,M,6.21,M,M,M,M,M,M,M,M,M,M,M,M,M,M,M,M,M,ZBAD 162300Z 27002MPS CAVOK 17/07 Q1012 NOSIG
ZBYN,2020-09-16 23:30,112.5500,37.7833,51.80,46.40,81.74,150.00,1.94,0.00,30.09,M,6.21,M,M,M,M,M,M,M,M,M,M,M,M,M,M,M,M,M,ZBYN 162330Z 15001MPS CAVOK 11/08 Q1019 NOSIG
ZGGG,2020-09-16 23:30,113.3008,23.3964,77.00,73.40,88.67,80.00,5.83,0.00,29.74,M,3.73,M,BKN,M,M,M,5600.00,M,M,M,M,M,M,M,M,M,M,M,ZGGG 162330Z 08003MPS 6000 BKN056 25/23 Q1007 NOSIG
ZBAA,2020-09-16 23:30,116.5870,40.0741,68.00,39.20,34.80,300.00,9.72,0.00,29.88,M,6.21,M,M,M,M,M,M,M,M,M,M,M,M,M,M,M,M,M,ZBAA 162330Z 30005MPS CAVOK 20/04 Q1012 NOSIG
ZBTJ,2020-09-16 23:30,117.3462,39.1243,68.00,39.20,34.80,300.00,5.83,0.00,29.88,M,6.21,M,M,M,M,M,M,M,M,M,M,M,M,M,M,M,M,M,ZBTJ 162330Z 30003MPS 260V330 CAVOK 20/04 Q1012 NOSIG
ZYTL,2020-09-16 23:30,121.6333,38.9000,71.60,51.80,49.64,280.00,7.78,0.00,29.77,M,6.21,M,M,M,M,M,M,M,M,M,M,M,M,M,M,M,M,M,ZYTL 162330Z 28004MPS CAVOK 22/11 Q1008 NOSIG
ZYTX,2020-09-16 23:30,123.4000,41.8000,62.60,48.20,59.26,240.00,5.83,0.00,29.68,M,6.21,M,M,M,M,M,M,M,M,M,M,M,M,M,M,M,M,M,ZYTX 162330Z 24003MPS CAVOK 17/09 Q1005 NOSIG
ZMUB,2020-09-16 23:30,106.7666,47.8431,28.40,26.60,92.86,0.00,0.00,0.00,30.12,M,6.21,M,FEW,M,M,M,3300.00,M,M,M,M,M,M,M,M,M,M,M,ZMUB 162330Z 00000MPS 9999 FEW033 M02/M03 Q1020 NOSIG RMK QFE657.1 92 MOP
ZSHC,2020-09-16 23:30,120.1667,30.2333,73.40,73.40,100.00,310.00,5.83,0.00,29.80,M,1.74,M,BKN,BKN,FEW,M,700.00,2300.00,3300.00,M,-SHRA BR,M,M,M,M,M,M,M,ZSHC 162330Z 31003MPS 260V040 2800 -SHRA BR BKN007 BKN023 FEW033TCU 23/23 Q1009 RESHRA BECMG TL0030 3000
ZSSS,2020-09-16 23:30,121.3363,31.1979,71.60,68.00,88.43,40.00,11.66,0.00,29.83,M,6.21,M,BKN,M,M,M,1100.00,M,M,M,M,M,M,M,M,M,M,M,ZSSS 162330Z 04006MPS 9999 BKN011 22/20 Q1010 NOSIG
ZSPD,2020-09-16 23:30,121.7667,31.1167,71.60,69.80,94.06,20.00,15.55,0.00,29.83,M,4.97,M,BKN,M,M,M,900.00,M,M,M,-SHRA,M,M,M,M,M,M,M,ZSPD 162330Z 02008MPS 8000 -SHRA BKN009 22/21 Q1010 NOSIG
ZWWW,2020-09-16 23:30,87.4742,43.9071,62.60,37.40,39.14,M,1.94,0.00,29.91,M,6.21,M,M,M,M,M,M,M,M,M,M,M,M,M,M,M,M,M,ZWWW 162330Z VRB01MPS CAVOK 17/03 Q1013 NOSIG
ZBAD,2020-09-16 23:30,116.4106,39.5092,66.20,46.40,48.83,240.00,3.89,0.00,29.88,M,6.21,M,M,M,M,M,M,M,M,M,M,M,M,M,M,M,M,M,ZBAD 162330Z 24002MPS CAVOK 19/08 Q1012 NOSIG
